{
"type": "FeatureCollection",
"name": "annamayya_buildings",
"crs": { "type": "name", "properties": { "name": "urn:ogc:def:crs:OGC:1.3:CRS84" } },
"features": [
{ "type": "Feature", "properties": { }, "geometry": { "type": "Polygon", "coordinates": [ [ [ 79.1349594, 14.1749246 ], [ 79.1365195, 14.1750494 ], [ 79.1365019, 14.1754445 ], [ 79.1367867, 14.1763313 ], [ 79.1357102, 14.1762708 ], [ 79.1349633, 14.1757357 ], [ 79.1349594, 14.1749246 ] ] ] } },
{ "type": "Feature", "properties": { }, "geometry": { "type": "Polygon", "coordinates": [ [ [ 79.1606899, 14.1771865 ], [ 79.1608937, 14.1766554 ], [ 79.1597262, 14.1765426 ], [ 79.1596701, 14.177088 ], [ 79.1606899, 14.1771865 ] ] ] } },
{ "type": "Feature", "properties": { }, "geometry": { "type": "Polygon", "coordinates": [ [ [ 79.1146109, 14.2541124 ], [ 79.1148694, 14.2541662 ], [ 79.1148434, 14.2543012 ], [ 79.1145908, 14.2542486 ], [ 79.1146109, 14.2541124 ] ] ] } },
{ "type": "Feature", "properties": { }, "geometry": { "type": "Polygon", "coordinates": [ [ [ 79.1633243, 14.1946315 ], [ 79.1635875, 14.1946094 ], [ 79.1635751, 14.1944104 ], [ 79.1633139, 14.1944285 ], [ 79.1633243, 14.1946315 ] ] ] } },
{ "type": "Feature", "properties": { }, "geometry": { "type": "Polygon", "coordinates": [ [ [ 79.1636414, 14.196742 ], [ 79.1637396, 14.1967746 ], [ 79.1639566, 14.1961083 ], [ 79.1638662, 14.1960832 ], [ 79.1636414, 14.196742 ] ] ] } },
{ "type": "Feature", "properties": { }, "geometry": { "type": "Polygon", "coordinates": [ [ [ 79.1679468, 14.1844321 ], [ 79.1682908, 14.1844583 ], [ 79.1683074, 14.1843739 ], [ 79.1679551, 14.1843437 ], [ 79.1679468, 14.1844321 ] ] ] } },
{ "type": "Feature", "properties": { }, "geometry": { "type": "Polygon", "coordinates": [ [ [ 79.1407488, 14.2187241 ], [ 79.1409241, 14.2188468 ], [ 79.1412034, 14.21851 ], [ 79.1410183, 14.2183746 ], [ 79.1407488, 14.2187241 ] ] ] } },
{ "type": "Feature", "properties": { }, "geometry": { "type": "Polygon", "coordinates": [ [ [ 79.1570571, 14.2000411 ], [ 79.1570534, 14.1998831 ], [ 79.1568085, 14.1998884 ], [ 79.156811, 14.1999956 ], [ 79.1569137, 14.1999934 ], [ 79.1569167, 14.2001218 ], [ 79.1568463, 14.2001233 ], [ 79.1568492, 14.2002506 ], [ 79.157005, 14.2002459 ], [ 79.1570043, 14.2002128 ], [ 79.15714, 14.2002098 ], [ 79.1571376, 14.2001064 ], [ 79.1572067, 14.2001049 ], [ 79.1572086, 14.2001886 ], [ 79.1573232, 14.2001861 ], [ 79.1573218, 14.2001294 ], [ 79.1573564, 14.2001286 ], [ 79.1573552, 14.2000768 ], [ 79.1573222, 14.2000776 ], [ 79.1573212, 14.2000353 ], [ 79.1570571, 14.2000411 ] ] ] } },
{ "type": "Feature", "properties": { }, "geometry": { "type": "Polygon", "coordinates": [ [ [ 79.2116133, 14.1205016 ], [ 79.2116529, 14.1205027 ], [ 79.211654, 14.1204647 ], [ 79.2116894, 14.1204657 ], [ 79.2116933, 14.1203296 ], [ 79.2116183, 14.1203275 ], [ 79.2116174, 14.1203593 ], [ 79.2116012, 14.1203588 ], [ 79.2116, 14.1204012 ], [ 79.2116162, 14.1204016 ], [ 79.2116133, 14.1205016 ] ] ] } },
{ "type": "Feature", "properties": { }, "geometry": { "type": "Polygon", "coordinates": [ [ [ 79.2671057, 14.3031892 ], [ 79.2670468, 14.3031901 ], [ 79.2670481, 14.3032728 ], [ 79.2671987, 14.3032705 ], [ 79.2671974, 14.3031878 ], [ 79.2671392, 14.3031887 ], [ 79.2671389, 14.3031699 ], [ 79.26718, 14.3031681 ], [ 79.267178, 14.3031233 ], [ 79.2671545, 14.3031243 ], [ 79.2671544, 14.303109 ], [ 79.2671643, 14.3031087 ], [ 79.2671595, 14.3029503 ], [ 79.2670597, 14.3029531 ], [ 79.2670644, 14.3031115 ], [ 79.2670727, 14.3031113 ], [ 79.2670744, 14.3031726 ], [ 79.2671055, 14.3031713 ], [ 79.2671057, 14.3031892 ] ] ] } },
{ "type": "Feature", "properties": { }, "geometry": { "type": "Polygon", "coordinates": [ [ [ 79.114921, 14.2675819 ], [ 79.1149809, 14.2676133 ], [ 79.1150618, 14.2674684 ], [ 79.1149398, 14.2674044 ], [ 79.1148589, 14.2675493 ], [ 79.1148923, 14.2675668 ], [ 79.1148817, 14.2675831 ], [ 79.1148428, 14.2675649 ], [ 79.1148036, 14.267635 ], [ 79.114926, 14.2676992 ], [ 79.1149652, 14.267629 ], [ 79.1149092, 14.2676 ], [ 79.114921, 14.2675819 ] ] ] } },
{ "type": "Feature", "properties": { }, "geometry": { "type": "Polygon", "coordinates": [ [ [ 79.0853531, 14.2040634 ], [ 79.0857483, 14.2040651 ], [ 79.0857495, 14.203808 ], [ 79.0853543, 14.2038063 ], [ 79.0853531, 14.2040634 ] ] ] } },
{ "type": "Feature", "properties": { }, "geometry": { "type": "Polygon", "coordinates": [ [ [ 79.05304, 14.3516999 ], [ 79.0533828, 14.3512866 ], [ 79.0536, 14.3514463 ], [ 79.0533802, 14.3518393 ], [ 79.05304, 14.3516999 ] ] ] } },
{ "type": "Feature", "properties": { }, "geometry": { "type": "Polygon", "coordinates": [ [ [ 79.1623014, 14.1959289 ], [ 79.1626676, 14.196079 ], [ 79.1627204, 14.1959581 ], [ 79.1623542, 14.1958079 ], [ 79.1623014, 14.1959289 ] ] ] } },
{ "type": "Feature", "properties": { }, "geometry": { "type": "Polygon", "coordinates": [ [ [ 79.1611719, 14.1950759 ], [ 79.161235, 14.1950781 ], [ 79.1612417, 14.1948974 ], [ 79.1611786, 14.1948952 ], [ 79.1611719, 14.1950759 ] ] ] } },
{ "type": "Feature", "properties": { }, "geometry": { "type": "Polygon", "coordinates": [ [ [ 79.160156, 14.1960465 ], [ 79.1602044, 14.1960453 ], [ 79.160201, 14.1959133 ], [ 79.1601527, 14.1959145 ], [ 79.160156, 14.1960465 ] ] ] } },
{ "type": "Feature", "properties": { }, "geometry": { "type": "Polygon", "coordinates": [ [ [ 79.1625237, 14.1951045 ], [ 79.1625783, 14.1951075 ], [ 79.1625864, 14.194971 ], [ 79.1625318, 14.194968 ], [ 79.1625237, 14.1951045 ] ] ] } },
{ "type": "Feature", "properties": { }, "geometry": { "type": "Polygon", "coordinates": [ [ [ 79.1614329, 14.1943433 ], [ 79.1614432, 14.1943847 ], [ 79.1615644, 14.1943564 ], [ 79.1615542, 14.194315 ], [ 79.1614329, 14.1943433 ] ] ] } },
{ "type": "Feature", "properties": { }, "geometry": { "type": "Polygon", "coordinates": [ [ [ 79.1568241, 14.1969039 ], [ 79.156937, 14.1968841 ], [ 79.1568981, 14.196676 ], [ 79.1567852, 14.1966959 ], [ 79.1568241, 14.1969039 ] ] ] } },
{ "type": "Feature", "properties": { }, "geometry": { "type": "Polygon", "coordinates": [ [ [ 79.1596149, 14.1943101 ], [ 79.1596461, 14.1943704 ], [ 79.1599076, 14.1942429 ], [ 79.1598764, 14.1941827 ], [ 79.1596149, 14.1943101 ] ] ] } },
{ "type": "Feature", "properties": { }, "geometry": { "type": "Polygon", "coordinates": [ [ [ 79.1583651, 14.19232 ], [ 79.1583777, 14.1923529 ], [ 79.1586298, 14.1922618 ], [ 79.1585839, 14.1921422 ], [ 79.1585343, 14.1921601 ], [ 79.1585676, 14.1922469 ], [ 79.1583651, 14.19232 ] ] ] } },
{ "type": "Feature", "properties": { }, "geometry": { "type": "Polygon", "coordinates": [ [ [ 79.1606911, 14.1958911 ], [ 79.1607315, 14.1958922 ], [ 79.1607362, 14.1957277 ], [ 79.1606958, 14.1957266 ], [ 79.1606911, 14.1958911 ] ] ] } },
{ "type": "Feature", "properties": { }, "geometry": { "type": "Polygon", "coordinates": [ [ [ 79.1616735, 14.1949218 ], [ 79.161718, 14.1949125 ], [ 79.1616798, 14.1947403 ], [ 79.1616353, 14.1947496 ], [ 79.1616735, 14.1949218 ] ] ] } },
{ "type": "Feature", "properties": { }, "geometry": { "type": "Polygon", "coordinates": [ [ [ 79.1551933, 14.1863751 ], [ 79.15523, 14.1864554 ], [ 79.1554539, 14.1863592 ], [ 79.1554172, 14.1862789 ], [ 79.1551933, 14.1863751 ] ] ] } },
{ "type": "Feature", "properties": { }, "geometry": { "type": "Polygon", "coordinates": [ [ [ 79.1335655, 14.2246468 ], [ 79.1335916, 14.2246961 ], [ 79.1337432, 14.2246207 ], [ 79.133698, 14.2245355 ], [ 79.1336009, 14.2245838 ], [ 79.1336199, 14.2246197 ], [ 79.1335655, 14.2246468 ] ] ] } },
{ "type": "Feature", "properties": { }, "geometry": { "type": "Polygon", "coordinates": [ [ [ 79.1610351, 14.194613 ], [ 79.1611079, 14.1946444 ], [ 79.1612045, 14.1944338 ], [ 79.1611317, 14.1944024 ], [ 79.1610351, 14.194613 ] ] ] } },
{ "type": "Feature", "properties": { }, "geometry": { "type": "Polygon", "coordinates": [ [ [ 79.1583113, 14.1913184 ], [ 79.1584246, 14.1915848 ], [ 79.1585775, 14.1915237 ], [ 79.1584642, 14.1912573 ], [ 79.1583113, 14.1913184 ] ] ] } },
{ "type": "Feature", "properties": { }, "geometry": { "type": "Polygon", "coordinates": [ [ [ 79.1587781, 14.1976834 ], [ 79.158883, 14.1979501 ], [ 79.159016, 14.197901 ], [ 79.1589111, 14.1976342 ], [ 79.1587781, 14.1976834 ] ] ] } },
{ "type": "Feature", "properties": { }, "geometry": { "type": "Polygon", "coordinates": [ [ [ 79.1597001, 14.1940221 ], [ 79.1597392, 14.1940992 ], [ 79.1598794, 14.1940323 ], [ 79.1598402, 14.1939552 ], [ 79.1597001, 14.1940221 ] ] ] } },
{ "type": "Feature", "properties": { }, "geometry": { "type": "Polygon", "coordinates": [ [ [ 79.1594888, 14.1940111 ], [ 79.1595231, 14.1940825 ], [ 79.1598919, 14.1939161 ], [ 79.1598576, 14.1938447 ], [ 79.1594888, 14.1940111 ] ] ] } },
{ "type": "Feature", "properties": { }, "geometry": { "type": "Polygon", "coordinates": [ [ [ 79.1592116, 14.1980654 ], [ 79.1593364, 14.1982987 ], [ 79.1594154, 14.198259 ], [ 79.1592906, 14.1980257 ], [ 79.1592116, 14.1980654 ] ] ] } },
{ "type": "Feature", "properties": { }, "geometry": { "type": "Polygon", "coordinates": [ [ [ 79.159141, 14.197536 ], [ 79.1592455, 14.1977924 ], [ 79.159327, 14.1977612 ], [ 79.1592224, 14.1975048 ], [ 79.159141, 14.197536 ] ] ] } },
{ "type": "Feature", "properties": { }, "geometry": { "type": "Polygon", "coordinates": [ [ [ 79.1615555, 14.1955953 ], [ 79.1615565, 14.1956495 ], [ 79.1617349, 14.1956462 ], [ 79.1617338, 14.1955921 ], [ 79.1615555, 14.1955953 ] ] ] } },
{ "type": "Feature", "properties": { }, "geometry": { "type": "Polygon", "coordinates": [ [ [ 79.1615253, 14.1956597 ], [ 79.1615282, 14.1957226 ], [ 79.1616804, 14.1957161 ], [ 79.1616775, 14.1956532 ], [ 79.1615253, 14.1956597 ] ] ] } },
{ "type": "Feature", "properties": { }, "geometry": { "type": "Polygon", "coordinates": [ [ [ 79.1552067, 14.2016767 ], [ 79.1552385, 14.2017986 ], [ 79.1553391, 14.2017739 ], [ 79.1553073, 14.201652 ], [ 79.1552067, 14.2016767 ] ] ] } },
{ "type": "Feature", "properties": { }, "geometry": { "type": "Polygon", "coordinates": [ [ [ 79.1603807, 14.1940917 ], [ 79.1604006, 14.1941977 ], [ 79.1607251, 14.1941405 ], [ 79.1607052, 14.1940345 ], [ 79.1603807, 14.1940917 ] ] ] } },
{ "type": "Feature", "properties": { }, "geometry": { "type": "Polygon", "coordinates": [ [ [ 79.1603646, 14.193963 ], [ 79.1603779, 14.1940586 ], [ 79.160626, 14.1940261 ], [ 79.1606153, 14.193949 ], [ 79.1605461, 14.1939581 ], [ 79.1605435, 14.1939395 ], [ 79.1603646, 14.193963 ] ] ] } },
{ "type": "Feature", "properties": { }, "geometry": { "type": "Polygon", "coordinates": [ [ [ 79.2090767, 14.1227512 ], [ 79.2091456, 14.1227913 ], [ 79.2093065, 14.1225312 ], [ 79.2092377, 14.1224911 ], [ 79.2090767, 14.1227512 ] ] ] } },
{ "type": "Feature", "properties": { }, "geometry": { "type": "Polygon", "coordinates": [ [ [ 79.2092465, 14.1226691 ], [ 79.2093458, 14.1227098 ], [ 79.2094115, 14.1225589 ], [ 79.2093122, 14.1225182 ], [ 79.2092465, 14.1226691 ] ] ] } },
{ "type": "Feature", "properties": { }, "geometry": { "type": "Polygon", "coordinates": [ [ [ 79.1582108, 14.1990999 ], [ 79.1582503, 14.1991835 ], [ 79.1583616, 14.1991341 ], [ 79.1583221, 14.1990504 ], [ 79.1582108, 14.1990999 ] ] ] } },
{ "type": "Feature", "properties": { }, "geometry": { "type": "Polygon", "coordinates": [ [ [ 79.1617408, 14.1962239 ], [ 79.1617734, 14.1962258 ], [ 79.1617747, 14.1962065 ], [ 79.1618108, 14.1962087 ], [ 79.1618126, 14.1961801 ], [ 79.1618371, 14.1961815 ], [ 79.1618453, 14.1960505 ], [ 79.161752, 14.196045 ], [ 79.1617408, 14.1962239 ] ] ] } },
{ "type": "Feature", "properties": { }, "geometry": { "type": "Polygon", "coordinates": [ [ [ 79.2081759, 14.1257349 ], [ 79.208381, 14.1257297 ], [ 79.2083804, 14.1256526 ], [ 79.2081743, 14.1256573 ], [ 79.2081759, 14.1257349 ] ] ] } },
{ "type": "Feature", "properties": { }, "geometry": { "type": "Polygon", "coordinates": [ [ [ 79.2095062, 14.1245405 ], [ 79.2095101, 14.1244407 ], [ 79.2095396, 14.1243913 ], [ 79.2096603, 14.1243913 ], [ 79.2096603, 14.1244979 ], [ 79.2096228, 14.1245448 ], [ 79.2095062, 14.1245405 ] ] ] } },
{ "type": "Feature", "properties": { }, "geometry": { "type": "Polygon", "coordinates": [ [ [ 79.2093027, 14.1251357 ], [ 79.2095248, 14.1251357 ], [ 79.2095248, 14.1249818 ], [ 79.2093027, 14.1249818 ], [ 79.2093027, 14.1251357 ] ] ] } },
{ "type": "Feature", "properties": { }, "geometry": { "type": "Polygon", "coordinates": [ [ [ 79.2093565, 14.1249724 ], [ 79.2094599, 14.1249727 ], [ 79.2094603, 14.124841 ], [ 79.2093568, 14.1248407 ], [ 79.2093565, 14.1249724 ] ] ] } },
{ "type": "Feature", "properties": { }, "geometry": { "type": "Polygon", "coordinates": [ [ [ 79.2077623, 14.1254285 ], [ 79.2078174, 14.1254301 ], [ 79.207838, 14.1253913 ], [ 79.2078416, 14.1252998 ], [ 79.2077843, 14.1252977 ], [ 79.207765, 14.1253405 ], [ 79.2077623, 14.1254285 ] ] ] } },
{ "type": "Feature", "properties": { }, "geometry": { "type": "Polygon", "coordinates": [ [ [ 79.2073564, 14.1250559 ], [ 79.2075531, 14.1250579 ], [ 79.2075922, 14.1250295 ], [ 79.2076385, 14.1250319 ], [ 79.2076443, 14.1249284 ], [ 79.2076329, 14.1249142 ], [ 79.207387, 14.1248968 ], [ 79.2073577, 14.1249331 ], [ 79.2073564, 14.1250559 ] ] ] } },
{ "type": "Feature", "properties": { }, "geometry": { "type": "Polygon", "coordinates": [ [ [ 79.2087927, 14.1245337 ], [ 79.2089611, 14.1245332 ], [ 79.2089608, 14.1244496 ], [ 79.2087924, 14.1244501 ], [ 79.2087927, 14.1245337 ] ] ] } },
{ "type": "Feature", "properties": { }, "geometry": { "type": "Polygon", "coordinates": [ [ [ 79.2081453, 14.1247526 ], [ 79.2082109, 14.1247543 ], [ 79.208234, 14.1246946 ], [ 79.2082329, 14.1246191 ], [ 79.2081667, 14.12462 ], [ 79.2081475, 14.1246722 ], [ 79.2081453, 14.1247526 ] ] ] } },
{ "type": "Feature", "properties": { }, "geometry": { "type": "Polygon", "coordinates": [ [ [ 79.2089291, 14.1253813 ], [ 79.2090163, 14.1253749 ], [ 79.2090081, 14.1252711 ], [ 79.2089209, 14.1252775 ], [ 79.2089291, 14.1253813 ] ] ] } },
{ "type": "Feature", "properties": { }, "geometry": { "type": "Polygon", "coordinates": [ [ [ 79.2091066, 14.1241541 ], [ 79.2092015, 14.12416 ], [ 79.2092257, 14.1241392 ], [ 79.2092268, 14.1240757 ], [ 79.2091291, 14.1240742 ], [ 79.2091103, 14.1240976 ], [ 79.2091066, 14.1241541 ] ] ] } },
{ "type": "Feature", "properties": { }, "geometry": { "type": "Polygon", "coordinates": [ [ [ 79.0800746, 14.2178083 ], [ 79.0802554, 14.2178167 ], [ 79.0802615, 14.2176945 ], [ 79.0800807, 14.2176861 ], [ 79.0800746, 14.2178083 ] ] ] } },
{ "type": "Feature", "properties": { }, "geometry": { "type": "Polygon", "coordinates": [ [ [ 79.0809801, 14.218246 ], [ 79.0811254, 14.2182726 ], [ 79.0811395, 14.2182 ], [ 79.0809943, 14.2181734 ], [ 79.0809801, 14.218246 ] ] ] } },
{ "type": "Feature", "properties": { }, "geometry": { "type": "Polygon", "coordinates": [ [ [ 79.0809924, 14.2184986 ], [ 79.0810861, 14.2185048 ], [ 79.0810894, 14.2184567 ], [ 79.0809957, 14.2184506 ], [ 79.0809924, 14.2184986 ] ] ] } },
{ "type": "Feature", "properties": { }, "geometry": { "type": "Polygon", "coordinates": [ [ [ 79.0803767, 14.2177138 ], [ 79.0804743, 14.2177152 ], [ 79.0804753, 14.2176465 ], [ 79.0803778, 14.2176451 ], [ 79.0803767, 14.2177138 ] ] ] } },
{ "type": "Feature", "properties": { }, "geometry": { "type": "Polygon", "coordinates": [ [ [ 79.080391, 14.2175324 ], [ 79.0804144, 14.2175321 ], [ 79.0804146, 14.2175462 ], [ 79.0804848, 14.2175452 ], [ 79.0804839, 14.2174836 ], [ 79.0803903, 14.2174849 ], [ 79.080391, 14.2175324 ] ] ] } },
{ "type": "Feature", "properties": { }, "geometry": { "type": "Polygon", "coordinates": [ [ [ 79.080053, 14.2164819 ], [ 79.0799308, 14.2164798 ], [ 79.0799336, 14.2163315 ], [ 79.0800557, 14.2163336 ], [ 79.080053, 14.2164819 ] ] ] } },
{ "type": "Feature", "properties": { }, "geometry": { "type": "Polygon", "coordinates": [ [ [ 79.0817051, 14.2161824 ], [ 79.0818606, 14.2161684 ], [ 79.0818523, 14.2160814 ], [ 79.0816968, 14.2160954 ], [ 79.0817051, 14.2161824 ] ] ] } },
{ "type": "Feature", "properties": { }, "geometry": { "type": "Polygon", "coordinates": [ [ [ 79.0783567, 14.2355182 ], [ 79.0784249, 14.2355182 ], [ 79.0784249, 14.2354615 ], [ 79.0783567, 14.2354615 ], [ 79.0783567, 14.2355182 ] ] ] } },
{ "type": "Feature", "properties": { }, "geometry": { "type": "Polygon", "coordinates": [ [ [ 79.0781158, 14.2372372 ], [ 79.0781801, 14.2372372 ], [ 79.0781801, 14.2371717 ], [ 79.0781158, 14.2371717 ], [ 79.0781158, 14.2372372 ] ] ] } },
{ "type": "Feature", "properties": { }, "geometry": { "type": "Polygon", "coordinates": [ [ [ 79.0775682, 14.2390981 ], [ 79.0776818, 14.2391103 ], [ 79.0776907, 14.2390333 ], [ 79.077577, 14.239021 ], [ 79.0775682, 14.2390981 ] ] ] } },
{ "type": "Feature", "properties": { }, "geometry": { "type": "Polygon", "coordinates": [ [ [ 79.077461, 14.2392723 ], [ 79.077542, 14.2392868 ], [ 79.0775591, 14.2391968 ], [ 79.0774781, 14.2391824 ], [ 79.077461, 14.2392723 ] ] ] } },
{ "type": "Feature", "properties": { }, "geometry": { "type": "Polygon", "coordinates": [ [ [ 79.077103, 14.2394594 ], [ 79.0771958, 14.2394645 ], [ 79.0772004, 14.2393873 ], [ 79.0771075, 14.2393822 ], [ 79.077103, 14.2394594 ] ] ] } },
{ "type": "Feature", "properties": { }, "geometry": { "type": "Polygon", "coordinates": [ [ [ 79.0776288, 14.2389529 ], [ 79.0777192, 14.2389723 ], [ 79.0777347, 14.2389042 ], [ 79.0776444, 14.2388848 ], [ 79.0776288, 14.2389529 ] ] ] } },
{ "type": "Feature", "properties": { }, "geometry": { "type": "Polygon", "coordinates": [ [ [ 79.077903, 14.2380952 ], [ 79.0780395, 14.2380939 ], [ 79.0780389, 14.2380324 ], [ 79.0779023, 14.2380337 ], [ 79.077903, 14.2380952 ] ] ] } },
{ "type": "Feature", "properties": { }, "geometry": { "type": "Polygon", "coordinates": [ [ [ 79.0776028, 14.2381904 ], [ 79.0777134, 14.2381916 ], [ 79.077714, 14.2381348 ], [ 79.0776035, 14.2381336 ], [ 79.0776028, 14.2381904 ] ] ] } },
{ "type": "Feature", "properties": { }, "geometry": { "type": "Polygon", "coordinates": [ [ [ 79.0776289, 14.2376979 ], [ 79.0777076, 14.2377004 ], [ 79.0777114, 14.23759 ], [ 79.0776326, 14.2375875 ], [ 79.0776289, 14.2376979 ] ] ] } },
{ "type": "Feature", "properties": { }, "geometry": { "type": "Polygon", "coordinates": [ [ [ 79.0777733, 14.2376674 ], [ 79.0778366, 14.2376664 ], [ 79.0778351, 14.2375721 ], [ 79.0777718, 14.237573 ], [ 79.0777733, 14.2376674 ] ] ] } },
{ "type": "Feature", "properties": { }, "geometry": { "type": "Polygon", "coordinates": [ [ [ 79.0778428, 14.2376613 ], [ 79.0779022, 14.2376619 ], [ 79.077903, 14.2375771 ], [ 79.0778437, 14.2375765 ], [ 79.0778428, 14.2376613 ] ] ] } },
{ "type": "Feature", "properties": { }, "geometry": { "type": "Polygon", "coordinates": [ [ [ 79.0780767, 14.2366202 ], [ 79.0781948, 14.2366323 ], [ 79.0782189, 14.2366037 ], [ 79.0782267, 14.2365322 ], [ 79.0780879, 14.236518 ], [ 79.0780767, 14.2366202 ] ] ] } },
{ "type": "Feature", "properties": { }, "geometry": { "type": "Polygon", "coordinates": [ [ [ 79.0778013, 14.2360196 ], [ 79.0778998, 14.2360312 ], [ 79.077909, 14.2359571 ], [ 79.0778105, 14.2359455 ], [ 79.0778013, 14.2360196 ] ] ] } },
{ "type": "Feature", "properties": { }, "geometry": { "type": "Polygon", "coordinates": [ [ [ 79.0774092, 14.2362767 ], [ 79.0775541, 14.2362952 ], [ 79.0775659, 14.2362084 ], [ 79.0774209, 14.23619 ], [ 79.0774092, 14.2362767 ] ] ] } },
{ "type": "Feature", "properties": { }, "geometry": { "type": "Polygon", "coordinates": [ [ [ 79.0775139, 14.2358687 ], [ 79.0776367, 14.2358855 ], [ 79.0776453, 14.2358267 ], [ 79.0775224, 14.2358099 ], [ 79.0775139, 14.2358687 ] ] ] } },
{ "type": "Feature", "properties": { }, "geometry": { "type": "Polygon", "coordinates": [ [ [ 79.0776509, 14.2364848 ], [ 79.0777115, 14.236493 ], [ 79.0777251, 14.2363978 ], [ 79.0776645, 14.2363897 ], [ 79.0776509, 14.2364848 ] ] ] } },
{ "type": "Feature", "properties": { }, "geometry": { "type": "Polygon", "coordinates": [ [ [ 79.078168, 14.2357452 ], [ 79.078283, 14.2357548 ], [ 79.0782905, 14.2356707 ], [ 79.0781754, 14.2356611 ], [ 79.078168, 14.2357452 ] ] ] } },
{ "type": "Feature", "properties": { }, "geometry": { "type": "Polygon", "coordinates": [ [ [ 79.1343173, 14.222424 ], [ 79.1344568, 14.2224286 ], [ 79.13446, 14.2223405 ], [ 79.1343204, 14.2223358 ], [ 79.1343173, 14.222424 ] ] ] } },
{ "type": "Feature", "properties": { }, "geometry": { "type": "Polygon", "coordinates": [ [ [ 79.134177, 14.2223219 ], [ 79.1343178, 14.22232 ], [ 79.1343164, 14.2222221 ], [ 79.1341756, 14.222224 ], [ 79.134177, 14.2223219 ] ] ] } },
{ "type": "Feature", "properties": { }, "geometry": { "type": "Polygon", "coordinates": [ [ [ 79.133607, 14.2219446 ], [ 79.1337654, 14.2219515 ], [ 79.1337688, 14.2218772 ], [ 79.1336104, 14.2218702 ], [ 79.133607, 14.2219446 ] ] ] } },
{ "type": "Feature", "properties": { }, "geometry": { "type": "Polygon", "coordinates": [ [ [ 79.1336093, 14.2223039 ], [ 79.1336101, 14.2222153 ], [ 79.1337513, 14.2222165 ], [ 79.1337506, 14.2223051 ], [ 79.1336093, 14.2223039 ] ] ] } },
{ "type": "Feature", "properties": { }, "geometry": { "type": "Polygon", "coordinates": [ [ [ 79.1339679, 14.2222849 ], [ 79.1340699, 14.2222858 ], [ 79.1340704, 14.2222283 ], [ 79.1339684, 14.2222275 ], [ 79.1339679, 14.2222849 ] ] ] } },
{ "type": "Feature", "properties": { }, "geometry": { "type": "Polygon", "coordinates": [ [ [ 79.1339668, 14.2231714 ], [ 79.1341007, 14.2231729 ], [ 79.1341014, 14.2231135 ], [ 79.1339675, 14.223112 ], [ 79.1339668, 14.2231714 ] ] ] } },
{ "type": "Feature", "properties": { }, "geometry": { "type": "Polygon", "coordinates": [ [ [ 79.1334704, 14.22335 ], [ 79.1336062, 14.2233508 ], [ 79.1336068, 14.2232404 ], [ 79.1334711, 14.2232397 ], [ 79.1334704, 14.22335 ] ] ] } },
{ "type": "Feature", "properties": { }, "geometry": { "type": "Polygon", "coordinates": [ [ [ 79.1334526, 14.2215359 ], [ 79.1336171, 14.2215415 ], [ 79.1336209, 14.2214369 ], [ 79.1334564, 14.2214313 ], [ 79.1334526, 14.2215359 ] ] ] } },
{ "type": "Feature", "properties": { }, "geometry": { "type": "Polygon", "coordinates": [ [ [ 79.2755847, 14.2721638 ], [ 79.275694, 14.2721461 ], [ 79.2758865, 14.2721184 ], [ 79.27604, 14.2718486 ], [ 79.2766098, 14.271783 ], [ 79.2765136, 14.271367 ], [ 79.2754312, 14.271662 ], [ 79.2755066, 14.2721562 ], [ 79.2755847, 14.2721638 ] ] ] } },
{ "type": "Feature", "properties": { }, "geometry": { "type": "Polygon", "coordinates": [ [ [ 79.1231623, 14.1553901 ], [ 79.1245309, 14.1556753 ], [ 79.1244969, 14.1563278 ], [ 79.1265158, 14.1565746 ], [ 79.1274093, 14.1565746 ], [ 79.127268, 14.15346 ], [ 79.1233772, 14.1536519 ], [ 79.1231623, 14.1553901 ] ] ] } },
{ "type": "Feature", "properties": { }, "geometry": { "type": "Polygon", "coordinates": [ [ [ 79.1231352, 14.2327594 ], [ 79.1234458, 14.2321897 ], [ 79.1230039, 14.2320119 ], [ 79.1228601, 14.2321776 ], [ 79.1231352, 14.2327594 ] ] ] } },
{ "type": "Feature", "properties": { }, "geometry": { "type": "Polygon", "coordinates": [ [ [ 79.1173894, 14.2545464 ], [ 79.1181216, 14.2545102 ], [ 79.1180902, 14.2541279 ], [ 79.1172698, 14.2541235 ], [ 79.1173894, 14.2545464 ] ] ] } },
{ "type": "Feature", "properties": { }, "geometry": { "type": "Polygon", "coordinates": [ [ [ 79.1715738, 14.1774999 ], [ 79.1718723, 14.1775154 ], [ 79.1718801, 14.1773744 ], [ 79.1715816, 14.1773589 ], [ 79.1715738, 14.1774999 ] ] ] } },
{ "type": "Feature", "properties": { }, "geometry": { "type": "Polygon", "coordinates": [ [ [ 79.2644946, 14.1263484 ], [ 79.2645964, 14.1263813 ], [ 79.2646454, 14.1262389 ], [ 79.2645436, 14.126206 ], [ 79.2644946, 14.1263484 ] ] ] } },
{ "type": "Feature", "properties": { }, "geometry": { "type": "Polygon", "coordinates": [ [ [ 79.2647454, 14.1266228 ], [ 79.2647944, 14.1266319 ], [ 79.2648009, 14.1265989 ], [ 79.2647519, 14.1265898 ], [ 79.2647454, 14.1266228 ] ] ] } },
{ "type": "Feature", "properties": { }, "geometry": { "type": "Polygon", "coordinates": [ [ [ 79.2646066, 14.1269837 ], [ 79.2646663, 14.1270051 ], [ 79.2647099, 14.1268906 ], [ 79.2646502, 14.1268692 ], [ 79.2646066, 14.1269837 ] ] ] } },
{ "type": "Feature", "properties": { }, "geometry": { "type": "Polygon", "coordinates": [ [ [ 79.2570971, 14.1345943 ], [ 79.2571464, 14.1346101 ], [ 79.2571632, 14.1345607 ], [ 79.2571139, 14.1345449 ], [ 79.2570971, 14.1345943 ] ] ] } },
{ "type": "Feature", "properties": { }, "geometry": { "type": "Polygon", "coordinates": [ [ [ 79.2571199, 14.1345293 ], [ 79.2572057, 14.1345508 ], [ 79.2572199, 14.1344975 ], [ 79.2571341, 14.1344761 ], [ 79.2571199, 14.1345293 ] ] ] } },
{ "type": "Feature", "properties": { }, "geometry": { "type": "Polygon", "coordinates": [ [ [ 79.2573231, 14.1347758 ], [ 79.2573542, 14.1347892 ], [ 79.2573763, 14.1347411 ], [ 79.2573452, 14.1347276 ], [ 79.2573231, 14.1347758 ] ] ] } },
{ "type": "Feature", "properties": { }, "geometry": { "type": "Polygon", "coordinates": [ [ [ 79.257663, 14.1340325 ], [ 79.2576979, 14.1340332 ], [ 79.2576984, 14.1340086 ], [ 79.2576635, 14.1340079 ], [ 79.257663, 14.1340325 ] ] ] } },
{ "type": "Feature", "properties": { }, "geometry": { "type": "Polygon", "coordinates": [ [ [ 79.2576684, 14.1339434 ], [ 79.2577127, 14.1339447 ], [ 79.2577136, 14.1339138 ], [ 79.2576694, 14.1339125 ], [ 79.2576684, 14.1339434 ] ] ] } },
{ "type": "Feature", "properties": { }, "geometry": { "type": "Polygon", "coordinates": [ [ [ 79.2575591, 14.1341132 ], [ 79.2576241, 14.1341171 ], [ 79.2576271, 14.1340714 ], [ 79.257562, 14.1340675 ], [ 79.2575591, 14.1341132 ] ] ] } },
{ "type": "Feature", "properties": { }, "geometry": { "type": "Polygon", "coordinates": [ [ [ 79.2576543, 14.1341782 ], [ 79.2577207, 14.1341801 ], [ 79.2577221, 14.1341356 ], [ 79.2576557, 14.1341337 ], [ 79.2576543, 14.1341782 ] ] ] } },
{ "type": "Feature", "properties": { }, "geometry": { "type": "Polygon", "coordinates": [ [ [ 79.2579883, 14.1313307 ], [ 79.2580251, 14.1313307 ], [ 79.2580251, 14.1312936 ], [ 79.2579883, 14.1312936 ], [ 79.2579883, 14.1313307 ] ] ] } },
{ "type": "Feature", "properties": { }, "geometry": { "type": "Polygon", "coordinates": [ [ [ 79.2579735, 14.1313938 ], [ 79.2580158, 14.1313925 ], [ 79.2580147, 14.1313591 ], [ 79.2579724, 14.1313604 ], [ 79.2579735, 14.1313938 ] ] ] } },
{ "type": "Feature", "properties": { }, "geometry": { "type": "Polygon", "coordinates": [ [ [ 79.2580453, 14.1314484 ], [ 79.2580904, 14.1314474 ], [ 79.258087, 14.131305 ], [ 79.2580419, 14.131306 ], [ 79.2580453, 14.1314484 ] ] ] } },
{ "type": "Feature", "properties": { }, "geometry": { "type": "Polygon", "coordinates": [ [ [ 79.2628216, 14.1240503 ], [ 79.2628774, 14.1240511 ], [ 79.2628787, 14.1239679 ], [ 79.2628229, 14.123967 ], [ 79.2628216, 14.1240503 ] ] ] } },
{ "type": "Feature", "properties": { }, "geometry": { "type": "Polygon", "coordinates": [ [ [ 79.2624783, 14.1241647 ], [ 79.2625735, 14.1241699 ], [ 79.262578, 14.1240922 ], [ 79.2624828, 14.124087 ], [ 79.2624783, 14.1241647 ] ] ] } },
{ "type": "Feature", "properties": { }, "geometry": { "type": "Polygon", "coordinates": [ [ [ 79.262664, 14.1241836 ], [ 79.2627108, 14.1241877 ], [ 79.2627181, 14.124109 ], [ 79.2626714, 14.1241049 ], [ 79.262664, 14.1241836 ] ] ] } },
{ "type": "Feature", "properties": { }, "geometry": { "type": "Polygon", "coordinates": [ [ [ 79.2629215, 14.1240483 ], [ 79.2629619, 14.1240487 ], [ 79.2629625, 14.1239765 ], [ 79.2629222, 14.1239761 ], [ 79.2629215, 14.1240483 ] ] ] } },
{ "type": "Feature", "properties": { }, "geometry": { "type": "Polygon", "coordinates": [ [ [ 79.2630026, 14.1240581 ], [ 79.2630878, 14.1240581 ], [ 79.2630878, 14.1239703 ], [ 79.2630026, 14.1239703 ], [ 79.2630026, 14.1240581 ] ] ] } },
{ "type": "Feature", "properties": { }, "geometry": { "type": "Polygon", "coordinates": [ [ [ 79.2630804, 14.1239235 ], [ 79.2631488, 14.1239222 ], [ 79.2631475, 14.1238566 ], [ 79.2630791, 14.1238579 ], [ 79.2630804, 14.1239235 ] ] ] } },
{ "type": "Feature", "properties": { }, "geometry": { "type": "Polygon", "coordinates": [ [ [ 79.2629886, 14.1239235 ], [ 79.2630697, 14.1239241 ], [ 79.2630703, 14.1238567 ], [ 79.2629891, 14.123856 ], [ 79.2629886, 14.1239235 ] ] ] } },
{ "type": "Feature", "properties": { }, "geometry": { "type": "Polygon", "coordinates": [ [ [ 79.2626929, 14.1239586 ], [ 79.2627659, 14.1239657 ], [ 79.262771, 14.1239175 ], [ 79.2626979, 14.1239104 ], [ 79.2626929, 14.1239586 ] ] ] } },
{ "type": "Feature", "properties": { }, "geometry": { "type": "Polygon", "coordinates": [ [ [ 79.2628169, 14.1239293 ], [ 79.2628805, 14.1239313 ], [ 79.2628825, 14.1238702 ], [ 79.2628189, 14.1238682 ], [ 79.2628169, 14.1239293 ] ] ] } },
{ "type": "Feature", "properties": { }, "geometry": { "type": "Polygon", "coordinates": [ [ [ 79.2630295, 14.1237986 ], [ 79.2631696, 14.1238019 ], [ 79.2631715, 14.123726 ], [ 79.2630313, 14.1237228 ], [ 79.2630295, 14.1237986 ] ] ] } },
{ "type": "Feature", "properties": { }, "geometry": { "type": "Polygon", "coordinates": [ [ [ 79.2631991, 14.1237967 ], [ 79.2632623, 14.1237978 ], [ 79.2632636, 14.1237282 ], [ 79.2632005, 14.1237271 ], [ 79.2631991, 14.1237967 ] ] ] } },
{ "type": "Feature", "properties": { }, "geometry": { "type": "Polygon", "coordinates": [ [ [ 79.2629088, 14.123796 ], [ 79.2629733, 14.1237977 ], [ 79.2629754, 14.1237249 ], [ 79.2629108, 14.1237232 ], [ 79.2629088, 14.123796 ] ] ] } },
{ "type": "Feature", "properties": { }, "geometry": { "type": "Polygon", "coordinates": [ [ [ 79.2628364, 14.1237947 ], [ 79.2628963, 14.123796 ], [ 79.2628977, 14.1237348 ], [ 79.2628377, 14.1237336 ], [ 79.2628364, 14.1237947 ] ] ] } },
{ "type": "Feature", "properties": { }, "geometry": { "type": "Polygon", "coordinates": [ [ [ 79.2629054, 14.1237069 ], [ 79.2629668, 14.1237085 ], [ 79.2629688, 14.1236364 ], [ 79.2629074, 14.1236347 ], [ 79.2629054, 14.1237069 ] ] ] } },
{ "type": "Feature", "properties": { }, "geometry": { "type": "Polygon", "coordinates": [ [ [ 79.2627954, 14.1237069 ], [ 79.2628759, 14.1237102 ], [ 79.2628787, 14.1236462 ], [ 79.2627982, 14.1236429 ], [ 79.2627954, 14.1237069 ] ] ] } },
{ "type": "Feature", "properties": { }, "geometry": { "type": "Polygon", "coordinates": [ [ [ 79.2628042, 14.1235814 ], [ 79.2628915, 14.1235825 ], [ 79.2628929, 14.1234758 ], [ 79.2628055, 14.1234748 ], [ 79.2628042, 14.1235814 ] ] ] } },
{ "type": "Feature", "properties": { }, "geometry": { "type": "Polygon", "coordinates": [ [ [ 79.2613578, 14.1249256 ], [ 79.2614066, 14.1249433 ], [ 79.2614388, 14.1248601 ], [ 79.26139, 14.1248423 ], [ 79.2613578, 14.1249256 ] ] ] } },
{ "type": "Feature", "properties": { }, "geometry": { "type": "Polygon", "coordinates": [ [ [ 79.2621624, 14.1246446 ], [ 79.2622362, 14.1246498 ], [ 79.2622399, 14.1246004 ], [ 79.2621662, 14.1245952 ], [ 79.2621624, 14.1246446 ] ] ] } },
{ "type": "Feature", "properties": { }, "geometry": { "type": "Polygon", "coordinates": [ [ [ 79.2625585, 14.1237484 ], [ 79.2625597, 14.1236664 ], [ 79.2625167, 14.1236658 ], [ 79.2625155, 14.1237478 ], [ 79.2625585, 14.1237484 ] ] ] } },
{ "type": "Feature", "properties": { }, "geometry": { "type": "Polygon", "coordinates": [ [ [ 79.2622456, 14.1235717 ], [ 79.2623657, 14.123573 ], [ 79.2623663, 14.1235171 ], [ 79.2622463, 14.1235157 ], [ 79.2622456, 14.1235717 ] ] ] } },
{ "type": "Feature", "properties": { }, "geometry": { "type": "Polygon", "coordinates": [ [ [ 79.2622469, 14.1236354 ], [ 79.2623361, 14.1236361 ], [ 79.2623365, 14.123588 ], [ 79.2622473, 14.1235874 ], [ 79.2622469, 14.1236354 ] ] ] } },
{ "type": "Feature", "properties": { }, "geometry": { "type": "Polygon", "coordinates": [ [ [ 79.2624629, 14.1235444 ], [ 79.2625266, 14.1235444 ], [ 79.2625266, 14.1234832 ], [ 79.2624629, 14.1234832 ], [ 79.2624629, 14.1235444 ] ] ] } },
{ "type": "Feature", "properties": { }, "geometry": { "type": "Polygon", "coordinates": [ [ [ 79.2622523, 14.1237336 ], [ 79.2623334, 14.1237336 ], [ 79.2623334, 14.1236484 ], [ 79.2622523, 14.1236484 ], [ 79.2622523, 14.1237336 ] ] ] } },
{ "type": "Feature", "properties": { }, "geometry": { "type": "Polygon", "coordinates": [ [ [ 79.2623455, 14.1237394 ], [ 79.2624275, 14.1237407 ], [ 79.2624288, 14.1236581 ], [ 79.2623468, 14.1236569 ], [ 79.2623455, 14.1237394 ] ] ] } },
{ "type": "Feature", "properties": { }, "geometry": { "type": "Polygon", "coordinates": [ [ [ 79.2625789, 14.1236725 ], [ 79.2626781, 14.1236731 ], [ 79.2626784, 14.1236271 ], [ 79.2625792, 14.1236264 ], [ 79.2625789, 14.1236725 ] ] ] } },
{ "type": "Feature", "properties": { }, "geometry": { "type": "Polygon", "coordinates": [ [ [ 79.2625728, 14.1237616 ], [ 79.2626754, 14.1237642 ], [ 79.2626775, 14.1236852 ], [ 79.262575, 14.1236826 ], [ 79.2625728, 14.1237616 ] ] ] } },
{ "type": "Feature", "properties": { }, "geometry": { "type": "Polygon", "coordinates": [ [ [ 79.2622543, 14.1238363 ], [ 79.2623034, 14.1238371 ], [ 79.2623048, 14.1237545 ], [ 79.2622557, 14.1237538 ], [ 79.2622543, 14.1238363 ] ] ] } },
{ "type": "Feature", "properties": { }, "geometry": { "type": "Polygon", "coordinates": [ [ [ 79.2623086, 14.1238376 ], [ 79.2623678, 14.123839 ], [ 79.2623698, 14.1237571 ], [ 79.2623106, 14.1237557 ], [ 79.2623086, 14.1238376 ] ] ] } },
{ "type": "Feature", "properties": { }, "geometry": { "type": "Polygon", "coordinates": [ [ [ 79.2624387, 14.1238578 ], [ 79.2625066, 14.1238589 ], [ 79.26251, 14.1236605 ], [ 79.2624421, 14.1236595 ], [ 79.2624387, 14.1238578 ] ] ] } },
{ "type": "Feature", "properties": { }, "geometry": { "type": "Polygon", "coordinates": [ [ [ 79.2625299, 14.1239105 ], [ 79.2625781, 14.1239114 ], [ 79.2625795, 14.1238484 ], [ 79.2625313, 14.1238474 ], [ 79.2625299, 14.1239105 ] ] ] } },
{ "type": "Feature", "properties": { }, "geometry": { "type": "Polygon", "coordinates": [ [ [ 79.2620491, 14.1241881 ], [ 79.2621564, 14.1241966 ], [ 79.262161, 14.1241419 ], [ 79.2620537, 14.1241335 ], [ 79.2620491, 14.1241881 ] ] ] } },
{ "type": "Feature", "properties": { }, "geometry": { "type": "Polygon", "coordinates": [ [ [ 79.2619512, 14.1242837 ], [ 79.2620269, 14.1242864 ], [ 79.2620303, 14.1241973 ], [ 79.2619546, 14.1241946 ], [ 79.2619512, 14.1242837 ] ] ] } },
{ "type": "Feature", "properties": { }, "geometry": { "type": "Polygon", "coordinates": [ [ [ 79.2618989, 14.1239996 ], [ 79.2620129, 14.1240041 ], [ 79.2620149, 14.1239568 ], [ 79.2619009, 14.1239522 ], [ 79.2618989, 14.1239996 ] ] ] } },
{ "type": "Feature", "properties": { }, "geometry": { "type": "Polygon", "coordinates": [ [ [ 79.2620666, 14.1240165 ], [ 79.2621551, 14.1240184 ], [ 79.2621562, 14.1239704 ], [ 79.2620677, 14.1239685 ], [ 79.2620666, 14.1240165 ] ] ] } },
{ "type": "Feature", "properties": { }, "geometry": { "type": "Polygon", "coordinates": [ [ [ 79.2618641, 14.1240886 ], [ 79.2619854, 14.1240991 ], [ 79.2619898, 14.1240513 ], [ 79.2618684, 14.1240409 ], [ 79.2618641, 14.1240886 ] ] ] } },
{ "type": "Feature", "properties": { }, "geometry": { "type": "Polygon", "coordinates": [ [ [ 79.2618594, 14.1241647 ], [ 79.2619894, 14.1241751 ], [ 79.2619943, 14.1241179 ], [ 79.2618642, 14.1241075 ], [ 79.2618594, 14.1241647 ] ] ] } },
{ "type": "Feature", "properties": { }, "geometry": { "type": "Polygon", "coordinates": [ [ [ 79.2621034, 14.1241147 ], [ 79.2621659, 14.1241229 ], [ 79.2621739, 14.1240657 ], [ 79.2621115, 14.1240574 ], [ 79.2621034, 14.1241147 ] ] ] } },
{ "type": "Feature", "properties": { }, "geometry": { "type": "Polygon", "coordinates": [ [ [ 79.2618761, 14.1242863 ], [ 79.261931, 14.1242858 ], [ 79.2619303, 14.1242156 ], [ 79.2618754, 14.1242161 ], [ 79.2618761, 14.1242863 ] ] ] } },
{ "type": "Feature", "properties": { }, "geometry": { "type": "Polygon", "coordinates": [ [ [ 79.2619418, 14.1244047 ], [ 79.2620271, 14.124416 ], [ 79.2620358, 14.1243542 ], [ 79.2619506, 14.1243429 ], [ 79.2619418, 14.1244047 ] ] ] } },
{ "type": "Feature", "properties": { }, "geometry": { "type": "Polygon", "coordinates": [ [ [ 79.2622945, 14.1243819 ], [ 79.2623576, 14.1243845 ], [ 79.2623595, 14.1243396 ], [ 79.2622965, 14.124337 ], [ 79.2622945, 14.1243819 ] ] ] } },
{ "type": "Feature", "properties": { }, "geometry": { "type": "Polygon", "coordinates": [ [ [ 79.2622671, 14.1240152 ], [ 79.262377, 14.1240204 ], [ 79.2623803, 14.1239549 ], [ 79.2622703, 14.1239497 ], [ 79.2622671, 14.1240152 ] ] ] } },
{ "type": "Feature", "properties": { }, "geometry": { "type": "Polygon", "coordinates": [ [ [ 79.2623931, 14.1240236 ], [ 79.2624964, 14.1240288 ], [ 79.2625008, 14.1239462 ], [ 79.2623975, 14.123941 ], [ 79.2623931, 14.1240236 ] ] ] } },
{ "type": "Feature", "properties": { }, "geometry": { "type": "Polygon", "coordinates": [ [ [ 79.2622697, 14.1241738 ], [ 79.2623717, 14.1241797 ], [ 79.2623774, 14.1240855 ], [ 79.2622755, 14.1240797 ], [ 79.2622697, 14.1241738 ] ] ] } },
{ "type": "Feature", "properties": { }, "geometry": { "type": "Polygon", "coordinates": [ [ [ 79.262192, 14.1242369 ], [ 79.262234, 14.1242432 ], [ 79.2622508, 14.1241385 ], [ 79.2622087, 14.1241322 ], [ 79.262192, 14.1242369 ] ] ] } },
{ "type": "Feature", "properties": { }, "geometry": { "type": "Polygon", "coordinates": [ [ [ 79.262263, 14.124298 ], [ 79.2623529, 14.1243007 ], [ 79.2623556, 14.1242162 ], [ 79.2622657, 14.1242135 ], [ 79.262263, 14.124298 ] ] ] } },
{ "type": "Feature", "properties": { }, "geometry": { "type": "Polygon", "coordinates": [ [ [ 79.2624977, 14.1243858 ], [ 79.2625668, 14.1244014 ], [ 79.2625774, 14.1243573 ], [ 79.2625083, 14.1243417 ], [ 79.2624977, 14.1243858 ] ] ] } },
{ "type": "Feature", "properties": { }, "geometry": { "type": "Polygon", "coordinates": [ [ [ 79.2615817, 14.1242688 ], [ 79.2616528, 14.1242766 ], [ 79.2616599, 14.1242162 ], [ 79.2615888, 14.1242084 ], [ 79.2615817, 14.1242688 ] ] ] } },
{ "type": "Feature", "properties": { }, "geometry": { "type": "Polygon", "coordinates": [ [ [ 79.2615952, 14.1241699 ], [ 79.2616837, 14.124179 ], [ 79.2616905, 14.1241164 ], [ 79.261602, 14.1241073 ], [ 79.2615952, 14.1241699 ] ] ] } },
{ "type": "Feature", "properties": { }, "geometry": { "type": "Polygon", "coordinates": [ [ [ 79.2616998, 14.1240958 ], [ 79.2617534, 14.1241023 ], [ 79.2617615, 14.1240399 ], [ 79.2617078, 14.1240334 ], [ 79.2616998, 14.1240958 ] ] ] } },
{ "type": "Feature", "properties": { }, "geometry": { "type": "Polygon", "coordinates": [ [ [ 79.2616917, 14.1239866 ], [ 79.2618111, 14.1239905 ], [ 79.2618141, 14.1239035 ], [ 79.2616947, 14.1238996 ], [ 79.2616917, 14.1239866 ] ] ] } },
{ "type": "Feature", "properties": { }, "geometry": { "type": "Polygon", "coordinates": [ [ [ 79.2617011, 14.1238058 ], [ 79.2618258, 14.1238071 ], [ 79.2618269, 14.1237071 ], [ 79.2617022, 14.1237058 ], [ 79.2617011, 14.1238058 ] ] ] } },
{ "type": "Feature", "properties": { }, "geometry": { "type": "Polygon", "coordinates": [ [ [ 79.2618258, 14.1236653 ], [ 79.261869, 14.1236659 ], [ 79.2618703, 14.1235801 ], [ 79.2618272, 14.1235795 ], [ 79.2618258, 14.1236653 ] ] ] } },
{ "type": "Feature", "properties": { }, "geometry": { "type": "Polygon", "coordinates": [ [ [ 79.2616971, 14.1236627 ], [ 79.2617667, 14.123662 ], [ 79.2617654, 14.1235423 ], [ 79.2616957, 14.1235431 ], [ 79.2616971, 14.1236627 ] ] ] } },
{ "type": "Feature", "properties": { }, "geometry": { "type": "Polygon", "coordinates": [ [ [ 79.2617708, 14.1235262 ], [ 79.2618527, 14.1235275 ], [ 79.2618537, 14.123468 ], [ 79.2617718, 14.1234667 ], [ 79.2617708, 14.1235262 ] ] ] } },
{ "type": "Feature", "properties": { }, "geometry": { "type": "Polygon", "coordinates": [ [ [ 79.261742, 14.1234527 ], [ 79.2617942, 14.1234521 ], [ 79.2617935, 14.1233897 ], [ 79.2617413, 14.1233902 ], [ 79.261742, 14.1234527 ] ] ] } },
{ "type": "Feature", "properties": { }, "geometry": { "type": "Polygon", "coordinates": [ [ [ 79.2618386, 14.1234384 ], [ 79.2618969, 14.1234384 ], [ 79.2618969, 14.123387 ], [ 79.2618386, 14.123387 ], [ 79.2618386, 14.1234384 ] ] ] } },
{ "type": "Feature", "properties": { }, "geometry": { "type": "Polygon", "coordinates": [ [ [ 79.2623281, 14.1230976 ], [ 79.2623066, 14.1231374 ], [ 79.2623656, 14.1231673 ], [ 79.2623871, 14.1231275 ], [ 79.2623281, 14.1230976 ] ] ] } },
{ "type": "Feature", "properties": { }, "geometry": { "type": "Polygon", "coordinates": [ [ [ 79.262432, 14.1232751 ], [ 79.2624977, 14.123279 ], [ 79.262501, 14.1232266 ], [ 79.2624353, 14.1232227 ], [ 79.262432, 14.1232751 ] ] ] } },
{ "type": "Feature", "properties": { }, "geometry": { "type": "Polygon", "coordinates": [ [ [ 79.2620471, 14.1230306 ], [ 79.2621314, 14.1230343 ], [ 79.2621354, 14.1229472 ], [ 79.2620511, 14.1229435 ], [ 79.2620471, 14.1230306 ] ] ] } },
{ "type": "Feature", "properties": { }, "geometry": { "type": "Polygon", "coordinates": [ [ [ 79.2620216, 14.1232999 ], [ 79.2620737, 14.1232989 ], [ 79.2620723, 14.1232287 ], [ 79.2620203, 14.1232296 ], [ 79.2620216, 14.1232999 ] ] ] } },
{ "type": "Feature", "properties": { }, "geometry": { "type": "Polygon", "coordinates": [ [ [ 79.2621008, 14.1234988 ], [ 79.2621799, 14.1235001 ], [ 79.2621807, 14.1234549 ], [ 79.2621015, 14.1234536 ], [ 79.2621008, 14.1234988 ] ] ] } },
{ "type": "Feature", "properties": { }, "geometry": { "type": "Polygon", "coordinates": [ [ [ 79.2620391, 14.1235743 ], [ 79.2621276, 14.123573 ], [ 79.2621266, 14.1235089 ], [ 79.2620381, 14.1235102 ], [ 79.2620391, 14.1235743 ] ] ] } },
{ "type": "Feature", "properties": { }, "geometry": { "type": "Polygon", "coordinates": [ [ [ 79.2620324, 14.123638 ], [ 79.2621075, 14.123638 ], [ 79.2621075, 14.123586 ], [ 79.2620324, 14.123586 ], [ 79.2620324, 14.123638 ] ] ] } },
{ "type": "Feature", "properties": { }, "geometry": { "type": "Polygon", "coordinates": [ [ [ 79.2619559, 14.1235795 ], [ 79.2620099, 14.1235819 ], [ 79.2620126, 14.1235246 ], [ 79.2619586, 14.1235223 ], [ 79.2619559, 14.1235795 ] ] ] } },
{ "type": "Feature", "properties": { }, "geometry": { "type": "Polygon", "coordinates": [ [ [ 79.2619251, 14.123772 ], [ 79.2620153, 14.123773 ], [ 79.2620166, 14.1236585 ], [ 79.2619264, 14.1236575 ], [ 79.2619251, 14.123772 ] ] ] } },
{ "type": "Feature", "properties": { }, "geometry": { "type": "Polygon", "coordinates": [ [ [ 79.2620324, 14.1237564 ], [ 79.2621059, 14.1237545 ], [ 79.2621032, 14.1236544 ], [ 79.2620297, 14.1236562 ], [ 79.2620324, 14.1237564 ] ] ] } },
{ "type": "Feature", "properties": { }, "geometry": { "type": "Polygon", "coordinates": [ [ [ 79.262094, 14.1238513 ], [ 79.2622, 14.1238513 ], [ 79.2622, 14.1237694 ], [ 79.262094, 14.1237694 ], [ 79.262094, 14.1238513 ] ] ] } },
{ "type": "Feature", "properties": { }, "geometry": { "type": "Polygon", "coordinates": [ [ [ 79.2209735, 14.2501305 ], [ 79.2210362, 14.2501267 ], [ 79.2210265, 14.2500075 ], [ 79.2209648, 14.2500108 ], [ 79.2209735, 14.2501305 ] ] ] } },
{ "type": "Feature", "properties": { }, "geometry": { "type": "Polygon", "coordinates": [ [ [ 79.221061, 14.2501074 ], [ 79.2211271, 14.2501008 ], [ 79.2211135, 14.2499981 ], [ 79.2210464, 14.2500033 ], [ 79.221061, 14.2501074 ] ] ] } },
{ "type": "Feature", "properties": { }, "geometry": { "type": "Polygon", "coordinates": [ [ [ 79.2209847, 14.2499755 ], [ 79.2211485, 14.2499741 ], [ 79.2211509, 14.2498667 ], [ 79.2209886, 14.2498573 ], [ 79.2209847, 14.2499755 ] ] ] } },
{ "type": "Feature", "properties": { }, "geometry": { "type": "Polygon", "coordinates": [ [ [ 79.2209998, 14.2498464 ], [ 79.2211563, 14.2498507 ], [ 79.2211548, 14.2497823 ], [ 79.2210007, 14.2497729 ], [ 79.2209998, 14.2498464 ] ] ] } },
{ "type": "Feature", "properties": { }, "geometry": { "type": "Polygon", "coordinates": [ [ [ 79.2210221, 14.2496952 ], [ 79.2211573, 14.249699 ], [ 79.2211592, 14.2496038 ], [ 79.2210246, 14.2496014 ], [ 79.2210221, 14.2496952 ] ] ] } },
{ "type": "Feature", "properties": { }, "geometry": { "type": "Polygon", "coordinates": [ [ [ 79.2210071, 14.2497659 ], [ 79.2211548, 14.2497706 ], [ 79.2211539, 14.2497093 ], [ 79.221009, 14.2497032 ], [ 79.2210071, 14.2497659 ] ] ] } },
{ "type": "Feature", "properties": { }, "geometry": { "type": "Polygon", "coordinates": [ [ [ 79.2212992, 14.250229 ], [ 79.2214294, 14.2501988 ], [ 79.2214178, 14.2501286 ], [ 79.2212841, 14.2501573 ], [ 79.2212992, 14.250229 ] ] ] } },
{ "type": "Feature", "properties": { }, "geometry": { "type": "Polygon", "coordinates": [ [ [ 79.2214926, 14.2502874 ], [ 79.2216195, 14.2502624 ], [ 79.2216083, 14.2501988 ], [ 79.221481, 14.2502242 ], [ 79.2214926, 14.2502874 ] ] ] } },
{ "type": "Feature", "properties": { }, "geometry": { "type": "Polygon", "coordinates": [ [ [ 79.2214693, 14.250089 ], [ 79.2215578, 14.2500744 ], [ 79.2215461, 14.2500155 ], [ 79.221462, 14.2500297 ], [ 79.2214693, 14.250089 ] ] ] } },
{ "type": "Feature", "properties": { }, "geometry": { "type": "Polygon", "coordinates": [ [ [ 79.2210391, 14.2495091 ], [ 79.2211334, 14.2495091 ], [ 79.2211291, 14.2493824 ], [ 79.2210362, 14.2493777 ], [ 79.2210391, 14.2495091 ] ] ] } },
{ "type": "Feature", "properties": { }, "geometry": { "type": "Polygon", "coordinates": [ [ [ 79.2207188, 14.2495383 ], [ 79.2208141, 14.2495378 ], [ 79.2208214, 14.2494281 ], [ 79.2207198, 14.2494257 ], [ 79.2207188, 14.2495383 ] ] ] } },
{ "type": "Feature", "properties": { }, "geometry": { "type": "Polygon", "coordinates": [ [ [ 79.2210678, 14.249258 ], [ 79.2211286, 14.2492561 ], [ 79.2211281, 14.249209 ], [ 79.2210664, 14.2492123 ], [ 79.2210678, 14.249258 ] ] ] } },
{ "type": "Feature", "properties": { }, "geometry": { "type": "Polygon", "coordinates": [ [ [ 79.2210673, 14.2491252 ], [ 79.221202, 14.2491195 ], [ 79.2211942, 14.2489947 ], [ 79.2210581, 14.2489956 ], [ 79.2210673, 14.2491252 ] ] ] } },
{ "type": "Feature", "properties": { }, "geometry": { "type": "Polygon", "coordinates": [ [ [ 79.2213031, 14.2491591 ], [ 79.2214085, 14.2491308 ], [ 79.2213823, 14.2490587 ], [ 79.2212807, 14.2490893 ], [ 79.2213031, 14.2491591 ] ] ] } },
{ "type": "Feature", "properties": { }, "geometry": { "type": "Polygon", "coordinates": [ [ [ 79.2213157, 14.2492698 ], [ 79.2213789, 14.2492556 ], [ 79.2213687, 14.2491963 ], [ 79.2213002, 14.2492081 ], [ 79.2213157, 14.2492698 ] ] ] } },
{ "type": "Feature", "properties": { }, "geometry": { "type": "Polygon", "coordinates": [ [ [ 79.2212311, 14.2500273 ], [ 79.2213002, 14.2500269 ], [ 79.2212977, 14.249991 ], [ 79.2212292, 14.2499901 ], [ 79.2212311, 14.2500273 ] ] ] } },
{ "type": "Feature", "properties": { }, "geometry": { "type": "Polygon", "coordinates": [ [ [ 79.2212253, 14.2499717 ], [ 79.2213298, 14.2499656 ], [ 79.2213269, 14.2498591 ], [ 79.2212175, 14.2498695 ], [ 79.2212253, 14.2499717 ] ] ] } },
{ "type": "Feature", "properties": { }, "geometry": { "type": "Polygon", "coordinates": [ [ [ 79.221342, 14.2499656 ], [ 79.221412, 14.2499585 ], [ 79.2214056, 14.249861 ], [ 79.2213361, 14.2498709 ], [ 79.221342, 14.2499656 ] ] ] } },
{ "type": "Feature", "properties": { }, "geometry": { "type": "Polygon", "coordinates": [ [ [ 79.2213381, 14.2498511 ], [ 79.2215281, 14.2498299 ], [ 79.2215242, 14.2497847 ], [ 79.2213332, 14.2498097 ], [ 79.2213381, 14.2498511 ] ] ] } },
{ "type": "Feature", "properties": { }, "geometry": { "type": "Polygon", "coordinates": [ [ [ 79.2213245, 14.2497418 ], [ 79.2215072, 14.2497112 ], [ 79.2215116, 14.2496189 ], [ 79.2213118, 14.2496556 ], [ 79.2213245, 14.2497418 ] ] ] } },
{ "type": "Feature", "properties": { }, "geometry": { "type": "Polygon", "coordinates": [ [ [ 79.2213502, 14.2497889 ], [ 79.2214222, 14.2497753 ], [ 79.2214256, 14.249731 ], [ 79.2213463, 14.2497442 ], [ 79.2213502, 14.2497889 ] ] ] } },
{ "type": "Feature", "properties": { }, "geometry": { "type": "Polygon", "coordinates": [ [ [ 79.2207835, 14.2488326 ], [ 79.2209521, 14.2488232 ], [ 79.2209531, 14.2487426 ], [ 79.220783, 14.2487539 ], [ 79.2207835, 14.2488326 ] ] ] } },
{ "type": "Feature", "properties": { }, "geometry": { "type": "Polygon", "coordinates": [ [ [ 79.2182193, 14.2577601 ], [ 79.2182895, 14.257723 ], [ 79.2182518, 14.2576468 ], [ 79.2181842, 14.2576865 ], [ 79.2182193, 14.2577601 ] ] ] } }
]
}
