{
"type": "FeatureCollection",
"name": "annamayya_facilities",
"crs": { "type": "name", "properties": { "name": "urn:ogc:def:crs:OGC:1.3:CRS84" } },
"features": [
{ "type": "Feature", "properties": { "element": "node", "id": 7113913911, "amenity": "hospital", "name": "Government hospital, Rajampeta;Ppu Rajampeta" }, "geometry": { "type": "Point", "coordinates": [ 79.1569501, 14.200116 ] } },
{ "type": "Feature", "properties": { "element": "node", "id": 7809051896, "amenity": "hospital", "name": "Raju Health Care Centre" }, "geometry": { "type": "Point", "coordinates": [ 79.1336691, 14.2246175 ] } },
{ "type": "Feature", "properties": { "element": "node", "id": 7809051898, "amenity": "hospital", "name": "Sri Sai Physiotherapy Clinic" }, "geometry": { "type": "Point", "coordinates": [ 79.161467, 14.194362 ] } },
{ "type": "Feature", "properties": { "element": "node", "id": 7809051902, "amenity": "hospital", "name": "Dr. Jaganmohan Ortho Hospital" }, "geometry": { "type": "Point", "coordinates": [ 79.1597501, 14.1939372 ] } },
{ "type": "Feature", "properties": { "element": "node", "id": 7809051911, "amenity": "hospital", "name": "Sri Balaji Hospitals" }, "geometry": { "type": "Point", "coordinates": [ 79.1616037, 14.1956143 ] } },
{ "type": "Feature", "properties": { "element": "node", "id": 7809051914, "amenity": "hospital", "name": "Sri Balaji Physiotherapy Hospital" }, "geometry": { "type": "Point", "coordinates": [ 79.1601804, 14.1959973 ] } },
{ "type": "Feature", "properties": { "element": "node", "id": 7809051918, "amenity": "hospital", "name": "Careplus Eye Hospital" }, "geometry": { "type": "Point", "coordinates": [ 79.161653, 14.195675 ] } },
{ "type": "Feature", "properties": { "element": "node", "id": 7809051922, "amenity": "hospital", "name": "Jayagowri Hospital" }, "geometry": { "type": "Point", "coordinates": [ 79.156862, 14.196771 ] } },
{ "type": "Feature", "properties": { "element": "node", "id": 7809051924, "amenity": "hospital", "name": "Jayasree Nursing Home" }, "geometry": { "type": "Point", "coordinates": [ 79.15828, 14.199127 ] } },
{ "type": "Feature", "properties": { "element": "node", "id": 7809051925, "amenity": "hospital", "name": "Nikhila Children Hospital" }, "geometry": { "type": "Point", "coordinates": [ 79.1588971, 14.1978428 ] } },
{ "type": "Feature", "properties": { "element": "node", "id": 7809051927, "amenity": "hospital", "name": "Pavani Hospitals" }, "geometry": { "type": "Point", "coordinates": [ 79.1585841, 14.1922255 ] } },
{ "type": "Feature", "properties": { "element": "node", "id": 7809051931, "amenity": "hospital", "name": "Madhuri Nursing Home" }, "geometry": { "type": "Point", "coordinates": [ 79.2091481, 14.1227056 ] } },
{ "type": "Feature", "properties": { "element": "node", "id": 7809051932, "amenity": "hospital", "name": "Kruthika Hospitals" }, "geometry": { "type": "Point", "coordinates": [ 79.161116, 14.1945111 ] } },
{ "type": "Feature", "properties": { "element": "node", "id": 7809051952, "amenity": "hospital", "name": "Kasigari Hospital" }, "geometry": { "type": "Point", "coordinates": [ 79.162443, 14.195943 ] } },
{ "type": "Feature", "properties": { "element": "node", "id": 7809051953, "amenity": "hospital", "name": "Dr. GV Subba Reddy Hospital" }, "geometry": { "type": "Point", "coordinates": [ 79.1592482, 14.1976907 ] } },
{ "type": "Feature", "properties": { "element": "node", "id": 7809051954, "amenity": "hospital", "name": "Chalamaiah Hospital" }, "geometry": { "type": "Point", "coordinates": [ 79.2093196, 14.1226447 ] } },
{ "type": "Feature", "properties": { "element": "node", "id": 7809051957, "amenity": "hospital", "name": "Ramachandra Hospital" }, "geometry": { "type": "Point", "coordinates": [ 79.1612037, 14.1949639 ] } },
{ "type": "Feature", "properties": { "element": "node", "id": 7809051958, "amenity": "hospital", "name": "Samatha Nursing Home" }, "geometry": { "type": "Point", "coordinates": [ 79.1597942, 14.194268 ] } },
{ "type": "Feature", "properties": { "element": "node", "id": 7809051965, "amenity": "hospital", "name": "Dr. Srihari Hospital" }, "geometry": { "type": "Point", "coordinates": [ 79.1592723, 14.1981171 ] } },
{ "type": "Feature", "properties": { "element": "node", "id": 7809051969, "amenity": "hospital", "name": "Khan's Physiotherapy Clinic" }, "geometry": { "type": "Point", "coordinates": [ 79.1552546, 14.1864023 ] } },
{ "type": "Feature", "properties": { "element": "node", "id": 7809051973, "amenity": "hospital", "name": "Vishnu Integrated Hospital" }, "geometry": { "type": "Point", "coordinates": [ 79.1604207, 14.1939898 ] } },
{ "type": "Feature", "properties": { "element": "node", "id": 7809051976, "amenity": "hospital", "name": "Janaki Rama Chest Hospital" }, "geometry": { "type": "Point", "coordinates": [ 79.1552506, 14.2017257 ] } },
{ "type": "Feature", "properties": { "element": "node", "id": 7809051977, "amenity": "hospital", "name": "Sri Satyam Hospital" }, "geometry": { "type": "Point", "coordinates": [ 79.1616885, 14.1948855 ] } },
{ "type": "Feature", "properties": { "element": "node", "id": 7809051983, "amenity": "hospital", "name": "Dr. Chandrasekhar Hospital" }, "geometry": { "type": "Point", "coordinates": [ 79.1597618, 14.1940394 ] } },
{ "type": "Feature", "properties": { "element": "node", "id": 11664595069, "amenity": "school", "name": "AP MODEL SCHOOL & COLLEGE Pullampeta" }, "geometry": { "type": "Point", "coordinates": [ 79.1977217, 14.1495575 ] } },
{ "type": "Feature", "properties": { "element": "way", "id": 1254795766, "amenity": "school", "name": "AP MODEL SCHOOL & COLLEGE Pullampeta" }, "geometry": { "type": "Polygon", "coordinates": [ [ [ 79.1968713, 14.1497412 ], [ 79.1986779, 14.1499847 ], [ 79.1994005, 14.1486047 ], [ 79.1986779, 14.1475963 ], [ 79.1975411, 14.1488098 ], [ 79.1968713, 14.1497412 ] ] ] } },
{ "type": "Feature", "properties": { "element": "way", "id": 1408203442, "amenity": "school", "name": null }, "geometry": { "type": "Polygon", "coordinates": [ [ [ 79.2176027, 14.2583605 ], [ 79.2181954, 14.2582699 ], [ 79.2182391, 14.2581036 ], [ 79.2182199, 14.2579735 ], [ 79.2182107, 14.2579544 ], [ 79.2185477, 14.2578132 ], [ 79.2181933, 14.2573476 ], [ 79.217556, 14.2575087 ], [ 79.2175378, 14.2578495 ], [ 79.2176027, 14.2583605 ] ] ] } },
{ "type": "Feature", "properties": { "element": "way", "id": 1435223084, "amenity": "school", "name": "Andhrapradesh Model School" }, "geometry": { "type": "Polygon", "coordinates": [ [ [ 79.2628669, 14.2959004 ], [ 79.2635117, 14.296632 ], [ 79.2648554, 14.2955139 ], [ 79.26409, 14.2948259 ], [ 79.2628669, 14.2959004 ] ] ] } }
]
}
