{
"type": "FeatureCollection",
"name": "derna_villages",
"crs": { "type": "name", "properties": { "name": "urn:ogc:def:crs:OGC:1.3:CRS84" } },
"features": [
{ "type": "Feature", "properties": { "village_id": "V001", "village_name": "ⴷⵔⵏⴰ درنة Derna", "place_type": "city", "pop_total": 50000, "lon": 22.6383195, "lat": 32.7593795 }, "geometry": { "type": "Polygon", "coordinates": [ [ [ 22.6463195, 32.7593795 ], [ 22.64628097781338, 32.758595362877365 ], [ 22.646165782243227, 32.757818777423871 ], [ 22.64597502268586, 32.757057222581963 ], [ 22.645710536260093, 32.756318032541081 ], [ 22.645374870114789, 32.755608326105396 ], [ 22.644971256898422, 32.754934938135847 ], [ 22.644503583626904, 32.754304353726695 ], [ 22.643976354249492, 32.753722645750507 ], [ 22.643394646273311, 32.753195416373103 ], [ 22.64276406186416, 32.75272774310158 ], [ 22.642090673894611, 32.752324129885217 ], [ 22.641380967458922, 32.751988463739913 ], [ 22.640641777418036, 32.751723977314143 ], [ 22.639880222576132, 32.751533217756773 ], [ 22.639103637122638, 32.751418022186627 ], [ 22.6383195, 32.7513795 ], [ 22.637535362877365, 32.751418022186627 ], [ 22.636758777423871, 32.751533217756773 ], [ 22.635997222581967, 32.751723977314143 ], [ 22.635258032541081, 32.751988463739913 ], [ 22.634548326105392, 32.752324129885217 ], [ 22.633874938135843, 32.75272774310158 ], [ 22.633244353726692, 32.753195416373103 ], [ 22.632662645750511, 32.753722645750507 ], [ 22.632135416373099, 32.754304353726695 ], [ 22.63166774310158, 32.754934938135847 ], [ 22.631264129885214, 32.755608326105396 ], [ 22.63092846373991, 32.756318032541081 ], [ 22.630663977314143, 32.757057222581963 ], [ 22.630473217756776, 32.757818777423871 ], [ 22.630358022186623, 32.758595362877365 ], [ 22.6303195, 32.7593795 ], [ 22.630358022186623, 32.760163637122638 ], [ 22.630473217756776, 32.760940222576131 ], [ 22.630663977314143, 32.76170177741804 ], [ 22.63092846373991, 32.762440967458922 ], [ 22.631264129885214, 32.763150673894607 ], [ 22.63166774310158, 32.763824061864156 ], [ 22.632135416373099, 32.764454646273308 ], [ 22.632662645750511, 32.765036354249496 ], [ 22.633244353726692, 32.7655635836269 ], [ 22.633874938135843, 32.766031256898422 ], [ 22.634548326105392, 32.766434870114786 ], [ 22.635258032541081, 32.76677053626009 ], [ 22.635997222581967, 32.76703502268586 ], [ 22.636758777423871, 32.76722578224323 ], [ 22.637535362877365, 32.767340977813376 ], [ 22.6383195, 32.7673795 ], [ 22.639103637122638, 32.767340977813376 ], [ 22.639880222576132, 32.76722578224323 ], [ 22.640641777418036, 32.76703502268586 ], [ 22.641380967458922, 32.76677053626009 ], [ 22.642090673894611, 32.766434870114786 ], [ 22.64276406186416, 32.766031256898422 ], [ 22.643394646273311, 32.7655635836269 ], [ 22.643976354249492, 32.765036354249496 ], [ 22.644503583626904, 32.764454646273308 ], [ 22.644971256898422, 32.763824061864156 ], [ 22.645374870114789, 32.763150673894607 ], [ 22.645710536260093, 32.762440967458922 ], [ 22.64597502268586, 32.76170177741804 ], [ 22.646165782243227, 32.760940222576131 ], [ 22.64628097781338, 32.760163637122638 ], [ 22.6463195, 32.7593795 ] ] ] } },
{ "type": "Feature", "properties": { "village_id": "V002", "village_name": "ⵍⴼⵜⴰⵉⵃ ⴷⵔⵏⵀ الفتائح درنه", "place_type": "village", "pop_total": 0, "lon": 22.6804843, "lat": 32.7001991 }, "geometry": { "type": "Polygon", "coordinates": [ [ [ 22.6884843, 32.7001991 ], [ 22.688445777813378, 32.699414962877363 ], [ 22.688330582243225, 32.698638377423869 ], [ 22.688139822685859, 32.697876822581961 ], [ 22.687875336260092, 32.697137632541079 ], [ 22.687539670114788, 32.696427926105393 ], [ 22.687136056898421, 32.695754538135844 ], [ 22.686668383626902, 32.695123953726693 ], [ 22.686141154249491, 32.694542245750505 ], [ 22.685559446273309, 32.6940150163731 ], [ 22.684928861864158, 32.693547343101578 ], [ 22.684255473894609, 32.693143729885215 ], [ 22.68354576745892, 32.692808063739911 ], [ 22.682806577418035, 32.69254357731414 ], [ 22.68204502257613, 32.69235281775677 ], [ 22.681268437122636, 32.692237622186624 ], [ 22.6804843, 32.6921991 ], [ 22.679700162877364, 32.692237622186624 ], [ 22.67892357742387, 32.69235281775677 ], [ 22.678162022581965, 32.69254357731414 ], [ 22.67742283254108, 32.692808063739911 ], [ 22.67671312610539, 32.693143729885215 ], [ 22.676039738135842, 32.693547343101578 ], [ 22.67540915372669, 32.6940150163731 ], [ 22.674827445750509, 32.694542245750505 ], [ 22.674300216373098, 32.695123953726693 ], [ 22.673832543101579, 32.695754538135844 ], [ 22.673428929885212, 32.696427926105393 ], [ 22.673093263739908, 32.697137632541079 ], [ 22.672828777314141, 32.697876822581961 ], [ 22.672638017756775, 32.698638377423869 ], [ 22.672522822186622, 32.699414962877363 ], [ 22.6724843, 32.7001991 ], [ 22.672522822186622, 32.700983237122635 ], [ 22.672638017756775, 32.701759822576129 ], [ 22.672828777314141, 32.702521377418037 ], [ 22.673093263739908, 32.703260567458919 ], [ 22.673428929885212, 32.703970273894605 ], [ 22.673832543101579, 32.704643661864154 ], [ 22.674300216373098, 32.705274246273305 ], [ 22.674827445750509, 32.705855954249493 ], [ 22.67540915372669, 32.706383183626897 ], [ 22.676039738135842, 32.70685085689842 ], [ 22.67671312610539, 32.707254470114783 ], [ 22.67742283254108, 32.707590136260087 ], [ 22.678162022581965, 32.707854622685858 ], [ 22.67892357742387, 32.708045382243228 ], [ 22.679700162877364, 32.708160577813373 ], [ 22.6804843, 32.7081991 ], [ 22.681268437122636, 32.708160577813373 ], [ 22.68204502257613, 32.708045382243228 ], [ 22.682806577418035, 32.707854622685858 ], [ 22.68354576745892, 32.707590136260087 ], [ 22.684255473894609, 32.707254470114783 ], [ 22.684928861864158, 32.70685085689842 ], [ 22.685559446273309, 32.706383183626897 ], [ 22.686141154249491, 32.705855954249493 ], [ 22.686668383626902, 32.705274246273305 ], [ 22.687136056898421, 32.704643661864154 ], [ 22.687539670114788, 32.703970273894605 ], [ 22.687875336260092, 32.703260567458919 ], [ 22.688139822685859, 32.702521377418037 ], [ 22.688330582243225, 32.701759822576129 ], [ 22.688445777813378, 32.700983237122635 ], [ 22.6884843, 32.7001991 ] ] ] } },
{ "type": "Feature", "properties": { "village_id": "V003", "village_name": "ⴷⵔⵏⴰ درنة Derna", "place_type": "city", "pop_total": 0, "lon": 22.622767915507435, "lat": 32.763595809195749 }, "geometry": { "type": "Polygon", "coordinates": [ [ [ 22.630767915507434, 32.763595809195749 ], [ 22.630729393320813, 32.762811672073113 ], [ 22.63061419775066, 32.762035086619619 ], [ 22.630423438193294, 32.761273531777711 ], [ 22.630158951767527, 32.760534341736829 ], [ 22.629823285622223, 32.759824635301143 ], [ 22.629419672405856, 32.759151247331594 ], [ 22.628951999134337, 32.758520662922443 ], [ 22.628424769756926, 32.757938954946255 ], [ 22.627843061780744, 32.757411725568851 ], [ 22.627212477371593, 32.756944052297328 ], [ 22.626539089402044, 32.756540439080965 ], [ 22.625829382966355, 32.756204772935661 ], [ 22.62509019292547, 32.75594028650989 ], [ 22.624328638083565, 32.755749526952521 ], [ 22.623552052630071, 32.755634331382375 ], [ 22.622767915507435, 32.755595809195746 ], [ 22.621983778384799, 32.755634331382375 ], [ 22.621207192931305, 32.755749526952521 ], [ 22.6204456380894, 32.75594028650989 ], [ 22.619706448048515, 32.756204772935661 ], [ 22.618996741612825, 32.756540439080965 ], [ 22.618323353643277, 32.756944052297328 ], [ 22.617692769234125, 32.757411725568851 ], [ 22.617111061257944, 32.757938954946255 ], [ 22.616583831880533, 32.758520662922443 ], [ 22.616116158609014, 32.759151247331594 ], [ 22.615712545392647, 32.759824635301143 ], [ 22.615376879247343, 32.760534341736829 ], [ 22.615112392821576, 32.761273531777711 ], [ 22.61492163326421, 32.762035086619619 ], [ 22.614806437694057, 32.762811672073113 ], [ 22.614767915507436, 32.763595809195749 ], [ 22.614806437694057, 32.764379946318385 ], [ 22.61492163326421, 32.765156531771879 ], [ 22.615112392821576, 32.765918086613787 ], [ 22.615376879247343, 32.766657276654669 ], [ 22.615712545392647, 32.767366983090355 ], [ 22.616116158609014, 32.768040371059904 ], [ 22.616583831880533, 32.768670955469055 ], [ 22.617111061257944, 32.769252663445243 ], [ 22.617692769234125, 32.769779892822648 ], [ 22.618323353643277, 32.77024756609417 ], [ 22.618996741612825, 32.770651179310534 ], [ 22.619706448048515, 32.770986845455838 ], [ 22.6204456380894, 32.771251331881608 ], [ 22.621207192931305, 32.771442091438978 ], [ 22.621983778384799, 32.771557287009124 ], [ 22.622767915507435, 32.771595809195752 ], [ 22.623552052630071, 32.771557287009124 ], [ 22.624328638083565, 32.771442091438978 ], [ 22.62509019292547, 32.771251331881608 ], [ 22.625829382966355, 32.770986845455838 ], [ 22.626539089402044, 32.770651179310534 ], [ 22.627212477371593, 32.77024756609417 ], [ 22.627843061780744, 32.769779892822648 ], [ 22.628424769756926, 32.769252663445243 ], [ 22.628951999134337, 32.768670955469055 ], [ 22.629419672405856, 32.768040371059904 ], [ 22.629823285622223, 32.767366983090355 ], [ 22.630158951767527, 32.766657276654669 ], [ 22.630423438193294, 32.765918086613787 ], [ 22.63061419775066, 32.765156531771879 ], [ 22.630729393320813, 32.764379946318385 ], [ 22.630767915507434, 32.763595809195749 ] ] ] } }
]
}
