{
"type": "FeatureCollection",
"name": "ivanovo_villages",
"crs": { "type": "name", "properties": { "name": "urn:ogc:def:crs:OGC:1.3:CRS84" } },
"features": [
{ "type": "Feature", "properties": { "village_id": "V001", "village_name": "Харманли", "place_type": "town", "pop_total": 20719, "lon": 25.9015211, "lat": 41.9302645 }, "geometry": { "type": "Polygon", "coordinates": [ [ [ 25.9095211, 41.9302645 ], [ 25.909482577813378, 41.929480362877364 ], [ 25.909367382243225, 41.92870377742387 ], [ 25.909176622685859, 41.927942222581962 ], [ 25.908912136260092, 41.92720303254108 ], [ 25.908576470114788, 41.926493326105394 ], [ 25.908172856898421, 41.925819938135845 ], [ 25.907705183626902, 41.925189353726694 ], [ 25.907177954249491, 41.924607645750505 ], [ 25.90659624627331, 41.924080416373101 ], [ 25.905965661864158, 41.923612743101579 ], [ 25.905292273894609, 41.923209129885215 ], [ 25.90458256745892, 41.922873463739911 ], [ 25.903843377418035, 41.922608977314141 ], [ 25.90308182257613, 41.922418217756771 ], [ 25.902305237122636, 41.922303022186625 ], [ 25.9015211, 41.9222645 ], [ 25.900736962877364, 41.922303022186625 ], [ 25.89996037742387, 41.922418217756771 ], [ 25.899198822581965, 41.922608977314141 ], [ 25.89845963254108, 41.922873463739911 ], [ 25.897749926105391, 41.923209129885215 ], [ 25.897076538135842, 41.923612743101579 ], [ 25.89644595372669, 41.924080416373101 ], [ 25.895864245750509, 41.924607645750505 ], [ 25.895337016373098, 41.925189353726694 ], [ 25.894869343101579, 41.925819938135845 ], [ 25.894465729885212, 41.926493326105394 ], [ 25.894130063739908, 41.92720303254108 ], [ 25.893865577314141, 41.927942222581962 ], [ 25.893674817756775, 41.92870377742387 ], [ 25.893559622186622, 41.929480362877364 ], [ 25.8935211, 41.9302645 ], [ 25.893559622186622, 41.931048637122636 ], [ 25.893674817756775, 41.93182522257613 ], [ 25.893865577314141, 41.932586777418038 ], [ 25.894130063739908, 41.93332596745892 ], [ 25.894465729885212, 41.934035673894606 ], [ 25.894869343101579, 41.934709061864154 ], [ 25.895337016373098, 41.935339646273306 ], [ 25.895864245750509, 41.935921354249494 ], [ 25.89644595372669, 41.936448583626898 ], [ 25.897076538135842, 41.936916256898421 ], [ 25.897749926105391, 41.937319870114784 ], [ 25.89845963254108, 41.937655536260088 ], [ 25.899198822581965, 41.937920022685859 ], [ 25.89996037742387, 41.938110782243228 ], [ 25.900736962877364, 41.938225977813374 ], [ 25.9015211, 41.9382645 ], [ 25.902305237122636, 41.938225977813374 ], [ 25.90308182257613, 41.938110782243228 ], [ 25.903843377418035, 41.937920022685859 ], [ 25.90458256745892, 41.937655536260088 ], [ 25.905292273894609, 41.937319870114784 ], [ 25.905965661864158, 41.936916256898421 ], [ 25.90659624627331, 41.936448583626898 ], [ 25.907177954249491, 41.935921354249494 ], [ 25.907705183626902, 41.935339646273306 ], [ 25.908172856898421, 41.934709061864154 ], [ 25.908576470114788, 41.934035673894606 ], [ 25.908912136260092, 41.93332596745892 ], [ 25.909176622685859, 41.932586777418038 ], [ 25.909367382243225, 41.93182522257613 ], [ 25.909482577813378, 41.931048637122636 ], [ 25.9095211, 41.9302645 ] ] ] } },
{ "type": "Feature", "properties": { "village_id": "V002", "village_name": "Надежден", "place_type": "village", "pop_total": 0, "lon": 25.9256999, "lat": 41.8823501 }, "geometry": { "type": "Polygon", "coordinates": [ [ [ 25.9336999, 41.8823501 ], [ 25.93366137781338, 41.88156596287736 ], [ 25.933546182243226, 41.880789377423866 ], [ 25.93335542268586, 41.880027822581958 ], [ 25.933090936260093, 41.879288632541076 ], [ 25.932755270114789, 41.878578926105391 ], [ 25.932351656898422, 41.877905538135842 ], [ 25.931883983626904, 41.87727495372669 ], [ 25.931356754249492, 41.876693245750502 ], [ 25.930775046273311, 41.876166016373098 ], [ 25.93014446186416, 41.875698343101575 ], [ 25.929471073894611, 41.875294729885212 ], [ 25.928761367458922, 41.874959063739908 ], [ 25.928022177418036, 41.874694577314138 ], [ 25.927260622576132, 41.874503817756768 ], [ 25.926484037122638, 41.874388622186622 ], [ 25.9256999, 41.8743501 ], [ 25.924915762877365, 41.874388622186622 ], [ 25.924139177423871, 41.874503817756768 ], [ 25.923377622581967, 41.874694577314138 ], [ 25.922638432541081, 41.874959063739908 ], [ 25.921928726105392, 41.875294729885212 ], [ 25.921255338135843, 41.875698343101575 ], [ 25.920624753726692, 41.876166016373098 ], [ 25.920043045750511, 41.876693245750502 ], [ 25.919515816373099, 41.87727495372669 ], [ 25.91904814310158, 41.877905538135842 ], [ 25.918644529885214, 41.878578926105391 ], [ 25.918308863739909, 41.879288632541076 ], [ 25.918044377314143, 41.880027822581958 ], [ 25.917853617756776, 41.880789377423866 ], [ 25.917738422186623, 41.88156596287736 ], [ 25.9176999, 41.8823501 ], [ 25.917738422186623, 41.883134237122633 ], [ 25.917853617756776, 41.883910822576127 ], [ 25.918044377314143, 41.884672377418035 ], [ 25.918308863739909, 41.885411567458917 ], [ 25.918644529885214, 41.886121273894602 ], [ 25.91904814310158, 41.886794661864151 ], [ 25.919515816373099, 41.887425246273303 ], [ 25.920043045750511, 41.888006954249491 ], [ 25.920624753726692, 41.888534183626895 ], [ 25.921255338135843, 41.889001856898417 ], [ 25.921928726105392, 41.889405470114781 ], [ 25.922638432541081, 41.889741136260085 ], [ 25.923377622581967, 41.890005622685855 ], [ 25.924139177423871, 41.890196382243225 ], [ 25.924915762877365, 41.890311577813371 ], [ 25.9256999, 41.8903501 ], [ 25.926484037122638, 41.890311577813371 ], [ 25.927260622576132, 41.890196382243225 ], [ 25.928022177418036, 41.890005622685855 ], [ 25.928761367458922, 41.889741136260085 ], [ 25.929471073894611, 41.889405470114781 ], [ 25.93014446186416, 41.889001856898417 ], [ 25.930775046273311, 41.888534183626895 ], [ 25.931356754249492, 41.888006954249491 ], [ 25.931883983626904, 41.887425246273303 ], [ 25.932351656898422, 41.886794661864151 ], [ 25.932755270114789, 41.886121273894602 ], [ 25.933090936260093, 41.885411567458917 ], [ 25.93335542268586, 41.884672377418035 ], [ 25.933546182243226, 41.883910822576127 ], [ 25.93366137781338, 41.883134237122633 ], [ 25.9336999, 41.8823501 ] ] ] } },
{ "type": "Feature", "properties": { "village_id": "V003", "village_name": "Рогозиново", "place_type": "village", "pop_total": 0, "lon": 25.9678386, "lat": 41.9224725 }, "geometry": { "type": "Polygon", "coordinates": [ [ [ 25.9758386, 41.9224725 ], [ 25.975800077813378, 41.921688362877362 ], [ 25.975684882243225, 41.920911777423868 ], [ 25.975494122685859, 41.92015022258196 ], [ 25.975229636260092, 41.919411032541078 ], [ 25.974893970114788, 41.918701326105392 ], [ 25.974490356898421, 41.918027938135843 ], [ 25.974022683626902, 41.917397353726692 ], [ 25.973495454249491, 41.916815645750503 ], [ 25.97291374627331, 41.916288416373099 ], [ 25.972283161864159, 41.915820743101577 ], [ 25.97160977389461, 41.915417129885213 ], [ 25.970900067458921, 41.915081463739909 ], [ 25.970160877418035, 41.914816977314139 ], [ 25.96939932257613, 41.914626217756769 ], [ 25.968622737122637, 41.914511022186623 ], [ 25.9678386, 41.9144725 ], [ 25.967054462877364, 41.914511022186623 ], [ 25.96627787742387, 41.914626217756769 ], [ 25.965516322581966, 41.914816977314139 ], [ 25.96477713254108, 41.915081463739909 ], [ 25.964067426105391, 41.915417129885213 ], [ 25.963394038135842, 41.915820743101577 ], [ 25.962763453726691, 41.916288416373099 ], [ 25.96218174575051, 41.916815645750503 ], [ 25.961654516373098, 41.917397353726692 ], [ 25.961186843101579, 41.918027938135843 ], [ 25.960783229885212, 41.918701326105392 ], [ 25.960447563739908, 41.919411032541078 ], [ 25.960183077314142, 41.92015022258196 ], [ 25.959992317756775, 41.920911777423868 ], [ 25.959877122186622, 41.921688362877362 ], [ 25.9598386, 41.9224725 ], [ 25.959877122186622, 41.923256637122634 ], [ 25.959992317756775, 41.924033222576128 ], [ 25.960183077314142, 41.924794777418036 ], [ 25.960447563739908, 41.925533967458918 ], [ 25.960783229885212, 41.926243673894604 ], [ 25.961186843101579, 41.926917061864152 ], [ 25.961654516373098, 41.927547646273304 ], [ 25.96218174575051, 41.928129354249492 ], [ 25.962763453726691, 41.928656583626896 ], [ 25.963394038135842, 41.929124256898419 ], [ 25.964067426105391, 41.929527870114782 ], [ 25.96477713254108, 41.929863536260086 ], [ 25.965516322581966, 41.930128022685857 ], [ 25.96627787742387, 41.930318782243226 ], [ 25.967054462877364, 41.930433977813372 ], [ 25.9678386, 41.9304725 ], [ 25.968622737122637, 41.930433977813372 ], [ 25.96939932257613, 41.930318782243226 ], [ 25.970160877418035, 41.930128022685857 ], [ 25.970900067458921, 41.929863536260086 ], [ 25.97160977389461, 41.929527870114782 ], [ 25.972283161864159, 41.929124256898419 ], [ 25.97291374627331, 41.928656583626896 ], [ 25.973495454249491, 41.928129354249492 ], [ 25.974022683626902, 41.927547646273304 ], [ 25.974490356898421, 41.926917061864152 ], [ 25.974893970114788, 41.926243673894604 ], [ 25.975229636260092, 41.925533967458918 ], [ 25.975494122685859, 41.924794777418036 ], [ 25.975684882243225, 41.924033222576128 ], [ 25.975800077813378, 41.923256637122634 ], [ 25.9758386, 41.9224725 ] ] ] } },
{ "type": "Feature", "properties": { "village_id": "V004", "village_name": "Болярски извор", "place_type": "village", "pop_total": 0, "lon": 25.8178727, "lat": 41.8048 }, "geometry": { "type": "Polygon", "coordinates": [ [ [ 25.8258727, 41.8048 ], [ 25.825834177813377, 41.804015862877364 ], [ 25.825718982243224, 41.80323927742387 ], [ 25.825528222685858, 41.802477722581962 ], [ 25.825263736260091, 41.80173853254108 ], [ 25.824928070114787, 41.801028826105394 ], [ 25.82452445689842, 41.800355438135846 ], [ 25.824056783626901, 41.799724853726694 ], [ 25.82352955424949, 41.799143145750506 ], [ 25.822947846273308, 41.798615916373102 ], [ 25.822317261864157, 41.798148243101579 ], [ 25.821643873894608, 41.797744629885216 ], [ 25.820934167458919, 41.797408963739912 ], [ 25.820194977418033, 41.797144477314141 ], [ 25.819433422576129, 41.796953717756772 ], [ 25.818656837122635, 41.796838522186626 ], [ 25.8178727, 41.7968 ], [ 25.817088562877363, 41.796838522186626 ], [ 25.816311977423869, 41.796953717756772 ], [ 25.815550422581964, 41.797144477314141 ], [ 25.814811232541079, 41.797408963739912 ], [ 25.814101526105389, 41.797744629885216 ], [ 25.813428138135841, 41.798148243101579 ], [ 25.812797553726689, 41.798615916373102 ], [ 25.812215845750508, 41.799143145750506 ], [ 25.811688616373097, 41.799724853726694 ], [ 25.811220943101578, 41.800355438135846 ], [ 25.810817329885211, 41.801028826105394 ], [ 25.810481663739907, 41.80173853254108 ], [ 25.81021717731414, 41.802477722581962 ], [ 25.810026417756774, 41.80323927742387 ], [ 25.809911222186621, 41.804015862877364 ], [ 25.8098727, 41.8048 ], [ 25.809911222186621, 41.805584137122636 ], [ 25.810026417756774, 41.80636072257613 ], [ 25.81021717731414, 41.807122277418038 ], [ 25.810481663739907, 41.80786146745892 ], [ 25.810817329885211, 41.808571173894606 ], [ 25.811220943101578, 41.809244561864155 ], [ 25.811688616373097, 41.809875146273306 ], [ 25.812215845750508, 41.810456854249495 ], [ 25.812797553726689, 41.810984083626899 ], [ 25.813428138135841, 41.811451756898421 ], [ 25.814101526105389, 41.811855370114785 ], [ 25.814811232541079, 41.812191036260089 ], [ 25.815550422581964, 41.812455522685859 ], [ 25.816311977423869, 41.812646282243229 ], [ 25.817088562877363, 41.812761477813375 ], [ 25.8178727, 41.8128 ], [ 25.818656837122635, 41.812761477813375 ], [ 25.819433422576129, 41.812646282243229 ], [ 25.820194977418033, 41.812455522685859 ], [ 25.820934167458919, 41.812191036260089 ], [ 25.821643873894608, 41.811855370114785 ], [ 25.822317261864157, 41.811451756898421 ], [ 25.822947846273308, 41.810984083626899 ], [ 25.82352955424949, 41.810456854249495 ], [ 25.824056783626901, 41.809875146273306 ], [ 25.82452445689842, 41.809244561864155 ], [ 25.824928070114787, 41.808571173894606 ], [ 25.825263736260091, 41.80786146745892 ], [ 25.825528222685858, 41.807122277418038 ], [ 25.825718982243224, 41.80636072257613 ], [ 25.825834177813377, 41.805584137122636 ], [ 25.8258727, 41.8048 ] ] ] } },
{ "type": "Feature", "properties": { "village_id": "V005", "village_name": "Черна могила", "place_type": "village", "pop_total": 105, "lon": 25.948731, "lat": 41.8092995 }, "geometry": { "type": "Polygon", "coordinates": [ [ [ 25.956731, 41.8092995 ], [ 25.956692477813377, 41.808515362877365 ], [ 25.956577282243224, 41.807738777423872 ], [ 25.956386522685857, 41.806977222581963 ], [ 25.956122036260091, 41.806238032541081 ], [ 25.955786370114787, 41.805528326105396 ], [ 25.95538275689842, 41.804854938135847 ], [ 25.954915083626901, 41.804224353726696 ], [ 25.954387854249489, 41.803642645750507 ], [ 25.953806146273308, 41.803115416373103 ], [ 25.953175561864157, 41.802647743101581 ], [ 25.952502173894608, 41.802244129885217 ], [ 25.951792467458919, 41.801908463739913 ], [ 25.951053277418033, 41.801643977314143 ], [ 25.950291722576129, 41.801453217756773 ], [ 25.949515137122635, 41.801338022186627 ], [ 25.948731, 41.8012995 ], [ 25.947946862877362, 41.801338022186627 ], [ 25.947170277423869, 41.801453217756773 ], [ 25.946408722581964, 41.801643977314143 ], [ 25.945669532541078, 41.801908463739913 ], [ 25.944959826105389, 41.802244129885217 ], [ 25.94428643813584, 41.802647743101581 ], [ 25.943655853726689, 41.803115416373103 ], [ 25.943074145750508, 41.803642645750507 ], [ 25.942546916373097, 41.804224353726696 ], [ 25.942079243101578, 41.804854938135847 ], [ 25.941675629885211, 41.805528326105396 ], [ 25.941339963739907, 41.806238032541081 ], [ 25.94107547731414, 41.806977222581963 ], [ 25.940884717756774, 41.807738777423872 ], [ 25.940769522186621, 41.808515362877365 ], [ 25.940731, 41.8092995 ], [ 25.940769522186621, 41.810083637122638 ], [ 25.940884717756774, 41.810860222576132 ], [ 25.94107547731414, 41.81162177741804 ], [ 25.941339963739907, 41.812360967458922 ], [ 25.941675629885211, 41.813070673894607 ], [ 25.942079243101578, 41.813744061864156 ], [ 25.942546916373097, 41.814374646273308 ], [ 25.943074145750508, 41.814956354249496 ], [ 25.943655853726689, 41.8154835836269 ], [ 25.94428643813584, 41.815951256898423 ], [ 25.944959826105389, 41.816354870114786 ], [ 25.945669532541078, 41.81669053626009 ], [ 25.946408722581964, 41.81695502268586 ], [ 25.947170277423869, 41.81714578224323 ], [ 25.947946862877362, 41.817260977813376 ], [ 25.948731, 41.8172995 ], [ 25.949515137122635, 41.817260977813376 ], [ 25.950291722576129, 41.81714578224323 ], [ 25.951053277418033, 41.81695502268586 ], [ 25.951792467458919, 41.81669053626009 ], [ 25.952502173894608, 41.816354870114786 ], [ 25.953175561864157, 41.815951256898423 ], [ 25.953806146273308, 41.8154835836269 ], [ 25.954387854249489, 41.814956354249496 ], [ 25.954915083626901, 41.814374646273308 ], [ 25.95538275689842, 41.813744061864156 ], [ 25.955786370114787, 41.813070673894607 ], [ 25.956122036260091, 41.812360967458922 ], [ 25.956386522685857, 41.81162177741804 ], [ 25.956577282243224, 41.810860222576132 ], [ 25.956692477813377, 41.810083637122638 ], [ 25.956731, 41.8092995 ] ] ] } },
{ "type": "Feature", "properties": { "village_id": "V006", "village_name": "Доситеево", "place_type": "village", "pop_total": 0, "lon": 26.0188699, "lat": 41.9141501 }, "geometry": { "type": "Polygon", "coordinates": [ [ [ 26.0268699, 41.9141501 ], [ 26.026831377813377, 41.913365962877364 ], [ 26.026716182243224, 41.91258937742387 ], [ 26.026525422685857, 41.911827822581962 ], [ 26.026260936260091, 41.91108863254108 ], [ 26.025925270114787, 41.910378926105395 ], [ 26.02552165689842, 41.909705538135846 ], [ 26.025053983626901, 41.909074953726694 ], [ 26.024526754249489, 41.908493245750506 ], [ 26.023945046273308, 41.907966016373102 ], [ 26.023314461864157, 41.90749834310158 ], [ 26.022641073894608, 41.907094729885216 ], [ 26.021931367458919, 41.906759063739912 ], [ 26.021192177418033, 41.906494577314142 ], [ 26.020430622576129, 41.906303817756772 ], [ 26.019654037122635, 41.906188622186626 ], [ 26.0188699, 41.9061501 ], [ 26.018085762877362, 41.906188622186626 ], [ 26.017309177423869, 41.906303817756772 ], [ 26.016547622581964, 41.906494577314142 ], [ 26.015808432541078, 41.906759063739912 ], [ 26.015098726105389, 41.907094729885216 ], [ 26.01442533813584, 41.90749834310158 ], [ 26.013794753726689, 41.907966016373102 ], [ 26.013213045750508, 41.908493245750506 ], [ 26.012685816373097, 41.909074953726694 ], [ 26.012218143101578, 41.909705538135846 ], [ 26.011814529885211, 41.910378926105395 ], [ 26.011478863739907, 41.91108863254108 ], [ 26.01121437731414, 41.911827822581962 ], [ 26.011023617756774, 41.91258937742387 ], [ 26.01090842218662, 41.913365962877364 ], [ 26.0108699, 41.9141501 ], [ 26.01090842218662, 41.914934237122637 ], [ 26.011023617756774, 41.915710822576131 ], [ 26.01121437731414, 41.916472377418039 ], [ 26.011478863739907, 41.917211567458921 ], [ 26.011814529885211, 41.917921273894606 ], [ 26.012218143101578, 41.918594661864155 ], [ 26.012685816373097, 41.919225246273307 ], [ 26.013213045750508, 41.919806954249495 ], [ 26.013794753726689, 41.920334183626899 ], [ 26.01442533813584, 41.920801856898422 ], [ 26.015098726105389, 41.921205470114785 ], [ 26.015808432541078, 41.921541136260089 ], [ 26.016547622581964, 41.921805622685859 ], [ 26.017309177423869, 41.921996382243229 ], [ 26.018085762877362, 41.922111577813375 ], [ 26.0188699, 41.9221501 ], [ 26.019654037122635, 41.922111577813375 ], [ 26.020430622576129, 41.921996382243229 ], [ 26.021192177418033, 41.921805622685859 ], [ 26.021931367458919, 41.921541136260089 ], [ 26.022641073894608, 41.921205470114785 ], [ 26.023314461864157, 41.920801856898422 ], [ 26.023945046273308, 41.920334183626899 ], [ 26.024526754249489, 41.919806954249495 ], [ 26.025053983626901, 41.919225246273307 ], [ 26.02552165689842, 41.918594661864155 ], [ 26.025925270114787, 41.917921273894606 ], [ 26.026260936260091, 41.917211567458921 ], [ 26.026525422685857, 41.916472377418039 ], [ 26.026716182243224, 41.915710822576131 ], [ 26.026831377813377, 41.914934237122637 ], [ 26.0268699, 41.9141501 ] ] ] } },
{ "type": "Feature", "properties": { "village_id": "V007", "village_name": "Брягово", "place_type": "village", "pop_total": 0, "lon": 25.7825701, "lat": 41.91613 }, "geometry": { "type": "Polygon", "coordinates": [ [ [ 25.7905701, 41.91613 ], [ 25.790531577813379, 41.915345862877366 ], [ 25.790416382243226, 41.914569277423873 ], [ 25.79022562268586, 41.913807722581964 ], [ 25.789961136260093, 41.913068532541082 ], [ 25.789625470114789, 41.912358826105397 ], [ 25.789221856898422, 41.911685438135848 ], [ 25.788754183626903, 41.911054853726696 ], [ 25.788226954249492, 41.910473145750508 ], [ 25.787645246273311, 41.909945916373104 ], [ 25.787014661864159, 41.909478243101582 ], [ 25.78634127389461, 41.909074629885218 ], [ 25.785631567458921, 41.908738963739914 ], [ 25.784892377418036, 41.908474477314144 ], [ 25.784130822576131, 41.908283717756774 ], [ 25.783354237122637, 41.908168522186628 ], [ 25.7825701, 41.90813 ], [ 25.781785962877365, 41.908168522186628 ], [ 25.781009377423871, 41.908283717756774 ], [ 25.780247822581966, 41.908474477314144 ], [ 25.779508632541081, 41.908738963739914 ], [ 25.778798926105392, 41.909074629885218 ], [ 25.778125538135843, 41.909478243101582 ], [ 25.777494953726691, 41.909945916373104 ], [ 25.77691324575051, 41.910473145750508 ], [ 25.776386016373099, 41.911054853726696 ], [ 25.77591834310158, 41.911685438135848 ], [ 25.775514729885213, 41.912358826105397 ], [ 25.775179063739909, 41.913068532541082 ], [ 25.774914577314142, 41.913807722581964 ], [ 25.774723817756776, 41.914569277423873 ], [ 25.774608622186623, 41.915345862877366 ], [ 25.7745701, 41.91613 ], [ 25.774608622186623, 41.916914137122639 ], [ 25.774723817756776, 41.917690722576133 ], [ 25.774914577314142, 41.918452277418041 ], [ 25.775179063739909, 41.919191467458923 ], [ 25.775514729885213, 41.919901173894608 ], [ 25.77591834310158, 41.920574561864157 ], [ 25.776386016373099, 41.921205146273309 ], [ 25.77691324575051, 41.921786854249497 ], [ 25.777494953726691, 41.922314083626901 ], [ 25.778125538135843, 41.922781756898424 ], [ 25.778798926105392, 41.923185370114787 ], [ 25.779508632541081, 41.923521036260091 ], [ 25.780247822581966, 41.923785522685861 ], [ 25.781009377423871, 41.923976282243231 ], [ 25.781785962877365, 41.924091477813377 ], [ 25.7825701, 41.92413 ], [ 25.783354237122637, 41.924091477813377 ], [ 25.784130822576131, 41.923976282243231 ], [ 25.784892377418036, 41.923785522685861 ], [ 25.785631567458921, 41.923521036260091 ], [ 25.78634127389461, 41.923185370114787 ], [ 25.787014661864159, 41.922781756898424 ], [ 25.787645246273311, 41.922314083626901 ], [ 25.788226954249492, 41.921786854249497 ], [ 25.788754183626903, 41.921205146273309 ], [ 25.789221856898422, 41.920574561864157 ], [ 25.789625470114789, 41.919901173894608 ], [ 25.789961136260093, 41.919191467458923 ], [ 25.79022562268586, 41.918452277418041 ], [ 25.790416382243226, 41.917690722576133 ], [ 25.790531577813379, 41.916914137122639 ], [ 25.7905701, 41.91613 ] ] ] } },
{ "type": "Feature", "properties": { "village_id": "V008", "village_name": "Бисер", "place_type": "village", "pop_total": 0, "lon": 25.9861181, "lat": 41.864346 }, "geometry": { "type": "Polygon", "coordinates": [ [ [ 25.9941181, 41.864346 ], [ 25.994079577813377, 41.863561862877361 ], [ 25.993964382243224, 41.862785277423868 ], [ 25.993773622685858, 41.862023722581959 ], [ 25.993509136260091, 41.861284532541077 ], [ 25.993173470114787, 41.860574826105392 ], [ 25.99276985689842, 41.859901438135843 ], [ 25.992302183626901, 41.859270853726692 ], [ 25.99177495424949, 41.858689145750503 ], [ 25.991193246273308, 41.858161916373099 ], [ 25.990562661864157, 41.857694243101577 ], [ 25.989889273894608, 41.857290629885213 ], [ 25.989179567458919, 41.856954963739909 ], [ 25.988440377418033, 41.856690477314139 ], [ 25.987678822576129, 41.856499717756769 ], [ 25.986902237122635, 41.856384522186623 ], [ 25.9861181, 41.856346 ], [ 25.985333962877363, 41.856384522186623 ], [ 25.984557377423869, 41.856499717756769 ], [ 25.983795822581964, 41.856690477314139 ], [ 25.983056632541079, 41.856954963739909 ], [ 25.982346926105389, 41.857290629885213 ], [ 25.981673538135841, 41.857694243101577 ], [ 25.981042953726689, 41.858161916373099 ], [ 25.980461245750508, 41.858689145750503 ], [ 25.979934016373097, 41.859270853726692 ], [ 25.979466343101578, 41.859901438135843 ], [ 25.979062729885211, 41.860574826105392 ], [ 25.978727063739907, 41.861284532541077 ], [ 25.97846257731414, 41.862023722581959 ], [ 25.978271817756774, 41.862785277423868 ], [ 25.978156622186621, 41.863561862877361 ], [ 25.9781181, 41.864346 ], [ 25.978156622186621, 41.865130137122634 ], [ 25.978271817756774, 41.865906722576128 ], [ 25.97846257731414, 41.866668277418036 ], [ 25.978727063739907, 41.867407467458918 ], [ 25.979062729885211, 41.868117173894603 ], [ 25.979466343101578, 41.868790561864152 ], [ 25.979934016373097, 41.869421146273304 ], [ 25.980461245750508, 41.870002854249492 ], [ 25.981042953726689, 41.870530083626896 ], [ 25.981673538135841, 41.870997756898419 ], [ 25.982346926105389, 41.871401370114782 ], [ 25.983056632541079, 41.871737036260086 ], [ 25.983795822581964, 41.872001522685856 ], [ 25.984557377423869, 41.872192282243226 ], [ 25.985333962877363, 41.872307477813372 ], [ 25.9861181, 41.872346 ], [ 25.986902237122635, 41.872307477813372 ], [ 25.987678822576129, 41.872192282243226 ], [ 25.988440377418033, 41.872001522685856 ], [ 25.989179567458919, 41.871737036260086 ], [ 25.989889273894608, 41.871401370114782 ], [ 25.990562661864157, 41.870997756898419 ], [ 25.991193246273308, 41.870530083626896 ], [ 25.99177495424949, 41.870002854249492 ], [ 25.992302183626901, 41.869421146273304 ], [ 25.99276985689842, 41.868790561864152 ], [ 25.993173470114787, 41.868117173894603 ], [ 25.993509136260091, 41.867407467458918 ], [ 25.993773622685858, 41.866668277418036 ], [ 25.993964382243224, 41.865906722576128 ], [ 25.994079577813377, 41.865130137122634 ], [ 25.9941181, 41.864346 ] ] ] } },
{ "type": "Feature", "properties": { "village_id": "V009", "village_name": "Славяново", "place_type": "village", "pop_total": 0, "lon": 25.78249, "lat": 41.80738 }, "geometry": { "type": "Polygon", "coordinates": [ [ [ 25.79049, 41.80738 ], [ 25.790451477813377, 41.806595862877366 ], [ 25.790336282243224, 41.805819277423872 ], [ 25.790145522685858, 41.805057722581964 ], [ 25.789881036260091, 41.804318532541082 ], [ 25.789545370114787, 41.803608826105396 ], [ 25.78914175689842, 41.802935438135847 ], [ 25.788674083626901, 41.802304853726696 ], [ 25.78814685424949, 41.801723145750508 ], [ 25.787565146273309, 41.801195916373104 ], [ 25.786934561864157, 41.800728243101581 ], [ 25.786261173894609, 41.800324629885218 ], [ 25.785551467458919, 41.799988963739914 ], [ 25.784812277418034, 41.799724477314143 ], [ 25.784050722576129, 41.799533717756773 ], [ 25.783274137122635, 41.799418522186627 ], [ 25.78249, 41.79938 ], [ 25.781705862877363, 41.799418522186627 ], [ 25.780929277423869, 41.799533717756773 ], [ 25.780167722581965, 41.799724477314143 ], [ 25.779428532541079, 41.799988963739914 ], [ 25.77871882610539, 41.800324629885218 ], [ 25.778045438135841, 41.800728243101581 ], [ 25.77741485372669, 41.801195916373104 ], [ 25.776833145750508, 41.801723145750508 ], [ 25.776305916373097, 41.802304853726696 ], [ 25.775838243101578, 41.802935438135847 ], [ 25.775434629885211, 41.803608826105396 ], [ 25.775098963739907, 41.804318532541082 ], [ 25.77483447731414, 41.805057722581964 ], [ 25.774643717756774, 41.805819277423872 ], [ 25.774528522186621, 41.806595862877366 ], [ 25.77449, 41.80738 ], [ 25.774528522186621, 41.808164137122638 ], [ 25.774643717756774, 41.808940722576132 ], [ 25.77483447731414, 41.80970227741804 ], [ 25.775098963739907, 41.810441467458922 ], [ 25.775434629885211, 41.811151173894608 ], [ 25.775838243101578, 41.811824561864157 ], [ 25.776305916373097, 41.812455146273308 ], [ 25.776833145750508, 41.813036854249496 ], [ 25.77741485372669, 41.8135640836269 ], [ 25.778045438135841, 41.814031756898423 ], [ 25.77871882610539, 41.814435370114786 ], [ 25.779428532541079, 41.81477103626009 ], [ 25.780167722581965, 41.815035522685861 ], [ 25.780929277423869, 41.815226282243231 ], [ 25.781705862877363, 41.815341477813377 ], [ 25.78249, 41.81538 ], [ 25.783274137122635, 41.815341477813377 ], [ 25.784050722576129, 41.815226282243231 ], [ 25.784812277418034, 41.815035522685861 ], [ 25.785551467458919, 41.81477103626009 ], [ 25.786261173894609, 41.814435370114786 ], [ 25.786934561864157, 41.814031756898423 ], [ 25.787565146273309, 41.8135640836269 ], [ 25.78814685424949, 41.813036854249496 ], [ 25.788674083626901, 41.812455146273308 ], [ 25.78914175689842, 41.811824561864157 ], [ 25.789545370114787, 41.811151173894608 ], [ 25.789881036260091, 41.810441467458922 ], [ 25.790145522685858, 41.80970227741804 ], [ 25.790336282243224, 41.808940722576132 ], [ 25.790451477813377, 41.808164137122638 ], [ 25.79049, 41.80738 ] ] ] } },
{ "type": "Feature", "properties": { "village_id": "V010", "village_name": "Остър камък", "place_type": "village", "pop_total": 0, "lon": 25.8509399, "lat": 41.8884 }, "geometry": { "type": "Polygon", "coordinates": [ [ [ 25.8589399, 41.8884 ], [ 25.858901377813378, 41.887615862877361 ], [ 25.858786182243225, 41.886839277423867 ], [ 25.858595422685859, 41.886077722581959 ], [ 25.858330936260092, 41.885338532541077 ], [ 25.857995270114788, 41.884628826105391 ], [ 25.857591656898421, 41.883955438135843 ], [ 25.857123983626902, 41.883324853726691 ], [ 25.856596754249491, 41.882743145750503 ], [ 25.85601504627331, 41.882215916373099 ], [ 25.855384461864158, 41.881748243101576 ], [ 25.85471107389461, 41.881344629885213 ], [ 25.85400136745892, 41.881008963739909 ], [ 25.853262177418035, 41.880744477314138 ], [ 25.85250062257613, 41.880553717756769 ], [ 25.851724037122636, 41.880438522186623 ], [ 25.8509399, 41.8804 ], [ 25.850155762877364, 41.880438522186623 ], [ 25.84937917742387, 41.880553717756769 ], [ 25.848617622581965, 41.880744477314138 ], [ 25.84787843254108, 41.881008963739909 ], [ 25.847168726105391, 41.881344629885213 ], [ 25.846495338135842, 41.881748243101576 ], [ 25.845864753726691, 41.882215916373099 ], [ 25.845283045750509, 41.882743145750503 ], [ 25.844755816373098, 41.883324853726691 ], [ 25.844288143101579, 41.883955438135843 ], [ 25.843884529885212, 41.884628826105391 ], [ 25.843548863739908, 41.885338532541077 ], [ 25.843284377314141, 41.886077722581959 ], [ 25.843093617756775, 41.886839277423867 ], [ 25.842978422186622, 41.887615862877361 ], [ 25.8429399, 41.8884 ], [ 25.842978422186622, 41.889184137122633 ], [ 25.843093617756775, 41.889960722576127 ], [ 25.843284377314141, 41.890722277418035 ], [ 25.843548863739908, 41.891461467458917 ], [ 25.843884529885212, 41.892171173894603 ], [ 25.844288143101579, 41.892844561864152 ], [ 25.844755816373098, 41.893475146273303 ], [ 25.845283045750509, 41.894056854249492 ], [ 25.845864753726691, 41.894584083626896 ], [ 25.846495338135842, 41.895051756898418 ], [ 25.847168726105391, 41.895455370114782 ], [ 25.84787843254108, 41.895791036260086 ], [ 25.848617622581965, 41.896055522685856 ], [ 25.84937917742387, 41.896246282243226 ], [ 25.850155762877364, 41.896361477813372 ], [ 25.8509399, 41.8964 ], [ 25.851724037122636, 41.896361477813372 ], [ 25.85250062257613, 41.896246282243226 ], [ 25.853262177418035, 41.896055522685856 ], [ 25.85400136745892, 41.895791036260086 ], [ 25.85471107389461, 41.895455370114782 ], [ 25.855384461864158, 41.895051756898418 ], [ 25.85601504627331, 41.894584083626896 ], [ 25.856596754249491, 41.894056854249492 ], [ 25.857123983626902, 41.893475146273303 ], [ 25.857591656898421, 41.892844561864152 ], [ 25.857995270114788, 41.892171173894603 ], [ 25.858330936260092, 41.891461467458917 ], [ 25.858595422685859, 41.890722277418035 ], [ 25.858786182243225, 41.889960722576127 ], [ 25.858901377813378, 41.889184137122633 ], [ 25.8589399, 41.8884 ] ] ] } },
{ "type": "Feature", "properties": { "village_id": "V011", "village_name": "Българин", "place_type": "village", "pop_total": 0, "lon": 25.9527788, "lat": 41.9562061 }, "geometry": { "type": "Polygon", "coordinates": [ [ [ 25.9607788, 41.9562061 ], [ 25.960740277813379, 41.955421962877367 ], [ 25.960625082243226, 41.954645377423873 ], [ 25.96043432268586, 41.953883822581965 ], [ 25.960169836260093, 41.953144632541083 ], [ 25.959834170114789, 41.952434926105397 ], [ 25.959430556898422, 41.951761538135848 ], [ 25.958962883626903, 41.951130953726697 ], [ 25.958435654249492, 41.950549245750508 ], [ 25.95785394627331, 41.950022016373104 ], [ 25.957223361864159, 41.949554343101582 ], [ 25.95654997389461, 41.949150729885218 ], [ 25.955840267458921, 41.948815063739914 ], [ 25.955101077418036, 41.948550577314144 ], [ 25.954339522576131, 41.948359817756774 ], [ 25.953562937122637, 41.948244622186628 ], [ 25.9527788, 41.9482061 ], [ 25.951994662877365, 41.948244622186628 ], [ 25.951218077423871, 41.948359817756774 ], [ 25.950456522581966, 41.948550577314144 ], [ 25.949717332541081, 41.948815063739914 ], [ 25.949007626105391, 41.949150729885218 ], [ 25.948334238135843, 41.949554343101582 ], [ 25.947703653726691, 41.950022016373104 ], [ 25.94712194575051, 41.950549245750508 ], [ 25.946594716373099, 41.951130953726697 ], [ 25.94612704310158, 41.951761538135848 ], [ 25.945723429885213, 41.952434926105397 ], [ 25.945387763739909, 41.953144632541083 ], [ 25.945123277314142, 41.953883822581965 ], [ 25.944932517756776, 41.954645377423873 ], [ 25.944817322186623, 41.955421962877367 ], [ 25.9447788, 41.9562061 ], [ 25.944817322186623, 41.956990237122639 ], [ 25.944932517756776, 41.957766822576133 ], [ 25.945123277314142, 41.958528377418041 ], [ 25.945387763739909, 41.959267567458923 ], [ 25.945723429885213, 41.959977273894609 ], [ 25.94612704310158, 41.960650661864157 ], [ 25.946594716373099, 41.961281246273309 ], [ 25.94712194575051, 41.961862954249497 ], [ 25.947703653726691, 41.962390183626901 ], [ 25.948334238135843, 41.962857856898424 ], [ 25.949007626105391, 41.963261470114787 ], [ 25.949717332541081, 41.963597136260091 ], [ 25.950456522581966, 41.963861622685862 ], [ 25.951218077423871, 41.964052382243231 ], [ 25.951994662877365, 41.964167577813377 ], [ 25.9527788, 41.9642061 ], [ 25.953562937122637, 41.964167577813377 ], [ 25.954339522576131, 41.964052382243231 ], [ 25.955101077418036, 41.963861622685862 ], [ 25.955840267458921, 41.963597136260091 ], [ 25.95654997389461, 41.963261470114787 ], [ 25.957223361864159, 41.962857856898424 ], [ 25.95785394627331, 41.962390183626901 ], [ 25.958435654249492, 41.961862954249497 ], [ 25.958962883626903, 41.961281246273309 ], [ 25.959430556898422, 41.960650661864157 ], [ 25.959834170114789, 41.959977273894609 ], [ 25.960169836260093, 41.959267567458923 ], [ 25.96043432268586, 41.958528377418041 ], [ 25.960625082243226, 41.957766822576133 ], [ 25.960740277813379, 41.956990237122639 ], [ 25.9607788, 41.9562061 ] ] ] } },
{ "type": "Feature", "properties": { "village_id": "V012", "village_name": "Родопи", "place_type": "village", "pop_total": 0, "lon": 25.75562, "lat": 41.91981 }, "geometry": { "type": "Polygon", "coordinates": [ [ [ 25.76362, 41.91981 ], [ 25.763581477813378, 41.919025862877362 ], [ 25.763466282243225, 41.918249277423868 ], [ 25.763275522685859, 41.91748772258196 ], [ 25.763011036260092, 41.916748532541078 ], [ 25.762675370114788, 41.916038826105392 ], [ 25.762271756898421, 41.915365438135844 ], [ 25.761804083626902, 41.914734853726692 ], [ 25.761276854249491, 41.914153145750504 ], [ 25.76069514627331, 41.9136259163731 ], [ 25.760064561864159, 41.913158243101577 ], [ 25.75939117389461, 41.912754629885214 ], [ 25.758681467458921, 41.91241896373991 ], [ 25.757942277418035, 41.912154477314139 ], [ 25.75718072257613, 41.91196371775677 ], [ 25.756404137122637, 41.911848522186624 ], [ 25.75562, 41.91181 ], [ 25.754835862877364, 41.911848522186624 ], [ 25.75405927742387, 41.91196371775677 ], [ 25.753297722581966, 41.912154477314139 ], [ 25.75255853254108, 41.91241896373991 ], [ 25.751848826105391, 41.912754629885214 ], [ 25.751175438135842, 41.913158243101577 ], [ 25.750544853726691, 41.9136259163731 ], [ 25.74996314575051, 41.914153145750504 ], [ 25.749435916373098, 41.914734853726692 ], [ 25.748968243101579, 41.915365438135844 ], [ 25.748564629885212, 41.916038826105392 ], [ 25.748228963739908, 41.916748532541078 ], [ 25.747964477314142, 41.91748772258196 ], [ 25.747773717756775, 41.918249277423868 ], [ 25.747658522186622, 41.919025862877362 ], [ 25.74762, 41.91981 ], [ 25.747658522186622, 41.920594137122634 ], [ 25.747773717756775, 41.921370722576128 ], [ 25.747964477314142, 41.922132277418036 ], [ 25.748228963739908, 41.922871467458918 ], [ 25.748564629885212, 41.923581173894604 ], [ 25.748968243101579, 41.924254561864153 ], [ 25.749435916373098, 41.924885146273304 ], [ 25.74996314575051, 41.925466854249493 ], [ 25.750544853726691, 41.925994083626897 ], [ 25.751175438135842, 41.926461756898419 ], [ 25.751848826105391, 41.926865370114783 ], [ 25.75255853254108, 41.927201036260087 ], [ 25.753297722581966, 41.927465522685857 ], [ 25.75405927742387, 41.927656282243227 ], [ 25.754835862877364, 41.927771477813373 ], [ 25.75562, 41.92781 ], [ 25.756404137122637, 41.927771477813373 ], [ 25.75718072257613, 41.927656282243227 ], [ 25.757942277418035, 41.927465522685857 ], [ 25.758681467458921, 41.927201036260087 ], [ 25.75939117389461, 41.926865370114783 ], [ 25.760064561864159, 41.926461756898419 ], [ 25.76069514627331, 41.925994083626897 ], [ 25.761276854249491, 41.925466854249493 ], [ 25.761804083626902, 41.924885146273304 ], [ 25.762271756898421, 41.924254561864153 ], [ 25.762675370114788, 41.923581173894604 ], [ 25.763011036260092, 41.922871467458918 ], [ 25.763275522685859, 41.922132277418036 ], [ 25.763466282243225, 41.921370722576128 ], [ 25.763581477813378, 41.920594137122634 ], [ 25.76362, 41.91981 ] ] ] } },
{ "type": "Feature", "properties": { "village_id": "V013", "village_name": "Лешниково", "place_type": "village", "pop_total": 0, "lon": 25.91046, "lat": 41.84235 }, "geometry": { "type": "Polygon", "coordinates": [ [ [ 25.91846, 41.84235 ], [ 25.918421477813379, 41.841565862877367 ], [ 25.918306282243226, 41.840789277423873 ], [ 25.918115522685859, 41.840027722581965 ], [ 25.917851036260092, 41.839288532541083 ], [ 25.917515370114788, 41.838578826105397 ], [ 25.917111756898422, 41.837905438135849 ], [ 25.916644083626903, 41.837274853726697 ], [ 25.916116854249491, 41.836693145750509 ], [ 25.91553514627331, 41.836165916373105 ], [ 25.914904561864159, 41.835698243101582 ], [ 25.91423117389461, 41.835294629885219 ], [ 25.913521467458921, 41.834958963739915 ], [ 25.912782277418035, 41.834694477314144 ], [ 25.912020722576131, 41.834503717756775 ], [ 25.911244137122637, 41.834388522186629 ], [ 25.91046, 41.83435 ], [ 25.909675862877364, 41.834388522186629 ], [ 25.90889927742387, 41.834503717756775 ], [ 25.908137722581966, 41.834694477314144 ], [ 25.90739853254108, 41.834958963739915 ], [ 25.906688826105391, 41.835294629885219 ], [ 25.906015438135842, 41.835698243101582 ], [ 25.905384853726691, 41.836165916373105 ], [ 25.90480314575051, 41.836693145750509 ], [ 25.904275916373098, 41.837274853726697 ], [ 25.903808243101579, 41.837905438135849 ], [ 25.903404629885213, 41.838578826105397 ], [ 25.903068963739909, 41.839288532541083 ], [ 25.902804477314142, 41.840027722581965 ], [ 25.902613717756775, 41.840789277423873 ], [ 25.902498522186622, 41.841565862877367 ], [ 25.90246, 41.84235 ], [ 25.902498522186622, 41.84313413712264 ], [ 25.902613717756775, 41.843910722576133 ], [ 25.902804477314142, 41.844672277418042 ], [ 25.903068963739909, 41.845411467458923 ], [ 25.903404629885213, 41.846121173894609 ], [ 25.903808243101579, 41.846794561864158 ], [ 25.904275916373098, 41.847425146273309 ], [ 25.90480314575051, 41.848006854249498 ], [ 25.905384853726691, 41.848534083626902 ], [ 25.906015438135842, 41.849001756898424 ], [ 25.906688826105391, 41.849405370114788 ], [ 25.90739853254108, 41.849741036260092 ], [ 25.908137722581966, 41.850005522685862 ], [ 25.90889927742387, 41.850196282243232 ], [ 25.909675862877364, 41.850311477813378 ], [ 25.91046, 41.85035 ], [ 25.911244137122637, 41.850311477813378 ], [ 25.912020722576131, 41.850196282243232 ], [ 25.912782277418035, 41.850005522685862 ], [ 25.913521467458921, 41.849741036260092 ], [ 25.91423117389461, 41.849405370114788 ], [ 25.914904561864159, 41.849001756898424 ], [ 25.91553514627331, 41.848534083626902 ], [ 25.916116854249491, 41.848006854249498 ], [ 25.916644083626903, 41.847425146273309 ], [ 25.917111756898422, 41.846794561864158 ], [ 25.917515370114788, 41.846121173894609 ], [ 25.917851036260092, 41.845411467458923 ], [ 25.918115522685859, 41.844672277418042 ], [ 25.918306282243226, 41.843910722576133 ], [ 25.918421477813379, 41.84313413712264 ], [ 25.91846, 41.84235 ] ] ] } },
{ "type": "Feature", "properties": { "village_id": "V014", "village_name": "Иваново", "place_type": "village", "pop_total": 0, "lon": 25.8779299, "lat": 41.8533401 }, "geometry": { "type": "Polygon", "coordinates": [ [ [ 25.8859299, 41.8533401 ], [ 25.88589137781338, 41.852555962877361 ], [ 25.885776182243227, 41.851779377423867 ], [ 25.88558542268586, 41.851017822581959 ], [ 25.885320936260094, 41.850278632541077 ], [ 25.88498527011479, 41.849568926105391 ], [ 25.884581656898423, 41.848895538135842 ], [ 25.884113983626904, 41.848264953726691 ], [ 25.883586754249492, 41.847683245750503 ], [ 25.883005046273311, 41.847156016373098 ], [ 25.88237446186416, 41.846688343101576 ], [ 25.881701073894611, 41.846284729885213 ], [ 25.880991367458922, 41.845949063739909 ], [ 25.880252177418036, 41.845684577314138 ], [ 25.879490622576132, 41.845493817756768 ], [ 25.878714037122638, 41.845378622186622 ], [ 25.8779299, 41.8453401 ], [ 25.877145762877365, 41.845378622186622 ], [ 25.876369177423872, 41.845493817756768 ], [ 25.875607622581967, 41.845684577314138 ], [ 25.874868432541081, 41.845949063739909 ], [ 25.874158726105392, 41.846284729885213 ], [ 25.873485338135843, 41.846688343101576 ], [ 25.872854753726692, 41.847156016373098 ], [ 25.872273045750511, 41.847683245750503 ], [ 25.8717458163731, 41.848264953726691 ], [ 25.871278143101581, 41.848895538135842 ], [ 25.870874529885214, 41.849568926105391 ], [ 25.87053886373991, 41.850278632541077 ], [ 25.870274377314143, 41.851017822581959 ], [ 25.870083617756777, 41.851779377423867 ], [ 25.869968422186624, 41.852555962877361 ], [ 25.8699299, 41.8533401 ], [ 25.869968422186624, 41.854124237122633 ], [ 25.870083617756777, 41.854900822576127 ], [ 25.870274377314143, 41.855662377418035 ], [ 25.87053886373991, 41.856401567458917 ], [ 25.870874529885214, 41.857111273894603 ], [ 25.871278143101581, 41.857784661864152 ], [ 25.8717458163731, 41.858415246273303 ], [ 25.872273045750511, 41.858996954249491 ], [ 25.872854753726692, 41.859524183626895 ], [ 25.873485338135843, 41.859991856898418 ], [ 25.874158726105392, 41.860395470114781 ], [ 25.874868432541081, 41.860731136260085 ], [ 25.875607622581967, 41.860995622685856 ], [ 25.876369177423872, 41.861186382243226 ], [ 25.877145762877365, 41.861301577813371 ], [ 25.8779299, 41.8613401 ], [ 25.878714037122638, 41.861301577813371 ], [ 25.879490622576132, 41.861186382243226 ], [ 25.880252177418036, 41.860995622685856 ], [ 25.880991367458922, 41.860731136260085 ], [ 25.881701073894611, 41.860395470114781 ], [ 25.88237446186416, 41.859991856898418 ], [ 25.883005046273311, 41.859524183626895 ], [ 25.883586754249492, 41.858996954249491 ], [ 25.884113983626904, 41.858415246273303 ], [ 25.884581656898423, 41.857784661864152 ], [ 25.88498527011479, 41.857111273894603 ], [ 25.885320936260094, 41.856401567458917 ], [ 25.88558542268586, 41.855662377418035 ], [ 25.885776182243227, 41.854900822576127 ], [ 25.88589137781338, 41.854124237122633 ], [ 25.8859299, 41.8533401 ] ] ] } },
{ "type": "Feature", "properties": { "village_id": "V015", "village_name": "Смирненци", "place_type": "village", "pop_total": 0, "lon": 25.87742, "lat": 41.8060901 }, "geometry": { "type": "Polygon", "coordinates": [ [ [ 25.88542, 41.8060901 ], [ 25.885381477813379, 41.805305962877362 ], [ 25.885266282243226, 41.804529377423869 ], [ 25.88507552268586, 41.80376782258196 ], [ 25.884811036260093, 41.803028632541078 ], [ 25.884475370114789, 41.802318926105393 ], [ 25.884071756898422, 41.801645538135844 ], [ 25.883604083626903, 41.801014953726693 ], [ 25.883076854249492, 41.800433245750504 ], [ 25.88249514627331, 41.7999060163731 ], [ 25.881864561864159, 41.799438343101578 ], [ 25.88119117389461, 41.799034729885214 ], [ 25.880481467458921, 41.79869906373991 ], [ 25.879742277418035, 41.79843457731414 ], [ 25.878980722576131, 41.79824381775677 ], [ 25.878204137122637, 41.798128622186624 ], [ 25.87742, 41.7980901 ], [ 25.876635862877365, 41.798128622186624 ], [ 25.875859277423871, 41.79824381775677 ], [ 25.875097722581966, 41.79843457731414 ], [ 25.874358532541081, 41.79869906373991 ], [ 25.873648826105391, 41.799034729885214 ], [ 25.872975438135843, 41.799438343101578 ], [ 25.872344853726691, 41.7999060163731 ], [ 25.87176314575051, 41.800433245750504 ], [ 25.871235916373099, 41.801014953726693 ], [ 25.87076824310158, 41.801645538135844 ], [ 25.870364629885213, 41.802318926105393 ], [ 25.870028963739909, 41.803028632541078 ], [ 25.869764477314142, 41.80376782258196 ], [ 25.869573717756776, 41.804529377423869 ], [ 25.869458522186623, 41.805305962877362 ], [ 25.86942, 41.8060901 ], [ 25.869458522186623, 41.806874237122635 ], [ 25.869573717756776, 41.807650822576129 ], [ 25.869764477314142, 41.808412377418037 ], [ 25.870028963739909, 41.809151567458919 ], [ 25.870364629885213, 41.809861273894604 ], [ 25.87076824310158, 41.810534661864153 ], [ 25.871235916373099, 41.811165246273305 ], [ 25.87176314575051, 41.811746954249493 ], [ 25.872344853726691, 41.812274183626897 ], [ 25.872975438135843, 41.81274185689842 ], [ 25.873648826105391, 41.813145470114783 ], [ 25.874358532541081, 41.813481136260087 ], [ 25.875097722581966, 41.813745622685857 ], [ 25.875859277423871, 41.813936382243227 ], [ 25.876635862877365, 41.814051577813373 ], [ 25.87742, 41.8140901 ], [ 25.878204137122637, 41.814051577813373 ], [ 25.878980722576131, 41.813936382243227 ], [ 25.879742277418035, 41.813745622685857 ], [ 25.880481467458921, 41.813481136260087 ], [ 25.88119117389461, 41.813145470114783 ], [ 25.881864561864159, 41.81274185689842 ], [ 25.88249514627331, 41.812274183626897 ], [ 25.883076854249492, 41.811746954249493 ], [ 25.883604083626903, 41.811165246273305 ], [ 25.884071756898422, 41.810534661864153 ], [ 25.884475370114789, 41.809861273894604 ], [ 25.884811036260093, 41.809151567458919 ], [ 25.88507552268586, 41.808412377418037 ], [ 25.885266282243226, 41.807650822576129 ], [ 25.885381477813379, 41.806874237122635 ], [ 25.88542, 41.8060901 ] ] ] } },
{ "type": "Feature", "properties": { "village_id": "V016", "village_name": "Белица", "place_type": "village", "pop_total": 0, "lon": 26.00719, "lat": 41.8278001 }, "geometry": { "type": "Polygon", "coordinates": [ [ [ 26.01519, 41.8278001 ], [ 26.015151477813379, 41.827015962877361 ], [ 26.015036282243226, 41.826239377423867 ], [ 26.01484552268586, 41.825477822581959 ], [ 26.014581036260093, 41.824738632541077 ], [ 26.014245370114789, 41.824028926105392 ], [ 26.013841756898422, 41.823355538135843 ], [ 26.013374083626903, 41.822724953726691 ], [ 26.012846854249492, 41.822143245750503 ], [ 26.012265146273311, 41.821616016373099 ], [ 26.01163456186416, 41.821148343101576 ], [ 26.010961173894611, 41.820744729885213 ], [ 26.010251467458922, 41.820409063739909 ], [ 26.009512277418036, 41.820144577314139 ], [ 26.008750722576131, 41.819953817756769 ], [ 26.007974137122638, 41.819838622186623 ], [ 26.00719, 41.8198001 ], [ 26.006405862877365, 41.819838622186623 ], [ 26.005629277423871, 41.819953817756769 ], [ 26.004867722581967, 41.820144577314139 ], [ 26.004128532541081, 41.820409063739909 ], [ 26.003418826105392, 41.820744729885213 ], [ 26.002745438135843, 41.821148343101576 ], [ 26.002114853726692, 41.821616016373099 ], [ 26.001533145750511, 41.822143245750503 ], [ 26.001005916373099, 41.822724953726691 ], [ 26.00053824310158, 41.823355538135843 ], [ 26.000134629885213, 41.824028926105392 ], [ 25.999798963739909, 41.824738632541077 ], [ 25.999534477314143, 41.825477822581959 ], [ 25.999343717756776, 41.826239377423867 ], [ 25.999228522186623, 41.827015962877361 ], [ 25.99919, 41.8278001 ], [ 25.999228522186623, 41.828584237122634 ], [ 25.999343717756776, 41.829360822576128 ], [ 25.999534477314143, 41.830122377418036 ], [ 25.999798963739909, 41.830861567458918 ], [ 26.000134629885213, 41.831571273894603 ], [ 26.00053824310158, 41.832244661864152 ], [ 26.001005916373099, 41.832875246273304 ], [ 26.001533145750511, 41.833456954249492 ], [ 26.002114853726692, 41.833984183626896 ], [ 26.002745438135843, 41.834451856898418 ], [ 26.003418826105392, 41.834855470114782 ], [ 26.004128532541081, 41.835191136260086 ], [ 26.004867722581967, 41.835455622685856 ], [ 26.005629277423871, 41.835646382243226 ], [ 26.006405862877365, 41.835761577813372 ], [ 26.00719, 41.8358001 ], [ 26.007974137122638, 41.835761577813372 ], [ 26.008750722576131, 41.835646382243226 ], [ 26.009512277418036, 41.835455622685856 ], [ 26.010251467458922, 41.835191136260086 ], [ 26.010961173894611, 41.834855470114782 ], [ 26.01163456186416, 41.834451856898418 ], [ 26.012265146273311, 41.833984183626896 ], [ 26.012846854249492, 41.833456954249492 ], [ 26.013374083626903, 41.832875246273304 ], [ 26.013841756898422, 41.832244661864152 ], [ 26.014245370114789, 41.831571273894603 ], [ 26.014581036260093, 41.830861567458918 ], [ 26.01484552268586, 41.830122377418036 ], [ 26.015036282243226, 41.829360822576128 ], [ 26.015151477813379, 41.828584237122634 ], [ 26.01519, 41.8278001 ] ] ] } },
{ "type": "Feature", "properties": { "village_id": "V017", "village_name": "Лозен", "place_type": "village", "pop_total": 0, "lon": 26.0274099, "lat": 41.80446 }, "geometry": { "type": "Polygon", "coordinates": [ [ [ 26.0354099, 41.80446 ], [ 26.035371377813377, 41.803675862877363 ], [ 26.035256182243224, 41.802899277423869 ], [ 26.035065422685857, 41.802137722581961 ], [ 26.034800936260091, 41.801398532541079 ], [ 26.034465270114787, 41.800688826105393 ], [ 26.03406165689842, 41.800015438135844 ], [ 26.033593983626901, 41.799384853726693 ], [ 26.033066754249489, 41.798803145750504 ], [ 26.032485046273308, 41.7982759163731 ], [ 26.031854461864157, 41.797808243101578 ], [ 26.031181073894608, 41.797404629885214 ], [ 26.030471367458919, 41.79706896373991 ], [ 26.029732177418033, 41.79680447731414 ], [ 26.028970622576129, 41.79661371775677 ], [ 26.028194037122635, 41.796498522186624 ], [ 26.0274099, 41.79646 ], [ 26.026625762877362, 41.796498522186624 ], [ 26.025849177423868, 41.79661371775677 ], [ 26.025087622581964, 41.79680447731414 ], [ 26.024348432541078, 41.79706896373991 ], [ 26.023638726105389, 41.797404629885214 ], [ 26.02296533813584, 41.797808243101578 ], [ 26.022334753726689, 41.7982759163731 ], [ 26.021753045750508, 41.798803145750504 ], [ 26.021225816373097, 41.799384853726693 ], [ 26.020758143101578, 41.800015438135844 ], [ 26.020354529885211, 41.800688826105393 ], [ 26.020018863739907, 41.801398532541079 ], [ 26.01975437731414, 41.802137722581961 ], [ 26.019563617756774, 41.802899277423869 ], [ 26.01944842218662, 41.803675862877363 ], [ 26.0194099, 41.80446 ], [ 26.01944842218662, 41.805244137122635 ], [ 26.019563617756774, 41.806020722576129 ], [ 26.01975437731414, 41.806782277418037 ], [ 26.020018863739907, 41.807521467458919 ], [ 26.020354529885211, 41.808231173894605 ], [ 26.020758143101578, 41.808904561864153 ], [ 26.021225816373097, 41.809535146273305 ], [ 26.021753045750508, 41.810116854249493 ], [ 26.022334753726689, 41.810644083626897 ], [ 26.02296533813584, 41.81111175689842 ], [ 26.023638726105389, 41.811515370114783 ], [ 26.024348432541078, 41.811851036260087 ], [ 26.025087622581964, 41.812115522685858 ], [ 26.025849177423868, 41.812306282243227 ], [ 26.026625762877362, 41.812421477813373 ], [ 26.0274099, 41.81246 ], [ 26.028194037122635, 41.812421477813373 ], [ 26.028970622576129, 41.812306282243227 ], [ 26.029732177418033, 41.812115522685858 ], [ 26.030471367458919, 41.811851036260087 ], [ 26.031181073894608, 41.811515370114783 ], [ 26.031854461864157, 41.81111175689842 ], [ 26.032485046273308, 41.810644083626897 ], [ 26.033066754249489, 41.810116854249493 ], [ 26.033593983626901, 41.809535146273305 ], [ 26.03406165689842, 41.808904561864153 ], [ 26.034465270114787, 41.808231173894605 ], [ 26.034800936260091, 41.807521467458919 ], [ 26.035065422685857, 41.806782277418037 ], [ 26.035256182243224, 41.806020722576129 ], [ 26.035371377813377, 41.805244137122635 ], [ 26.0354099, 41.80446 ] ] ] } },
{ "type": "Feature", "properties": { "village_id": "V018", "village_name": "Елена", "place_type": "village", "pop_total": 0, "lon": 25.79335, "lat": 41.8416201 }, "geometry": { "type": "Polygon", "coordinates": [ [ [ 25.80135, 41.8416201 ], [ 25.801311477813378, 41.840835962877364 ], [ 25.801196282243225, 41.84005937742387 ], [ 25.801005522685859, 41.839297822581962 ], [ 25.800741036260092, 41.83855863254108 ], [ 25.800405370114788, 41.837848926105394 ], [ 25.800001756898421, 41.837175538135845 ], [ 25.799534083626902, 41.836544953726694 ], [ 25.799006854249491, 41.835963245750506 ], [ 25.79842514627331, 41.835436016373102 ], [ 25.797794561864158, 41.834968343101579 ], [ 25.79712117389461, 41.834564729885216 ], [ 25.79641146745892, 41.834229063739912 ], [ 25.795672277418035, 41.833964577314141 ], [ 25.79491072257613, 41.833773817756772 ], [ 25.794134137122636, 41.833658622186626 ], [ 25.79335, 41.8336201 ], [ 25.792565862877364, 41.833658622186626 ], [ 25.79178927742387, 41.833773817756772 ], [ 25.791027722581966, 41.833964577314141 ], [ 25.79028853254108, 41.834229063739912 ], [ 25.789578826105391, 41.834564729885216 ], [ 25.788905438135842, 41.834968343101579 ], [ 25.788274853726691, 41.835436016373102 ], [ 25.787693145750509, 41.835963245750506 ], [ 25.787165916373098, 41.836544953726694 ], [ 25.786698243101579, 41.837175538135845 ], [ 25.786294629885212, 41.837848926105394 ], [ 25.785958963739908, 41.83855863254108 ], [ 25.785694477314141, 41.839297822581962 ], [ 25.785503717756775, 41.84005937742387 ], [ 25.785388522186622, 41.840835962877364 ], [ 25.78535, 41.8416201 ], [ 25.785388522186622, 41.842404237122636 ], [ 25.785503717756775, 41.84318082257613 ], [ 25.785694477314141, 41.843942377418038 ], [ 25.785958963739908, 41.84468156745892 ], [ 25.786294629885212, 41.845391273894606 ], [ 25.786698243101579, 41.846064661864155 ], [ 25.787165916373098, 41.846695246273306 ], [ 25.787693145750509, 41.847276954249494 ], [ 25.788274853726691, 41.847804183626899 ], [ 25.788905438135842, 41.848271856898421 ], [ 25.789578826105391, 41.848675470114785 ], [ 25.79028853254108, 41.849011136260089 ], [ 25.791027722581966, 41.849275622685859 ], [ 25.79178927742387, 41.849466382243229 ], [ 25.792565862877364, 41.849581577813375 ], [ 25.79335, 41.8496201 ], [ 25.794134137122636, 41.849581577813375 ], [ 25.79491072257613, 41.849466382243229 ], [ 25.795672277418035, 41.849275622685859 ], [ 25.79641146745892, 41.849011136260089 ], [ 25.79712117389461, 41.848675470114785 ], [ 25.797794561864158, 41.848271856898421 ], [ 25.79842514627331, 41.847804183626899 ], [ 25.799006854249491, 41.847276954249494 ], [ 25.799534083626902, 41.846695246273306 ], [ 25.800001756898421, 41.846064661864155 ], [ 25.800405370114788, 41.845391273894606 ], [ 25.800741036260092, 41.84468156745892 ], [ 25.801005522685859, 41.843942377418038 ], [ 25.801196282243225, 41.84318082257613 ], [ 25.801311477813378, 41.842404237122636 ], [ 25.80135, 41.8416201 ] ] ] } }
]
}
