{
"type": "FeatureCollection",
"name": "malpasset_villages",
"crs": { "type": "name", "properties": { "name": "urn:ogc:def:crs:OGC:1.3:CRS84" } },
"features": [
{ "type": "Feature", "properties": { "village_id": "V001", "village_name": "Fréjus", "place_type": "town", "pop_total": 57082, "lon": 6.7360182, "lat": 43.4330308 }, "geometry": { "type": "Polygon", "coordinates": [ [ [ 6.7440182, 43.4330308 ], [ 6.743979677813377, 43.432246662877361 ], [ 6.743864482243226, 43.431470077423867 ], [ 6.743673722685858, 43.430708522581959 ], [ 6.74340923626009, 43.429969332541077 ], [ 6.743073570114787, 43.429259626105392 ], [ 6.74266995689842, 43.428586238135843 ], [ 6.742202283626902, 43.427955653726691 ], [ 6.741675054249493, 43.427373945750503 ], [ 6.741093346273309, 43.426846716373099 ], [ 6.740462761864157, 43.426379043101576 ], [ 6.739789373894608, 43.425975429885213 ], [ 6.739079667458921, 43.425639763739909 ], [ 6.738340477418036, 43.425375277314139 ], [ 6.737578922576129, 43.425184517756769 ], [ 6.736802337122636, 43.425069322186623 ], [ 6.7360182, 43.4250308 ], [ 6.735234062877364, 43.425069322186623 ], [ 6.734457477423871, 43.425184517756769 ], [ 6.733695922581965, 43.425375277314139 ], [ 6.732956732541079, 43.425639763739909 ], [ 6.732247026105393, 43.425975429885213 ], [ 6.731573638135844, 43.426379043101576 ], [ 6.730943053726691, 43.426846716373099 ], [ 6.730361345750508, 43.427373945750503 ], [ 6.729834116373098, 43.427955653726691 ], [ 6.72936644310158, 43.428586238135843 ], [ 6.728962829885213, 43.429259626105392 ], [ 6.72862716373991, 43.429969332541077 ], [ 6.728362677314142, 43.430708522581959 ], [ 6.728171917756774, 43.431470077423867 ], [ 6.728056722186623, 43.432246662877361 ], [ 6.7280182, 43.4330308 ], [ 6.728056722186623, 43.433814937122634 ], [ 6.728171917756774, 43.434591522576127 ], [ 6.728362677314142, 43.435353077418036 ], [ 6.72862716373991, 43.436092267458918 ], [ 6.728962829885213, 43.436801973894603 ], [ 6.72936644310158, 43.437475361864152 ], [ 6.729834116373098, 43.438105946273303 ], [ 6.730361345750508, 43.438687654249492 ], [ 6.730943053726691, 43.439214883626896 ], [ 6.731573638135844, 43.439682556898418 ], [ 6.732247026105393, 43.440086170114782 ], [ 6.732956732541079, 43.440421836260086 ], [ 6.733695922581965, 43.440686322685856 ], [ 6.734457477423871, 43.440877082243226 ], [ 6.735234062877364, 43.440992277813372 ], [ 6.7360182, 43.4410308 ], [ 6.736802337122636, 43.440992277813372 ], [ 6.737578922576129, 43.440877082243226 ], [ 6.738340477418036, 43.440686322685856 ], [ 6.739079667458921, 43.440421836260086 ], [ 6.739789373894608, 43.440086170114782 ], [ 6.740462761864157, 43.439682556898418 ], [ 6.741093346273309, 43.439214883626896 ], [ 6.741675054249493, 43.438687654249492 ], [ 6.742202283626902, 43.438105946273303 ], [ 6.74266995689842, 43.437475361864152 ], [ 6.743073570114787, 43.436801973894603 ], [ 6.74340923626009, 43.436092267458918 ], [ 6.743673722685858, 43.435353077418036 ], [ 6.743864482243226, 43.434591522576127 ], [ 6.743979677813377, 43.433814937122634 ], [ 6.7440182, 43.4330308 ] ] ] } },
{ "type": "Feature", "properties": { "village_id": "V002", "village_name": "Puget-sur-Argens", "place_type": "village", "pop_total": 8195, "lon": 6.6844356, "lat": 43.4561681 }, "geometry": { "type": "Polygon", "coordinates": [ [ [ 6.6924356, 43.4561681 ], [ 6.692397077813377, 43.455383962877363 ], [ 6.692281882243226, 43.454607377423869 ], [ 6.692091122685857, 43.453845822581961 ], [ 6.69182663626009, 43.453106632541079 ], [ 6.691490970114787, 43.452396926105394 ], [ 6.69108735689842, 43.451723538135845 ], [ 6.690619683626902, 43.451092953726693 ], [ 6.690092454249492, 43.450511245750505 ], [ 6.689510746273308, 43.449984016373101 ], [ 6.688880161864156, 43.449516343101578 ], [ 6.688206773894607, 43.449112729885215 ], [ 6.687497067458921, 43.448777063739911 ], [ 6.686757877418035, 43.448512577314141 ], [ 6.685996322576129, 43.448321817756771 ], [ 6.685219737122636, 43.448206622186625 ], [ 6.6844356, 43.4481681 ], [ 6.683651462877363, 43.448206622186625 ], [ 6.68287487742387, 43.448321817756771 ], [ 6.682113322581964, 43.448512577314141 ], [ 6.681374132541078, 43.448777063739911 ], [ 6.680664426105392, 43.449112729885215 ], [ 6.679991038135843, 43.449516343101578 ], [ 6.679360453726691, 43.449984016373101 ], [ 6.678778745750507, 43.450511245750505 ], [ 6.678251516373098, 43.451092953726693 ], [ 6.677783843101579, 43.451723538135845 ], [ 6.677380229885213, 43.452396926105394 ], [ 6.677044563739909, 43.453106632541079 ], [ 6.676780077314142, 43.453845822581961 ], [ 6.676589317756774, 43.454607377423869 ], [ 6.676474122186622, 43.455383962877363 ], [ 6.6764356, 43.4561681 ], [ 6.676474122186622, 43.456952237122636 ], [ 6.676589317756774, 43.457728822576129 ], [ 6.676780077314142, 43.458490377418038 ], [ 6.677044563739909, 43.45922956745892 ], [ 6.677380229885213, 43.459939273894605 ], [ 6.677783843101579, 43.460612661864154 ], [ 6.678251516373098, 43.461243246273305 ], [ 6.678778745750507, 43.461824954249494 ], [ 6.679360453726691, 43.462352183626898 ], [ 6.679991038135843, 43.46281985689842 ], [ 6.680664426105392, 43.463223470114784 ], [ 6.681374132541078, 43.463559136260088 ], [ 6.682113322581964, 43.463823622685858 ], [ 6.68287487742387, 43.464014382243228 ], [ 6.683651462877363, 43.464129577813374 ], [ 6.6844356, 43.4641681 ], [ 6.685219737122636, 43.464129577813374 ], [ 6.685996322576129, 43.464014382243228 ], [ 6.686757877418035, 43.463823622685858 ], [ 6.687497067458921, 43.463559136260088 ], [ 6.688206773894607, 43.463223470114784 ], [ 6.688880161864156, 43.46281985689842 ], [ 6.689510746273308, 43.462352183626898 ], [ 6.690092454249492, 43.461824954249494 ], [ 6.690619683626902, 43.461243246273305 ], [ 6.69108735689842, 43.460612661864154 ], [ 6.691490970114787, 43.459939273894605 ], [ 6.69182663626009, 43.45922956745892 ], [ 6.692091122685857, 43.458490377418038 ], [ 6.692281882243226, 43.457728822576129 ], [ 6.692397077813377, 43.456952237122636 ], [ 6.6924356, 43.4561681 ] ] ] } },
{ "type": "Feature", "properties": { "village_id": "V003", "village_name": "Bagnols-en-Forêt", "place_type": "village", "pop_total": 2909, "lon": 6.6981788, "lat": 43.5376002 }, "geometry": { "type": "Polygon", "coordinates": [ [ [ 6.7061788, 43.5376002 ], [ 6.706140277813377, 43.536816062877364 ], [ 6.706025082243226, 43.53603947742387 ], [ 6.705834322685858, 43.535277922581962 ], [ 6.70556983626009, 43.53453873254108 ], [ 6.705234170114787, 43.533829026105394 ], [ 6.70483055689842, 43.533155638135845 ], [ 6.704362883626902, 43.532525053726694 ], [ 6.703835654249493, 43.531943345750506 ], [ 6.703253946273309, 43.531416116373101 ], [ 6.702623361864156, 43.530948443101579 ], [ 6.701949973894608, 43.530544829885216 ], [ 6.701240267458921, 43.530209163739912 ], [ 6.700501077418036, 43.529944677314141 ], [ 6.699739522576129, 43.529753917756771 ], [ 6.698962937122636, 43.529638722186625 ], [ 6.6981788, 43.5296002 ], [ 6.697394662877364, 43.529638722186625 ], [ 6.696618077423871, 43.529753917756771 ], [ 6.695856522581964, 43.529944677314141 ], [ 6.695117332541079, 43.530209163739912 ], [ 6.694407626105392, 43.530544829885216 ], [ 6.693734238135844, 43.530948443101579 ], [ 6.693103653726691, 43.531416116373101 ], [ 6.692521945750507, 43.531943345750506 ], [ 6.691994716373098, 43.532525053726694 ], [ 6.69152704310158, 43.533155638135845 ], [ 6.691123429885213, 43.533829026105394 ], [ 6.69078776373991, 43.53453873254108 ], [ 6.690523277314142, 43.535277922581962 ], [ 6.690332517756774, 43.53603947742387 ], [ 6.690217322186623, 43.536816062877364 ], [ 6.6901788, 43.5376002 ], [ 6.690217322186623, 43.538384337122636 ], [ 6.690332517756774, 43.53916092257613 ], [ 6.690523277314142, 43.539922477418038 ], [ 6.69078776373991, 43.54066166745892 ], [ 6.691123429885213, 43.541371373894606 ], [ 6.69152704310158, 43.542044761864155 ], [ 6.691994716373098, 43.542675346273306 ], [ 6.692521945750507, 43.543257054249494 ], [ 6.693103653726691, 43.543784283626898 ], [ 6.693734238135844, 43.544251956898421 ], [ 6.694407626105392, 43.544655570114784 ], [ 6.695117332541079, 43.544991236260088 ], [ 6.695856522581964, 43.545255722685859 ], [ 6.696618077423871, 43.545446482243229 ], [ 6.697394662877364, 43.545561677813375 ], [ 6.6981788, 43.5456002 ], [ 6.698962937122636, 43.545561677813375 ], [ 6.699739522576129, 43.545446482243229 ], [ 6.700501077418036, 43.545255722685859 ], [ 6.701240267458921, 43.544991236260088 ], [ 6.701949973894608, 43.544655570114784 ], [ 6.702623361864156, 43.544251956898421 ], [ 6.703253946273309, 43.543784283626898 ], [ 6.703835654249493, 43.543257054249494 ], [ 6.704362883626902, 43.542675346273306 ], [ 6.70483055689842, 43.542044761864155 ], [ 6.705234170114787, 43.541371373894606 ], [ 6.70556983626009, 43.54066166745892 ], [ 6.705834322685858, 43.539922477418038 ], [ 6.706025082243226, 43.53916092257613 ], [ 6.706140277813377, 43.538384337122636 ], [ 6.7061788, 43.5376002 ] ] ] } },
{ "type": "Feature", "properties": { "village_id": "V004", "village_name": "Logis de Paris", "place_type": "hamlet", "pop_total": 0, "lon": 6.8095893, "lat": 43.5168274 }, "geometry": { "type": "Polygon", "coordinates": [ [ [ 6.8175893, 43.5168274 ], [ 6.817550777813377, 43.516043262877361 ], [ 6.817435582243226, 43.515266677423867 ], [ 6.817244822685858, 43.514505122581959 ], [ 6.81698033626009, 43.513765932541077 ], [ 6.816644670114787, 43.513056226105391 ], [ 6.81624105689842, 43.512382838135842 ], [ 6.815773383626902, 43.511752253726691 ], [ 6.815246154249492, 43.511170545750502 ], [ 6.814664446273309, 43.510643316373098 ], [ 6.814033861864156, 43.510175643101576 ], [ 6.813360473894607, 43.509772029885212 ], [ 6.812650767458921, 43.509436363739908 ], [ 6.811911577418035, 43.509171877314138 ], [ 6.811150022576129, 43.508981117756768 ], [ 6.810373437122636, 43.508865922186622 ], [ 6.8095893, 43.5088274 ], [ 6.808805162877364, 43.508865922186622 ], [ 6.808028577423871, 43.508981117756768 ], [ 6.807267022581964, 43.509171877314138 ], [ 6.806527832541079, 43.509436363739908 ], [ 6.805818126105392, 43.509772029885212 ], [ 6.805144738135843, 43.510175643101576 ], [ 6.804514153726691, 43.510643316373098 ], [ 6.803932445750507, 43.511170545750502 ], [ 6.803405216373098, 43.511752253726691 ], [ 6.80293754310158, 43.512382838135842 ], [ 6.802533929885213, 43.513056226105391 ], [ 6.80219826373991, 43.513765932541077 ], [ 6.801933777314142, 43.514505122581959 ], [ 6.801743017756774, 43.515266677423867 ], [ 6.801627822186623, 43.516043262877361 ], [ 6.8015893, 43.5168274 ], [ 6.801627822186623, 43.517611537122633 ], [ 6.801743017756774, 43.518388122576127 ], [ 6.801933777314142, 43.519149677418035 ], [ 6.80219826373991, 43.519888867458917 ], [ 6.802533929885213, 43.520598573894603 ], [ 6.80293754310158, 43.521271961864151 ], [ 6.803405216373098, 43.521902546273303 ], [ 6.803932445750507, 43.522484254249491 ], [ 6.804514153726691, 43.523011483626895 ], [ 6.805144738135843, 43.523479156898418 ], [ 6.805818126105392, 43.523882770114781 ], [ 6.806527832541079, 43.524218436260085 ], [ 6.807267022581964, 43.524482922685856 ], [ 6.808028577423871, 43.524673682243225 ], [ 6.808805162877364, 43.524788877813371 ], [ 6.8095893, 43.5248274 ], [ 6.810373437122636, 43.524788877813371 ], [ 6.811150022576129, 43.524673682243225 ], [ 6.811911577418035, 43.524482922685856 ], [ 6.812650767458921, 43.524218436260085 ], [ 6.813360473894607, 43.523882770114781 ], [ 6.814033861864156, 43.523479156898418 ], [ 6.814664446273309, 43.523011483626895 ], [ 6.815246154249492, 43.522484254249491 ], [ 6.815773383626902, 43.521902546273303 ], [ 6.81624105689842, 43.521271961864151 ], [ 6.816644670114787, 43.520598573894603 ], [ 6.81698033626009, 43.519888867458917 ], [ 6.817244822685858, 43.519149677418035 ], [ 6.817435582243226, 43.518388122576127 ], [ 6.817550777813377, 43.517611537122633 ], [ 6.8175893, 43.5168274 ] ] ] } },
{ "type": "Feature", "properties": { "village_id": "V005", "village_name": "Le Castellan", "place_type": "hamlet", "pop_total": 0, "lon": 6.8105463, "lat": 43.5143396 }, "geometry": { "type": "Polygon", "coordinates": [ [ [ 6.8185463, 43.5143396 ], [ 6.818507777813378, 43.513555462877363 ], [ 6.818392582243226, 43.51277887742387 ], [ 6.818201822685858, 43.512017322581961 ], [ 6.817937336260091, 43.511278132541079 ], [ 6.817601670114787, 43.510568426105394 ], [ 6.817198056898421, 43.509895038135845 ], [ 6.816730383626902, 43.509264453726693 ], [ 6.816203154249493, 43.508682745750505 ], [ 6.815621446273309, 43.508155516373101 ], [ 6.814990861864157, 43.507687843101579 ], [ 6.814317473894608, 43.507284229885215 ], [ 6.813607767458921, 43.506948563739911 ], [ 6.812868577418036, 43.506684077314141 ], [ 6.81210702257613, 43.506493317756771 ], [ 6.811330437122637, 43.506378122186625 ], [ 6.8105463, 43.5063396 ], [ 6.809762162877364, 43.506378122186625 ], [ 6.808985577423871, 43.506493317756771 ], [ 6.808224022581965, 43.506684077314141 ], [ 6.807484832541079, 43.506948563739911 ], [ 6.806775126105393, 43.507284229885215 ], [ 6.806101738135844, 43.507687843101579 ], [ 6.805471153726692, 43.508155516373101 ], [ 6.804889445750508, 43.508682745750505 ], [ 6.804362216373098, 43.509264453726693 ], [ 6.80389454310158, 43.509895038135845 ], [ 6.803490929885213, 43.510568426105394 ], [ 6.80315526373991, 43.511278132541079 ], [ 6.802890777314142, 43.512017322581961 ], [ 6.802700017756774, 43.51277887742387 ], [ 6.802584822186623, 43.513555462877363 ], [ 6.8025463, 43.5143396 ], [ 6.802584822186623, 43.515123737122636 ], [ 6.802700017756774, 43.51590032257613 ], [ 6.802890777314142, 43.516661877418038 ], [ 6.80315526373991, 43.51740106745892 ], [ 6.803490929885213, 43.518110773894605 ], [ 6.80389454310158, 43.518784161864154 ], [ 6.804362216373098, 43.519414746273306 ], [ 6.804889445750508, 43.519996454249494 ], [ 6.805471153726692, 43.520523683626898 ], [ 6.806101738135844, 43.520991356898421 ], [ 6.806775126105393, 43.521394970114784 ], [ 6.807484832541079, 43.521730636260088 ], [ 6.808224022581965, 43.521995122685858 ], [ 6.808985577423871, 43.522185882243228 ], [ 6.809762162877364, 43.522301077813374 ], [ 6.8105463, 43.5223396 ], [ 6.811330437122637, 43.522301077813374 ], [ 6.81210702257613, 43.522185882243228 ], [ 6.812868577418036, 43.521995122685858 ], [ 6.813607767458921, 43.521730636260088 ], [ 6.814317473894608, 43.521394970114784 ], [ 6.814990861864157, 43.520991356898421 ], [ 6.815621446273309, 43.520523683626898 ], [ 6.816203154249493, 43.519996454249494 ], [ 6.816730383626902, 43.519414746273306 ], [ 6.817198056898421, 43.518784161864154 ], [ 6.817601670114787, 43.518110773894605 ], [ 6.817937336260091, 43.51740106745892 ], [ 6.818201822685858, 43.516661877418038 ], [ 6.818392582243226, 43.51590032257613 ], [ 6.818507777813378, 43.515123737122636 ], [ 6.8185463, 43.5143396 ] ] ] } },
{ "type": "Feature", "properties": { "village_id": "V006", "village_name": "Pas de Jacquet", "place_type": "hamlet", "pop_total": 0, "lon": 6.8112329, "lat": 43.5188709 }, "geometry": { "type": "Polygon", "coordinates": [ [ [ 6.8192329, 43.5188709 ], [ 6.819194377813377, 43.518086762877367 ], [ 6.819079182243226, 43.517310177423873 ], [ 6.818888422685858, 43.516548622581965 ], [ 6.81862393626009, 43.515809432541083 ], [ 6.818288270114787, 43.515099726105397 ], [ 6.81788465689842, 43.514426338135848 ], [ 6.817416983626902, 43.513795753726697 ], [ 6.816889754249493, 43.513214045750509 ], [ 6.816308046273309, 43.512686816373105 ], [ 6.815677461864157, 43.512219143101582 ], [ 6.815004073894608, 43.511815529885219 ], [ 6.814294367458921, 43.511479863739915 ], [ 6.813555177418036, 43.511215377314144 ], [ 6.812793622576129, 43.511024617756775 ], [ 6.812017037122637, 43.510909422186629 ], [ 6.8112329, 43.5108709 ], [ 6.810448762877364, 43.510909422186629 ], [ 6.809672177423871, 43.511024617756775 ], [ 6.808910622581965, 43.511215377314144 ], [ 6.808171432541079, 43.511479863739915 ], [ 6.807461726105393, 43.511815529885219 ], [ 6.806788338135844, 43.512219143101582 ], [ 6.806157753726692, 43.512686816373105 ], [ 6.805576045750508, 43.513214045750509 ], [ 6.805048816373098, 43.513795753726697 ], [ 6.80458114310158, 43.514426338135848 ], [ 6.804177529885213, 43.515099726105397 ], [ 6.80384186373991, 43.515809432541083 ], [ 6.803577377314142, 43.516548622581965 ], [ 6.803386617756774, 43.517310177423873 ], [ 6.803271422186623, 43.518086762877367 ], [ 6.8032329, 43.5188709 ], [ 6.803271422186623, 43.519655037122639 ], [ 6.803386617756774, 43.520431622576133 ], [ 6.803577377314142, 43.521193177418041 ], [ 6.80384186373991, 43.521932367458923 ], [ 6.804177529885213, 43.522642073894609 ], [ 6.80458114310158, 43.523315461864158 ], [ 6.805048816373098, 43.523946046273309 ], [ 6.805576045750508, 43.524527754249497 ], [ 6.806157753726692, 43.525054983626902 ], [ 6.806788338135844, 43.525522656898424 ], [ 6.807461726105393, 43.525926270114788 ], [ 6.808171432541079, 43.526261936260092 ], [ 6.808910622581965, 43.526526422685862 ], [ 6.809672177423871, 43.526717182243232 ], [ 6.810448762877364, 43.526832377813378 ], [ 6.8112329, 43.5268709 ], [ 6.812017037122637, 43.526832377813378 ], [ 6.812793622576129, 43.526717182243232 ], [ 6.813555177418036, 43.526526422685862 ], [ 6.814294367458921, 43.526261936260092 ], [ 6.815004073894608, 43.525926270114788 ], [ 6.815677461864157, 43.525522656898424 ], [ 6.816308046273309, 43.525054983626902 ], [ 6.816889754249493, 43.524527754249497 ], [ 6.817416983626902, 43.523946046273309 ], [ 6.81788465689842, 43.523315461864158 ], [ 6.818288270114787, 43.522642073894609 ], [ 6.81862393626009, 43.521932367458923 ], [ 6.818888422685858, 43.521193177418041 ], [ 6.819079182243226, 43.520431622576133 ], [ 6.819194377813377, 43.519655037122639 ], [ 6.8192329, 43.5188709 ] ] ] } },
{ "type": "Feature", "properties": { "village_id": "V007", "village_name": "Hameau de Marras", "place_type": "hamlet", "pop_total": 0, "lon": 6.8100571, "lat": 43.5204828 }, "geometry": { "type": "Polygon", "coordinates": [ [ [ 6.8180571, 43.5204828 ], [ 6.818018577813377, 43.519698662877367 ], [ 6.817903382243226, 43.518922077423873 ], [ 6.817712622685858, 43.518160522581965 ], [ 6.81744813626009, 43.517421332541083 ], [ 6.817112470114787, 43.516711626105398 ], [ 6.81670885689842, 43.516038238135849 ], [ 6.816241183626902, 43.515407653726697 ], [ 6.815713954249492, 43.514825945750509 ], [ 6.815132246273309, 43.514298716373105 ], [ 6.814501661864156, 43.513831043101582 ], [ 6.813828273894607, 43.513427429885219 ], [ 6.813118567458921, 43.513091763739915 ], [ 6.812379377418035, 43.512827277314145 ], [ 6.811617822576129, 43.512636517756775 ], [ 6.810841237122636, 43.512521322186629 ], [ 6.8100571, 43.5124828 ], [ 6.809272962877364, 43.512521322186629 ], [ 6.808496377423871, 43.512636517756775 ], [ 6.807734822581964, 43.512827277314145 ], [ 6.806995632541079, 43.513091763739915 ], [ 6.806285926105392, 43.513427429885219 ], [ 6.805612538135843, 43.513831043101582 ], [ 6.804981953726691, 43.514298716373105 ], [ 6.804400245750507, 43.514825945750509 ], [ 6.803873016373098, 43.515407653726697 ], [ 6.80340534310158, 43.516038238135849 ], [ 6.803001729885213, 43.516711626105398 ], [ 6.80266606373991, 43.517421332541083 ], [ 6.802401577314142, 43.518160522581965 ], [ 6.802210817756774, 43.518922077423873 ], [ 6.802095622186623, 43.519698662877367 ], [ 6.8020571, 43.5204828 ], [ 6.802095622186623, 43.52126693712264 ], [ 6.802210817756774, 43.522043522576134 ], [ 6.802401577314142, 43.522805077418042 ], [ 6.80266606373991, 43.523544267458924 ], [ 6.803001729885213, 43.524253973894609 ], [ 6.80340534310158, 43.524927361864158 ], [ 6.803873016373098, 43.52555794627331 ], [ 6.804400245750507, 43.526139654249498 ], [ 6.804981953726691, 43.526666883626902 ], [ 6.805612538135843, 43.527134556898424 ], [ 6.806285926105392, 43.527538170114788 ], [ 6.806995632541079, 43.527873836260092 ], [ 6.807734822581964, 43.528138322685862 ], [ 6.808496377423871, 43.528329082243232 ], [ 6.809272962877364, 43.528444277813378 ], [ 6.8100571, 43.5284828 ], [ 6.810841237122636, 43.528444277813378 ], [ 6.811617822576129, 43.528329082243232 ], [ 6.812379377418035, 43.528138322685862 ], [ 6.813118567458921, 43.527873836260092 ], [ 6.813828273894607, 43.527538170114788 ], [ 6.814501661864156, 43.527134556898424 ], [ 6.815132246273309, 43.526666883626902 ], [ 6.815713954249492, 43.526139654249498 ], [ 6.816241183626902, 43.52555794627331 ], [ 6.81670885689842, 43.524927361864158 ], [ 6.817112470114787, 43.524253973894609 ], [ 6.81744813626009, 43.523544267458924 ], [ 6.817712622685858, 43.522805077418042 ], [ 6.817903382243226, 43.522043522576134 ], [ 6.818018577813377, 43.52126693712264 ], [ 6.8180571, 43.5204828 ] ] ] } },
{ "type": "Feature", "properties": { "village_id": "V008", "village_name": "La Verrerie", "place_type": "hamlet", "pop_total": 0, "lon": 6.8141689, "lat": 43.5272205 }, "geometry": { "type": "Polygon", "coordinates": [ [ [ 6.8221689, 43.5272205 ], [ 6.822130377813377, 43.526436362877362 ], [ 6.822015182243226, 43.525659777423868 ], [ 6.821824422685858, 43.52489822258196 ], [ 6.82155993626009, 43.524159032541078 ], [ 6.821224270114787, 43.523449326105393 ], [ 6.82082065689842, 43.522775938135844 ], [ 6.820352983626902, 43.522145353726692 ], [ 6.819825754249493, 43.521563645750504 ], [ 6.819244046273309, 43.5210364163731 ], [ 6.818613461864157, 43.520568743101578 ], [ 6.817940073894608, 43.520165129885214 ], [ 6.817230367458921, 43.51982946373991 ], [ 6.816491177418036, 43.51956497731414 ], [ 6.815729622576129, 43.51937421775677 ], [ 6.814953037122637, 43.519259022186624 ], [ 6.8141689, 43.5192205 ], [ 6.813384762877364, 43.519259022186624 ], [ 6.812608177423871, 43.51937421775677 ], [ 6.811846622581965, 43.51956497731414 ], [ 6.811107432541079, 43.51982946373991 ], [ 6.810397726105393, 43.520165129885214 ], [ 6.809724338135844, 43.520568743101578 ], [ 6.809093753726692, 43.5210364163731 ], [ 6.808512045750508, 43.521563645750504 ], [ 6.807984816373098, 43.522145353726692 ], [ 6.80751714310158, 43.522775938135844 ], [ 6.807113529885213, 43.523449326105393 ], [ 6.80677786373991, 43.524159032541078 ], [ 6.806513377314142, 43.52489822258196 ], [ 6.806322617756774, 43.525659777423868 ], [ 6.806207422186623, 43.526436362877362 ], [ 6.8061689, 43.5272205 ], [ 6.806207422186623, 43.528004637122635 ], [ 6.806322617756774, 43.528781222576129 ], [ 6.806513377314142, 43.529542777418037 ], [ 6.80677786373991, 43.530281967458919 ], [ 6.807113529885213, 43.530991673894604 ], [ 6.80751714310158, 43.531665061864153 ], [ 6.807984816373098, 43.532295646273305 ], [ 6.808512045750508, 43.532877354249493 ], [ 6.809093753726692, 43.533404583626897 ], [ 6.809724338135844, 43.53387225689842 ], [ 6.810397726105393, 43.534275870114783 ], [ 6.811107432541079, 43.534611536260087 ], [ 6.811846622581965, 43.534876022685857 ], [ 6.812608177423871, 43.535066782243227 ], [ 6.813384762877364, 43.535181977813373 ], [ 6.8141689, 43.5352205 ], [ 6.814953037122637, 43.535181977813373 ], [ 6.815729622576129, 43.535066782243227 ], [ 6.816491177418036, 43.534876022685857 ], [ 6.817230367458921, 43.534611536260087 ], [ 6.817940073894608, 43.534275870114783 ], [ 6.818613461864157, 43.53387225689842 ], [ 6.819244046273309, 43.533404583626897 ], [ 6.819825754249493, 43.532877354249493 ], [ 6.820352983626902, 43.532295646273305 ], [ 6.82082065689842, 43.531665061864153 ], [ 6.821224270114787, 43.530991673894604 ], [ 6.82155993626009, 43.530281967458919 ], [ 6.821824422685858, 43.529542777418037 ], [ 6.822015182243226, 43.528781222576129 ], [ 6.822130377813377, 43.528004637122635 ], [ 6.8221689, 43.5272205 ] ] ] } },
{ "type": "Feature", "properties": { "village_id": "V009", "village_name": "Les Adrets-de-l'Estérel", "place_type": "village", "pop_total": 2793, "lon": 6.814462, "lat": 43.5258374 }, "geometry": { "type": "Polygon", "coordinates": [ [ [ 6.822462, 43.5258374 ], [ 6.822423477813377, 43.525053262877364 ], [ 6.822308282243226, 43.52427667742387 ], [ 6.822117522685858, 43.523515122581962 ], [ 6.82185303626009, 43.52277593254108 ], [ 6.821517370114787, 43.522066226105395 ], [ 6.82111375689842, 43.521392838135846 ], [ 6.820646083626902, 43.520762253726694 ], [ 6.820118854249492, 43.520180545750506 ], [ 6.819537146273309, 43.519653316373102 ], [ 6.818906561864156, 43.519185643101579 ], [ 6.818233173894607, 43.518782029885216 ], [ 6.817523467458921, 43.518446363739912 ], [ 6.816784277418035, 43.518181877314142 ], [ 6.816022722576129, 43.517991117756772 ], [ 6.815246137122636, 43.517875922186626 ], [ 6.814462, 43.5178374 ], [ 6.813677862877364, 43.517875922186626 ], [ 6.812901277423871, 43.517991117756772 ], [ 6.812139722581964, 43.518181877314142 ], [ 6.811400532541079, 43.518446363739912 ], [ 6.810690826105392, 43.518782029885216 ], [ 6.810017438135843, 43.519185643101579 ], [ 6.809386853726691, 43.519653316373102 ], [ 6.808805145750507, 43.520180545750506 ], [ 6.808277916373098, 43.520762253726694 ], [ 6.80781024310158, 43.521392838135846 ], [ 6.807406629885213, 43.522066226105395 ], [ 6.80707096373991, 43.52277593254108 ], [ 6.806806477314142, 43.523515122581962 ], [ 6.806615717756774, 43.52427667742387 ], [ 6.806500522186623, 43.525053262877364 ], [ 6.806462, 43.5258374 ], [ 6.806500522186623, 43.526621537122637 ], [ 6.806615717756774, 43.52739812257613 ], [ 6.806806477314142, 43.528159677418039 ], [ 6.80707096373991, 43.528898867458921 ], [ 6.807406629885213, 43.529608573894606 ], [ 6.80781024310158, 43.530281961864155 ], [ 6.808277916373098, 43.530912546273306 ], [ 6.808805145750507, 43.531494254249495 ], [ 6.809386853726691, 43.532021483626899 ], [ 6.810017438135843, 43.532489156898421 ], [ 6.810690826105392, 43.532892770114785 ], [ 6.811400532541079, 43.533228436260089 ], [ 6.812139722581964, 43.533492922685859 ], [ 6.812901277423871, 43.533683682243229 ], [ 6.813677862877364, 43.533798877813375 ], [ 6.814462, 43.5338374 ], [ 6.815246137122636, 43.533798877813375 ], [ 6.816022722576129, 43.533683682243229 ], [ 6.816784277418035, 43.533492922685859 ], [ 6.817523467458921, 43.533228436260089 ], [ 6.818233173894607, 43.532892770114785 ], [ 6.818906561864156, 43.532489156898421 ], [ 6.819537146273309, 43.532021483626899 ], [ 6.820118854249492, 43.531494254249495 ], [ 6.820646083626902, 43.530912546273306 ], [ 6.82111375689842, 43.530281961864155 ], [ 6.821517370114787, 43.529608573894606 ], [ 6.82185303626009, 43.528898867458921 ], [ 6.822117522685858, 43.528159677418039 ], [ 6.822308282243226, 43.52739812257613 ], [ 6.822423477813377, 43.526621537122637 ], [ 6.822462, 43.5258374 ] ] ] } },
{ "type": "Feature", "properties": { "village_id": "V010", "village_name": "Saint-Raphaël", "place_type": "town", "pop_total": 35950, "lon": 6.7694244, "lat": 43.4255303 }, "geometry": { "type": "Polygon", "coordinates": [ [ [ 6.7774244, 43.4255303 ], [ 6.777385877813377, 43.424746162877362 ], [ 6.777270682243226, 43.423969577423868 ], [ 6.777079922685858, 43.42320802258196 ], [ 6.77681543626009, 43.422468832541078 ], [ 6.776479770114787, 43.421759126105393 ], [ 6.77607615689842, 43.421085738135844 ], [ 6.775608483626902, 43.420455153726692 ], [ 6.775081254249493, 43.419873445750504 ], [ 6.774499546273309, 43.4193462163731 ], [ 6.773868961864157, 43.418878543101577 ], [ 6.773195573894608, 43.418474929885214 ], [ 6.772485867458921, 43.41813926373991 ], [ 6.771746677418036, 43.41787477731414 ], [ 6.770985122576129, 43.41768401775677 ], [ 6.770208537122636, 43.417568822186624 ], [ 6.7694244, 43.4175303 ], [ 6.768640262877364, 43.417568822186624 ], [ 6.767863677423871, 43.41768401775677 ], [ 6.767102122581965, 43.41787477731414 ], [ 6.766362932541079, 43.41813926373991 ], [ 6.765653226105393, 43.418474929885214 ], [ 6.764979838135844, 43.418878543101577 ], [ 6.764349253726691, 43.4193462163731 ], [ 6.763767545750508, 43.419873445750504 ], [ 6.763240316373098, 43.420455153726692 ], [ 6.76277264310158, 43.421085738135844 ], [ 6.762369029885213, 43.421759126105393 ], [ 6.76203336373991, 43.422468832541078 ], [ 6.761768877314142, 43.42320802258196 ], [ 6.761578117756774, 43.423969577423868 ], [ 6.761462922186623, 43.424746162877362 ], [ 6.7614244, 43.4255303 ], [ 6.761462922186623, 43.426314437122635 ], [ 6.761578117756774, 43.427091022576128 ], [ 6.761768877314142, 43.427852577418037 ], [ 6.76203336373991, 43.428591767458919 ], [ 6.762369029885213, 43.429301473894604 ], [ 6.76277264310158, 43.429974861864153 ], [ 6.763240316373098, 43.430605446273304 ], [ 6.763767545750508, 43.431187154249493 ], [ 6.764349253726691, 43.431714383626897 ], [ 6.764979838135844, 43.432182056898419 ], [ 6.765653226105393, 43.432585670114783 ], [ 6.766362932541079, 43.432921336260087 ], [ 6.767102122581965, 43.433185822685857 ], [ 6.767863677423871, 43.433376582243227 ], [ 6.768640262877364, 43.433491777813373 ], [ 6.7694244, 43.4335303 ], [ 6.770208537122636, 43.433491777813373 ], [ 6.770985122576129, 43.433376582243227 ], [ 6.771746677418036, 43.433185822685857 ], [ 6.772485867458921, 43.432921336260087 ], [ 6.773195573894608, 43.432585670114783 ], [ 6.773868961864157, 43.432182056898419 ], [ 6.774499546273309, 43.431714383626897 ], [ 6.775081254249493, 43.431187154249493 ], [ 6.775608483626902, 43.430605446273304 ], [ 6.77607615689842, 43.429974861864153 ], [ 6.776479770114787, 43.429301473894604 ], [ 6.77681543626009, 43.428591767458919 ], [ 6.777079922685858, 43.427852577418037 ], [ 6.777270682243226, 43.427091022576128 ], [ 6.777385877813377, 43.426314437122635 ], [ 6.7774244, 43.4255303 ] ] ] } },
{ "type": "Feature", "properties": { "village_id": "V011", "village_name": "Bauquier", "place_type": "hamlet", "pop_total": 0, "lon": 6.8142234, "lat": 43.5244746 }, "geometry": { "type": "Polygon", "coordinates": [ [ [ 6.8222234, 43.5244746 ], [ 6.822184877813378, 43.523690462877362 ], [ 6.822069682243226, 43.522913877423868 ], [ 6.821878922685858, 43.52215232258196 ], [ 6.821614436260091, 43.521413132541078 ], [ 6.821278770114787, 43.520703426105392 ], [ 6.82087515689842, 43.520030038135843 ], [ 6.820407483626902, 43.519399453726692 ], [ 6.819880254249493, 43.518817745750503 ], [ 6.819298546273309, 43.518290516373099 ], [ 6.818667961864157, 43.517822843101577 ], [ 6.817994573894608, 43.517419229885213 ], [ 6.817284867458921, 43.517083563739909 ], [ 6.816545677418036, 43.516819077314139 ], [ 6.81578412257613, 43.516628317756769 ], [ 6.815007537122637, 43.516513122186623 ], [ 6.8142234, 43.5164746 ], [ 6.813439262877364, 43.516513122186623 ], [ 6.812662677423871, 43.516628317756769 ], [ 6.811901122581965, 43.516819077314139 ], [ 6.811161932541079, 43.517083563739909 ], [ 6.810452226105393, 43.517419229885213 ], [ 6.809778838135844, 43.517822843101577 ], [ 6.809148253726692, 43.518290516373099 ], [ 6.808566545750508, 43.518817745750503 ], [ 6.808039316373098, 43.519399453726692 ], [ 6.80757164310158, 43.520030038135843 ], [ 6.807168029885213, 43.520703426105392 ], [ 6.80683236373991, 43.521413132541078 ], [ 6.806567877314142, 43.52215232258196 ], [ 6.806377117756774, 43.522913877423868 ], [ 6.806261922186623, 43.523690462877362 ], [ 6.8062234, 43.5244746 ], [ 6.806261922186623, 43.525258737122634 ], [ 6.806377117756774, 43.526035322576128 ], [ 6.806567877314142, 43.526796877418036 ], [ 6.80683236373991, 43.527536067458918 ], [ 6.807168029885213, 43.528245773894604 ], [ 6.80757164310158, 43.528919161864152 ], [ 6.808039316373098, 43.529549746273304 ], [ 6.808566545750508, 43.530131454249492 ], [ 6.809148253726692, 43.530658683626896 ], [ 6.809778838135844, 43.531126356898419 ], [ 6.810452226105393, 43.531529970114782 ], [ 6.811161932541079, 43.531865636260086 ], [ 6.811901122581965, 43.532130122685857 ], [ 6.812662677423871, 43.532320882243226 ], [ 6.813439262877364, 43.532436077813372 ], [ 6.8142234, 43.5324746 ], [ 6.815007537122637, 43.532436077813372 ], [ 6.81578412257613, 43.532320882243226 ], [ 6.816545677418036, 43.532130122685857 ], [ 6.817284867458921, 43.531865636260086 ], [ 6.817994573894608, 43.531529970114782 ], [ 6.818667961864157, 43.531126356898419 ], [ 6.819298546273309, 43.530658683626896 ], [ 6.819880254249493, 43.530131454249492 ], [ 6.820407483626902, 43.529549746273304 ], [ 6.82087515689842, 43.528919161864152 ], [ 6.821278770114787, 43.528245773894604 ], [ 6.821614436260091, 43.527536067458918 ], [ 6.821878922685858, 43.526796877418036 ], [ 6.822069682243226, 43.526035322576128 ], [ 6.822184877813378, 43.525258737122634 ], [ 6.8222234, 43.5244746 ] ] ] } },
{ "type": "Feature", "properties": { "village_id": "V012", "village_name": "Saint-Anne", "place_type": "hamlet", "pop_total": 60, "lon": 6.7017844, "lat": 43.5382978 }, "geometry": { "type": "Polygon", "coordinates": [ [ [ 6.7097844, 43.5382978 ], [ 6.709745877813377, 43.537513662877366 ], [ 6.709630682243226, 43.536737077423872 ], [ 6.709439922685858, 43.535975522581964 ], [ 6.70917543626009, 43.535236332541082 ], [ 6.708839770114787, 43.534526626105396 ], [ 6.70843615689842, 43.533853238135848 ], [ 6.707968483626902, 43.533222653726696 ], [ 6.707441254249493, 43.532640945750508 ], [ 6.706859546273309, 43.532113716373104 ], [ 6.706228961864157, 43.531646043101581 ], [ 6.705555573894608, 43.531242429885218 ], [ 6.704845867458921, 43.530906763739914 ], [ 6.704106677418036, 43.530642277314143 ], [ 6.703345122576129, 43.530451517756774 ], [ 6.702568537122636, 43.530336322186628 ], [ 6.7017844, 43.5302978 ], [ 6.701000262877364, 43.530336322186628 ], [ 6.700223677423871, 43.530451517756774 ], [ 6.699462122581965, 43.530642277314143 ], [ 6.698722932541079, 43.530906763739914 ], [ 6.698013226105393, 43.531242429885218 ], [ 6.697339838135844, 43.531646043101581 ], [ 6.696709253726691, 43.532113716373104 ], [ 6.696127545750508, 43.532640945750508 ], [ 6.695600316373098, 43.533222653726696 ], [ 6.69513264310158, 43.533853238135848 ], [ 6.694729029885213, 43.534526626105396 ], [ 6.69439336373991, 43.535236332541082 ], [ 6.694128877314142, 43.535975522581964 ], [ 6.693938117756774, 43.536737077423872 ], [ 6.693822922186623, 43.537513662877366 ], [ 6.6937844, 43.5382978 ], [ 6.693822922186623, 43.539081937122639 ], [ 6.693938117756774, 43.539858522576132 ], [ 6.694128877314142, 43.540620077418041 ], [ 6.69439336373991, 43.541359267458922 ], [ 6.694729029885213, 43.542068973894608 ], [ 6.69513264310158, 43.542742361864157 ], [ 6.695600316373098, 43.543372946273308 ], [ 6.696127545750508, 43.543954654249497 ], [ 6.696709253726691, 43.544481883626901 ], [ 6.697339838135844, 43.544949556898423 ], [ 6.698013226105393, 43.545353170114787 ], [ 6.698722932541079, 43.545688836260091 ], [ 6.699462122581965, 43.545953322685861 ], [ 6.700223677423871, 43.546144082243231 ], [ 6.701000262877364, 43.546259277813377 ], [ 6.7017844, 43.5462978 ], [ 6.702568537122636, 43.546259277813377 ], [ 6.703345122576129, 43.546144082243231 ], [ 6.704106677418036, 43.545953322685861 ], [ 6.704845867458921, 43.545688836260091 ], [ 6.705555573894608, 43.545353170114787 ], [ 6.706228961864157, 43.544949556898423 ], [ 6.706859546273309, 43.544481883626901 ], [ 6.707441254249493, 43.543954654249497 ], [ 6.707968483626902, 43.543372946273308 ], [ 6.70843615689842, 43.542742361864157 ], [ 6.708839770114787, 43.542068973894608 ], [ 6.70917543626009, 43.541359267458922 ], [ 6.709439922685858, 43.540620077418041 ], [ 6.709630682243226, 43.539858522576132 ], [ 6.709745877813377, 43.539081937122639 ], [ 6.7097844, 43.5382978 ] ] ] } },
{ "type": "Feature", "properties": { "village_id": "V013", "village_name": "Valère", "place_type": "hamlet", "pop_total": 0, "lon": 6.6848833, "lat": 43.5339603 }, "geometry": { "type": "Polygon", "coordinates": [ [ [ 6.6928833, 43.5339603 ], [ 6.692844777813377, 43.533176162877361 ], [ 6.692729582243226, 43.532399577423867 ], [ 6.692538822685858, 43.531638022581959 ], [ 6.69227433626009, 43.530898832541077 ], [ 6.691938670114787, 43.530189126105391 ], [ 6.69153505689842, 43.529515738135842 ], [ 6.691067383626902, 43.528885153726691 ], [ 6.690540154249493, 43.528303445750502 ], [ 6.689958446273309, 43.527776216373098 ], [ 6.689327861864157, 43.527308543101576 ], [ 6.688654473894608, 43.526904929885212 ], [ 6.687944767458921, 43.526569263739908 ], [ 6.687205577418036, 43.526304777314138 ], [ 6.686444022576129, 43.526114017756768 ], [ 6.685667437122636, 43.525998822186622 ], [ 6.6848833, 43.5259603 ], [ 6.684099162877364, 43.525998822186622 ], [ 6.683322577423871, 43.526114017756768 ], [ 6.682561022581964, 43.526304777314138 ], [ 6.681821832541079, 43.526569263739908 ], [ 6.681112126105393, 43.526904929885212 ], [ 6.680438738135844, 43.527308543101576 ], [ 6.679808153726691, 43.527776216373098 ], [ 6.679226445750508, 43.528303445750502 ], [ 6.678699216373098, 43.528885153726691 ], [ 6.67823154310158, 43.529515738135842 ], [ 6.677827929885213, 43.530189126105391 ], [ 6.67749226373991, 43.530898832541077 ], [ 6.677227777314142, 43.531638022581959 ], [ 6.677037017756774, 43.532399577423867 ], [ 6.676921822186623, 43.533176162877361 ], [ 6.6768833, 43.5339603 ], [ 6.676921822186623, 43.534744437122633 ], [ 6.677037017756774, 43.535521022576127 ], [ 6.677227777314142, 43.536282577418035 ], [ 6.67749226373991, 43.537021767458917 ], [ 6.677827929885213, 43.537731473894603 ], [ 6.67823154310158, 43.538404861864151 ], [ 6.678699216373098, 43.539035446273303 ], [ 6.679226445750508, 43.539617154249491 ], [ 6.679808153726691, 43.540144383626895 ], [ 6.680438738135844, 43.540612056898418 ], [ 6.681112126105393, 43.541015670114781 ], [ 6.681821832541079, 43.541351336260085 ], [ 6.682561022581964, 43.541615822685856 ], [ 6.683322577423871, 43.541806582243225 ], [ 6.684099162877364, 43.541921777813371 ], [ 6.6848833, 43.5419603 ], [ 6.685667437122636, 43.541921777813371 ], [ 6.686444022576129, 43.541806582243225 ], [ 6.687205577418036, 43.541615822685856 ], [ 6.687944767458921, 43.541351336260085 ], [ 6.688654473894608, 43.541015670114781 ], [ 6.689327861864157, 43.540612056898418 ], [ 6.689958446273309, 43.540144383626895 ], [ 6.690540154249493, 43.539617154249491 ], [ 6.691067383626902, 43.539035446273303 ], [ 6.69153505689842, 43.538404861864151 ], [ 6.691938670114787, 43.537731473894603 ], [ 6.69227433626009, 43.537021767458917 ], [ 6.692538822685858, 43.536282577418035 ], [ 6.692729582243226, 43.535521022576127 ], [ 6.692844777813377, 43.534744437122633 ], [ 6.6928833, 43.5339603 ] ] ] } },
{ "type": "Feature", "properties": { "village_id": "V014", "village_name": "Les Molieres", "place_type": "hamlet", "pop_total": 0, "lon": 6.7122723, "lat": 43.5287051 }, "geometry": { "type": "Polygon", "coordinates": [ [ [ 6.7202723, 43.5287051 ], [ 6.720233777813378, 43.527920962877367 ], [ 6.720118582243226, 43.527144377423873 ], [ 6.719927822685858, 43.526382822581965 ], [ 6.719663336260091, 43.525643632541083 ], [ 6.719327670114787, 43.524933926105398 ], [ 6.718924056898421, 43.524260538135849 ], [ 6.718456383626902, 43.523629953726697 ], [ 6.717929154249493, 43.523048245750509 ], [ 6.717347446273309, 43.522521016373105 ], [ 6.716716861864157, 43.522053343101582 ], [ 6.716043473894608, 43.521649729885219 ], [ 6.715333767458922, 43.521314063739915 ], [ 6.714594577418036, 43.521049577314145 ], [ 6.71383302257613, 43.520858817756775 ], [ 6.713056437122637, 43.520743622186629 ], [ 6.7122723, 43.5207051 ], [ 6.711488162877364, 43.520743622186629 ], [ 6.710711577423871, 43.520858817756775 ], [ 6.709950022581965, 43.521049577314145 ], [ 6.709210832541079, 43.521314063739915 ], [ 6.708501126105393, 43.521649729885219 ], [ 6.707827738135844, 43.522053343101582 ], [ 6.707197153726692, 43.522521016373105 ], [ 6.706615445750508, 43.523048245750509 ], [ 6.706088216373098, 43.523629953726697 ], [ 6.70562054310158, 43.524260538135849 ], [ 6.705216929885213, 43.524933926105398 ], [ 6.70488126373991, 43.525643632541083 ], [ 6.704616777314143, 43.526382822581965 ], [ 6.704426017756774, 43.527144377423873 ], [ 6.704310822186623, 43.527920962877367 ], [ 6.7042723, 43.5287051 ], [ 6.704310822186623, 43.52948923712264 ], [ 6.704426017756774, 43.530265822576133 ], [ 6.704616777314143, 43.531027377418042 ], [ 6.70488126373991, 43.531766567458924 ], [ 6.705216929885213, 43.532476273894609 ], [ 6.70562054310158, 43.533149661864158 ], [ 6.706088216373098, 43.533780246273309 ], [ 6.706615445750508, 43.534361954249498 ], [ 6.707197153726692, 43.534889183626902 ], [ 6.707827738135844, 43.535356856898424 ], [ 6.708501126105393, 43.535760470114788 ], [ 6.709210832541079, 43.536096136260092 ], [ 6.709950022581965, 43.536360622685862 ], [ 6.710711577423871, 43.536551382243232 ], [ 6.711488162877364, 43.536666577813378 ], [ 6.7122723, 43.5367051 ], [ 6.713056437122637, 43.536666577813378 ], [ 6.71383302257613, 43.536551382243232 ], [ 6.714594577418036, 43.536360622685862 ], [ 6.715333767458922, 43.536096136260092 ], [ 6.716043473894608, 43.535760470114788 ], [ 6.716716861864157, 43.535356856898424 ], [ 6.717347446273309, 43.534889183626902 ], [ 6.717929154249493, 43.534361954249498 ], [ 6.718456383626902, 43.533780246273309 ], [ 6.718924056898421, 43.533149661864158 ], [ 6.719327670114787, 43.532476273894609 ], [ 6.719663336260091, 43.531766567458924 ], [ 6.719927822685858, 43.531027377418042 ], [ 6.720118582243226, 43.530265822576133 ], [ 6.720233777813378, 43.52948923712264 ], [ 6.7202723, 43.5287051 ] ] ] } },
{ "type": "Feature", "properties": { "village_id": "V015", "village_name": "Le Cannet", "place_type": "hamlet", "pop_total": 0, "lon": 6.7125405, "lat": 43.5329366 }, "geometry": { "type": "Polygon", "coordinates": [ [ [ 6.7205405, 43.5329366 ], [ 6.720501977813377, 43.532152462877363 ], [ 6.720386782243226, 43.531375877423869 ], [ 6.720196022685858, 43.530614322581961 ], [ 6.71993153626009, 43.529875132541079 ], [ 6.719595870114787, 43.529165426105394 ], [ 6.71919225689842, 43.528492038135845 ], [ 6.718724583626902, 43.527861453726693 ], [ 6.718197354249493, 43.527279745750505 ], [ 6.717615646273309, 43.526752516373101 ], [ 6.716985061864157, 43.526284843101578 ], [ 6.716311673894608, 43.525881229885215 ], [ 6.715601967458921, 43.525545563739911 ], [ 6.714862777418036, 43.525281077314141 ], [ 6.714101222576129, 43.525090317756771 ], [ 6.713324637122636, 43.524975122186625 ], [ 6.7125405, 43.5249366 ], [ 6.711756362877364, 43.524975122186625 ], [ 6.710979777423871, 43.525090317756771 ], [ 6.710218222581965, 43.525281077314141 ], [ 6.709479032541079, 43.525545563739911 ], [ 6.708769326105393, 43.525881229885215 ], [ 6.708095938135844, 43.526284843101578 ], [ 6.707465353726692, 43.526752516373101 ], [ 6.706883645750508, 43.527279745750505 ], [ 6.706356416373098, 43.527861453726693 ], [ 6.70588874310158, 43.528492038135845 ], [ 6.705485129885213, 43.529165426105394 ], [ 6.70514946373991, 43.529875132541079 ], [ 6.704884977314142, 43.530614322581961 ], [ 6.704694217756774, 43.531375877423869 ], [ 6.704579022186623, 43.532152462877363 ], [ 6.7045405, 43.5329366 ], [ 6.704579022186623, 43.533720737122636 ], [ 6.704694217756774, 43.534497322576129 ], [ 6.704884977314142, 43.535258877418038 ], [ 6.70514946373991, 43.53599806745892 ], [ 6.705485129885213, 43.536707773894605 ], [ 6.70588874310158, 43.537381161864154 ], [ 6.706356416373098, 43.538011746273305 ], [ 6.706883645750508, 43.538593454249494 ], [ 6.707465353726692, 43.539120683626898 ], [ 6.708095938135844, 43.53958835689842 ], [ 6.708769326105393, 43.539991970114784 ], [ 6.709479032541079, 43.540327636260088 ], [ 6.710218222581965, 43.540592122685858 ], [ 6.710979777423871, 43.540782882243228 ], [ 6.711756362877364, 43.540898077813374 ], [ 6.7125405, 43.5409366 ], [ 6.713324637122636, 43.540898077813374 ], [ 6.714101222576129, 43.540782882243228 ], [ 6.714862777418036, 43.540592122685858 ], [ 6.715601967458921, 43.540327636260088 ], [ 6.716311673894608, 43.539991970114784 ], [ 6.716985061864157, 43.53958835689842 ], [ 6.717615646273309, 43.539120683626898 ], [ 6.718197354249493, 43.538593454249494 ], [ 6.718724583626902, 43.538011746273305 ], [ 6.71919225689842, 43.537381161864154 ], [ 6.719595870114787, 43.536707773894605 ], [ 6.71993153626009, 43.53599806745892 ], [ 6.720196022685858, 43.535258877418038 ], [ 6.720386782243226, 43.534497322576129 ], [ 6.720501977813377, 43.533720737122636 ], [ 6.7205405, 43.5329366 ] ] ] } },
{ "type": "Feature", "properties": { "village_id": "V016", "village_name": "Rayol", "place_type": "hamlet", "pop_total": 0, "lon": 6.7022044, "lat": 43.5360576 }, "geometry": { "type": "Polygon", "coordinates": [ [ [ 6.7102044, 43.5360576 ], [ 6.710165877813377, 43.535273462877363 ], [ 6.710050682243226, 43.534496877423869 ], [ 6.709859922685858, 43.533735322581961 ], [ 6.70959543626009, 43.532996132541079 ], [ 6.709259770114787, 43.532286426105394 ], [ 6.70885615689842, 43.531613038135845 ], [ 6.708388483626902, 43.530982453726693 ], [ 6.707861254249493, 43.530400745750505 ], [ 6.707279546273309, 43.529873516373101 ], [ 6.706648961864157, 43.529405843101578 ], [ 6.705975573894608, 43.529002229885215 ], [ 6.705265867458921, 43.528666563739911 ], [ 6.704526677418036, 43.528402077314141 ], [ 6.703765122576129, 43.528211317756771 ], [ 6.702988537122637, 43.528096122186625 ], [ 6.7022044, 43.5280576 ], [ 6.701420262877364, 43.528096122186625 ], [ 6.700643677423871, 43.528211317756771 ], [ 6.699882122581965, 43.528402077314141 ], [ 6.699142932541079, 43.528666563739911 ], [ 6.698433226105393, 43.529002229885215 ], [ 6.697759838135844, 43.529405843101578 ], [ 6.697129253726692, 43.529873516373101 ], [ 6.696547545750508, 43.530400745750505 ], [ 6.696020316373098, 43.530982453726693 ], [ 6.69555264310158, 43.531613038135845 ], [ 6.695149029885213, 43.532286426105394 ], [ 6.69481336373991, 43.532996132541079 ], [ 6.694548877314142, 43.533735322581961 ], [ 6.694358117756774, 43.534496877423869 ], [ 6.694242922186623, 43.535273462877363 ], [ 6.6942044, 43.5360576 ], [ 6.694242922186623, 43.536841737122636 ], [ 6.694358117756774, 43.53761832257613 ], [ 6.694548877314142, 43.538379877418038 ], [ 6.69481336373991, 43.53911906745892 ], [ 6.695149029885213, 43.539828773894605 ], [ 6.69555264310158, 43.540502161864154 ], [ 6.696020316373098, 43.541132746273306 ], [ 6.696547545750508, 43.541714454249494 ], [ 6.697129253726692, 43.542241683626898 ], [ 6.697759838135844, 43.54270935689842 ], [ 6.698433226105393, 43.543112970114784 ], [ 6.699142932541079, 43.543448636260088 ], [ 6.699882122581965, 43.543713122685858 ], [ 6.700643677423871, 43.543903882243228 ], [ 6.701420262877364, 43.544019077813374 ], [ 6.7022044, 43.5440576 ], [ 6.702988537122637, 43.544019077813374 ], [ 6.703765122576129, 43.543903882243228 ], [ 6.704526677418036, 43.543713122685858 ], [ 6.705265867458921, 43.543448636260088 ], [ 6.705975573894608, 43.543112970114784 ], [ 6.706648961864157, 43.54270935689842 ], [ 6.707279546273309, 43.542241683626898 ], [ 6.707861254249493, 43.541714454249494 ], [ 6.708388483626902, 43.541132746273306 ], [ 6.70885615689842, 43.540502161864154 ], [ 6.709259770114787, 43.539828773894605 ], [ 6.70959543626009, 43.53911906745892 ], [ 6.709859922685858, 43.538379877418038 ], [ 6.710050682243226, 43.53761832257613 ], [ 6.710165877813377, 43.536841737122636 ], [ 6.7102044, 43.5360576 ] ] ] } },
{ "type": "Feature", "properties": { "village_id": "V017", "village_name": "Les Rouvières", "place_type": "hamlet", "pop_total": 0, "lon": 6.7071158, "lat": 43.5354577 }, "geometry": { "type": "Polygon", "coordinates": [ [ [ 6.7151158, 43.5354577 ], [ 6.715077277813378, 43.534673562877366 ], [ 6.714962082243226, 43.533896977423872 ], [ 6.714771322685858, 43.533135422581964 ], [ 6.714506836260091, 43.532396232541082 ], [ 6.714171170114787, 43.531686526105396 ], [ 6.713767556898421, 43.531013138135847 ], [ 6.713299883626902, 43.530382553726696 ], [ 6.712772654249493, 43.529800845750508 ], [ 6.712190946273309, 43.529273616373104 ], [ 6.711560361864157, 43.528805943101581 ], [ 6.710886973894608, 43.528402329885218 ], [ 6.710177267458922, 43.528066663739914 ], [ 6.709438077418036, 43.527802177314143 ], [ 6.70867652257613, 43.527611417756773 ], [ 6.707899937122637, 43.527496222186628 ], [ 6.7071158, 43.5274577 ], [ 6.706331662877364, 43.527496222186628 ], [ 6.705555077423871, 43.527611417756773 ], [ 6.704793522581965, 43.527802177314143 ], [ 6.704054332541079, 43.528066663739914 ], [ 6.703344626105393, 43.528402329885218 ], [ 6.702671238135844, 43.528805943101581 ], [ 6.702040653726692, 43.529273616373104 ], [ 6.701458945750508, 43.529800845750508 ], [ 6.700931716373098, 43.530382553726696 ], [ 6.70046404310158, 43.531013138135847 ], [ 6.700060429885213, 43.531686526105396 ], [ 6.69972476373991, 43.532396232541082 ], [ 6.699460277314143, 43.533135422581964 ], [ 6.699269517756774, 43.533896977423872 ], [ 6.699154322186623, 43.534673562877366 ], [ 6.6991158, 43.5354577 ], [ 6.699154322186623, 43.536241837122638 ], [ 6.699269517756774, 43.537018422576132 ], [ 6.699460277314143, 43.53777997741804 ], [ 6.69972476373991, 43.538519167458922 ], [ 6.700060429885213, 43.539228873894608 ], [ 6.70046404310158, 43.539902261864157 ], [ 6.700931716373098, 43.540532846273308 ], [ 6.701458945750508, 43.541114554249496 ], [ 6.702040653726692, 43.541641783626901 ], [ 6.702671238135844, 43.542109456898423 ], [ 6.703344626105393, 43.542513070114786 ], [ 6.704054332541079, 43.54284873626009 ], [ 6.704793522581965, 43.543113222685861 ], [ 6.705555077423871, 43.543303982243231 ], [ 6.706331662877364, 43.543419177813377 ], [ 6.7071158, 43.5434577 ], [ 6.707899937122637, 43.543419177813377 ], [ 6.70867652257613, 43.543303982243231 ], [ 6.709438077418036, 43.543113222685861 ], [ 6.710177267458922, 43.54284873626009 ], [ 6.710886973894608, 43.542513070114786 ], [ 6.711560361864157, 43.542109456898423 ], [ 6.712190946273309, 43.541641783626901 ], [ 6.712772654249493, 43.541114554249496 ], [ 6.713299883626902, 43.540532846273308 ], [ 6.713767556898421, 43.539902261864157 ], [ 6.714171170114787, 43.539228873894608 ], [ 6.714506836260091, 43.538519167458922 ], [ 6.714771322685858, 43.53777997741804 ], [ 6.714962082243226, 43.537018422576132 ], [ 6.715077277813378, 43.536241837122638 ], [ 6.7151158, 43.5354577 ] ] ] } },
{ "type": "Feature", "properties": { "village_id": "V018", "village_name": "Tubiere", "place_type": "hamlet", "pop_total": 0, "lon": 6.7141553, "lat": 43.5429358 }, "geometry": { "type": "Polygon", "coordinates": [ [ [ 6.7221553, 43.5429358 ], [ 6.722116777813377, 43.542151662877366 ], [ 6.722001582243226, 43.541375077423872 ], [ 6.721810822685858, 43.540613522581964 ], [ 6.72154633626009, 43.539874332541082 ], [ 6.721210670114787, 43.539164626105396 ], [ 6.72080705689842, 43.538491238135848 ], [ 6.720339383626902, 43.537860653726696 ], [ 6.719812154249492, 43.537278945750508 ], [ 6.719230446273309, 43.536751716373104 ], [ 6.718599861864156, 43.536284043101581 ], [ 6.717926473894607, 43.535880429885218 ], [ 6.717216767458921, 43.535544763739914 ], [ 6.716477577418035, 43.535280277314143 ], [ 6.715716022576129, 43.535089517756774 ], [ 6.714939437122636, 43.534974322186628 ], [ 6.7141553, 43.5349358 ], [ 6.713371162877364, 43.534974322186628 ], [ 6.712594577423871, 43.535089517756774 ], [ 6.711833022581964, 43.535280277314143 ], [ 6.711093832541079, 43.535544763739914 ], [ 6.710384126105392, 43.535880429885218 ], [ 6.709710738135843, 43.536284043101581 ], [ 6.709080153726691, 43.536751716373104 ], [ 6.708498445750507, 43.537278945750508 ], [ 6.707971216373098, 43.537860653726696 ], [ 6.70750354310158, 43.538491238135848 ], [ 6.707099929885213, 43.539164626105396 ], [ 6.70676426373991, 43.539874332541082 ], [ 6.706499777314142, 43.540613522581964 ], [ 6.706309017756774, 43.541375077423872 ], [ 6.706193822186623, 43.542151662877366 ], [ 6.7061553, 43.5429358 ], [ 6.706193822186623, 43.543719937122638 ], [ 6.706309017756774, 43.544496522576132 ], [ 6.706499777314142, 43.54525807741804 ], [ 6.70676426373991, 43.545997267458922 ], [ 6.707099929885213, 43.546706973894608 ], [ 6.70750354310158, 43.547380361864157 ], [ 6.707971216373098, 43.548010946273308 ], [ 6.708498445750507, 43.548592654249497 ], [ 6.709080153726691, 43.549119883626901 ], [ 6.709710738135843, 43.549587556898423 ], [ 6.710384126105392, 43.549991170114787 ], [ 6.711093832541079, 43.550326836260091 ], [ 6.711833022581964, 43.550591322685861 ], [ 6.712594577423871, 43.550782082243231 ], [ 6.713371162877364, 43.550897277813377 ], [ 6.7141553, 43.5509358 ], [ 6.714939437122636, 43.550897277813377 ], [ 6.715716022576129, 43.550782082243231 ], [ 6.716477577418035, 43.550591322685861 ], [ 6.717216767458921, 43.550326836260091 ], [ 6.717926473894607, 43.549991170114787 ], [ 6.718599861864156, 43.549587556898423 ], [ 6.719230446273309, 43.549119883626901 ], [ 6.719812154249492, 43.548592654249497 ], [ 6.720339383626902, 43.548010946273308 ], [ 6.72080705689842, 43.547380361864157 ], [ 6.721210670114787, 43.546706973894608 ], [ 6.72154633626009, 43.545997267458922 ], [ 6.721810822685858, 43.54525807741804 ], [ 6.722001582243226, 43.544496522576132 ], [ 6.722116777813377, 43.543719937122638 ], [ 6.7221553, 43.5429358 ] ] ] } },
{ "type": "Feature", "properties": { "village_id": "V019", "village_name": "Plan Pinet", "place_type": "hamlet", "pop_total": 0, "lon": 6.7189544, "lat": 43.5434848 }, "geometry": { "type": "Polygon", "coordinates": [ [ [ 6.7269544, 43.5434848 ], [ 6.726915877813378, 43.542700662877365 ], [ 6.726800682243226, 43.541924077423872 ], [ 6.726609922685858, 43.541162522581963 ], [ 6.726345436260091, 43.540423332541081 ], [ 6.726009770114787, 43.539713626105396 ], [ 6.72560615689842, 43.539040238135847 ], [ 6.725138483626902, 43.538409653726696 ], [ 6.724611254249493, 43.537827945750507 ], [ 6.724029546273309, 43.537300716373103 ], [ 6.723398961864157, 43.536833043101581 ], [ 6.722725573894608, 43.536429429885217 ], [ 6.722015867458921, 43.536093763739913 ], [ 6.721276677418036, 43.535829277314143 ], [ 6.720515122576129, 43.535638517756773 ], [ 6.719738537122637, 43.535523322186627 ], [ 6.7189544, 43.5354848 ], [ 6.718170262877364, 43.535523322186627 ], [ 6.717393677423871, 43.535638517756773 ], [ 6.716632122581965, 43.535829277314143 ], [ 6.715892932541079, 43.536093763739913 ], [ 6.715183226105393, 43.536429429885217 ], [ 6.714509838135844, 43.536833043101581 ], [ 6.713879253726692, 43.537300716373103 ], [ 6.713297545750508, 43.537827945750507 ], [ 6.712770316373098, 43.538409653726696 ], [ 6.71230264310158, 43.539040238135847 ], [ 6.711899029885213, 43.539713626105396 ], [ 6.71156336373991, 43.540423332541081 ], [ 6.711298877314142, 43.541162522581963 ], [ 6.711108117756774, 43.541924077423872 ], [ 6.710992922186623, 43.542700662877365 ], [ 6.7109544, 43.5434848 ], [ 6.710992922186623, 43.544268937122638 ], [ 6.711108117756774, 43.545045522576132 ], [ 6.711298877314142, 43.54580707741804 ], [ 6.71156336373991, 43.546546267458922 ], [ 6.711899029885213, 43.547255973894607 ], [ 6.71230264310158, 43.547929361864156 ], [ 6.712770316373098, 43.548559946273308 ], [ 6.713297545750508, 43.549141654249496 ], [ 6.713879253726692, 43.5496688836269 ], [ 6.714509838135844, 43.550136556898423 ], [ 6.715183226105393, 43.550540170114786 ], [ 6.715892932541079, 43.55087583626009 ], [ 6.716632122581965, 43.55114032268586 ], [ 6.717393677423871, 43.55133108224323 ], [ 6.718170262877364, 43.551446277813376 ], [ 6.7189544, 43.5514848 ], [ 6.719738537122637, 43.551446277813376 ], [ 6.720515122576129, 43.55133108224323 ], [ 6.721276677418036, 43.55114032268586 ], [ 6.722015867458921, 43.55087583626009 ], [ 6.722725573894608, 43.550540170114786 ], [ 6.723398961864157, 43.550136556898423 ], [ 6.724029546273309, 43.5496688836269 ], [ 6.724611254249493, 43.549141654249496 ], [ 6.725138483626902, 43.548559946273308 ], [ 6.72560615689842, 43.547929361864156 ], [ 6.726009770114787, 43.547255973894607 ], [ 6.726345436260091, 43.546546267458922 ], [ 6.726609922685858, 43.54580707741804 ], [ 6.726800682243226, 43.545045522576132 ], [ 6.726915877813378, 43.544268937122638 ], [ 6.7269544, 43.5434848 ] ] ] } }
]
}
