{
"type": "FeatureCollection",
"name": "rishiganga_rivers",
"crs": { "type": "name", "properties": { "name": "urn:ogc:def:crs:OGC:1.3:CRS84" } },
"features": [
{ "type": "Feature", "properties": { "element": "way", "id": 227163072, "name": "Birahi Ganga", "waterway": "river" }, "geometry": { "type": "LineString", "coordinates": [ [ 79.6386373, 30.377568 ], [ 79.638015, 30.3776606 ], [ 79.6371782, 30.3777347 ], [ 79.636116, 30.3780679 ], [ 79.6342921, 30.3782622 ], [ 79.6329832, 30.3783502 ], [ 79.6325648, 30.3785954 ], [ 79.6313417, 30.3788176 ], [ 79.6309554, 30.3787991 ], [ 79.6304834, 30.3791786 ], [ 79.6300542, 30.3795673 ], [ 79.6297538, 30.3797802 ], [ 79.6291637, 30.3797894 ], [ 79.628638, 30.379882 ], [ 79.6282411, 30.3800208 ], [ 79.6267497, 30.3808909 ], [ 79.6257658, 30.3814178 ], [ 79.6249902, 30.3809001 ], [ 79.6231985, 30.380678 ], [ 79.6216857, 30.3803818 ], [ 79.619261, 30.3802892 ], [ 79.6180165, 30.3803448 ], [ 79.6151197, 30.3796136 ], [ 79.6137571, 30.3791415 ], [ 79.611901, 30.3788083 ], [ 79.6089721, 30.3789009 ], [ 79.6071696, 30.3785029 ], [ 79.605217, 30.3784751 ], [ 79.6039617, 30.3783548 ], [ 79.6023202, 30.3779846 ], [ 79.6008074, 30.3780031 ], [ 79.6003483, 30.3778861 ], [ 79.5998633, 30.3777624 ], [ 79.5992839, 30.377457 ], [ 79.5982325, 30.3764573 ], [ 79.5981467, 30.3758927 ], [ 79.5977604, 30.3754669 ], [ 79.5971489, 30.3753466 ], [ 79.5965588, 30.3752078 ], [ 79.5953035, 30.3746524 ], [ 79.5943487, 30.3736805 ], [ 79.5927876, 30.3736157 ], [ 79.5920688, 30.3736897 ], [ 79.5916718, 30.3736296 ], [ 79.5913231, 30.3736342 ], [ 79.5907599, 30.3737407 ], [ 79.5897782, 30.3736296 ], [ 79.5894617, 30.3734769 ], [ 79.5889467, 30.3732686 ], [ 79.5885765, 30.3729955 ], [ 79.5880347, 30.3721995 ], [ 79.5876217, 30.3716348 ], [ 79.5874661, 30.3715562 ], [ 79.586994, 30.3712461 ], [ 79.5869189, 30.3708619 ], [ 79.5868653, 30.3706351 ], [ 79.58664, 30.3704824 ], [ 79.5862752, 30.3701862 ], [ 79.5862216, 30.3699224 ], [ 79.586066, 30.3695429 ], [ 79.5860392, 30.3693855 ], [ 79.585889, 30.3691541 ], [ 79.5853579, 30.3688856 ], [ 79.5849878, 30.3687051 ], [ 79.5847195, 30.3687144 ], [ 79.5841777, 30.3687884 ], [ 79.5838934, 30.3686264 ], [ 79.5830941, 30.3680942 ], [ 79.5830834, 30.3678674 ], [ 79.5830619, 30.3676175 ], [ 79.5829868, 30.3672564 ], [ 79.5827079, 30.3667704 ], [ 79.5823163, 30.3665853 ], [ 79.5818013, 30.3664742 ], [ 79.5805889, 30.3660715 ], [ 79.5801222, 30.3657753 ], [ 79.5796341, 30.3654328 ], [ 79.5788133, 30.3653217 ], [ 79.5781696, 30.3652569 ], [ 79.5779765, 30.3648774 ], [ 79.5774722, 30.3646552 ], [ 79.577204, 30.3644793 ], [ 79.577043, 30.3639702 ], [ 79.576689, 30.3636555 ], [ 79.5762384, 30.3634518 ], [ 79.5757449, 30.3634055 ], [ 79.5749938, 30.3635814 ], [ 79.5743179, 30.3643535 ], [ 79.5737858, 30.3643202 ], [ 79.5733069, 30.3643567 ], [ 79.5721829, 30.3644423 ], [ 79.5718868, 30.3643701 ], [ 79.5714189, 30.3642125 ], [ 79.5710842, 30.3642238 ], [ 79.5702923, 30.3647378 ], [ 79.5699433, 30.3645488 ], [ 79.5695114, 30.3642942 ], [ 79.5692282, 30.3641924 ], [ 79.5690908, 30.363972 ], [ 79.5684857, 30.3632685 ], [ 79.5677411, 30.3633314 ], [ 79.5674429, 30.3635647 ], [ 79.5669622, 30.3636666 ], [ 79.5665288, 30.3633777 ], [ 79.5663185, 30.3634406 ], [ 79.5654173, 30.3642905 ], [ 79.5645804, 30.3641665 ], [ 79.5639431, 30.3642294 ], [ 79.5626449, 30.3643868 ], [ 79.5610785, 30.3646988 ], [ 79.5604055, 30.3645944 ], [ 79.5601496, 30.3648384 ], [ 79.5599459, 30.3654843 ], [ 79.5595888, 30.3662318 ], [ 79.5585994, 30.3666475 ], [ 79.5579844, 30.3671557 ], [ 79.5574603, 30.3673273 ], [ 79.5573222, 30.3673725 ], [ 79.5564265, 30.3674946 ], [ 79.5556921, 30.367871 ], [ 79.5555071, 30.3680856 ], [ 79.555343, 30.368519 ], [ 79.5548282, 30.3687633 ], [ 79.554262, 30.3693428 ], [ 79.5536169, 30.3702196 ], [ 79.5535176, 30.37074 ], [ 79.5532569, 30.3712293 ], [ 79.5525313, 30.3710599 ], [ 79.5522274, 30.3714212 ], [ 79.5519005, 30.3714583 ], [ 79.5510943, 30.370908 ], [ 79.5504173, 30.3709576 ], [ 79.5499214, 30.3708808 ], [ 79.5485224, 30.3715431 ], [ 79.5470155, 30.371417 ], [ 79.5459119, 30.3710978 ], [ 79.545076, 30.3711873 ], [ 79.5438038, 30.3719685 ], [ 79.5434847, 30.3721055 ], [ 79.543103, 30.3730836 ], [ 79.5431554, 30.3737283 ], [ 79.5427293, 30.3742871 ], [ 79.5416544, 30.3743872 ], [ 79.5403404, 30.3756158 ], [ 79.5375292, 30.3756861 ], [ 79.5366392, 30.3767617 ], [ 79.536269, 30.3768684 ], [ 79.5352434, 30.3771641 ], [ 79.5318838, 30.3758088 ], [ 79.5298781, 30.3764854 ], [ 79.5283081, 30.3763051 ], [ 79.5265489, 30.3770875 ], [ 79.5245877, 30.3765006 ], [ 79.5234973, 30.3764498 ], [ 79.522487, 30.3760536 ], [ 79.5219899, 30.3758586 ], [ 79.5176102, 30.3765402 ], [ 79.5163061, 30.3771877 ], [ 79.5089949, 30.377717 ], [ 79.5075586, 30.377362 ], [ 79.5061199, 30.3782037 ], [ 79.5049565, 30.3777669 ], [ 79.5045682, 30.3777953 ], [ 79.5031212, 30.37819 ], [ 79.5021038, 30.3773738 ], [ 79.5011198, 30.3773069 ], [ 79.498426, 30.3753519 ], [ 79.4982164, 30.3743334 ], [ 79.4916301, 30.3722925 ], [ 79.4902816, 30.3725988 ], [ 79.4900924, 30.3725327 ], [ 79.4899495, 30.3722386 ], [ 79.4896586, 30.3720285 ], [ 79.4890545, 30.371963 ], [ 79.4879774, 30.3716631 ], [ 79.4871732, 30.3707333 ], [ 79.4866498, 30.3703513 ], [ 79.4854692, 30.3704006 ], [ 79.4841575, 30.3692785 ], [ 79.4845544, 30.3685958 ], [ 79.4837464, 30.3671805 ], [ 79.482025, 30.3671327 ], [ 79.4802796, 30.3662056 ], [ 79.4794806, 30.3663736 ], [ 79.4784797, 30.3665413 ], [ 79.4778109, 30.3667365 ], [ 79.4765957, 30.367057 ], [ 79.476087, 30.3664883 ], [ 79.4750775, 30.3664629 ], [ 79.4727959, 30.3665349 ], [ 79.4713695, 30.3671791 ], [ 79.4705277, 30.3672427 ], [ 79.4694767, 30.366943 ], [ 79.468625, 30.3668996 ], [ 79.468066, 30.3671687 ], [ 79.4675967, 30.3672944 ], [ 79.4665715, 30.3690918 ], [ 79.4664389, 30.3692536 ], [ 79.46613, 30.3692548 ], [ 79.4649241, 30.3687576 ], [ 79.4637705, 30.3689242 ], [ 79.4627532, 30.3689242 ], [ 79.4619781, 30.3695094 ], [ 79.4615098, 30.3700249 ], [ 79.4609117, 30.3708248 ], [ 79.4607506, 30.3714135 ], [ 79.460636, 30.3715073 ], [ 79.460323, 30.3715267 ], [ 79.4597598, 30.3713618 ], [ 79.4588776, 30.3715435 ], [ 79.4578279, 30.3718918 ], [ 79.4576967, 30.37201 ], [ 79.4570851, 30.3725606 ], [ 79.4567528, 30.3728192 ], [ 79.4561001, 30.3728392 ], [ 79.4552119, 30.3726302 ], [ 79.4542567, 30.372287 ], [ 79.4536612, 30.3725272 ], [ 79.4531607, 30.3734036 ], [ 79.4516497, 30.3740612 ], [ 79.4480523, 30.3777782 ], [ 79.4457357, 30.378602 ], [ 79.445047, 30.3789261 ], [ 79.443466, 30.3791151 ], [ 79.4424955, 30.3792502 ], [ 79.441932, 30.3789261 ], [ 79.4395215, 30.3788586 ], [ 79.438864, 30.3791421 ], [ 79.437017, 30.3802765 ], [ 79.4345908, 30.3806951 ], [ 79.433589, 30.380452 ], [ 79.4322585, 30.3799254 ], [ 79.4318671, 30.3800064 ], [ 79.431241, 30.3801954 ], [ 79.4308663, 30.3805033 ], [ 79.4305836, 30.3807356 ], [ 79.4303488, 30.3812622 ], [ 79.4300044, 30.3820859 ], [ 79.4297383, 30.3826936 ], [ 79.4289713, 30.3833147 ], [ 79.4269366, 30.3837566 ], [ 79.4264461, 30.3842982 ], [ 79.4254578, 30.3845169 ], [ 79.425559, 30.3851647 ], [ 79.4249937, 30.386064 ], [ 79.4252766, 30.386406 ], [ 79.425512, 30.386947 ], [ 79.4252333, 30.3872644 ], [ 79.4247776, 30.3877734 ], [ 79.4244163, 30.3880813 ], [ 79.4235554, 30.3878112 ], [ 79.4231484, 30.3875412 ], [ 79.4220527, 30.3869065 ], [ 79.4216457, 30.3866095 ], [ 79.4206752, 30.3866635 ], [ 79.4200022, 30.3870686 ], [ 79.4181081, 30.3875006 ], [ 79.4173505, 30.3877121 ], [ 79.4170437, 30.3877977 ], [ 79.4162924, 30.3881353 ], [ 79.4147427, 30.3888914 ], [ 79.4139444, 30.3892155 ], [ 79.4130209, 30.3909573 ], [ 79.4121756, 30.3916054 ], [ 79.4110017, 30.3919159 ], [ 79.4085441, 30.3931311 ], [ 79.4073545, 30.3950348 ], [ 79.4078085, 30.3956154 ], [ 79.4088143, 30.3964243 ], [ 79.4089356, 30.3966171 ], [ 79.4088093, 30.3967481 ], [ 79.4087287, 30.3968342 ], [ 79.4071723, 30.3979603 ], [ 79.406431, 30.3980997 ], [ 79.4042709, 30.3980997 ], [ 79.4032691, 30.3979512 ], [ 79.4010464, 30.3970061 ], [ 79.3998724, 30.3976136 ], [ 79.3986827, 30.3985722 ], [ 79.3983071, 30.3999223 ], [ 79.3982601, 30.4003813 ], [ 79.3981192, 30.4010564 ], [ 79.3975401, 30.4020554 ], [ 79.3969296, 30.4028385 ], [ 79.3966833, 30.4030855 ], [ 79.3957493, 30.4034123 ], [ 79.3948583, 30.4036128 ], [ 79.3943436, 30.4039469 ], [ 79.3940282, 30.404238 ], [ 79.3939009, 30.4045674 ], [ 79.3936519, 30.4050733 ], [ 79.39327, 30.4054218 ], [ 79.3925838, 30.4059372 ], [ 79.3917924, 30.4063095 ], [ 79.3914659, 30.4065148 ], [ 79.3909955, 30.4068918 ], [ 79.3906025, 30.4071544 ], [ 79.3899993, 30.4075219 ], [ 79.3889644, 30.4079944 ], [ 79.388245, 30.408381 ], [ 79.3878231, 30.4085145 ] ] } },
{ "type": "Feature", "properties": { "element": "way", "id": 227470915, "name": "Gadi Gadhera", "waterway": "stream" }, "geometry": { "type": "LineString", "coordinates": [ [ 79.7073663, 30.5915953 ], [ 79.7101677, 30.5925032 ], [ 79.7144852, 30.5930422 ], [ 79.7170229, 30.593326 ], [ 79.7195607, 30.5940636 ], [ 79.7218677, 30.5933544 ], [ 79.723186, 30.5922478 ], [ 79.7236474, 30.5914251 ], [ 79.7253612, 30.5912265 ], [ 79.7265807, 30.5906307 ], [ 79.7280308, 30.5917088 ], [ 79.7289536, 30.5907442 ], [ 79.7292173, 30.5899782 ], [ 79.7313595, 30.5880774 ], [ 79.7326449, 30.58629 ], [ 79.7331722, 30.5843606 ], [ 79.7331063, 30.5829987 ], [ 79.7332381, 30.58158 ], [ 79.7328756, 30.5790548 ], [ 79.7334029, 30.5772671 ], [ 79.7335677, 30.575593 ], [ 79.7342928, 30.5738621 ], [ 79.7362373, 30.5733514 ], [ 79.7385114, 30.5737486 ], [ 79.7407195, 30.5729541 ], [ 79.7451688, 30.5729541 ], [ 79.7472122, 30.5725001 ], [ 79.7475748, 30.5714502 ], [ 79.7510683, 30.5713651 ], [ 79.7545948, 30.5688394 ], [ 79.7562849, 30.56845 ], [ 79.7580553, 30.5684705 ], [ 79.7589713, 30.5687429 ], [ 79.761099, 30.5674772 ], [ 79.7621613, 30.566164 ], [ 79.7625285, 30.5658061 ], [ 79.7635984, 30.565735 ], [ 79.7641593, 30.565268 ], [ 79.7642934, 30.5648015 ], [ 79.7647281, 30.5646394 ], [ 79.7655755, 30.5642934 ], [ 79.7661173, 30.5641779 ], [ 79.7664337, 30.5641579 ] ] } },
{ "type": "Feature", "properties": { "element": "way", "id": 227956610, "name": "Tolma Gadhera", "waterway": "stream" }, "geometry": { "type": "LineString", "coordinates": [ [ 79.8199761, 30.5064637 ], [ 79.8174119, 30.5072494 ], [ 79.8152232, 30.508294 ], [ 79.8146546, 30.5092645 ], [ 79.8135281, 30.5094402 ], [ 79.8132322, 30.5100278 ], [ 79.8128521, 30.5108914 ], [ 79.8128521, 30.511714 ], [ 79.8121065, 30.512324 ], [ 79.8111623, 30.5127261 ], [ 79.8091936, 30.5133593 ], [ 79.8085713, 30.5132484 ], [ 79.8080992, 30.5127308 ], [ 79.8058677, 30.5119913 ], [ 79.8054182, 30.5121344 ], [ 79.8048806, 30.5123056 ], [ 79.803679, 30.5120283 ], [ 79.8023271, 30.5122871 ], [ 79.801383, 30.5118064 ], [ 79.7995591, 30.5127862 ], [ 79.7985291, 30.5129156 ], [ 79.7975421, 30.5148197 ], [ 79.7957825, 30.5157439 ], [ 79.793272, 30.5160397 ], [ 79.7908258, 30.5158179 ], [ 79.7886586, 30.5160212 ], [ 79.787693, 30.5161876 ], [ 79.7871136, 30.5172598 ], [ 79.7860622, 30.5173152 ], [ 79.7854399, 30.5170749 ], [ 79.7843456, 30.5173152 ], [ 79.7835517, 30.5172413 ], [ 79.7830581, 30.5166682 ], [ 79.7822642, 30.5167237 ], [ 79.7797751, 30.517537 ], [ 79.7793889, 30.5184428 ], [ 79.7787452, 30.5185352 ], [ 79.7775221, 30.5173522 ], [ 79.7760844, 30.5171303 ], [ 79.7757947, 30.5180638 ], [ 79.7754836, 30.5183042 ], [ 79.7750974, 30.5180361 ], [ 79.774636, 30.5178051 ], [ 79.7739816, 30.5180823 ], [ 79.7729945, 30.5199955 ], [ 79.7723508, 30.5203652 ], [ 79.7719431, 30.5203652 ], [ 79.7712564, 30.5199586 ], [ 79.7706127, 30.5199493 ], [ 79.7701192, 30.5199955 ], [ 79.7696042, 30.5207349 ], [ 79.7692072, 30.5209937 ], [ 79.7687781, 30.5209475 ], [ 79.7678661, 30.5208273 ], [ 79.767276, 30.520929 ], [ 79.7668254, 30.5212617 ], [ 79.7662246, 30.5224724 ], [ 79.766053, 30.5226296 ], [ 79.7648299, 30.5229992 ], [ 79.763242, 30.5236924 ], [ 79.7607207, 30.5240066 ], [ 79.7601628, 30.5247367 ], [ 79.7600126, 30.5247552 ], [ 79.7596156, 30.5246628 ], [ 79.7589505, 30.5247737 ], [ 79.7587037, 30.5245057 ], [ 79.7584891, 30.5243671 ], [ 79.7581565, 30.524404 ], [ 79.7579634, 30.5245612 ], [ 79.7578025, 30.5251619 ], [ 79.7571802, 30.526123 ], [ 79.7566867, 30.5265944 ], [ 79.7560215, 30.5266221 ], [ 79.7551417, 30.5273984 ], [ 79.7547233, 30.5273891 ], [ 79.7543907, 30.5277218 ], [ 79.7534573, 30.5280638 ], [ 79.7533715, 30.5285628 ], [ 79.7528028, 30.5289048 ], [ 79.7522235, 30.5286552 ], [ 79.7520304, 30.5288124 ], [ 79.7510755, 30.5298289 ], [ 79.750936, 30.5298382 ], [ 79.7506571, 30.5296164 ], [ 79.7501635, 30.5295609 ], [ 79.7499275, 30.5291358 ], [ 79.7494876, 30.5288955 ], [ 79.7488439, 30.5290988 ], [ 79.7486186, 30.5295702 ], [ 79.7482216, 30.5296626 ], [ 79.7477496, 30.5295424 ], [ 79.7473204, 30.5290896 ], [ 79.7468073, 30.5291351 ], [ 79.745729, 30.5295711 ], [ 79.7424636, 30.5297588 ], [ 79.7414752, 30.530039 ], [ 79.7406151, 30.5303308 ], [ 79.7400932, 30.5305631 ] ] } },
{ "type": "Feature", "properties": { "element": "way", "id": 232009284, "name": null, "waterway": "stream" }, "geometry": { "type": "LineString", "coordinates": [ [ 79.6161443, 30.4926805 ], [ 79.6160531, 30.4929486 ], [ 79.61564, 30.4936142 ], [ 79.6157151, 30.4938499 ], [ 79.6156883, 30.4942844 ], [ 79.6158729, 30.4946616 ], [ 79.6161753, 30.4952282 ], [ 79.6163375, 30.4957229 ], [ 79.6165479, 30.4960893 ], [ 79.6167013, 30.4963386 ], [ 79.6172273, 30.496569 ], [ 79.6177577, 30.4968598 ], [ 79.6179944, 30.4970033 ], [ 79.618047, 30.4971242 ], [ 79.6180952, 30.4972488 ], [ 79.6181872, 30.497279 ], [ 79.6183275, 30.4972752 ], [ 79.6188043, 30.497488 ], [ 79.6193157, 30.4976029 ], [ 79.6195512, 30.4976776 ], [ 79.6195791, 30.4977818 ], [ 79.6196256, 30.4978833 ], [ 79.6204067, 30.4982465 ], [ 79.6206764, 30.4983266 ], [ 79.6207476, 30.4984308 ], [ 79.6207662, 30.498623 ], [ 79.6207631, 30.4988207 ], [ 79.6208189, 30.4990049 ], [ 79.6218375, 30.5005867 ], [ 79.6222847, 30.5009811 ] ] } },
{ "type": "Feature", "properties": { "element": "way", "id": 232009286, "name": "Duli Gadhera", "waterway": "stream" }, "geometry": { "type": "LineString", "coordinates": [ [ 79.6190255, 30.4549115 ], [ 79.6189286, 30.4552398 ], [ 79.6185737, 30.455504 ], [ 79.6183123, 30.4559464 ], [ 79.6182219, 30.4562691 ], [ 79.6182574, 30.4564833 ], [ 79.6181864, 30.456614 ], [ 79.6181122, 30.4574486 ], [ 79.6181348, 30.4577741 ], [ 79.6180605, 30.4580912 ], [ 79.617964, 30.4582777 ], [ 79.6179091, 30.4590594 ], [ 79.6173605, 30.4607201 ], [ 79.6173282, 30.4617355 ], [ 79.6172346, 30.4624086 ], [ 79.6171442, 30.4627369 ], [ 79.6171539, 30.4634768 ], [ 79.6172733, 30.4640137 ], [ 79.617068, 30.4647482 ], [ 79.6171148, 30.4649009 ], [ 79.6174981, 30.4650504 ], [ 79.617918, 30.4653337 ], [ 79.6178815, 30.4658057 ], [ 79.6175985, 30.4670016 ], [ 79.6176351, 30.467749 ], [ 79.6178768, 30.4691523 ], [ 79.6171926, 30.4700703 ], [ 79.6160954, 30.4706989 ], [ 79.6156113, 30.4711105 ], [ 79.6151401, 30.4728462 ], [ 79.6152111, 30.4730019 ], [ 79.6153338, 30.4730353 ], [ 79.6154951, 30.4730854 ], [ 79.6155274, 30.4732856 ], [ 79.6152572, 30.4737589 ], [ 79.6145939, 30.475351 ], [ 79.6146745, 30.4759708 ], [ 79.6144175, 30.4766825 ], [ 79.6140274, 30.4772945 ], [ 79.6137162, 30.4776534 ], [ 79.6136241, 30.47856 ], [ 79.6131639, 30.4791607 ], [ 79.6131156, 30.4795724 ], [ 79.6127606, 30.4799199 ], [ 79.6125502, 30.4802788 ], [ 79.6125414, 30.4806566 ], [ 79.6129052, 30.4813781 ], [ 79.6128702, 30.4816236 ], [ 79.6125239, 30.4819639 ], [ 79.6123473, 30.4823752 ], [ 79.6123535, 30.4829575 ], [ 79.6124372, 30.4831151 ], [ 79.6126696, 30.4832086 ], [ 79.6128153, 30.4833261 ], [ 79.6128556, 30.4835505 ], [ 79.6128804, 30.4838363 ], [ 79.6130849, 30.4842156 ], [ 79.6130353, 30.4849822 ], [ 79.61293, 30.4852546 ], [ 79.6129393, 30.4854736 ], [ 79.6130787, 30.4859651 ], [ 79.6130132, 30.4862317 ], [ 79.6129792, 30.4863572 ], [ 79.6130535, 30.4864534 ], [ 79.613162, 30.4865602 ], [ 79.6131868, 30.4867953 ], [ 79.6133046, 30.4868754 ], [ 79.6137761, 30.4870528 ], [ 79.6141048, 30.4874381 ], [ 79.6146045, 30.4875099 ], [ 79.614942, 30.4876647 ], [ 79.6155162, 30.4881935 ], [ 79.6155995, 30.4885146 ], [ 79.6155732, 30.4895911 ], [ 79.6155557, 30.4900406 ], [ 79.6156346, 30.4902521 ], [ 79.6160992, 30.4905052 ], [ 79.6164937, 30.4906336 ], [ 79.6166471, 30.4908905 ], [ 79.616726, 30.491068 ], [ 79.6166252, 30.4911624 ], [ 79.6161737, 30.4914193 ], [ 79.6160072, 30.4916723 ], [ 79.6160028, 30.4917781 ], [ 79.6161152, 30.4920443 ], [ 79.6162037, 30.4923595 ], [ 79.6161443, 30.4926805 ] ] } },
{ "type": "Feature", "properties": { "element": "way", "id": 297279727, "name": "Dhauli Ganga", "waterway": "river" }, "geometry": { "type": "LineString", "coordinates": [ [ 79.8285966, 30.7504169 ], [ 79.8286498, 30.748519 ], [ 79.8297288, 30.7474757 ], [ 79.8314147, 30.7468962 ], [ 79.8356296, 30.7450415 ], [ 79.8358656, 30.7439692 ], [ 79.8358993, 30.7425782 ], [ 79.8352924, 30.7396801 ], [ 79.8331344, 30.7389845 ], [ 79.8319205, 30.7388686 ], [ 79.8315496, 30.7384339 ], [ 79.8332018, 30.7373905 ], [ 79.8339099, 30.7363471 ], [ 79.8337413, 30.7344343 ], [ 79.8328646, 30.7328982 ], [ 79.8319205, 30.7324345 ], [ 79.8314147, 30.731536 ], [ 79.8313135, 30.7303766 ], [ 79.8310775, 30.7286375 ], [ 79.8310775, 30.7276231 ], [ 79.831381, 30.7264926 ], [ 79.8314147, 30.7252173 ], [ 79.8322577, 30.7241448 ], [ 79.8331681, 30.7222317 ], [ 79.8329658, 30.7210722 ], [ 79.8327635, 30.7202606 ], [ 79.8331664, 30.7195228 ], [ 79.8333112, 30.7187668 ], [ 79.8335465, 30.7184127 ], [ 79.8338668, 30.7182777 ], [ 79.8348144, 30.7176069 ], [ 79.8347866, 30.7165502 ], [ 79.8355621, 30.714492 ], [ 79.8371469, 30.7131585 ], [ 79.8382259, 30.7122018 ], [ 79.8394061, 30.7112162 ], [ 79.8406874, 30.7106074 ], [ 79.8416315, 30.7098246 ], [ 79.8423396, 30.7096507 ], [ 79.8428074, 30.7096713 ], [ 79.843518, 30.7097872 ], [ 79.8446614, 30.7097387 ], [ 79.8453167, 30.7095237 ], [ 79.8458464, 30.7093608 ], [ 79.8462848, 30.7090709 ], [ 79.8477347, 30.7085201 ], [ 79.8495218, 30.7078823 ], [ 79.8510054, 30.7072445 ], [ 79.8522193, 30.7067226 ], [ 79.8540064, 30.7059688 ], [ 79.8553214, 30.7057949 ], [ 79.8576143, 30.7057949 ], [ 79.8586259, 30.705418 ], [ 79.8605141, 30.7051281 ], [ 79.8621326, 30.7048672 ], [ 79.8633465, 30.7051861 ], [ 79.8645267, 30.7050411 ], [ 79.8656731, 30.705389 ], [ 79.8664824, 30.7055919 ], [ 79.86773, 30.705534 ], [ 79.8683032, 30.7058239 ], [ 79.869171, 30.7063444 ], [ 79.8694621, 30.7062711 ], [ 79.8697531, 30.7058819 ], [ 79.871203, 30.7056209 ], [ 79.8719449, 30.705273 ], [ 79.8729901, 30.70536 ], [ 79.8733273, 30.7047802 ], [ 79.8747772, 30.7044613 ], [ 79.8758225, 30.7039974 ], [ 79.8769015, 30.7035625 ], [ 79.8780143, 30.7029827 ], [ 79.8788235, 30.7030117 ], [ 79.8795991, 30.7032436 ], [ 79.8805432, 30.7033596 ], [ 79.8816222, 30.7033016 ], [ 79.8825326, 30.7034176 ], [ 79.8828805, 30.7031698 ], [ 79.8833756, 30.7026638 ], [ 79.8833081, 30.7020549 ], [ 79.8827686, 30.701504 ], [ 79.8824865, 30.7009109 ], [ 79.8824652, 30.7008662 ], [ 79.8828698, 30.7001704 ], [ 79.883207, 30.6992716 ], [ 79.8827012, 30.6984018 ], [ 79.8830047, 30.6977059 ], [ 79.8835104, 30.697097 ], [ 79.8838814, 30.6964302 ], [ 79.8844209, 30.6959952 ], [ 79.8848929, 30.6954154 ], [ 79.885601, 30.6948355 ], [ 79.8865789, 30.6946615 ], [ 79.8871858, 30.6942846 ], [ 79.8874556, 30.6938496 ], [ 79.8871858, 30.6930378 ], [ 79.886444, 30.6927768 ], [ 79.8856685, 30.6923419 ], [ 79.8855336, 30.6919359 ], [ 79.8859719, 30.6908341 ], [ 79.8857696, 30.6900222 ], [ 79.8852301, 30.6895873 ], [ 79.8851627, 30.6884854 ], [ 79.885129, 30.6877895 ], [ 79.8854999, 30.6873545 ], [ 79.8855673, 30.6865426 ], [ 79.8850615, 30.6860496 ], [ 79.8844546, 30.6851507 ], [ 79.8842185, 30.6839038 ], [ 79.8838814, 30.6837008 ], [ 79.8825663, 30.6836718 ], [ 79.8819594, 30.6833238 ], [ 79.8804757, 30.6829758 ], [ 79.8798351, 30.6826859 ], [ 79.8791607, 30.6817289 ], [ 79.8786549, 30.6811489 ], [ 79.8779805, 30.6808589 ], [ 79.8775422, 30.6807429 ], [ 79.8766722, 30.6806961 ], [ 79.8759237, 30.6806559 ], [ 79.875047, 30.679815 ], [ 79.8735971, 30.679757 ], [ 79.8723495, 30.67938 ], [ 79.8711019, 30.67938 ], [ 79.8700566, 30.679554 ], [ 79.8696857, 30.680076 ], [ 79.8690113, 30.6803079 ], [ 79.8675614, 30.67967 ], [ 79.8665161, 30.678887 ], [ 79.8654034, 30.677959 ], [ 79.8646616, 30.676944 ], [ 79.863066, 30.6762708 ], [ 79.8628745, 30.67619 ], [ 79.8609525, 30.675407 ], [ 79.85957, 30.6741599 ], [ 79.8579178, 30.6734929 ], [ 79.8554226, 30.6733189 ], [ 79.8531634, 30.6725939 ], [ 79.8488474, 30.6712308 ], [ 79.847094, 30.6705057 ], [ 79.846251, 30.6697227 ], [ 79.8454418, 30.6697517 ], [ 79.8443628, 30.6699547 ], [ 79.8433849, 30.6689396 ], [ 79.8429941, 30.6685441 ], [ 79.8428365, 30.668055 ], [ 79.8410796, 30.6666151 ], [ 79.8395747, 30.6647921 ], [ 79.8373155, 30.6619497 ], [ 79.8356633, 30.6586721 ], [ 79.8345363, 30.6562664 ], [ 79.8344489, 30.6559073 ], [ 79.8343266, 30.6554044 ], [ 79.8340702, 30.6545223 ], [ 79.8344198, 30.6528182 ], [ 79.8344897, 30.6511341 ], [ 79.8341867, 30.6485277 ], [ 79.8335575, 30.6473649 ], [ 79.8322525, 30.6451995 ], [ 79.8318097, 30.644217 ], [ 79.8317361, 30.6429264 ], [ 79.8320452, 30.6422217 ], [ 79.8314866, 30.6417365 ], [ 79.8310592, 30.6414114 ], [ 79.8308115, 30.640479 ], [ 79.8312769, 30.6398288 ], [ 79.8309241, 30.6386229 ], [ 79.830458, 30.6373396 ], [ 79.8309474, 30.6349334 ], [ 79.8305046, 30.6335498 ], [ 79.8291995, 30.631725 ], [ 79.8297822, 30.6306622 ], [ 79.8295491, 30.6297598 ], [ 79.8280576, 30.6289777 ], [ 79.8265661, 30.6270325 ], [ 79.8256805, 30.6260499 ], [ 79.8246342, 30.6255961 ], [ 79.8245852, 30.6244255 ], [ 79.8246551, 30.623503 ], [ 79.8240647, 30.6227191 ], [ 79.8238395, 30.6224201 ], [ 79.8241191, 30.6212769 ], [ 79.8232103, 30.6203143 ], [ 79.8226742, 30.619492 ], [ 79.8214624, 30.6189104 ], [ 79.8212482, 30.6176341 ], [ 79.8205396, 30.6175632 ], [ 79.8196992, 30.6169109 ], [ 79.8187434, 30.6161309 ], [ 79.8178865, 30.6155494 ], [ 79.8166835, 30.6149254 ], [ 79.8148708, 30.6140745 ], [ 79.8128604, 30.6134357 ], [ 79.8115421, 30.6135498 ], [ 79.8104215, 30.6132094 ], [ 79.8098126, 30.6121108 ], [ 79.8089147, 30.611182 ], [ 79.8079477, 30.6104198 ], [ 79.8075677, 30.6096869 ], [ 79.807423, 30.6091326 ], [ 79.8079177, 30.6082986 ], [ 79.808517, 30.6073602 ], [ 79.8086913, 30.6064017 ], [ 79.8083347, 30.605117 ], [ 79.8074389, 30.6043967 ], [ 79.8064793, 30.6036522 ], [ 79.8057531, 30.6035495 ], [ 79.805556, 30.6031178 ], [ 79.8054093, 30.6013215 ], [ 79.8048609, 30.6003804 ], [ 79.8038966, 30.5995802 ], [ 79.8022257, 30.5992392 ], [ 79.7998881, 30.5994853 ], [ 79.7984372, 30.5996951 ], [ 79.797307, 30.5997921 ], [ 79.795873, 30.5996404 ], [ 79.794074, 30.599139 ], [ 79.7928085, 30.5987615 ], [ 79.7904031, 30.597824 ], [ 79.7885957, 30.597155 ], [ 79.7873711, 30.5966731 ], [ 79.786065, 30.594713 ], [ 79.7848074, 30.592807 ], [ 79.7829454, 30.591282 ], [ 79.7818189, 30.5891531 ], [ 79.7802197, 30.5877258 ], [ 79.7789465, 30.5864104 ], [ 79.7780487, 30.5854846 ], [ 79.7779702, 30.5849186 ], [ 79.777925, 30.5841884 ], [ 79.7771554, 30.5830453 ], [ 79.7768367, 30.5814382 ], [ 79.7772963, 30.5799678 ], [ 79.7751469, 30.5775593 ], [ 79.7745949, 30.576426 ], [ 79.7737156, 30.5755326 ], [ 79.7732271, 30.5749762 ], [ 79.7724653, 30.5743237 ], [ 79.7714969, 30.5740679 ], [ 79.7707079, 30.5724178 ], [ 79.7690929, 30.5710807 ], [ 79.7678265, 30.5699868 ], [ 79.7675925, 30.5693634 ], [ 79.7681397, 30.568104 ], [ 79.7671794, 30.5666798 ], [ 79.7671419, 30.5660886 ], [ 79.7667824, 30.5650724 ], [ 79.7664337, 30.5641579 ], [ 79.7662246, 30.5633326 ], [ 79.7657847, 30.5628876 ], [ 79.7655702, 30.5620854 ], [ 79.7650926, 30.5615204 ], [ 79.7645026, 30.5611801 ], [ 79.7641539, 30.5602731 ], [ 79.7626518, 30.5597188 ], [ 79.7619008, 30.5593262 ], [ 79.760887, 30.5583422 ], [ 79.7602808, 30.557289 ], [ 79.7597356, 30.5565291 ], [ 79.7599857, 30.5557415 ], [ 79.75968, 30.5551271 ], [ 79.7582369, 30.5545173 ], [ 79.7563218, 30.5535842 ], [ 79.7552436, 30.5525494 ], [ 79.7541868, 30.5523276 ], [ 79.753645, 30.55157 ], [ 79.7530066, 30.5509972 ], [ 79.7529868, 30.5509359 ], [ 79.7527045, 30.5500616 ], [ 79.7526472, 30.5484193 ], [ 79.7520947, 30.547865 ], [ 79.750936, 30.5474353 ], [ 79.7493535, 30.5469133 ], [ 79.7483128, 30.5456474 ], [ 79.7473671, 30.543201 ], [ 79.7457796, 30.5395427 ], [ 79.7448472, 30.5368529 ], [ 79.7443646, 30.5360607 ], [ 79.7441339, 30.5356093 ], [ 79.7440984, 30.5349105 ], [ 79.7447723, 30.5335531 ], [ 79.7447652, 30.5331352 ], [ 79.7442693, 30.532724 ], [ 79.743545, 30.5321234 ], [ 79.7431469, 30.5319637 ], [ 79.7420311, 30.5318851 ], [ 79.7412125, 30.5317471 ], [ 79.7406761, 30.5314179 ], [ 79.7400932, 30.5305631 ], [ 79.7398218, 30.5302239 ], [ 79.7387321, 30.5294462 ], [ 79.7386301, 30.5289972 ], [ 79.7388554, 30.5284981 ], [ 79.7389551, 30.5276975 ], [ 79.7390485, 30.5270703 ], [ 79.738858, 30.526455 ], [ 79.737388, 30.52533 ], [ 79.7373556, 30.5251932 ], [ 79.7366119, 30.5233608 ], [ 79.7360628, 30.5225486 ], [ 79.736315, 30.5217012 ], [ 79.7358968, 30.5196489 ], [ 79.7356324, 30.5184564 ], [ 79.7357308, 30.5169779 ], [ 79.7355339, 30.516278 ], [ 79.7352202, 30.5150364 ], [ 79.7357123, 30.5144778 ], [ 79.7354335, 30.5135623 ], [ 79.734616, 30.512565 ], [ 79.7331523, 30.5114018 ], [ 79.7321294, 30.5089236 ], [ 79.7317839, 30.5082751 ], [ 79.7314525, 30.5067965 ], [ 79.7293274, 30.5055292 ], [ 79.7279549, 30.5045226 ], [ 79.726249, 30.504162 ], [ 79.7248836, 30.5033915 ], [ 79.7239745, 30.5031822 ], [ 79.7223329, 30.5036167 ], [ 79.7214639, 30.503515 ], [ 79.7201082, 30.5021012 ], [ 79.7179313, 30.5012653 ], [ 79.7162841, 30.500248 ], [ 79.715402, 30.4993961 ], [ 79.7139933, 30.4995811 ], [ 79.7114895, 30.4993773 ], [ 79.7108277, 30.4993649 ], [ 79.7096715, 30.4983032 ], [ 79.7061956, 30.4967371 ], [ 79.7048907, 30.4969978 ], [ 79.7040572, 30.4967241 ], [ 79.7034341, 30.4960433 ], [ 79.702924, 30.4957415 ], [ 79.7017912, 30.4957983 ], [ 79.7010684, 30.4958145 ], [ 79.6992652, 30.4944067 ], [ 79.6974206, 30.4934201 ], [ 79.6954465, 30.4928469 ], [ 79.6950388, 30.4925695 ], [ 79.6948129, 30.4917428 ], [ 79.6946955, 30.4910533 ], [ 79.6937191, 30.4903969 ], [ 79.6931827, 30.489722 ], [ 79.6918952, 30.4886126 ], [ 79.6907365, 30.4881873 ], [ 79.6905699, 30.4879689 ] ] } },
{ "type": "Feature", "properties": { "element": "way", "id": 297368686, "name": "Dhauli Ganga", "waterway": "river" }, "geometry": { "type": "LineString", "coordinates": [ [ 79.6902371, 30.4877383 ], [ 79.6900177, 30.4875863 ], [ 79.6893954, 30.4874754 ], [ 79.6876037, 30.4881503 ], [ 79.6859407, 30.4879747 ], [ 79.6843229, 30.4883203 ], [ 79.6826363, 30.4878082 ], [ 79.6813214, 30.4877811 ], [ 79.6806943, 30.487836 ], [ 79.678184, 30.4890578 ], [ 79.6775508, 30.4891026 ], [ 79.6755338, 30.488742 ], [ 79.6752, 30.488747 ], [ 79.6736884, 30.4887698 ], [ 79.6718109, 30.488705 ], [ 79.6704483, 30.4888622 ], [ 79.6689999, 30.4893984 ], [ 79.6671116, 30.4899254 ], [ 79.6659507, 30.4898934 ], [ 79.6653521, 30.4898515 ], [ 79.6644401, 30.4894262 ], [ 79.6637535, 30.4891118 ], [ 79.6630347, 30.4892967 ], [ 79.6614361, 30.4898792 ], [ 79.6604168, 30.4897498 ], [ 79.6596658, 30.4896018 ], [ 79.6590543, 30.4898052 ], [ 79.658314, 30.4899994 ], [ 79.6575679, 30.4898934 ], [ 79.6557712, 30.489759 ], [ 79.6550846, 30.4898607 ], [ 79.6537757, 30.4901658 ], [ 79.6530032, 30.4901935 ], [ 79.6527564, 30.4903692 ], [ 79.6524024, 30.4908592 ], [ 79.6515441, 30.4912752 ], [ 79.6499991, 30.4916265 ], [ 79.6481001, 30.4921258 ], [ 79.6466195, 30.4921165 ], [ 79.6459544, 30.4921535 ], [ 79.6455229, 30.4920378 ], [ 79.6448707, 30.4922275 ], [ 79.6442914, 30.4924586 ], [ 79.6436798, 30.4927822 ], [ 79.6429825, 30.4928469 ], [ 79.6416148, 30.4928458 ], [ 79.6404826, 30.4933276 ], [ 79.6396672, 30.4938176 ], [ 79.6391415, 30.4939655 ], [ 79.638648, 30.4939285 ], [ 79.6372747, 30.4934848 ], [ 79.6366846, 30.4933276 ], [ 79.6360516, 30.4930965 ], [ 79.6349895, 30.4924401 ], [ 79.6346033, 30.4924124 ], [ 79.634026, 30.4924889 ], [ 79.6337664, 30.4925233 ], [ 79.6328223, 30.4923939 ], [ 79.6319961, 30.4924863 ], [ 79.6311593, 30.4927544 ], [ 79.630655, 30.4930225 ], [ 79.6299898, 30.4934718 ], [ 79.6297163, 30.4935125 ], [ 79.628799, 30.4931381 ], [ 79.6281016, 30.4932629 ], [ 79.6270975, 30.4936265 ], [ 79.6258225, 30.4944354 ], [ 79.6251074, 30.4945872 ], [ 79.6239379, 30.4951935 ], [ 79.6227141, 30.4962083 ], [ 79.6225563, 30.4965406 ], [ 79.6225805, 30.4969164 ], [ 79.623671, 30.4994622 ], [ 79.623254, 30.5001959 ], [ 79.6222847, 30.5009811 ], [ 79.6221377, 30.5011001 ], [ 79.6209559, 30.502635 ], [ 79.6201107, 30.503824 ], [ 79.6195094, 30.5051753 ], [ 79.6190259, 30.5054904 ], [ 79.6183006, 30.5059978 ], [ 79.6178295, 30.5066654 ], [ 79.6178481, 30.5071888 ], [ 79.6176615, 30.5075416 ], [ 79.6164409, 30.5084652 ], [ 79.6161558, 30.5090901 ], [ 79.6158954, 30.5097737 ], [ 79.6155607, 30.5099873 ], [ 79.6154491, 30.5102223 ], [ 79.6151197, 30.5104569 ], [ 79.6151304, 30.5110208 ], [ 79.6150982, 30.5119266 ], [ 79.6146595, 30.5129694 ], [ 79.6136309, 30.5137499 ], [ 79.6132204, 30.514825 ], [ 79.6122829, 30.516604 ], [ 79.61113, 30.5180092 ], [ 79.6107056, 30.5188032 ], [ 79.6096275, 30.5201573 ], [ 79.6093536, 30.5212355 ], [ 79.6091789, 30.5222525 ], [ 79.6093878, 30.5236881 ], [ 79.609403, 30.5245909 ], [ 79.6092475, 30.5253461 ], [ 79.6083009, 30.5266885 ], [ 79.607019, 30.5279085 ], [ 79.6060402, 30.5287661 ], [ 79.6056152, 30.5293389 ], [ 79.6054039, 30.5302228 ], [ 79.6043346, 30.5315755 ], [ 79.6036513, 30.5319273 ], [ 79.6033716, 30.5326752 ], [ 79.6033072, 30.5334515 ], [ 79.6030926, 30.5342462 ], [ 79.6015318, 30.5366198 ], [ 79.5983934, 30.5382752 ], [ 79.5972562, 30.5395504 ], [ 79.5952042, 30.5408397 ], [ 79.5950858, 30.5411173 ], [ 79.5945954, 30.5422671 ], [ 79.5943885, 30.5424644 ], [ 79.5933021, 30.5435007 ], [ 79.5925998, 30.5441706 ], [ 79.5886824, 30.5483561 ], [ 79.5868921, 30.5503428 ], [ 79.5865219, 30.5516089 ], [ 79.5851057, 30.5534937 ], [ 79.5841048, 30.555119 ], [ 79.5831423, 30.5556371 ], [ 79.5826488, 30.5560806 ], [ 79.5821339, 30.5562469 ], [ 79.5819354, 30.5567178 ], [ 79.5813077, 30.5571523 ], [ 79.5806855, 30.5577251 ], [ 79.579972, 30.5585471 ], [ 79.5795589, 30.5586213 ], [ 79.5790547, 30.5594712 ], [ 79.5787643, 30.5604969 ], [ 79.5784539, 30.5607274 ], [ 79.5780194, 30.5608382 ], [ 79.5777726, 30.5611896 ], [ 79.5772683, 30.5616192 ], [ 79.5763778, 30.5620026 ], [ 79.5755586, 30.5624925 ] ] } },
{ "type": "Feature", "properties": { "element": "way", "id": 682961394, "name": "Phagti Gadhera", "waterway": "stream" }, "geometry": { "type": "LineString", "coordinates": [ [ 79.8063612, 30.5370555 ], [ 79.8076486, 30.5382198 ], [ 79.8088288, 30.5393656 ], [ 79.8099661, 30.5403821 ], [ 79.8105883, 30.5418236 ], [ 79.8105025, 30.5428585 ], [ 79.8093438, 30.5435977 ], [ 79.8077988, 30.5442445 ], [ 79.8056745, 30.5462773 ], [ 79.8050737, 30.5471643 ], [ 79.803915, 30.5476448 ], [ 79.8025203, 30.5483285 ], [ 79.801147, 30.5486796 ], [ 79.7996235, 30.5494003 ], [ 79.7972417, 30.5507123 ], [ 79.7959971, 30.5515624 ], [ 79.794023, 30.55232 ], [ 79.7928428, 30.5524678 ], [ 79.7918129, 30.5525602 ], [ 79.7911477, 30.5533363 ], [ 79.7908044, 30.5542972 ], [ 79.7898173, 30.5550548 ], [ 79.7893452, 30.5563667 ], [ 79.7888303, 30.5567363 ], [ 79.7886157, 30.5572167 ], [ 79.7886586, 30.5578634 ], [ 79.7884869, 30.5583438 ], [ 79.7881865, 30.5585286 ], [ 79.787457, 30.558621 ], [ 79.7867918, 30.5584547 ], [ 79.7852254, 30.5584732 ], [ 79.7848391, 30.5584362 ], [ 79.7843671, 30.5580482 ], [ 79.7825861, 30.5581775 ], [ 79.779861, 30.5582884 ], [ 79.7786379, 30.5585286 ], [ 79.777801, 30.5584916 ], [ 79.7765565, 30.5580112 ], [ 79.7750544, 30.5581775 ], [ 79.7729516, 30.5586949 ], [ 79.7719431, 30.5585471 ], [ 79.7708273, 30.5590644 ], [ 79.7703981, 30.5595818 ], [ 79.7699046, 30.5597296 ], [ 79.7694325, 30.5595818 ], [ 79.7687673, 30.5601916 ], [ 79.7664928, 30.5609676 ], [ 79.7650926, 30.5615204 ] ] } },
{ "type": "Feature", "properties": { "element": "way", "id": 682961395, "name": null, "waterway": "stream" }, "geometry": { "type": "LineString", "coordinates": [ [ 79.8187208, 30.5104015 ], [ 79.8161244, 30.5104569 ], [ 79.8154163, 30.5106233 ], [ 79.8146438, 30.5111779 ], [ 79.8140967, 30.5116123 ], [ 79.8136568, 30.5116955 ], [ 79.8128521, 30.511714 ] ] } },
{ "type": "Feature", "properties": { "element": "way", "id": 682961396, "name": null, "waterway": "stream" }, "geometry": { "type": "LineString", "coordinates": [ [ 79.8119402, 30.5184428 ], [ 79.8107815, 30.5172228 ], [ 79.8103523, 30.5155961 ], [ 79.8094725, 30.5142836 ], [ 79.8091936, 30.5133593 ] ] } },
{ "type": "Feature", "properties": { "element": "way", "id": 682961397, "name": null, "waterway": "stream" }, "geometry": { "type": "LineString", "coordinates": [ [ 79.8125303, 30.5279899 ], [ 79.8125839, 30.5271027 ], [ 79.8118544, 30.5253467 ], [ 79.8114574, 30.5249123 ], [ 79.8110711, 30.5234429 ], [ 79.8108888, 30.5231841 ], [ 79.8111999, 30.52238 ], [ 79.8111784, 30.5221028 ], [ 79.8107815, 30.5215667 ], [ 79.8103094, 30.5205039 ], [ 79.8101248, 30.5197019 ], [ 79.8100626, 30.5194317 ], [ 79.8094511, 30.5188218 ], [ 79.8089361, 30.5182764 ], [ 79.8080992, 30.5168531 ], [ 79.8080778, 30.5159658 ], [ 79.8076272, 30.5153742 ], [ 79.8074984, 30.515023 ], [ 79.8068547, 30.5147087 ], [ 79.8065114, 30.513692 ], [ 79.805932, 30.5132114 ], [ 79.8054182, 30.5121344 ] ] } },
{ "type": "Feature", "properties": { "element": "way", "id": 682961398, "name": null, "waterway": "stream" }, "geometry": { "type": "LineString", "coordinates": [ [ 79.8026275, 30.5251157 ], [ 79.8018336, 30.5226573 ], [ 79.801104, 30.5218625 ], [ 79.8004174, 30.5194225 ], [ 79.7997522, 30.5189049 ], [ 79.7976494, 30.5177773 ], [ 79.7957825, 30.5157439 ] ] } },
{ "type": "Feature", "properties": { "element": "way", "id": 682961399, "name": null, "waterway": "stream" }, "geometry": { "type": "LineString", "coordinates": [ [ 79.8280013, 30.5145516 ], [ 79.8271322, 30.5138676 ], [ 79.8249006, 30.5133038 ], [ 79.8246217, 30.5133223 ], [ 79.8241174, 30.5136181 ], [ 79.8238706, 30.5136735 ], [ 79.8232698, 30.5134979 ], [ 79.8201585, 30.5138122 ], [ 79.8199117, 30.5137197 ], [ 79.8192358, 30.5131837 ], [ 79.8188817, 30.5131559 ], [ 79.8180449, 30.5135626 ], [ 79.8174977, 30.5134425 ], [ 79.8159206, 30.513424 ], [ 79.814719, 30.5132206 ], [ 79.8136783, 30.5131929 ], [ 79.8132598, 30.5131282 ], [ 79.8125088, 30.512703 ], [ 79.8121065, 30.512324 ] ] } },
{ "type": "Feature", "properties": { "element": "way", "id": 682961400, "name": null, "waterway": "stream" }, "geometry": { "type": "LineString", "coordinates": [ [ 79.80973, 30.5029881 ], [ 79.8099553, 30.5036906 ], [ 79.8106849, 30.5039957 ], [ 79.8107064, 30.5044856 ], [ 79.8111784, 30.5049663 ], [ 79.8115969, 30.50651 ], [ 79.8119724, 30.5076747 ], [ 79.812541, 30.5085066 ], [ 79.8125946, 30.5088856 ], [ 79.8130023, 30.5097359 ], [ 79.8132322, 30.5100278 ] ] } },
{ "type": "Feature", "properties": { "element": "way", "id": 682961401, "name": null, "waterway": "stream" }, "geometry": { "type": "LineString", "coordinates": [ [ 79.79707, 30.5308824 ], [ 79.7961044, 30.5286275 ], [ 79.7955036, 30.5273707 ], [ 79.7954178, 30.5268162 ], [ 79.7942805, 30.5254669 ], [ 79.7936797, 30.5246721 ], [ 79.7937012, 30.524136 ], [ 79.7937226, 30.5237848 ], [ 79.7929716, 30.5226943 ], [ 79.7918343, 30.521881 ], [ 79.791255, 30.5210861 ], [ 79.7908902, 30.5197737 ], [ 79.789474, 30.5182025 ], [ 79.7888732, 30.5173522 ], [ 79.7883689, 30.5169917 ], [ 79.7880793, 30.5169547 ], [ 79.7878432, 30.5170194 ], [ 79.7875965, 30.517269 ], [ 79.7871136, 30.5172598 ] ] } },
{ "type": "Feature", "properties": { "element": "way", "id": 682961402, "name": null, "waterway": "stream" }, "geometry": { "type": "LineString", "coordinates": [ [ 79.8429251, 30.5452609 ], [ 79.8411226, 30.5489199 ], [ 79.8415732, 30.5503058 ], [ 79.8415303, 30.5508417 ], [ 79.840436, 30.5518395 ], [ 79.8397932, 30.5521463 ] ] } },
{ "type": "Feature", "properties": { "element": "way", "id": 682961403, "name": "Gankhwai Gadhera", "waterway": "stream" }, "geometry": { "type": "LineString", "coordinates": [ [ 79.8261237, 30.5592677 ], [ 79.8259306, 30.5594432 ], [ 79.8254371, 30.5596465 ], [ 79.8242354, 30.560672 ], [ 79.8237633, 30.5625196 ], [ 79.8231625, 30.5632957 ], [ 79.8220038, 30.5641086 ], [ 79.821918, 30.5646444 ], [ 79.8203516, 30.5661964 ], [ 79.8183346, 30.5677853 ], [ 79.8161673, 30.5680255 ], [ 79.8144293, 30.5685983 ], [ 79.8132706, 30.5696514 ], [ 79.8125195, 30.5702056 ], [ 79.811672, 30.5703904 ], [ 79.8105025, 30.571074 ], [ 79.8091936, 30.5726628 ], [ 79.8082495, 30.5730969 ], [ 79.8071766, 30.5734387 ], [ 79.8063612, 30.573993 ], [ 79.8051703, 30.5755356 ], [ 79.804945, 30.5758219 ], [ 79.8040759, 30.5757295 ], [ 79.8038614, 30.5758589 ], [ 79.8030567, 30.5768749 ], [ 79.8025417, 30.5771798 ], [ 79.8018122, 30.5772537 ], [ 79.8014688, 30.5774384 ], [ 79.80075, 30.5784544 ], [ 79.800396, 30.5790271 ], [ 79.7990763, 30.5792026 ], [ 79.7984755, 30.5791287 ], [ 79.7980463, 30.5791472 ], [ 79.7977567, 30.5793181 ], [ 79.7973758, 30.5793088 ], [ 79.7969949, 30.5787962 ], [ 79.7965872, 30.5783436 ], [ 79.7956002, 30.5781866 ], [ 79.7945487, 30.5780018 ], [ 79.7933578, 30.5776139 ], [ 79.7927678, 30.5776139 ], [ 79.7907722, 30.5787315 ], [ 79.7896564, 30.5794797 ], [ 79.7892165, 30.5795998 ], [ 79.7889268, 30.5802833 ], [ 79.7885513, 30.5805327 ], [ 79.7883475, 30.5816319 ], [ 79.7881114, 30.5820383 ], [ 79.7873497, 30.5821583 ], [ 79.785279, 30.5831005 ], [ 79.7842705, 30.5836823 ], [ 79.7838843, 30.5841626 ], [ 79.783541, 30.5842827 ], [ 79.7831011, 30.5842273 ], [ 79.7826183, 30.5846152 ], [ 79.7818994, 30.5847815 ], [ 79.7808909, 30.5850585 ], [ 79.7800541, 30.585271 ], [ 79.7792816, 30.5850401 ], [ 79.7791314, 30.5847353 ], [ 79.778198, 30.5842273 ], [ 79.777925, 30.5841884 ] ] } },
{ "type": "Feature", "properties": { "element": "way", "id": 682961404, "name": "Dobala Kharak", "waterway": "stream" }, "geometry": { "type": "LineString", "coordinates": [ [ 79.8482466, 30.5391254 ], [ 79.8484397, 30.5445032 ], [ 79.8486542, 30.5476633 ], [ 79.8486328, 30.5496406 ], [ 79.8482466, 30.5502873 ], [ 79.8457789, 30.5513776 ], [ 79.8433971, 30.5517102 ], [ 79.842453, 30.5517472 ], [ 79.8402643, 30.5521906 ], [ 79.8397932, 30.5521463 ], [ 79.8377108, 30.5519504 ], [ 79.8355007, 30.5520059 ], [ 79.8342991, 30.5516917 ], [ 79.832561, 30.5517841 ], [ 79.8314881, 30.5513961 ], [ 79.8291063, 30.55317 ], [ 79.8273897, 30.554907 ], [ 79.8270893, 30.5560341 ], [ 79.8268747, 30.5573276 ], [ 79.8261881, 30.5581775 ], [ 79.8261452, 30.5586764 ], [ 79.8261237, 30.5592677 ] ] } },
{ "type": "Feature", "properties": { "element": "way", "id": 682961405, "name": "Rigiar Kharak", "waterway": "stream" }, "geometry": { "type": "LineString", "coordinates": [ [ 79.8601341, 30.5516917 ], [ 79.8590183, 30.5525787 ], [ 79.8552846, 30.5532809 ], [ 79.8532247, 30.5543157 ], [ 79.850564, 30.5559417 ], [ 79.8484611, 30.55657 ], [ 79.8466158, 30.55742 ], [ 79.8446631, 30.5583253 ], [ 79.8422599, 30.5583069 ], [ 79.8394704, 30.5583623 ], [ 79.8368311, 30.5578819 ], [ 79.8346209, 30.5576047 ], [ 79.833591, 30.5563667 ], [ 79.8333764, 30.5558124 ], [ 79.8326683, 30.5559602 ], [ 79.8299646, 30.5579743 ], [ 79.8287844, 30.5581221 ], [ 79.8273468, 30.5589905 ], [ 79.8261237, 30.5592677 ] ] } },
{ "type": "Feature", "properties": { "element": "way", "id": 682961407, "name": null, "waterway": "stream" }, "geometry": { "type": "LineString", "coordinates": [ [ 79.814955, 30.4799123 ], [ 79.8132598, 30.4796442 ], [ 79.8123693, 30.4794408 ], [ 79.8115647, 30.4794408 ], [ 79.8106205, 30.4793391 ], [ 79.8100626, 30.4793945 ], [ 79.8094618, 30.4796072 ] ] } },
{ "type": "Feature", "properties": { "element": "way", "id": 682961408, "name": null, "waterway": "stream" }, "geometry": { "type": "LineString", "coordinates": [ [ 79.8147297, 30.4814194 ], [ 79.8140967, 30.481364 ], [ 79.8135602, 30.4809941 ], [ 79.8122835, 30.4805133 ], [ 79.8113823, 30.4803839 ], [ 79.8094618, 30.4796072 ], [ 79.8086679, 30.4794593 ], [ 79.8082709, 30.4791541 ], [ 79.8070264, 30.4790062 ], [ 79.8058784, 30.4783589 ], [ 79.8053634, 30.4777857 ], [ 79.8037648, 30.4773141 ], [ 79.8034537, 30.4773511 ], [ 79.8032176, 30.4774805 ], [ 79.802928, 30.4774528 ], [ 79.8022628, 30.4767131 ], [ 79.8017907, 30.4765836 ], [ 79.8013508, 30.4761306 ], [ 79.8012435, 30.4758162 ], [ 79.800117, 30.475474 ], [ 79.7998488, 30.4752706 ], [ 79.7994625, 30.4743737 ], [ 79.7985506, 30.4734768 ], [ 79.798218, 30.4726908 ], [ 79.7977888, 30.471313 ], [ 79.7976601, 30.4703975 ], [ 79.797467, 30.4701294 ], [ 79.7967052, 30.4693896 ], [ 79.7964799, 30.468955 ], [ 79.7965443, 30.4680117 ], [ 79.7959649, 30.4674662 ], [ 79.795407, 30.4648676 ], [ 79.7953212, 30.4628886 ], [ 79.7949242, 30.4619638 ], [ 79.7939801, 30.4607616 ], [ 79.7937119, 30.4605951 ], [ 79.7936368, 30.4597905 ], [ 79.7927785, 30.4586623 ], [ 79.7919738, 30.4566369 ], [ 79.7914803, 30.4555826 ], [ 79.7915125, 30.4550646 ], [ 79.7910082, 30.4546115 ], [ 79.7908795, 30.4539918 ], [ 79.790225, 30.4535571 ], [ 79.7899997, 30.4531964 ], [ 79.7900212, 30.4528172 ], [ 79.7901499, 30.4526137 ], [ 79.7897959, 30.4516519 ], [ 79.7896062, 30.4511816 ] ] } },
{ "type": "Feature", "properties": { "element": "way", "id": 682961409, "name": null, "waterway": "stream" }, "geometry": { "type": "LineString", "coordinates": [ [ 79.7870064, 30.512435 ], [ 79.787693, 30.5140433 ], [ 79.7881222, 30.5148936 ], [ 79.7876715, 30.5153557 ], [ 79.7861695, 30.5161321 ], [ 79.7854399, 30.5170749 ] ] } },
{ "type": "Feature", "properties": { "element": "way", "id": 682961410, "name": "Subhain Gadhera", "waterway": "stream" }, "geometry": { "type": "LineString", "coordinates": [ [ 79.6630239, 30.434318 ], [ 79.6648264, 30.435761 ], [ 79.6662426, 30.4372411 ], [ 79.667809, 30.4394796 ], [ 79.6693754, 30.4419956 ], [ 79.6710491, 30.4434015 ], [ 79.6727443, 30.4460284 ], [ 79.6731305, 30.4480263 ], [ 79.6734738, 30.4522068 ], [ 79.6748471, 30.4550184 ], [ 79.6749973, 30.4567201 ], [ 79.675405, 30.4572935 ], [ 79.6770787, 30.4592726 ], [ 79.6786237, 30.4632493 ], [ 79.6783232, 30.4639151 ], [ 79.6787739, 30.4649508 ], [ 79.6796751, 30.466338 ], [ 79.6801901, 30.4664859 ], [ 79.6807909, 30.467947 ], [ 79.6806192, 30.4687423 ], [ 79.683001, 30.4714979 ], [ 79.6832371, 30.4736617 ], [ 79.6840095, 30.475511 ], [ 79.6831083, 30.4772864 ], [ 79.6824646, 30.4799863 ], [ 79.6828079, 30.4814472 ], [ 79.6837735, 30.4831299 ], [ 79.683516, 30.4844429 ], [ 79.6834087, 30.4849514 ], [ 79.6835267, 30.4852842 ], [ 79.6834946, 30.4854969 ], [ 79.6830332, 30.4858482 ], [ 79.6820891, 30.4861348 ], [ 79.6817136, 30.4865139 ], [ 79.6817136, 30.487309 ], [ 79.6813214, 30.4877811 ] ] } },
{ "type": "Feature", "properties": { "element": "way", "id": 682961411, "name": null, "waterway": "stream" }, "geometry": { "type": "LineString", "coordinates": [ [ 79.7385978, 30.4404971 ], [ 79.7375893, 30.4407191 ], [ 79.7370314, 30.4416256 ], [ 79.7363448, 30.4442895 ], [ 79.7358942, 30.444826 ], [ 79.7350359, 30.4453809 ], [ 79.7333193, 30.4472863 ], [ 79.7326541, 30.4477858 ], [ 79.7323751, 30.4486552 ], [ 79.7312164, 30.4496078 ] ] } },
{ "type": "Feature", "properties": { "element": "way", "id": 682961412, "name": null, "waterway": "stream" }, "geometry": { "type": "LineString", "coordinates": [ [ 79.7434258, 30.4469903 ], [ 79.7432112, 30.4475083 ], [ 79.7430181, 30.4496356 ], [ 79.7423529, 30.4503385 ], [ 79.7422671, 30.4510969 ], [ 79.7406363, 30.4524288 ], [ 79.7382116, 30.4534461 ], [ 79.7374606, 30.4539641 ], [ 79.7370958, 30.4549814 ], [ 79.7363233, 30.4548704 ], [ 79.735347, 30.4553883 ] ] } },
{ "type": "Feature", "properties": { "element": "way", "id": 682961413, "name": null, "waterway": "stream" }, "geometry": { "type": "LineString", "coordinates": [ [ 79.7724473, 30.4896296 ], [ 79.7698188, 30.4872905 ], [ 79.7685099, 30.4861903 ], [ 79.7679949, 30.4856263 ], [ 79.7673726, 30.4839898 ], [ 79.7666538, 30.4827693 ], [ 79.7664177, 30.4823718 ], [ 79.7658276, 30.4820019 ], [ 79.7653663, 30.4814379 ], [ 79.7613966, 30.4795425 ], [ 79.7601521, 30.4791541 ], [ 79.7597337, 30.478886 ], [ 79.7591543, 30.478738 ], [ 79.7588968, 30.4785161 ], [ 79.7586179, 30.4784699 ], [ 79.7580278, 30.4781 ], [ 79.7579956, 30.4778319 ], [ 79.7570085, 30.4773973 ], [ 79.7561717, 30.4768333 ], [ 79.7560966, 30.4765374 ], [ 79.7561717, 30.4761213 ], [ 79.7558284, 30.475511 ], [ 79.7555494, 30.4751042 ], [ 79.7553282, 30.4747913 ], [ 79.7551525, 30.4740408 ], [ 79.7545731, 30.4730237 ], [ 79.7541495, 30.4721952 ] ] } },
{ "type": "Feature", "properties": { "element": "way", "id": 682961414, "name": "Raunthi Gadhera", "waterway": "stream" }, "geometry": { "type": "LineString", "coordinates": [ [ 79.7503137, 30.3894241 ], [ 79.7500992, 30.3899609 ], [ 79.7488117, 30.3907938 ], [ 79.7480178, 30.3919506 ], [ 79.747889, 30.3924319 ], [ 79.7471595, 30.3931907 ], [ 79.7465908, 30.3933018 ], [ 79.7458291, 30.3938386 ], [ 79.7452068, 30.3941625 ], [ 79.7450673, 30.3945326 ], [ 79.7447884, 30.3946437 ], [ 79.7444451, 30.3950786 ], [ 79.7436726, 30.3953563 ], [ 79.7430503, 30.3962076 ], [ 79.7425568, 30.3963094 ], [ 79.742471, 30.3964945 ], [ 79.7419774, 30.3966241 ], [ 79.7415161, 30.3971886 ], [ 79.7411942, 30.3975032 ], [ 79.7412264, 30.397716 ], [ 79.7407436, 30.3979659 ], [ 79.7403681, 30.3984379 ], [ 79.7403037, 30.398734 ], [ 79.7398853, 30.3992244 ], [ 79.7394562, 30.3993355 ], [ 79.7386748, 30.3997598 ], [ 79.7382975, 30.3999647 ], [ 79.7380829, 30.4004367 ], [ 79.7381902, 30.4013435 ], [ 79.738158, 30.4016397 ], [ 79.7378576, 30.4020191 ], [ 79.7376001, 30.4021116 ], [ 79.7374499, 30.4025187 ], [ 79.7373319, 30.402602 ], [ 79.7372889, 30.4028796 ], [ 79.7368812, 30.4030369 ], [ 79.7366023, 30.4033608 ], [ 79.736259, 30.4036939 ], [ 79.7353256, 30.4042954 ], [ 79.7349393, 30.4043417 ], [ 79.7343278, 30.4043972 ], [ 79.7340917, 30.404499 ], [ 79.7337913, 30.4049616 ], [ 79.7332549, 30.4050264 ], [ 79.7328257, 30.4053133 ], [ 79.7318065, 30.4056371 ], [ 79.7312164, 30.4060628 ], [ 79.7301221, 30.4062941 ], [ 79.7295535, 30.4066457 ], [ 79.7294032, 30.4070529 ], [ 79.7288346, 30.40746 ], [ 79.7284913, 30.4076451 ], [ 79.7282016, 30.4086536 ], [ 79.7281051, 30.4092458 ], [ 79.7281909, 30.4095142 ], [ 79.7277832, 30.4102914 ], [ 79.7273433, 30.4108558 ], [ 79.7273219, 30.4110594 ], [ 79.7274077, 30.4113092 ], [ 79.7273433, 30.4114387 ], [ 79.726721, 30.4119106 ], [ 79.7262061, 30.4126878 ], [ 79.7251975, 30.4131412 ], [ 79.7248435, 30.4133078 ], [ 79.7245431, 30.4142793 ], [ 79.7242319, 30.4157689 ], [ 79.7237706, 30.4167681 ], [ 79.7237813, 30.4172863 ], [ 79.7235775, 30.418452 ], [ 79.7233415, 30.4187111 ], [ 79.7233951, 30.4191922 ], [ 79.7228372, 30.420728 ], [ 79.7226763, 30.4210148 ], [ 79.7222042, 30.4211073 ], [ 79.7219682, 30.4215236 ], [ 79.7216356, 30.4216439 ], [ 79.7213137, 30.4223193 ], [ 79.7213888, 30.4229669 ], [ 79.7217643, 30.4233555 ], [ 79.722408, 30.4244471 ], [ 79.7229338, 30.4257238 ], [ 79.7231054, 30.4258811 ], [ 79.7229874, 30.4260476 ], [ 79.7233629, 30.4275926 ], [ 79.7233736, 30.4284714 ], [ 79.7233844, 30.4291005 ], [ 79.7231913, 30.4294151 ], [ 79.7233844, 30.4297851 ], [ 79.7234809, 30.4310062 ], [ 79.7233629, 30.4313115 ], [ 79.7238994, 30.431589 ], [ 79.72435, 30.4329674 ], [ 79.7242856, 30.4336149 ], [ 79.724704, 30.4346047 ], [ 79.7247147, 30.4356685 ], [ 79.7244465, 30.4361958 ], [ 79.7245753, 30.4379163 ], [ 79.7256803, 30.4398496 ], [ 79.7266245, 30.4412741 ], [ 79.7272253, 30.4421991 ], [ 79.727354, 30.4435495 ], [ 79.7279656, 30.444123 ], [ 79.7279441, 30.4446872 ], [ 79.728899, 30.4453347 ], [ 79.7302186, 30.4469071 ], [ 79.7312164, 30.4496078 ], [ 79.7321713, 30.450838 ], [ 79.7324717, 30.4516796 ], [ 79.7328257, 30.4518738 ], [ 79.7332978, 30.4519386 ], [ 79.7337377, 30.4524288 ], [ 79.735347, 30.4553883 ], [ 79.7356796, 30.4567756 ], [ 79.7354221, 30.4576727 ], [ 79.7353899, 30.4584403 ], [ 79.7356796, 30.4589767 ], [ 79.7354329, 30.4599847 ], [ 79.7350144, 30.4608171 ], [ 79.7352183, 30.4616401 ], [ 79.7349501, 30.4625649 ], [ 79.7340703, 30.4635914 ], [ 79.7341776, 30.4639428 ], [ 79.7341454, 30.4642018 ], [ 79.7337806, 30.4645624 ], [ 79.7336411, 30.4652283 ], [ 79.7330618, 30.4656259 ], [ 79.7327292, 30.4657369 ], [ 79.7323322, 30.466375 ], [ 79.7322186, 30.4665454 ] ] } },
{ "type": "Feature", "properties": { "element": "way", "id": 682961419, "name": "Trishul Nala", "waterway": "stream" }, "geometry": { "type": "LineString", "coordinates": [ [ 79.8535367, 30.3785742 ], [ 79.8536968, 30.3823717 ], [ 79.8513794, 30.3859813 ], [ 79.8480534, 30.3883506 ], [ 79.8475814, 30.3895722 ], [ 79.8476887, 30.3900535 ], [ 79.8471522, 30.3906828 ], [ 79.8459935, 30.3912195 ], [ 79.8437404, 30.3933111 ], [ 79.8435259, 30.3944586 ], [ 79.8430753, 30.3944771 ], [ 79.8414874, 30.3958282 ], [ 79.8412299, 30.3969017 ], [ 79.8402643, 30.397531 ], [ 79.8401999, 30.3983083 ], [ 79.83917, 30.3991967 ], [ 79.838891, 30.399974 ], [ 79.8384189, 30.4001961 ], [ 79.837904, 30.4001961 ], [ 79.8376035, 30.4008439 ], [ 79.8380756, 30.4020098 ], [ 79.8378181, 30.4023614 ], [ 79.8380327, 30.4028982 ], [ 79.8376679, 30.4031943 ], [ 79.8370242, 30.4049894 ], [ 79.8364663, 30.4064329 ], [ 79.835844, 30.4068956 ], [ 79.8353934, 30.4076543 ], [ 79.8354149, 30.4084316 ], [ 79.8354578, 30.409912 ], [ 79.8351788, 30.4108003 ], [ 79.833312, 30.4122622 ], [ 79.833076, 30.4127804 ], [ 79.8331618, 30.4134651 ], [ 79.8329472, 30.4138352 ], [ 79.8330545, 30.4146494 ], [ 79.8330331, 30.4154636 ], [ 79.8329043, 30.4156856 ], [ 79.833076, 30.4168144 ], [ 79.8325181, 30.4176286 ], [ 79.8325181, 30.4181837 ], [ 79.8329472, 30.4188684 ], [ 79.8328829, 30.4202192 ], [ 79.832282, 30.4210518 ], [ 79.8318314, 30.4226431 ], [ 79.8305011, 30.4237348 ], [ 79.8301792, 30.424771 ], [ 79.8291063, 30.4273428 ], [ 79.8291921, 30.4281754 ], [ 79.8282695, 30.4295816 ], [ 79.8282051, 30.4316908 ], [ 79.8282695, 30.4331709 ], [ 79.8283883, 30.4336056 ] ] } },
{ "type": "Feature", "properties": { "element": "way", "id": 682961422, "name": "Bagni Gadhera", "waterway": "stream" }, "geometry": { "type": "LineString", "coordinates": [ [ 79.8694974, 30.4571157 ], [ 79.8687923, 30.4566554 ], [ 79.8679447, 30.4550924 ], [ 79.8673224, 30.4534276 ], [ 79.8667753, 30.4523548 ], [ 79.8666894, 30.4517629 ], [ 79.8662066, 30.4510414 ], [ 79.8657238, 30.4506437 ], [ 79.8653483, 30.450098 ], [ 79.8643398, 30.4495431 ], [ 79.862988, 30.4490344 ], [ 79.8618507, 30.4485165 ], [ 79.861325, 30.4484517 ], [ 79.8607027, 30.4485165 ], [ 79.8604989, 30.4484887 ], [ 79.8602521, 30.4482667 ], [ 79.8592865, 30.4478598 ], [ 79.8588359, 30.4467776 ], [ 79.8587716, 30.4462781 ], [ 79.8583531, 30.4455012 ], [ 79.8579883, 30.4446965 ], [ 79.8558426, 30.4425228 ], [ 79.8554563, 30.4422823 ], [ 79.8555422, 30.4419308 ], [ 79.8554993, 30.4415516 ], [ 79.8539865, 30.4407931 ], [ 79.8532891, 30.4400346 ], [ 79.8514974, 30.4388691 ], [ 79.8505747, 30.4377776 ], [ 79.848901, 30.4364548 ], [ 79.8462081, 30.4352152 ], [ 79.8446631, 30.4343272 ], [ 79.8428285, 30.4328009 ], [ 79.8423028, 30.4320515 ], [ 79.8415732, 30.4317925 ], [ 79.8411548, 30.431515 ], [ 79.840275, 30.4300996 ], [ 79.8398137, 30.4298036 ], [ 79.8398724, 30.4291512 ], [ 79.839395, 30.4285239 ] ] } },
{ "type": "Feature", "properties": { "element": "way", "id": 683025057, "name": null, "waterway": "stream" }, "geometry": { "type": "LineString", "coordinates": [ [ 79.690361, 30.4298036 ], [ 79.6902751, 30.4319498 ], [ 79.6914339, 30.4337259 ], [ 79.6929359, 30.434873 ], [ 79.6946096, 30.4370561 ], [ 79.695425, 30.4392021 ], [ 79.6966052, 30.4400161 ], [ 79.6961975, 30.4416256 ], [ 79.6969914, 30.443235 ], [ 79.697957, 30.4458619 ], [ 79.6983218, 30.4482482 ], [ 79.698236, 30.4491362 ], [ 79.6977854, 30.4497096 ], [ 79.6978926, 30.4501166 ], [ 79.6974849, 30.4507825 ], [ 79.6976781, 30.4511894 ], [ 79.6988582, 30.4520773 ], [ 79.6989655, 30.4532797 ], [ 79.6987724, 30.454445 ], [ 79.6989655, 30.4569051 ], [ 79.6995449, 30.4603454 ], [ 79.6999955, 30.4620471 ], [ 79.7013259, 30.4636747 ], [ 79.702506, 30.4640816 ], [ 79.7041154, 30.4654225 ], [ 79.7061217, 30.4665507 ], [ 79.7077846, 30.4682244 ], [ 79.7090781, 30.4700153 ] ] } },
{ "type": "Feature", "properties": { "element": "way", "id": 683026379, "name": null, "waterway": "stream" }, "geometry": { "type": "LineString", "coordinates": [ [ 79.8150945, 30.5213541 ], [ 79.8135281, 30.5208551 ], [ 79.8124766, 30.5203375 ], [ 79.8108458, 30.5198014 ], [ 79.8101248, 30.5197019 ] ] } },
{ "type": "Feature", "properties": { "element": "way", "id": 684918129, "name": null, "waterway": "stream" }, "geometry": { "type": "LineString", "coordinates": [ [ 79.661436, 30.4034164 ], [ 79.6598053, 30.4020098 ], [ 79.6583032, 30.4013806 ], [ 79.6566724, 30.4003812 ], [ 79.6556425, 30.3991227 ], [ 79.6547413, 30.3984379 ], [ 79.6541619, 30.3979937 ], [ 79.6534109, 30.3972348 ], [ 79.6521663, 30.3970868 ], [ 79.6512651, 30.3971053 ], [ 79.6495485, 30.3969387 ], [ 79.6479177, 30.3965315 ], [ 79.6453213, 30.3960873 ], [ 79.6440983, 30.3958838 ], [ 79.6428108, 30.3956617 ], [ 79.6420705, 30.3955089 ] ] } },
{ "type": "Feature", "properties": { "element": "way", "id": 684918131, "name": null, "waterway": "stream" }, "geometry": { "type": "LineString", "coordinates": [ [ 79.6836448, 30.374023 ], [ 79.6832478, 30.3746894 ], [ 79.6831512, 30.3749856 ], [ 79.683162, 30.3754669 ], [ 79.6832156, 30.3758279 ], [ 79.6832156, 30.3760686 ], [ 79.6829688, 30.3762444 ], [ 79.6806514, 30.3769386 ], [ 79.6796644, 30.3773829 ], [ 79.6788919, 30.3776791 ], [ 79.6784949, 30.3779383 ], [ 79.6780121, 30.378327 ], [ 79.6777975, 30.3787991 ], [ 79.6776152, 30.3792433 ], [ 79.6774006, 30.379558 ], [ 79.6772504, 30.3799931 ], [ 79.6771645, 30.3801689 ], [ 79.6770894, 30.3804003 ], [ 79.6761346, 30.3805947 ], [ 79.6754908, 30.380641 ], [ 79.6748793, 30.3807428 ], [ 79.6739674, 30.3811037 ], [ 79.6727872, 30.3813536 ], [ 79.6724975, 30.3813536 ], [ 79.6714783, 30.3816591 ], [ 79.6699119, 30.3817609 ], [ 79.6693325, 30.3818534 ], [ 79.6684098, 30.3820941 ], [ 79.6670043, 30.3822514 ], [ 79.6659529, 30.3820571 ], [ 79.6654272, 30.3820478 ], [ 79.6648908, 30.3820848 ], [ 79.6644401, 30.38202 ], [ 79.6637106, 30.3820571 ], [ 79.6629918, 30.3820571 ], [ 79.6621227, 30.381909 ], [ 79.6611035, 30.3814647 ], [ 79.659301, 30.3806039 ], [ 79.6580243, 30.3800486 ], [ 79.6566725, 30.3795673 ], [ 79.6560287, 30.3794192 ], [ 79.6555674, 30.3793729 ], [ 79.6539152, 30.37916 ], [ 79.6533251, 30.37916 ], [ 79.6526277, 30.3792711 ], [ 79.6515119, 30.3790953 ], [ 79.6507716, 30.3789842 ], [ 79.6496665, 30.3790212 ], [ 79.6490228, 30.3790767 ], [ 79.6475208, 30.3789934 ], [ 79.6464479, 30.3789842 ], [ 79.645654, 30.3789379 ], [ 79.6443558, 30.3789472 ], [ 79.6441197, 30.3789842 ], [ 79.6433151, 30.3789379 ], [ 79.6417057, 30.378253 ], [ 79.6408474, 30.3781141 ], [ 79.6399033, 30.3780216 ], [ 79.6393776, 30.3778735 ], [ 79.6386373, 30.377568 ] ] } },
{ "type": "Feature", "properties": { "element": "way", "id": 684918135, "name": "Dhadhali Gad", "waterway": "stream" }, "geometry": { "type": "LineString", "coordinates": [ [ 79.6442055, 30.4191089 ], [ 79.6445274, 30.4172585 ], [ 79.6449351, 30.4164073 ], [ 79.6449995, 30.415186 ], [ 79.6446991, 30.4133355 ], [ 79.644978, 30.4116146 ], [ 79.6451068, 30.4097455 ], [ 79.6450424, 30.4080615 ], [ 79.6448278, 30.4072287 ], [ 79.6447072, 30.4067085 ], [ 79.6444845, 30.4057482 ], [ 79.6444845, 30.405193 ], [ 79.6455145, 30.403805 ], [ 79.6458578, 30.4031758 ], [ 79.6453213, 30.4013621 ], [ 79.6450424, 30.4006588 ], [ 79.6446776, 30.4001221 ], [ 79.6445274, 30.3994743 ], [ 79.6436047, 30.3986415 ], [ 79.6433472, 30.3981232 ], [ 79.6425104, 30.3975865 ], [ 79.6419471, 30.3967351 ], [ 79.6418613, 30.3963094 ], [ 79.6419847, 30.3958837 ], [ 79.6420705, 30.3955089 ], [ 79.6419927, 30.3948195 ], [ 79.6417808, 30.3942319 ], [ 79.6416306, 30.3939496 ], [ 79.6413785, 30.3937275 ], [ 79.6411318, 30.3929085 ], [ 79.6410888, 30.3925892 ], [ 79.6408367, 30.3914602 ], [ 79.6398497, 30.3911825 ], [ 79.6394098, 30.3909882 ], [ 79.6391094, 30.3905254 ], [ 79.6382081, 30.3895167 ], [ 79.6375537, 30.3889244 ], [ 79.6361911, 30.3880266 ], [ 79.6357298, 30.3874066 ], [ 79.6351933, 30.3867772 ], [ 79.6350968, 30.3860091 ], [ 79.6349573, 30.3857777 ], [ 79.6349788, 30.3854352 ], [ 79.6353114, 30.385065 ], [ 79.6344101, 30.3842506 ], [ 79.6340132, 30.3835379 ], [ 79.6339595, 30.3832047 ], [ 79.633466, 30.3826679 ], [ 79.632436, 30.3822607 ], [ 79.6317708, 30.3819182 ], [ 79.6310413, 30.3811037 ], [ 79.6303975, 30.3807613 ], [ 79.630065, 30.3805947 ], [ 79.6301079, 30.3802337 ], [ 79.6297538, 30.3797802 ] ] } },
{ "type": "Feature", "properties": { "element": "way", "id": 904921373, "name": "Dudh Ganga", "waterway": "stream" }, "geometry": { "type": "LineString", "coordinates": [ [ 79.7764921, 30.4153063 ], [ 79.7763526, 30.4153711 ], [ 79.7762239, 30.4154821 ], [ 79.7761166, 30.4155931 ], [ 79.7759664, 30.4158522 ], [ 79.7758806, 30.4159632 ], [ 79.7757733, 30.416065 ], [ 79.775666, 30.4161853 ], [ 79.775548, 30.4162778 ], [ 79.7751188, 30.4164721 ], [ 79.7749579, 30.4165276 ], [ 79.774797, 30.4165646 ], [ 79.7746575, 30.4166109 ], [ 79.7745287, 30.4166849 ], [ 79.7744214, 30.4167774 ], [ 79.7742605, 30.4169994 ], [ 79.7742498, 30.4171475 ], [ 79.7742712, 30.417277 ], [ 79.7743142, 30.4173973 ], [ 79.7743463, 30.4175916 ], [ 79.7743463, 30.4177211 ], [ 79.7743571, 30.4178599 ], [ 79.7743571, 30.4179987 ], [ 79.7744107, 30.418267 ], [ 79.7744107, 30.4185445 ], [ 79.7743785, 30.4186833 ], [ 79.7743571, 30.4189609 ], [ 79.7743034, 30.4190904 ], [ 79.7742283, 30.4193865 ], [ 79.7740996, 30.4196548 ], [ 79.7740137, 30.4199601 ], [ 79.7740137, 30.4202469 ], [ 79.774003, 30.4203949 ], [ 79.774003, 30.420802 ], [ 79.7740567, 30.4210703 ], [ 79.7741103, 30.4212183 ], [ 79.7744214, 30.421866 ], [ 79.7744644, 30.4220047 ], [ 79.7745395, 30.4221158 ], [ 79.7746146, 30.4222268 ], [ 79.7746897, 30.422347 ], [ 79.7748506, 30.4226616 ], [ 79.7748506, 30.4227911 ], [ 79.7748613, 30.4229392 ], [ 79.7749364, 30.4232167 ], [ 79.7749579, 30.4233555 ], [ 79.7749472, 30.4236238 ], [ 79.774915, 30.4237533 ], [ 79.7747111, 30.4239938 ], [ 79.7746038, 30.4241048 ], [ 79.7743893, 30.4242991 ], [ 79.774164, 30.4245582 ], [ 79.7739065, 30.4250855 ], [ 79.7738743, 30.4252243 ], [ 79.7738421, 30.425363 ], [ 79.7737992, 30.4256406 ], [ 79.7737992, 30.4260661 ], [ 79.7738528, 30.4266212 ], [ 79.7738528, 30.427056 ], [ 79.7739601, 30.4274723 ], [ 79.7741318, 30.4276759 ], [ 79.7742605, 30.4277591 ], [ 79.7743571, 30.4278609 ], [ 79.7743893, 30.4279904 ], [ 79.7743785, 30.4281199 ], [ 79.7743356, 30.4282679 ], [ 79.7742712, 30.4283882 ], [ 79.7740567, 30.4285732 ], [ 79.7739279, 30.4286565 ], [ 79.7735739, 30.4290913 ], [ 79.7733056, 30.4292208 ], [ 79.7729838, 30.4292115 ], [ 79.7728121, 30.4291745 ], [ 79.7726619, 30.4291653 ], [ 79.772501, 30.4291653 ], [ 79.7723508, 30.4291838 ], [ 79.7721898, 30.4292393 ], [ 79.7718787, 30.4293133 ], [ 79.7717178, 30.4293595 ], [ 79.7714388, 30.4294891 ], [ 79.7713315, 30.4295908 ], [ 79.7713637, 30.4297203 ], [ 79.7714281, 30.4298313 ], [ 79.7714281, 30.4299609 ], [ 79.7712564, 30.4301921 ], [ 79.7712564, 30.4303309 ], [ 79.7713208, 30.4304512 ], [ 79.7713745, 30.4305714 ], [ 79.7715568, 30.4308489 ], [ 79.7715568, 30.4309785 ], [ 79.7715998, 30.4313947 ], [ 79.7716641, 30.4316723 ], [ 79.7716749, 30.431811 ], [ 79.7716212, 30.4319498 ], [ 79.7716105, 30.4320793 ], [ 79.7716212, 30.4322088 ], [ 79.7716212, 30.4323476 ], [ 79.7715998, 30.4324863 ], [ 79.7716105, 30.4326158 ], [ 79.7716427, 30.4327453 ], [ 79.77175, 30.4330321 ], [ 79.7718358, 30.4331431 ], [ 79.7719431, 30.4332356 ], [ 79.7720504, 30.4333466 ], [ 79.7723293, 30.4336797 ], [ 79.7724688, 30.4339202 ], [ 79.7726405, 30.4341514 ], [ 79.7730911, 30.43454 ], [ 79.7731233, 30.4348175 ], [ 79.7731984, 30.434947 ], [ 79.7733164, 30.4351967 ], [ 79.7734022, 30.4353262 ], [ 79.7734666, 30.4354465 ], [ 79.7735417, 30.4355575 ], [ 79.7736382, 30.4356593 ], [ 79.7737241, 30.4357795 ], [ 79.7739279, 30.4361588 ], [ 79.7740352, 30.436575 ], [ 79.7741103, 30.4368618 ], [ 79.774121, 30.4370098 ], [ 79.7742391, 30.4372503 ], [ 79.7743463, 30.4373706 ], [ 79.7744751, 30.4375926 ], [ 79.7745716, 30.4376943 ], [ 79.7746897, 30.4377776 ], [ 79.7748399, 30.4380088 ], [ 79.774915, 30.4381291 ], [ 79.7750866, 30.4383603 ], [ 79.775151, 30.4384713 ], [ 79.7752368, 30.4385823 ], [ 79.7752476, 30.4387118 ], [ 79.7752476, 30.4389893 ], [ 79.7752154, 30.4391188 ], [ 79.7751617, 30.4392483 ], [ 79.7750759, 30.4395166 ], [ 79.7750652, 30.4396553 ], [ 79.7749793, 30.4397663 ], [ 79.7748828, 30.4398681 ], [ 79.774636, 30.4400623 ], [ 79.7745287, 30.4401918 ], [ 79.7744322, 30.4403028 ], [ 79.7743678, 30.4404231 ], [ 79.774282, 30.4406821 ], [ 79.7742069, 30.4408116 ], [ 79.7741318, 30.4409226 ], [ 79.774003, 30.4411631 ], [ 79.7739494, 30.4414313 ], [ 79.7739065, 30.4415701 ], [ 79.7738957, 30.4416996 ], [ 79.7739601, 30.4418106 ], [ 79.7739816, 30.4419401 ], [ 79.7738635, 30.4420418 ], [ 79.7737241, 30.4420881 ], [ 79.7735846, 30.4421713 ], [ 79.7734988, 30.4422916 ], [ 79.7734773, 30.4424211 ], [ 79.7735095, 30.4425506 ], [ 79.7734666, 30.4426801 ], [ 79.7731984, 30.4428188 ], [ 79.7730696, 30.442902 ], [ 79.7730052, 30.4430408 ], [ 79.7730267, 30.4432998 ], [ 79.7729838, 30.4435588 ], [ 79.7729838, 30.4436975 ], [ 79.7729516, 30.443827 ], [ 79.7728979, 30.4439565 ], [ 79.7727477, 30.444197 ], [ 79.7726941, 30.4443172 ], [ 79.7725332, 30.444715 ], [ 79.772501, 30.4448445 ], [ 79.7725117, 30.4451127 ], [ 79.7725654, 30.4452422 ], [ 79.7726297, 30.4453624 ], [ 79.7727156, 30.4454734 ], [ 79.7728336, 30.4457879 ], [ 79.7728336, 30.4460561 ], [ 79.7728228, 30.4461856 ], [ 79.7727263, 30.4465834 ], [ 79.7727263, 30.4468516 ], [ 79.772737, 30.4469903 ], [ 79.7727799, 30.4471198 ], [ 79.7728336, 30.4472401 ], [ 79.773016, 30.4475823 ], [ 79.7731018, 30.4477118 ], [ 79.7731876, 30.4478228 ], [ 79.7732842, 30.4479338 ], [ 79.7733378, 30.448054 ], [ 79.7734129, 30.448165 ], [ 79.7734129, 30.4482945 ], [ 79.7733915, 30.4485627 ], [ 79.7733164, 30.4486737 ], [ 79.7732198, 30.4487847 ], [ 79.7731018, 30.4488772 ], [ 79.773016, 30.4491176 ], [ 79.773016, 30.4495339 ], [ 79.7730803, 30.4500148 ], [ 79.7730803, 30.4502923 ], [ 79.7731125, 30.4504495 ], [ 79.773134, 30.450579 ], [ 79.7731447, 30.4507177 ], [ 79.7731984, 30.4508472 ], [ 79.7732735, 30.4509582 ], [ 79.7733593, 30.4510692 ], [ 79.7734129, 30.4511894 ], [ 79.773488, 30.4515316 ], [ 79.7734988, 30.4516704 ], [ 79.7735631, 30.4517999 ], [ 79.7736275, 30.4519108 ], [ 79.7738099, 30.4521698 ], [ 79.7741103, 30.4525028 ], [ 79.7742283, 30.452623 ], [ 79.7743142, 30.452734 ], [ 79.7743785, 30.4528542 ], [ 79.7744429, 30.4529652 ], [ 79.774518, 30.4530762 ], [ 79.7745824, 30.4532057 ], [ 79.7746575, 30.4533259 ], [ 79.7748077, 30.4536496 ], [ 79.7748077, 30.4537883 ], [ 79.7748291, 30.4539178 ], [ 79.7749042, 30.4541768 ], [ 79.7749042, 30.4545745 ], [ 79.7748721, 30.4548334 ], [ 79.7748291, 30.4549722 ], [ 79.7742712, 30.4555918 ], [ 79.7741961, 30.4558785 ], [ 79.774164, 30.456008 ], [ 79.7741425, 30.4561375 ], [ 79.774121, 30.4563964 ], [ 79.7741318, 30.4565444 ], [ 79.7741747, 30.4566739 ], [ 79.7743678, 30.4570901 ], [ 79.7744214, 30.4573675 ], [ 79.7745073, 30.457608 ], [ 79.7745931, 30.4578669 ], [ 79.7747433, 30.4581074 ], [ 79.7748184, 30.4582276 ], [ 79.7748828, 30.4585143 ], [ 79.7748828, 30.4586438 ], [ 79.774505, 30.4592127 ] ] } },
{ "type": "Feature", "properties": { "element": "way", "id": 904924956, "name": "Hom Gadhera", "waterway": "stream" }, "geometry": { "type": "LineString", "coordinates": [ [ 79.6725082, 30.6017192 ], [ 79.6697616, 30.6005002 ], [ 79.6681308, 30.5979884 ], [ 79.6664571, 30.5958089 ], [ 79.6658134, 30.593888 ], [ 79.6651268, 30.5908218 ], [ 79.6646547, 30.5881619 ], [ 79.663732, 30.584763 ], [ 79.6634745, 30.5839502 ], [ 79.6635175, 30.5813825 ], [ 79.6633887, 30.5811608 ], [ 79.6631098, 30.581013 ], [ 79.6618223, 30.580699 ], [ 79.6612429, 30.5804403 ], [ 79.6602559, 30.5793319 ], [ 79.6595907, 30.5787223 ], [ 79.6576381, 30.5774476 ], [ 79.6574235, 30.5772629 ], [ 79.6568656, 30.5769673 ], [ 79.6516728, 30.5768934 ], [ 79.6507931, 30.5769119 ], [ 79.650042, 30.576487 ], [ 79.6497631, 30.5765794 ], [ 79.6491837, 30.5765424 ], [ 79.6478534, 30.5758404 ], [ 79.647038, 30.575785 ], [ 79.6461582, 30.5759697 ], [ 79.6455788, 30.5758035 ], [ 79.6452784, 30.5753601 ], [ 79.644978, 30.5748797 ], [ 79.6447205, 30.5747504 ], [ 79.6443987, 30.5746765 ], [ 79.6434974, 30.5746396 ], [ 79.6428966, 30.5745103 ], [ 79.6418667, 30.5740299 ], [ 79.6413302, 30.5734018 ], [ 79.6407938, 30.5731616 ], [ 79.640193, 30.5731616 ], [ 79.6398926, 30.5732355 ], [ 79.6390986, 30.5736974 ], [ 79.6384764, 30.5736789 ], [ 79.6379828, 30.5733833 ], [ 79.6374035, 30.5720901 ], [ 79.6363735, 30.5713141 ], [ 79.6360945, 30.5712033 ], [ 79.6353864, 30.5712033 ], [ 79.634614, 30.5716282 ], [ 79.6343136, 30.5716467 ], [ 79.6337986, 30.5713141 ], [ 79.6336055, 30.571074 ], [ 79.6334338, 30.5705567 ], [ 79.6333694, 30.570298 ], [ 79.6328544, 30.5696329 ], [ 79.6322965, 30.5695405 ], [ 79.6317172, 30.5697253 ], [ 79.6311807, 30.5700394 ], [ 79.6306014, 30.5701872 ], [ 79.6300006, 30.5701317 ], [ 79.629786, 30.5699655 ], [ 79.62955, 30.5695036 ], [ 79.6290779, 30.5690786 ], [ 79.6289706, 30.5688385 ], [ 79.6288003, 30.5683648 ], [ 79.6286917, 30.5680625 ], [ 79.6287131, 30.5669909 ], [ 79.6284985, 30.5668246 ], [ 79.6279192, 30.5666953 ], [ 79.6273184, 30.5666953 ], [ 79.6260953, 30.56688 ], [ 79.625473, 30.56688 ], [ 79.6245289, 30.5665844 ], [ 79.6229839, 30.5666214 ], [ 79.6224046, 30.5666768 ], [ 79.6215892, 30.5663627 ], [ 79.6203661, 30.5663627 ], [ 79.6197653, 30.5662519 ], [ 79.6191001, 30.5662149 ], [ 79.6184993, 30.5660671 ], [ 79.6179843, 30.5657715 ], [ 79.6174049, 30.5651248 ], [ 79.6171903, 30.5649585 ], [ 79.616611, 30.5648662 ], [ 79.6159458, 30.5644966 ], [ 79.6150446, 30.5637576 ], [ 79.6144223, 30.5631848 ], [ 79.614315, 30.5629077 ], [ 79.6137142, 30.5619469 ], [ 79.6130061, 30.5614295 ], [ 79.6128773, 30.5611893 ], [ 79.6128773, 30.5609306 ], [ 79.6130705, 30.5604318 ], [ 79.6142721, 30.5591938 ], [ 79.6145725, 30.5581221 ], [ 79.6145296, 30.5578449 ], [ 79.6144867, 30.5568287 ], [ 79.6143794, 30.5563113 ], [ 79.614315, 30.5557939 ], [ 79.6138644, 30.5545189 ], [ 79.6138215, 30.5534102 ], [ 79.6139288, 30.55317 ], [ 79.6144008, 30.5527635 ], [ 79.6144008, 30.5515808 ], [ 79.6141434, 30.5507863 ], [ 79.6136069, 30.550121 ], [ 79.6134782, 30.5498623 ], [ 79.6134782, 30.5493079 ], [ 79.6137786, 30.5484948 ], [ 79.6139717, 30.5482546 ], [ 79.6142292, 30.5477002 ], [ 79.6144652, 30.5475154 ], [ 79.614315, 30.5472937 ], [ 79.6137571, 30.5471643 ], [ 79.6135425, 30.5469795 ], [ 79.6131134, 30.5460001 ], [ 79.6119547, 30.5457414 ], [ 79.6114182, 30.5455011 ], [ 79.6110534, 30.5450576 ], [ 79.6107316, 30.5439858 ], [ 79.6101951, 30.543339 ], [ 79.6085858, 30.5423595 ], [ 79.6071911, 30.5418975 ], [ 79.6062255, 30.5412876 ], [ 79.6044874, 30.5396798 ], [ 79.604187, 30.5391808 ], [ 79.6038866, 30.5387188 ], [ 79.6035862, 30.5379611 ], [ 79.6028566, 30.537499 ], [ 79.6026635, 30.5370185 ], [ 79.6021271, 30.5367598 ], [ 79.6015318, 30.5366198 ] ] } },
{ "type": "Feature", "properties": { "element": "way", "id": 905111470, "name": null, "waterway": "stream" }, "geometry": { "type": "LineString", "coordinates": [ [ 79.8085284, 30.3925522 ], [ 79.8112106, 30.3938478 ], [ 79.8124122, 30.3940699 ], [ 79.8136997, 30.3939959 ], [ 79.815588, 30.3937923 ], [ 79.8170686, 30.3940329 ], [ 79.8189997, 30.3949398 ], [ 79.8209095, 30.3957357 ], [ 79.8213815, 30.3967721 ], [ 79.8214888, 30.3972719 ], [ 79.8231625, 30.3977161 ], [ 79.8242569, 30.398771 ], [ 79.8249221, 30.3994743 ], [ 79.8256087, 30.4002146 ], [ 79.8261237, 30.4014731 ], [ 79.8263383, 30.4021764 ], [ 79.8275936, 30.4036662 ], [ 79.8279798, 30.4041011 ], [ 79.8284197, 30.404536 ], [ 79.8288166, 30.4052207 ], [ 79.8290098, 30.4058777 ], [ 79.8293209, 30.4062571 ], [ 79.829632, 30.4063496 ], [ 79.8296535, 30.4067568 ], [ 79.8295998, 30.4078856 ], [ 79.8298144, 30.408339 ], [ 79.8299646, 30.4087369 ], [ 79.8304152, 30.4092551 ], [ 79.8310912, 30.4100601 ], [ 79.8313486, 30.4107078 ], [ 79.8313057, 30.4112629 ], [ 79.8311233, 30.4117163 ], [ 79.8310268, 30.412253 ], [ 79.8309088, 30.4129284 ], [ 79.8311555, 30.4136594 ], [ 79.8313486, 30.4146771 ], [ 79.8319173, 30.415991 ], [ 79.833076, 30.4168144 ] ] } },
{ "type": "Feature", "properties": { "element": "way", "id": 905111471, "name": null, "waterway": "stream" }, "geometry": { "type": "LineString", "coordinates": [ [ 79.7338986, 30.3866569 ], [ 79.7350144, 30.3887485 ], [ 79.7355187, 30.3906735 ], [ 79.7361624, 30.3920247 ], [ 79.736731, 30.3940977 ], [ 79.737246, 30.3955413 ], [ 79.7380614, 30.3968647 ], [ 79.7384262, 30.3973274 ], [ 79.7388392, 30.3983268 ], [ 79.7388028, 30.3985675 ], [ 79.7387481, 30.3989283 ], [ 79.7387588, 30.3993216 ], [ 79.7386748, 30.3997598 ] ] } },
{ "type": "Feature", "properties": { "element": "way", "id": 905613414, "name": "Ringi Nala", "waterway": "stream" }, "geometry": { "type": "LineString", "coordinates": [ [ 79.6467682, 30.440445 ], [ 79.6469256, 30.4406506 ], [ 79.6471592, 30.4407739 ], [ 79.6474787, 30.4411645 ], [ 79.6475407, 30.4415468 ], [ 79.6481797, 30.441777 ], [ 79.6482655, 30.4419826 ], [ 79.6483513, 30.4423238 ], [ 79.648399, 30.4427267 ], [ 79.6488615, 30.443294 ], [ 79.6491, 30.4438284 ], [ 79.6495148, 30.4443628 ], [ 79.6498343, 30.4442148 ], [ 79.6499296, 30.4444286 ], [ 79.6503397, 30.4451069 ], [ 79.6507403, 30.445407 ], [ 79.651117, 30.4458674 ], [ 79.6510979, 30.4462579 ], [ 79.6509882, 30.446854 ], [ 79.6509453, 30.447224 ], [ 79.6511694, 30.4477091 ], [ 79.6511217, 30.4478283 ], [ 79.6505781, 30.4482763 ], [ 79.650273, 30.4488642 ], [ 79.6507117, 30.4494685 ], [ 79.650788, 30.4498096 ], [ 79.6515795, 30.4509812 ], [ 79.6516749, 30.4514046 ], [ 79.6519848, 30.4519307 ], [ 79.6520897, 30.4527611 ], [ 79.651899, 30.4534969 ], [ 79.6519467, 30.454471 ], [ 79.6517941, 30.4548698 ], [ 79.6520897, 30.4556919 ], [ 79.6525952, 30.4562673 ], [ 79.6527001, 30.4567359 ], [ 79.6528527, 30.4572374 ], [ 79.652433, 30.457373 ], [ 79.6524521, 30.4576895 ], [ 79.6521517, 30.4578005 ], [ 79.6522518, 30.4580882 ], [ 79.6519991, 30.4587335 ], [ 79.6521565, 30.4594816 ], [ 79.6520087, 30.4602831 ], [ 79.6517893, 30.4606982 ], [ 79.6516224, 30.4614381 ], [ 79.6516987, 30.4621574 ], [ 79.6515318, 30.4631109 ], [ 79.6513172, 30.4636206 ], [ 79.6515366, 30.4640028 ], [ 79.652476, 30.4649235 ], [ 79.6522471, 30.4657907 ], [ 79.6523949, 30.4661318 ], [ 79.6522709, 30.466625 ], [ 79.6519705, 30.4667195 ], [ 79.6518608, 30.4670237 ], [ 79.6520325, 30.467558 ], [ 79.6519324, 30.4681169 ], [ 79.6515366, 30.4692471 ], [ 79.6519705, 30.4698842 ], [ 79.6520754, 30.4707472 ], [ 79.6520802, 30.4715692 ], [ 79.6519276, 30.4722637 ], [ 79.6519038, 30.4730199 ], [ 79.65126, 30.4741624 ], [ 79.6512886, 30.4745487 ], [ 79.6509835, 30.4751446 ], [ 79.6509453, 30.4757569 ], [ 79.6509358, 30.4764227 ], [ 79.6509262, 30.4771008 ], [ 79.6505066, 30.4777336 ], [ 79.6502777, 30.4781035 ], [ 79.6503159, 30.478724 ], [ 79.6500918, 30.4789213 ], [ 79.6496054, 30.4796117 ], [ 79.6500489, 30.4803514 ], [ 79.64982, 30.48105 ], [ 79.6493908, 30.4817609 ], [ 79.6488234, 30.4822211 ], [ 79.6487137, 30.4828827 ], [ 79.6486946, 30.4830348 ], [ 79.6484085, 30.4836429 ], [ 79.6481892, 30.4837169 ], [ 79.648008, 30.4841525 ], [ 79.6477362, 30.4846702 ], [ 79.646897, 30.4851058 ], [ 79.6459862, 30.4855414 ], [ 79.6457335, 30.4861948 ], [ 79.6454569, 30.4865194 ], [ 79.6451612, 30.486996 ], [ 79.6450707, 30.4879083 ], [ 79.6451374, 30.4886808 ], [ 79.6450802, 30.4893012 ], [ 79.6452566, 30.4896382 ], [ 79.6454473, 30.4902082 ], [ 79.6458288, 30.4905052 ], [ 79.6459433, 30.4909818 ], [ 79.645805, 30.4915488 ], [ 79.6455229, 30.4920378 ] ] } },
{ "type": "Feature", "properties": { "element": "way", "id": 907813132, "name": "Manoriya Gadhera", "waterway": "stream" }, "geometry": { "type": "LineString", "coordinates": [ [ 79.6900177, 30.5578265 ], [ 79.6883869, 30.5566069 ], [ 79.686284, 30.5559787 ], [ 79.6852111, 30.5546483 ], [ 79.6838378, 30.5539092 ], [ 79.6830654, 30.5526526 ], [ 79.6830654, 30.5515439 ], [ 79.682722, 30.5505091 ], [ 79.6818637, 30.5494373 ], [ 79.6794176, 30.5484764 ], [ 79.677658, 30.5472937 ], [ 79.6773147, 30.5455196 ], [ 79.6772289, 30.5434129 ], [ 79.6771001, 30.5413801 ], [ 79.6766281, 30.5396798 ], [ 79.6753406, 30.5370924 ], [ 79.6743965, 30.5342093 ], [ 79.6738815, 30.5325459 ], [ 79.6725082, 30.5308085 ], [ 79.6722507, 30.5289972 ], [ 79.6709632, 30.5279252 ], [ 79.6692466, 30.5262617 ], [ 79.6678733, 30.52482 ], [ 79.666543, 30.5235261 ], [ 79.6647405, 30.5213819 ], [ 79.662466, 30.5196813 ], [ 79.6585178, 30.5183504 ], [ 79.6568441, 30.5167607 ], [ 79.6554708, 30.5168716 ], [ 79.654355, 30.5171673 ], [ 79.653606, 30.5169614 ], [ 79.6525945, 30.5163514 ], [ 79.6516639, 30.5150268 ], [ 79.6517043, 30.5146085 ], [ 79.6504197, 30.5137807 ], [ 79.6480224, 30.5113319 ], [ 79.6477189, 30.5105389 ], [ 79.6460702, 30.5100944 ], [ 79.6453924, 30.5076891 ], [ 79.6418824, 30.5061902 ], [ 79.6401629, 30.5047435 ], [ 79.6395863, 30.5030614 ], [ 79.6396369, 30.502739 ], [ 79.6395054, 30.5024688 ], [ 79.6396976, 30.5020853 ], [ 79.6394548, 30.5014142 ], [ 79.6395458, 30.5010743 ], [ 79.637806, 30.499183 ], [ 79.6364809, 30.4989913 ], [ 79.6364, 30.4987298 ], [ 79.6367237, 30.4979977 ], [ 79.6365618, 30.4974486 ], [ 79.6371182, 30.4962022 ], [ 79.636663, 30.4955137 ], [ 79.6371687, 30.4944067 ], [ 79.6372747, 30.4934848 ] ] } },
{ "type": "Feature", "properties": { "element": "way", "id": 940072329, "name": "Shallayam Gad", "waterway": "stream" }, "geometry": { "type": "LineString", "coordinates": [ [ 79.5901818, 30.4234852 ], [ 79.5897232, 30.423144 ], [ 79.5896064, 30.4227099 ], [ 79.5894176, 30.4225238 ], [ 79.5897502, 30.4216942 ], [ 79.5901998, 30.4208336 ], [ 79.5903616, 30.4206476 ], [ 79.5904605, 30.420004 ], [ 79.5904425, 30.4189263 ], [ 79.5904695, 30.4185929 ], [ 79.5903976, 30.4181432 ], [ 79.5902267, 30.4174377 ], [ 79.5900649, 30.4170655 ], [ 79.589984, 30.4166391 ], [ 79.5896603, 30.4164375 ], [ 79.5894805, 30.4167321 ], [ 79.5891478, 30.4158637 ], [ 79.5892018, 30.4155768 ], [ 79.5892018, 30.4152202 ], [ 79.588977, 30.4145766 ], [ 79.5887342, 30.4138555 ], [ 79.58895, 30.4129406 ], [ 79.5887253, 30.4125064 ], [ 79.5885634, 30.4124056 ], [ 79.5884645, 30.4120877 ], [ 79.5886893, 30.4119171 ], [ 79.5886353, 30.4112813 ], [ 79.5886174, 30.4105291 ], [ 79.5888062, 30.4101569 ], [ 79.5887432, 30.4099088 ], [ 79.58895, 30.4095676 ], [ 79.5888242, 30.408862 ], [ 79.5887972, 30.4086216 ], [ 79.5886803, 30.4084588 ], [ 79.5888781, 30.4083425 ], [ 79.5888152, 30.4081176 ], [ 79.5890309, 30.4077454 ], [ 79.588977, 30.4074508 ], [ 79.5893726, 30.4071716 ], [ 79.5892737, 30.406559 ], [ 79.5894176, 30.4061093 ], [ 79.5895524, 30.4058301 ], [ 79.5895614, 30.4050935 ], [ 79.5896064, 30.404791 ], [ 79.5896603, 30.4044188 ], [ 79.5891298, 30.4036744 ], [ 79.5886893, 30.4033409 ], [ 79.5888871, 30.4023484 ], [ 79.5888691, 30.4020149 ], [ 79.5892737, 30.4012549 ], [ 79.5894445, 30.4012317 ], [ 79.5897283, 30.4009283 ], [ 79.5897283, 30.4005898 ], [ 79.5896259, 30.4003911 ], [ 79.5896515, 30.4002955 ], [ 79.590078, 30.4003727 ], [ 79.5901676, 30.4002145 ], [ 79.5901719, 30.3998392 ], [ 79.5905046, 30.3996479 ], [ 79.5906283, 30.3994088 ], [ 79.5907947, 30.3989599 ], [ 79.5908246, 30.3987318 ], [ 79.5907051, 30.3984669 ], [ 79.5907776, 30.3981504 ], [ 79.5907947, 30.3977862 ], [ 79.5907179, 30.397536 ], [ 79.590671, 30.3972012 ], [ 79.5905089, 30.396767 ], [ 79.5908757, 30.3961599 ], [ 79.5912511, 30.3959097 ], [ 79.5913706, 30.3956117 ], [ 79.5915284, 30.3954277 ], [ 79.5916948, 30.3953835 ], [ 79.5917204, 30.3952216 ], [ 79.5913407, 30.3945299 ], [ 79.5913151, 30.3941436 ], [ 79.591554, 30.3939706 ], [ 79.5916312, 30.3936719 ], [ 79.5914516, 30.3932274 ], [ 79.5915583, 30.3927748 ], [ 79.5916265, 30.3921161 ], [ 79.5918014, 30.3920241 ], [ 79.5920744, 30.3919322 ], [ 79.5923176, 30.3917666 ], [ 79.592373, 30.3914648 ], [ 79.5922323, 30.3908504 ], [ 79.5923858, 30.3907473 ], [ 79.5928977, 30.3907584 ], [ 79.5931195, 30.3907179 ], [ 79.5931323, 30.3901991 ], [ 79.5933755, 30.3901107 ], [ 79.5932006, 30.3898458 ], [ 79.5937125, 30.3894558 ], [ 79.5938362, 30.3892313 ], [ 79.5937551, 30.3891246 ], [ 79.5938959, 30.3890032 ], [ 79.5942116, 30.3889259 ], [ 79.5944974, 30.3886131 ], [ 79.5947107, 30.3883703 ], [ 79.5945571, 30.3878845 ], [ 79.5945358, 30.3874466 ], [ 79.5948045, 30.3873731 ], [ 79.595278, 30.3874283 ], [ 79.5954913, 30.3873215 ], [ 79.5965833, 30.387086 ], [ 79.596835, 30.3870603 ], [ 79.5968691, 30.386523 ], [ 79.5967625, 30.386144 ], [ 79.597172, 30.3857098 ], [ 79.5973981, 30.3853492 ], [ 79.5978033, 30.3847089 ], [ 79.5978503, 30.3843041 ], [ 79.5977607, 30.3839729 ], [ 79.5978622, 30.3838296 ], [ 79.598183, 30.3836417 ], [ 79.5983664, 30.3833032 ], [ 79.5985712, 30.3832369 ], [ 79.5988868, 30.3832811 ], [ 79.5990916, 30.3833657 ], [ 79.5994499, 30.3834099 ], [ 79.5997869, 30.3830051 ], [ 79.5997144, 30.3825451 ], [ 79.5995523, 30.3820483 ], [ 79.5994926, 30.3816509 ], [ 79.5997016, 30.381419 ], [ 79.5996163, 30.3808854 ], [ 79.5995523, 30.3805322 ], [ 79.5998509, 30.3802341 ], [ 79.6002263, 30.3798219 ], [ 79.6003372, 30.3795091 ], [ 79.6005803, 30.3792147 ], [ 79.6009898, 30.3786406 ], [ 79.6009472, 30.3784235 ], [ 79.6006358, 30.378188 ], [ 79.6003483, 30.3778861 ] ] } },
{ "type": "Feature", "properties": { "element": "way", "id": 940072334, "name": "Rogila Gad", "waterway": "stream" }, "geometry": { "type": "LineString", "coordinates": [ [ 79.6210906, 30.4131939 ], [ 79.62143, 30.4130701 ], [ 79.6224892, 30.4131741 ], [ 79.6229702, 30.4129238 ], [ 79.623166, 30.4120232 ], [ 79.623401, 30.411753 ], [ 79.623153, 30.4111001 ], [ 79.6235837, 30.410526 ], [ 79.6237142, 30.4091751 ], [ 79.6237664, 30.4082408 ], [ 79.623897, 30.4071826 ], [ 79.6240145, 30.406327 ], [ 79.6242494, 30.4056178 ], [ 79.6236098, 30.4043681 ], [ 79.6235315, 30.4035463 ], [ 79.6243408, 30.402353 ], [ 79.6251501, 30.4012497 ], [ 79.6250065, 30.4004053 ], [ 79.6245757, 30.3994708 ], [ 79.6254633, 30.3980748 ], [ 79.6251501, 30.3966675 ], [ 79.6255025, 30.3959469 ], [ 79.6252414, 30.3953051 ], [ 79.6253589, 30.3939766 ], [ 79.6257374, 30.392952 ], [ 79.6254111, 30.3919387 ], [ 79.6249934, 30.3907902 ], [ 79.6246802, 30.3892927 ], [ 79.6250717, 30.3889999 ], [ 79.6251631, 30.3885158 ], [ 79.6255417, 30.3876375 ], [ 79.6260899, 30.3870295 ], [ 79.6265467, 30.3863426 ], [ 79.6267947, 30.3853517 ], [ 79.626364, 30.3844509 ], [ 79.626364, 30.3839555 ], [ 79.6265989, 30.3834488 ], [ 79.6257658, 30.3814178 ] ] } },
{ "type": "Feature", "properties": { "element": "way", "id": 1074462194, "name": "Rishi Ganga", "waterway": "river" }, "geometry": { "type": "LineString", "coordinates": [ [ 79.9036503, 30.415075 ], [ 79.9018049, 30.4155376 ], [ 79.8999166, 30.4160187 ], [ 79.8980713, 30.4161483 ], [ 79.8968482, 30.4162038 ], [ 79.8957753, 30.4166664 ], [ 79.8952603, 30.417166 ], [ 79.8949331, 30.4179709 ], [ 79.8947453, 30.4189424 ], [ 79.8941445, 30.4194975 ], [ 79.8932647, 30.41959 ], [ 79.892106, 30.4201451 ], [ 79.8903894, 30.4205892 ], [ 79.8886943, 30.4209408 ], [ 79.8866558, 30.4211443 ], [ 79.8839092, 30.4211998 ], [ 79.8818922, 30.4212369 ], [ 79.879725, 30.4216624 ], [ 79.8783731, 30.4220325 ], [ 79.8771286, 30.4229947 ], [ 79.8753691, 30.4233832 ], [ 79.873352, 30.4234202 ], [ 79.8720646, 30.4230132 ], [ 79.8712063, 30.4226246 ], [ 79.8694038, 30.4226246 ], [ 79.8678159, 30.4229392 ], [ 79.8657989, 30.4234572 ], [ 79.863503, 30.4239383 ], [ 79.8619151, 30.4241419 ], [ 79.8599839, 30.4244934 ], [ 79.8587501, 30.4248357 ], [ 79.8573124, 30.4253538 ], [ 79.8553598, 30.4257701 ], [ 79.8535037, 30.4266212 ], [ 79.8505211, 30.4279349 ], [ 79.8494482, 30.4283604 ], [ 79.8477101, 30.4284715 ], [ 79.844706, 30.4283974 ], [ 79.8426032, 30.4281754 ], [ 79.8407364, 30.4282494 ], [ 79.839395, 30.4285239 ], [ 79.8382044, 30.4287675 ], [ 79.8361444, 30.4294706 ], [ 79.8351574, 30.4299146 ], [ 79.8321319, 30.4315335 ], [ 79.8301792, 30.4324308 ], [ 79.8283883, 30.4336056 ], [ 79.8279476, 30.4339202 ], [ 79.8276687, 30.4349285 ], [ 79.8271, 30.4356593 ], [ 79.8257804, 30.4359645 ], [ 79.8250294, 30.4365935 ], [ 79.8243534, 30.4375648 ], [ 79.8232055, 30.4383603 ], [ 79.821918, 30.4388321 ], [ 79.8201799, 30.4391928 ], [ 79.8194504, 30.4398681 ], [ 79.8181629, 30.4413111 ], [ 79.8173904, 30.4419956 ], [ 79.8166072, 30.4424303 ], [ 79.8150945, 30.4433645 ], [ 79.8142469, 30.4438548 ], [ 79.8132276, 30.4445947 ], [ 79.8127019, 30.4452422 ], [ 79.8118007, 30.4455289 ], [ 79.8106098, 30.4456954 ], [ 79.8099124, 30.4457972 ], [ 79.8088932, 30.4466111 ], [ 79.8079061, 30.4471106 ], [ 79.8067045, 30.4471568 ], [ 79.804151, 30.4477488 ], [ 79.8031264, 30.4480262 ], [ 79.8019516, 30.4482575 ], [ 79.8009914, 30.4490483 ], [ 79.7999132, 30.4492101 ], [ 79.7989368, 30.4496356 ], [ 79.7981751, 30.4500611 ], [ 79.7962117, 30.4500611 ], [ 79.7943878, 30.4504125 ], [ 79.7931862, 30.450394 ], [ 79.792124, 30.4506345 ], [ 79.7909975, 30.4510784 ], [ 79.7898763, 30.4512218 ], [ 79.7896062, 30.4511816 ], [ 79.7888517, 30.4510692 ], [ 79.7883689, 30.4509443 ], [ 79.786663, 30.450838 ], [ 79.7860193, 30.4508842 ], [ 79.7845602, 30.4514299 ], [ 79.7837877, 30.4522438 ], [ 79.7839057, 30.4529929 ], [ 79.7840452, 30.4541398 ], [ 79.7836482, 30.4550092 ], [ 79.7827363, 30.4554438 ], [ 79.7820067, 30.456156 ], [ 79.7818565, 30.4570161 ], [ 79.7815883, 30.4580981 ], [ 79.7801828, 30.4585328 ], [ 79.7787988, 30.4589859 ], [ 79.7777581, 30.459772 ], [ 79.7762668, 30.4604102 ], [ 79.7753763, 30.4603454 ], [ 79.7749471, 30.4597536 ], [ 79.7746253, 30.4592542 ], [ 79.774505, 30.4592127 ], [ 79.7740888, 30.4590692 ], [ 79.7725224, 30.4597905 ], [ 79.7715139, 30.459957 ], [ 79.7695184, 30.460142 ], [ 79.7684991, 30.4601327 ], [ 79.7673833, 30.4602344 ], [ 79.7663855, 30.4609743 ], [ 79.7650874, 30.4615754 ], [ 79.7641218, 30.4619638 ], [ 79.7634137, 30.4626204 ], [ 79.7621369, 30.4636932 ], [ 79.7600341, 30.464137 ], [ 79.760077, 30.4652283 ], [ 79.7606134, 30.4667079 ], [ 79.7607207, 30.4672997 ], [ 79.7599482, 30.4687053 ], [ 79.7590041, 30.4699444 ], [ 79.7582316, 30.4704253 ], [ 79.7565043, 30.4708506 ], [ 79.7549057, 30.4719973 ], [ 79.7541495, 30.4721952 ], [ 79.7534573, 30.4723764 ], [ 79.7517514, 30.4724226 ], [ 79.7504425, 30.4724041 ], [ 79.7490907, 30.472774 ], [ 79.7471809, 30.4723487 ], [ 79.7456789, 30.4722007 ], [ 79.743855, 30.471387 ], [ 79.7414732, 30.4707952 ], [ 79.7403896, 30.4700369 ], [ 79.739145, 30.4698242 ], [ 79.7381365, 30.4695283 ], [ 79.7372031, 30.4686683 ], [ 79.7362375, 30.4682799 ], [ 79.7355938, 30.4673922 ], [ 79.7344136, 30.4670963 ], [ 79.7330618, 30.4668003 ], [ 79.7322186, 30.4665454 ], [ 79.7309911, 30.4665229 ], [ 79.7296822, 30.4675679 ], [ 79.7289419, 30.4680395 ], [ 79.7278047, 30.4687238 ], [ 79.7261202, 30.4688902 ], [ 79.72435, 30.4692047 ], [ 79.722569, 30.4696115 ], [ 79.721142, 30.46963 ], [ 79.7197366, 30.4688255 ], [ 79.7177624, 30.4688163 ], [ 79.7171938, 30.4687423 ], [ 79.7153914, 30.4677898 ], [ 79.7140932, 30.4679655 ], [ 79.7130847, 30.468955 ], [ 79.7115934, 30.4693156 ], [ 79.7105634, 30.4694451 ], [ 79.7094583, 30.4698704 ], [ 79.7090781, 30.4700153 ], [ 79.7082674, 30.4702819 ], [ 79.7072911, 30.4710818 ], [ 79.7062611, 30.472136 ], [ 79.7049737, 30.472885 ], [ 79.7045016, 30.4736155 ], [ 79.7034931, 30.4740963 ], [ 79.7025382, 30.474984 ], [ 79.7018516, 30.4757607 ], [ 79.700768, 30.4767593 ], [ 79.6998882, 30.4774251 ], [ 79.6993303, 30.4782202 ], [ 79.6986759, 30.4789322 ], [ 79.6976137, 30.4795055 ], [ 79.6970451, 30.4800972 ], [ 79.69697, 30.4810958 ], [ 79.6964872, 30.4822978 ], [ 79.6957362, 30.4832039 ], [ 79.6944916, 30.4840175 ], [ 79.694159, 30.4847479 ], [ 79.693959, 30.4850778 ], [ 79.6937889, 30.4853582 ], [ 79.6929037, 30.4860516 ], [ 79.6922815, 30.4865786 ], [ 79.6911764, 30.4872258 ], [ 79.6902371, 30.4877383 ] ] } },
{ "type": "Feature", "properties": { "element": "way", "id": 1074462195, "name": "Gankhwai Gadhera", "waterway": "stream" }, "geometry": { "type": "LineString", "coordinates": [ [ 79.8298358, 30.5376839 ], [ 79.8282051, 30.5394211 ], [ 79.8284196, 30.5401603 ], [ 79.8275613, 30.5411213 ], [ 79.8270893, 30.5427107 ], [ 79.8275613, 30.5435977 ], [ 79.8273468, 30.5443369 ], [ 79.8280763, 30.5447065 ], [ 79.82872, 30.5471459 ], [ 79.8297929, 30.5478481 ], [ 79.8315525, 30.55062 ], [ 79.8314881, 30.5513961 ] ] } },
{ "type": "Feature", "properties": { "element": "way", "id": 1074462197, "name": null, "waterway": "stream" }, "geometry": { "type": "LineString", "coordinates": [ [ 79.8469055, 30.5720716 ], [ 79.848032, 30.5728291 ], [ 79.8492765, 30.5740299 ], [ 79.850564, 30.575748 ], [ 79.8507356, 30.5778171 ], [ 79.8506927, 30.5798492 ], [ 79.851551, 30.581364 ], [ 79.8522806, 30.5833591 ], [ 79.8546409, 30.5843936 ], [ 79.8563575, 30.5864994 ], [ 79.8564004, 30.5881249 ], [ 79.8579454, 30.590046 ], [ 79.8584604, 30.5920409 ], [ 79.8592758, 30.5938141 ], [ 79.8592758, 30.5948115 ], [ 79.8589325, 30.5957165 ], [ 79.8593187, 30.5977113 ], [ 79.8595333, 30.5997615 ], [ 79.8596835, 30.601516 ], [ 79.8591256, 30.6027535 ], [ 79.8585462, 30.6033999 ], [ 79.8578427, 30.6041507 ] ] } },
{ "type": "Feature", "properties": { "element": "way", "id": 1074462201, "name": null, "waterway": "stream" }, "geometry": { "type": "LineString", "coordinates": [ [ 79.6108174, 30.5800894 ], [ 79.6088433, 30.5791287 ], [ 79.6066546, 30.5782051 ], [ 79.6045732, 30.5773368 ], [ 79.6025777, 30.5763761 ], [ 79.6005821, 30.5758404 ], [ 79.5985222, 30.5750091 ], [ 79.5967626, 30.5740299 ], [ 79.5941877, 30.5733279 ], [ 79.5929217, 30.5731616 ], [ 79.5909261, 30.5732355 ], [ 79.5892954, 30.572515 ], [ 79.5872998, 30.572164 ], [ 79.5855188, 30.5718869 ], [ 79.5825362, 30.5708523 ], [ 79.5812917, 30.5702795 ], [ 79.5797467, 30.5700024 ], [ 79.5786094, 30.5694481 ], [ 79.577036, 30.5689854 ] ] } },
{ "type": "Feature", "properties": { "element": "way", "id": 1074462208, "name": null, "waterway": "stream" }, "geometry": { "type": "LineString", "coordinates": [ [ 79.6606206, 30.5962522 ], [ 79.6589899, 30.5963261 ], [ 79.6567583, 30.5963261 ], [ 79.6542263, 30.5954764 ], [ 79.6520805, 30.5941096 ], [ 79.6504926, 30.5922625 ], [ 79.6489477, 30.5908587 ], [ 79.6480035, 30.5888638 ], [ 79.6474027, 30.5867211 ], [ 79.6470165, 30.5846522 ], [ 79.6460294, 30.5828049 ], [ 79.6454286, 30.5812901 ], [ 79.6446561, 30.5804034 ], [ 79.643712, 30.5795536 ], [ 79.6435833, 30.5778541 ], [ 79.6430254, 30.5760806 ], [ 79.6428966, 30.5745103 ] ] } },
{ "type": "Feature", "properties": { "element": "way", "id": 1074462209, "name": null, "waterway": "stream" }, "geometry": { "type": "LineString", "coordinates": [ [ 79.6866917, 30.5676745 ], [ 79.686048, 30.5683581 ], [ 79.6848464, 30.5685428 ], [ 79.6838164, 30.5682657 ], [ 79.6828937, 30.5674897 ], [ 79.681735, 30.5674158 ], [ 79.6802544, 30.5673235 ], [ 79.6792459, 30.5679701 ], [ 79.6779156, 30.5682472 ], [ 79.6766066, 30.5685059 ], [ 79.6753192, 30.5690971 ], [ 79.6735167, 30.5695405 ], [ 79.6726799, 30.5702241 ], [ 79.6718001, 30.571425 ], [ 79.6712851, 30.5720531 ], [ 79.6708345, 30.5729214 ], [ 79.6698046, 30.5739191 ], [ 79.6691608, 30.5745842 ], [ 79.6681309, 30.5749536 ], [ 79.6668863, 30.5763761 ], [ 79.6657491, 30.5774292 ], [ 79.6655345, 30.5786854 ], [ 79.664762, 30.5798861 ], [ 79.6645259, 30.5804404 ] ] } },
{ "type": "Feature", "properties": { "element": "way", "id": 1074462210, "name": null, "waterway": "stream" }, "geometry": { "type": "LineString", "coordinates": [ [ 79.6879148, 30.5956611 ], [ 79.6851682, 30.5942574 ], [ 79.6828937, 30.5927058 ], [ 79.6804905, 30.5921517 ], [ 79.6789455, 30.5914867 ], [ 79.6784305, 30.5906371 ], [ 79.6780872, 30.5889377 ], [ 79.6764993, 30.5877555 ], [ 79.6748685, 30.5864994 ], [ 79.6740531, 30.5851694 ], [ 79.6732378, 30.5846522 ], [ 79.6725082, 30.5831744 ], [ 79.6713924, 30.5821399 ], [ 79.6693325, 30.5810315 ], [ 79.6670579, 30.5798862 ], [ 79.6664571, 30.5794428 ], [ 79.6645259, 30.5804404 ], [ 79.6633887, 30.5811608 ] ] } },
{ "type": "Feature", "properties": { "element": "way", "id": 1074487779, "name": "Bharoda Gad", "waterway": "stream" }, "geometry": { "type": "LineString", "coordinates": [ [ 79.604423, 30.4144088 ], [ 79.6033501, 30.4126508 ], [ 79.602642, 30.4105968 ], [ 79.6026206, 30.4090793 ], [ 79.6028995, 30.4073768 ], [ 79.6044874, 30.4062664 ], [ 79.604702, 30.4051745 ], [ 79.6045303, 30.4041566 ], [ 79.6055388, 30.403731 ], [ 79.6074915, 30.4033793 ], [ 79.6084785, 30.4024725 ], [ 79.6081996, 30.4014361 ], [ 79.608382, 30.4006588 ], [ 79.6071911, 30.39928 ], [ 79.6054637, 30.3979289 ], [ 79.6048736, 30.3971793 ], [ 79.6048093, 30.3964575 ], [ 79.604702, 30.3959948 ], [ 79.6042728, 30.3958097 ], [ 79.6039724, 30.3961799 ], [ 79.6034574, 30.3962539 ], [ 79.6028995, 30.3956987 ], [ 79.6025991, 30.395273 ], [ 79.6023202, 30.394144 ], [ 79.6025133, 30.3932555 ], [ 79.6028674, 30.3927743 ], [ 79.6030068, 30.3919784 ], [ 79.6026635, 30.3906365 ], [ 79.6018481, 30.3896462 ], [ 79.6011507, 30.3892761 ], [ 79.5992195, 30.3886837 ], [ 79.5984363, 30.3883321 ], [ 79.5979213, 30.387314 ], [ 79.5976424, 30.3865551 ], [ 79.5967625, 30.386144 ] ] } },
{ "type": "Feature", "properties": { "element": "way", "id": 1074487793, "name": "Kol Gad", "waterway": "stream" }, "geometry": { "type": "LineString", "coordinates": [ [ 79.6357297, 30.4730144 ], [ 79.635365, 30.474235 ], [ 79.6346998, 30.4752521 ], [ 79.6344638, 30.4757884 ], [ 79.6347213, 30.4767686 ], [ 79.6354508, 30.4775453 ], [ 79.6357512, 30.4790062 ], [ 79.6359443, 30.4801897 ], [ 79.636116, 30.4819834 ], [ 79.636631, 30.4830375 ], [ 79.637618, 30.4842949 ], [ 79.6385622, 30.4854044 ], [ 79.639399, 30.4865878 ], [ 79.6394849, 30.4876603 ], [ 79.639442, 30.4882936 ], [ 79.6395278, 30.4895094 ], [ 79.6395385, 30.490212 ], [ 79.6389162, 30.4907667 ], [ 79.6383744, 30.4912105 ], [ 79.6374893, 30.4912752 ], [ 79.6360141, 30.4912521 ], [ 79.6355474, 30.4913769 ], [ 79.6346891, 30.4917005 ], [ 79.634026, 30.4924889 ] ] } },
{ "type": "Feature", "properties": { "element": "way", "id": 1074487794, "name": null, "waterway": "stream" }, "geometry": { "type": "LineString", "coordinates": [ [ 79.6495485, 30.5495482 ], [ 79.6470165, 30.5487721 ], [ 79.6453857, 30.5491047 ], [ 79.6433258, 30.5495482 ], [ 79.6412658, 30.5492525 ], [ 79.6400642, 30.5484394 ], [ 79.6389913, 30.5479959 ], [ 79.6374893, 30.5482546 ], [ 79.6354723, 30.5491416 ], [ 79.6341419, 30.5502134 ], [ 79.6331977, 30.5510265 ], [ 79.6319103, 30.5511743 ], [ 79.6301078, 30.5503982 ], [ 79.6286058, 30.5494373 ], [ 79.6275329, 30.5493264 ], [ 79.6263313, 30.5484764 ], [ 79.6247005, 30.547959 ], [ 79.6236276, 30.546074 ], [ 79.6228981, 30.5455196 ], [ 79.6218681, 30.5452609 ], [ 79.6210098, 30.5444108 ], [ 79.6203881, 30.5439859 ] ] } },
{ "type": "Feature", "properties": { "element": "way", "id": 1074487795, "name": null, "waterway": "stream" }, "geometry": { "type": "LineString", "coordinates": [ [ 79.6316528, 30.5964369 ], [ 79.6307301, 30.5955872 ], [ 79.6303868, 30.5934077 ], [ 79.6302366, 30.5910065 ], [ 79.6299362, 30.5890485 ], [ 79.6298075, 30.5868688 ], [ 79.6297216, 30.5845044 ], [ 79.6292495, 30.5822877 ], [ 79.6293783, 30.5801448 ], [ 79.628992, 30.5765979 ], [ 79.6286058, 30.5741593 ], [ 79.6287775, 30.5720901 ], [ 79.6284341, 30.5703534 ], [ 79.6285307, 30.5691618 ], [ 79.6288003, 30.5683648 ] ] } },
{ "type": "Feature", "properties": { "element": "way", "id": 1074487796, "name": null, "waterway": "stream" }, "geometry": { "type": "LineString", "coordinates": [ [ 79.6557283, 30.5559417 ], [ 79.6535825, 30.5552765 ], [ 79.6519088, 30.5550178 ], [ 79.6499776, 30.5560157 ], [ 79.647789, 30.5562374 ], [ 79.6454286, 30.5572352 ], [ 79.6429824, 30.5576787 ], [ 79.6407508, 30.558233 ], [ 79.6388626, 30.5593786 ], [ 79.6375322, 30.5609676 ], [ 79.6356868, 30.5620023 ], [ 79.6346998, 30.5634065 ], [ 79.6334123, 30.5640717 ], [ 79.6321249, 30.5651248 ], [ 79.6304726, 30.5659562 ], [ 79.6284985, 30.5668246 ] ] } },
{ "type": "Feature", "properties": { "element": "way", "id": 1074487797, "name": null, "waterway": "stream" }, "geometry": { "type": "LineString", "coordinates": [ [ 79.6544408, 30.5420823 ], [ 79.6526813, 30.5415649 ], [ 79.650793, 30.5412692 ], [ 79.6488189, 30.5399386 ], [ 79.6466732, 30.5393102 ], [ 79.6448707, 30.5393472 ], [ 79.6434116, 30.5395689 ], [ 79.6416091, 30.538534 ], [ 79.6403217, 30.5377947 ], [ 79.638648, 30.5376839 ], [ 79.6372318, 30.536538 ], [ 79.6350002, 30.5367228 ], [ 79.6326398, 30.5376839 ], [ 79.6311378, 30.5382383 ], [ 79.6299791, 30.5393472 ], [ 79.6281766, 30.5398646 ], [ 79.6262884, 30.5403451 ], [ 79.6241855, 30.5420084 ], [ 79.6217823, 30.5430063 ], [ 79.6203881, 30.5439859 ], [ 79.6201515, 30.5441521 ], [ 79.6174907, 30.5446326 ], [ 79.6158599, 30.5444848 ], [ 79.6137142, 30.5438195 ], [ 79.6120834, 30.5438564 ], [ 79.6107316, 30.5439858 ] ] } },
{ "type": "Feature", "properties": { "element": "way", "id": 1074487798, "name": "Ghat Gad", "waterway": "stream" }, "geometry": { "type": "LineString", "coordinates": [ [ 79.7165179, 30.5455935 ], [ 79.7180629, 30.5452794 ], [ 79.7193074, 30.5451131 ], [ 79.7202515, 30.5445217 ], [ 79.7214746, 30.5437825 ], [ 79.7228265, 30.5437086 ], [ 79.7234487, 30.5429878 ], [ 79.7239101, 30.5423225 ], [ 79.7246504, 30.5412507 ], [ 79.725498, 30.5408718 ], [ 79.7256267, 30.5405207 ], [ 79.7265494, 30.5401788 ], [ 79.7281265, 30.5397445 ], [ 79.7292852, 30.5384693 ], [ 79.7306371, 30.5381459 ], [ 79.7317207, 30.5375729 ], [ 79.7329867, 30.5371756 ], [ 79.7339737, 30.536538 ], [ 79.7356474, 30.5362238 ], [ 79.7371924, 30.5360482 ], [ 79.7388983, 30.5359466 ], [ 79.7406792, 30.5347822 ], [ 79.7422242, 30.5337657 ], [ 79.7431469, 30.5332759 ], [ 79.7438051, 30.5329523 ], [ 79.7442693, 30.532724 ] ] } },
{ "type": "Feature", "properties": { "element": "way", "id": 1074487799, "name": null, "waterway": "stream" }, "geometry": { "type": "LineString", "coordinates": [ [ 79.7071838, 30.5782975 ], [ 79.7125482, 30.5778171 ], [ 79.7157669, 30.5782605 ], [ 79.7180843, 30.577891 ], [ 79.7200584, 30.5763392 ], [ 79.7236633, 30.5768195 ], [ 79.7255945, 30.5772999 ], [ 79.7279548, 30.5770782 ], [ 79.7301006, 30.5772629 ], [ 79.7313022, 30.5763762 ], [ 79.7335677, 30.575593 ] ] } },
{ "type": "Feature", "properties": { "element": "way", "id": 1074487802, "name": "Tamadev Gadhera", "waterway": "stream" }, "geometry": { "type": "LineString", "coordinates": [ [ 79.6916484, 30.5309564 ], [ 79.6909189, 30.5278882 ], [ 79.6900177, 30.5250418 ], [ 79.6891594, 30.5237479 ], [ 79.689331, 30.5223061 ], [ 79.6876144, 30.5192377 ], [ 79.6868848, 30.5168716 ], [ 79.6869278, 30.5142097 ], [ 79.6846962, 30.5125089 ], [ 79.6837949, 30.5104754 ], [ 79.6822929, 30.5093293 ], [ 79.682014, 30.508294 ], [ 79.6810913, 30.5070738 ], [ 79.6808982, 30.5057427 ], [ 79.6798253, 30.5037276 ], [ 79.6791172, 30.502378 ], [ 79.6776581, 30.5009544 ], [ 79.6766925, 30.4996972 ], [ 79.6760058, 30.4990316 ], [ 79.6755552, 30.497423 ], [ 79.6755552, 30.4954632 ], [ 79.6758771, 30.4942798 ], [ 79.6757269, 30.4928746 ], [ 79.6756687, 30.4923706 ], [ 79.675573, 30.4915422 ], [ 79.675523, 30.4911088 ], [ 79.6749008, 30.4903415 ], [ 79.6752977, 30.489722 ], [ 79.6752655, 30.4892043 ], [ 79.6752, 30.488747 ] ] } },
{ "type": "Feature", "properties": { "element": "way", "id": 1219698563, "name": "Dhauli Ganga", "waterway": "river" }, "geometry": { "type": "LineString", "coordinates": [ [ 79.6905699, 30.4879689 ], [ 79.6902371, 30.4877383 ] ] } }
]
}
