{
"type": "FeatureCollection",
"name": "rishiganga_villages",
"crs": { "type": "name", "properties": { "name": "urn:ogc:def:crs:OGC:1.3:CRS84" } },
"features": [
{ "type": "Feature", "properties": { "village_id": "V001", "village_name": "Ringi", "place_type": "village", "pop_total": 0, "lon": 79.618965, "lat": 30.4780383 }, "geometry": { "type": "Polygon", "coordinates": [ [ [ 79.626965, 30.4780383 ], [ 79.626926477813385, 30.477254162877365 ], [ 79.626811282243224, 30.476477577423871 ], [ 79.626620522685855, 30.475716022581967 ], [ 79.626356036260091, 30.474976832541081 ], [ 79.626020370114787, 30.474267126105392 ], [ 79.625616756898424, 30.473593738135843 ], [ 79.625149083626908, 30.472963153726692 ], [ 79.624621854249497, 30.472381445750511 ], [ 79.624040146273316, 30.471854216373099 ], [ 79.623409561864165, 30.47138654310158 ], [ 79.622736173894609, 30.470982929885214 ], [ 79.622026467458923, 30.47064726373991 ], [ 79.621287277418034, 30.470382777314143 ], [ 79.620525722576133, 30.470192017756776 ], [ 79.619749137122639, 30.470076822186623 ], [ 79.618965, 30.4700383 ], [ 79.618180862877367, 30.470076822186623 ], [ 79.617404277423873, 30.470192017756776 ], [ 79.616642722581972, 30.470382777314143 ], [ 79.615903532541083, 30.47064726373991 ], [ 79.615193826105397, 30.470982929885214 ], [ 79.614520438135841, 30.47138654310158 ], [ 79.61388985372669, 30.471854216373099 ], [ 79.613308145750509, 30.472381445750511 ], [ 79.612780916373097, 30.472963153726692 ], [ 79.612313243101582, 30.473593738135843 ], [ 79.611909629885218, 30.474267126105392 ], [ 79.611573963739914, 30.474976832541081 ], [ 79.611309477314151, 30.475716022581967 ], [ 79.611118717756781, 30.476477577423871 ], [ 79.611003522186621, 30.477254162877365 ], [ 79.610965, 30.4780383 ], [ 79.611003522186621, 30.478822437122638 ], [ 79.611118717756781, 30.479599022576132 ], [ 79.611309477314151, 30.480360577418036 ], [ 79.611573963739914, 30.481099767458922 ], [ 79.611909629885218, 30.481809473894611 ], [ 79.612313243101582, 30.48248286186416 ], [ 79.612780916373097, 30.483113446273311 ], [ 79.613308145750509, 30.483695154249492 ], [ 79.61388985372669, 30.484222383626904 ], [ 79.614520438135841, 30.484690056898422 ], [ 79.615193826105397, 30.485093670114789 ], [ 79.615903532541083, 30.485429336260093 ], [ 79.616642722581972, 30.48569382268586 ], [ 79.617404277423873, 30.485884582243227 ], [ 79.618180862877367, 30.48599977781338 ], [ 79.618965, 30.4860383 ], [ 79.619749137122639, 30.48599977781338 ], [ 79.620525722576133, 30.485884582243227 ], [ 79.621287277418034, 30.48569382268586 ], [ 79.622026467458923, 30.485429336260093 ], [ 79.622736173894609, 30.485093670114789 ], [ 79.623409561864165, 30.484690056898422 ], [ 79.624040146273316, 30.484222383626904 ], [ 79.624621854249497, 30.483695154249492 ], [ 79.625149083626908, 30.483113446273311 ], [ 79.625616756898424, 30.48248286186416 ], [ 79.626020370114787, 30.481809473894611 ], [ 79.626356036260091, 30.481099767458922 ], [ 79.626620522685855, 30.480360577418036 ], [ 79.626811282243224, 30.479599022576132 ], [ 79.626926477813385, 30.478822437122638 ], [ 79.626965, 30.4780383 ] ] ] } },
{ "type": "Feature", "properties": { "village_id": "V002", "village_name": "Suraithota", "place_type": "village", "pop_total": 0, "lon": 79.74152, "lat": 30.53101 }, "geometry": { "type": "Polygon", "coordinates": [ [ [ 79.74952, 30.53101 ], [ 79.749481477813376, 30.530225862877362 ], [ 79.749366282243216, 30.529449277423868 ], [ 79.749175522685846, 30.528687722581964 ], [ 79.748911036260083, 30.527948532541078 ], [ 79.748575370114779, 30.527238826105389 ], [ 79.748171756898415, 30.52656543813584 ], [ 79.7477040836269, 30.525934853726689 ], [ 79.747176854249489, 30.525353145750508 ], [ 79.746595146273307, 30.524825916373096 ], [ 79.745964561864156, 30.524358243101577 ], [ 79.7452911738946, 30.52395462988521 ], [ 79.744581467458914, 30.523618963739906 ], [ 79.743842277418025, 30.52335447731414 ], [ 79.743080722576124, 30.523163717756773 ], [ 79.74230413712263, 30.52304852218662 ], [ 79.74152, 30.52301 ], [ 79.740735862877358, 30.52304852218662 ], [ 79.739959277423864, 30.523163717756773 ], [ 79.739197722581963, 30.52335447731414 ], [ 79.738458532541074, 30.523618963739906 ], [ 79.737748826105388, 30.52395462988521 ], [ 79.737075438135832, 30.524358243101577 ], [ 79.736444853726681, 30.524825916373096 ], [ 79.7358631457505, 30.525353145750508 ], [ 79.735335916373089, 30.525934853726689 ], [ 79.734868243101573, 30.52656543813584 ], [ 79.73446462988521, 30.527238826105389 ], [ 79.734128963739906, 30.527948532541078 ], [ 79.733864477314143, 30.528687722581964 ], [ 79.733673717756773, 30.529449277423868 ], [ 79.733558522186613, 30.530225862877362 ], [ 79.73352, 30.53101 ], [ 79.733558522186613, 30.531794137122635 ], [ 79.733673717756773, 30.532570722576128 ], [ 79.733864477314143, 30.533332277418033 ], [ 79.734128963739906, 30.534071467458919 ], [ 79.73446462988521, 30.534781173894608 ], [ 79.734868243101573, 30.535454561864157 ], [ 79.735335916373089, 30.536085146273308 ], [ 79.7358631457505, 30.536666854249489 ], [ 79.736444853726681, 30.5371940836269 ], [ 79.737075438135832, 30.537661756898419 ], [ 79.737748826105388, 30.538065370114786 ], [ 79.738458532541074, 30.53840103626009 ], [ 79.739197722581963, 30.538665522685857 ], [ 79.739959277423864, 30.538856282243223 ], [ 79.740735862877358, 30.538971477813377 ], [ 79.74152, 30.53901 ], [ 79.74230413712263, 30.538971477813377 ], [ 79.743080722576124, 30.538856282243223 ], [ 79.743842277418025, 30.538665522685857 ], [ 79.744581467458914, 30.53840103626009 ], [ 79.7452911738946, 30.538065370114786 ], [ 79.745964561864156, 30.537661756898419 ], [ 79.746595146273307, 30.5371940836269 ], [ 79.747176854249489, 30.536666854249489 ], [ 79.7477040836269, 30.536085146273308 ], [ 79.748171756898415, 30.535454561864157 ], [ 79.748575370114779, 30.534781173894608 ], [ 79.748911036260083, 30.534071467458919 ], [ 79.749175522685846, 30.533332277418033 ], [ 79.749366282243216, 30.532570722576128 ], [ 79.749481477813376, 30.531794137122635 ], [ 79.74952, 30.53101 ] ] ] } },
{ "type": "Feature", "properties": { "village_id": "V003", "village_name": "Lata", "place_type": "village", "pop_total": 0, "lon": 79.70719, "lat": 30.49667 }, "geometry": { "type": "Polygon", "coordinates": [ [ [ 79.71519, 30.49667 ], [ 79.715151477813379, 30.495885862877365 ], [ 79.715036282243219, 30.495109277423872 ], [ 79.714845522685849, 30.494347722581967 ], [ 79.714581036260086, 30.493608532541082 ], [ 79.714245370114782, 30.492898826105392 ], [ 79.713841756898418, 30.492225438135844 ], [ 79.713374083626903, 30.491594853726692 ], [ 79.712846854249491, 30.491013145750511 ], [ 79.71226514627331, 30.4904859163731 ], [ 79.711634561864159, 30.490018243101581 ], [ 79.710961173894603, 30.489614629885214 ], [ 79.710251467458917, 30.48927896373991 ], [ 79.709512277418028, 30.489014477314143 ], [ 79.708750722576127, 30.488823717756777 ], [ 79.707974137122633, 30.488708522186624 ], [ 79.70719, 30.48867 ], [ 79.706405862877361, 30.488708522186624 ], [ 79.705629277423867, 30.488823717756777 ], [ 79.704867722581966, 30.489014477314143 ], [ 79.704128532541077, 30.48927896373991 ], [ 79.703418826105391, 30.489614629885214 ], [ 79.702745438135835, 30.490018243101581 ], [ 79.702114853726684, 30.4904859163731 ], [ 79.701533145750503, 30.491013145750511 ], [ 79.701005916373092, 30.491594853726692 ], [ 79.700538243101576, 30.492225438135844 ], [ 79.700134629885213, 30.492898826105392 ], [ 79.699798963739909, 30.493608532541082 ], [ 79.699534477314145, 30.494347722581967 ], [ 79.699343717756776, 30.495109277423872 ], [ 79.699228522186615, 30.495885862877365 ], [ 79.69919, 30.49667 ], [ 79.699228522186615, 30.497454137122638 ], [ 79.699343717756776, 30.498230722576132 ], [ 79.699534477314145, 30.498992277418036 ], [ 79.699798963739909, 30.499731467458922 ], [ 79.700134629885213, 30.500441173894611 ], [ 79.700538243101576, 30.50111456186416 ], [ 79.701005916373092, 30.501745146273311 ], [ 79.701533145750503, 30.502326854249493 ], [ 79.702114853726684, 30.502854083626904 ], [ 79.702745438135835, 30.503321756898423 ], [ 79.703418826105391, 30.50372537011479 ], [ 79.704128532541077, 30.504061036260094 ], [ 79.704867722581966, 30.504325522685861 ], [ 79.705629277423867, 30.504516282243227 ], [ 79.706405862877361, 30.50463147781338 ], [ 79.70719, 30.50467 ], [ 79.707974137122633, 30.50463147781338 ], [ 79.708750722576127, 30.504516282243227 ], [ 79.709512277418028, 30.504325522685861 ], [ 79.710251467458917, 30.504061036260094 ], [ 79.710961173894603, 30.50372537011479 ], [ 79.711634561864159, 30.503321756898423 ], [ 79.71226514627331, 30.502854083626904 ], [ 79.712846854249491, 30.502326854249493 ], [ 79.713374083626903, 30.501745146273311 ], [ 79.713841756898418, 30.50111456186416 ], [ 79.714245370114782, 30.500441173894611 ], [ 79.714581036260086, 30.499731467458922 ], [ 79.714845522685849, 30.498992277418036 ], [ 79.715036282243219, 30.498230722576132 ], [ 79.715151477813379, 30.497454137122638 ], [ 79.71519, 30.49667 ] ] ] } },
{ "type": "Feature", "properties": { "village_id": "V004", "village_name": "Rini", "place_type": "hamlet", "pop_total": 0, "lon": 79.6510041, "lat": 30.4840721 }, "geometry": { "type": "Polygon", "coordinates": [ [ [ 79.6590041, 30.4840721 ], [ 79.658965577813376, 30.483287962877363 ], [ 79.658850382243216, 30.482511377423869 ], [ 79.658659622685846, 30.481749822581964 ], [ 79.658395136260083, 30.481010632541079 ], [ 79.658059470114779, 30.480300926105389 ], [ 79.657655856898415, 30.479627538135841 ], [ 79.6571881836269, 30.478996953726689 ], [ 79.656660954249489, 30.478415245750508 ], [ 79.656079246273308, 30.477888016373097 ], [ 79.655448661864156, 30.477420343101578 ], [ 79.6547752738946, 30.477016729885211 ], [ 79.654065567458915, 30.476681063739907 ], [ 79.653326377418026, 30.47641657731414 ], [ 79.652564822576124, 30.476225817756774 ], [ 79.651788237122631, 30.476110622186621 ], [ 79.6510041, 30.4760721 ], [ 79.650219962877358, 30.476110622186621 ], [ 79.649443377423864, 30.476225817756774 ], [ 79.648681822581963, 30.47641657731414 ], [ 79.647942632541074, 30.476681063739907 ], [ 79.647232926105389, 30.477016729885211 ], [ 79.646559538135833, 30.477420343101578 ], [ 79.645928953726681, 30.477888016373097 ], [ 79.6453472457505, 30.478415245750508 ], [ 79.644820016373089, 30.478996953726689 ], [ 79.644352343101573, 30.479627538135841 ], [ 79.64394872988521, 30.480300926105389 ], [ 79.643613063739906, 30.481010632541079 ], [ 79.643348577314143, 30.481749822581964 ], [ 79.643157817756773, 30.482511377423869 ], [ 79.643042622186613, 30.483287962877363 ], [ 79.6430041, 30.4840721 ], [ 79.643042622186613, 30.484856237122635 ], [ 79.643157817756773, 30.485632822576129 ], [ 79.643348577314143, 30.486394377418033 ], [ 79.643613063739906, 30.487133567458919 ], [ 79.64394872988521, 30.487843273894608 ], [ 79.644352343101573, 30.488516661864157 ], [ 79.644820016373089, 30.489147246273308 ], [ 79.6453472457505, 30.48972895424949 ], [ 79.645928953726681, 30.490256183626901 ], [ 79.646559538135833, 30.49072385689842 ], [ 79.647232926105389, 30.491127470114787 ], [ 79.647942632541074, 30.491463136260091 ], [ 79.648681822581963, 30.491727622685858 ], [ 79.649443377423864, 30.491918382243224 ], [ 79.650219962877358, 30.492033577813377 ], [ 79.6510041, 30.4920721 ], [ 79.651788237122631, 30.492033577813377 ], [ 79.652564822576124, 30.491918382243224 ], [ 79.653326377418026, 30.491727622685858 ], [ 79.654065567458915, 30.491463136260091 ], [ 79.6547752738946, 30.491127470114787 ], [ 79.655448661864156, 30.49072385689842 ], [ 79.656079246273308, 30.490256183626901 ], [ 79.656660954249489, 30.48972895424949 ], [ 79.6571881836269, 30.489147246273308 ], [ 79.657655856898415, 30.488516661864157 ], [ 79.658059470114779, 30.487843273894608 ], [ 79.658395136260083, 30.487133567458919 ], [ 79.658659622685846, 30.486394377418033 ], [ 79.658850382243216, 30.485632822576129 ], [ 79.658965577813376, 30.484856237122635 ], [ 79.6590041, 30.4840721 ] ] ] } },
{ "type": "Feature", "properties": { "village_id": "V005", "village_name": "Balgaon", "place_type": "village", "pop_total": 0, "lon": 79.7316006, "lat": 30.5190206 }, "geometry": { "type": "Polygon", "coordinates": [ [ [ 79.739600599999989, 30.5190206 ], [ 79.739562077813375, 30.518236462877365 ], [ 79.739446882243215, 30.517459877423871 ], [ 79.739256122685845, 30.516698322581966 ], [ 79.738991636260081, 30.515959132541081 ], [ 79.738655970114777, 30.515249426105392 ], [ 79.738252356898414, 30.514576038135843 ], [ 79.737784683626899, 30.513945453726691 ], [ 79.737257454249487, 30.51336374575051 ], [ 79.736675746273306, 30.512836516373099 ], [ 79.736045161864155, 30.51236884310158 ], [ 79.735371773894599, 30.511965229885213 ], [ 79.734662067458913, 30.511629563739909 ], [ 79.733922877418024, 30.511365077314142 ], [ 79.733161322576123, 30.511174317756776 ], [ 79.732384737122629, 30.511059122186623 ], [ 79.7316006, 30.5110206 ], [ 79.730816462877357, 30.511059122186623 ], [ 79.730039877423863, 30.511174317756776 ], [ 79.729278322581962, 30.511365077314142 ], [ 79.728539132541073, 30.511629563739909 ], [ 79.727829426105387, 30.511965229885213 ], [ 79.727156038135831, 30.51236884310158 ], [ 79.72652545372668, 30.512836516373099 ], [ 79.725943745750499, 30.51336374575051 ], [ 79.725416516373087, 30.513945453726691 ], [ 79.724948843101572, 30.514576038135843 ], [ 79.724545229885209, 30.515249426105392 ], [ 79.724209563739905, 30.515959132541081 ], [ 79.723945077314141, 30.516698322581966 ], [ 79.723754317756772, 30.517459877423871 ], [ 79.723639122186611, 30.518236462877365 ], [ 79.7236006, 30.5190206 ], [ 79.723639122186611, 30.519804737122637 ], [ 79.723754317756772, 30.520581322576131 ], [ 79.723945077314141, 30.521342877418036 ], [ 79.724209563739905, 30.522082067458921 ], [ 79.724545229885209, 30.52279177389461 ], [ 79.724948843101572, 30.523465161864159 ], [ 79.725416516373087, 30.524095746273311 ], [ 79.725943745750499, 30.524677454249492 ], [ 79.72652545372668, 30.525204683626903 ], [ 79.727156038135831, 30.525672356898422 ], [ 79.727829426105387, 30.526075970114789 ], [ 79.728539132541073, 30.526411636260093 ], [ 79.729278322581962, 30.52667612268586 ], [ 79.730039877423863, 30.526866882243226 ], [ 79.730816462877357, 30.526982077813379 ], [ 79.7316006, 30.5270206 ], [ 79.732384737122629, 30.526982077813379 ], [ 79.733161322576123, 30.526866882243226 ], [ 79.733922877418024, 30.52667612268586 ], [ 79.734662067458913, 30.526411636260093 ], [ 79.735371773894599, 30.526075970114789 ], [ 79.736045161864155, 30.525672356898422 ], [ 79.736675746273306, 30.525204683626903 ], [ 79.737257454249487, 30.524677454249492 ], [ 79.737784683626899, 30.524095746273311 ], [ 79.738252356898414, 30.523465161864159 ], [ 79.738655970114777, 30.52279177389461 ], [ 79.738991636260081, 30.522082067458921 ], [ 79.739256122685845, 30.521342877418036 ], [ 79.739446882243215, 30.520581322576131 ], [ 79.739562077813375, 30.519804737122637 ], [ 79.739600599999989, 30.5190206 ] ] ] } },
{ "type": "Feature", "properties": { "village_id": "V006", "village_name": "Tolma", "place_type": "hamlet", "pop_total": 0, "lon": 79.752224, "lat": 30.5239133 }, "geometry": { "type": "Polygon", "coordinates": [ [ [ 79.760224, 30.5239133 ], [ 79.76018547781338, 30.523129162877364 ], [ 79.76007028224322, 30.52235257742387 ], [ 79.75987952268585, 30.521591022581966 ], [ 79.759615036260087, 30.52085183254108 ], [ 79.759279370114783, 30.520142126105391 ], [ 79.758875756898419, 30.519468738135842 ], [ 79.758408083626904, 30.518838153726691 ], [ 79.757880854249493, 30.518256445750509 ], [ 79.757299146273311, 30.517729216373098 ], [ 79.75666856186416, 30.517261543101579 ], [ 79.755995173894604, 30.516857929885212 ], [ 79.755285467458918, 30.516522263739908 ], [ 79.754546277418029, 30.516257777314141 ], [ 79.753784722576128, 30.516067017756775 ], [ 79.753008137122634, 30.515951822186622 ], [ 79.752224, 30.5159133 ], [ 79.751439862877362, 30.515951822186622 ], [ 79.750663277423868, 30.516067017756775 ], [ 79.749901722581967, 30.516257777314141 ], [ 79.749162532541078, 30.516522263739908 ], [ 79.748452826105392, 30.516857929885212 ], [ 79.747779438135836, 30.517261543101579 ], [ 79.747148853726685, 30.517729216373098 ], [ 79.746567145750504, 30.518256445750509 ], [ 79.746039916373093, 30.518838153726691 ], [ 79.745572243101577, 30.519468738135842 ], [ 79.745168629885214, 30.520142126105391 ], [ 79.74483296373991, 30.52085183254108 ], [ 79.744568477314147, 30.521591022581966 ], [ 79.744377717756777, 30.52235257742387 ], [ 79.744262522186617, 30.523129162877364 ], [ 79.744224, 30.5239133 ], [ 79.744262522186617, 30.524697437122637 ], [ 79.744377717756777, 30.52547402257613 ], [ 79.744568477314147, 30.526235577418035 ], [ 79.74483296373991, 30.52697476745892 ], [ 79.745168629885214, 30.52768447389461 ], [ 79.745572243101577, 30.528357861864158 ], [ 79.746039916373093, 30.52898844627331 ], [ 79.746567145750504, 30.529570154249491 ], [ 79.747148853726685, 30.530097383626902 ], [ 79.747779438135836, 30.530565056898421 ], [ 79.748452826105392, 30.530968670114788 ], [ 79.749162532541078, 30.531304336260092 ], [ 79.749901722581967, 30.531568822685859 ], [ 79.750663277423868, 30.531759582243225 ], [ 79.751439862877362, 30.531874777813378 ], [ 79.752224, 30.5319133 ], [ 79.753008137122634, 30.531874777813378 ], [ 79.753784722576128, 30.531759582243225 ], [ 79.754546277418029, 30.531568822685859 ], [ 79.755285467458918, 30.531304336260092 ], [ 79.755995173894604, 30.530968670114788 ], [ 79.75666856186416, 30.530565056898421 ], [ 79.757299146273311, 30.530097383626902 ], [ 79.757880854249493, 30.529570154249491 ], [ 79.758408083626904, 30.52898844627331 ], [ 79.758875756898419, 30.528357861864158 ], [ 79.759279370114783, 30.52768447389461 ], [ 79.759615036260087, 30.52697476745892 ], [ 79.75987952268585, 30.526235577418035 ], [ 79.76007028224322, 30.52547402257613 ], [ 79.76018547781338, 30.524697437122637 ], [ 79.760224, 30.5239133 ] ] ] } },
{ "type": "Feature", "properties": { "village_id": "V007", "village_name": "Dhak", "place_type": "village", "pop_total": 0, "lon": 79.6113429, "lat": 30.498861 }, "geometry": { "type": "Polygon", "coordinates": [ [ [ 79.6193429, 30.498861 ], [ 79.619304377813378, 30.498076862877365 ], [ 79.619189182243218, 30.497300277423872 ], [ 79.618998422685848, 30.496538722581967 ], [ 79.618733936260085, 30.495799532541081 ], [ 79.618398270114781, 30.495089826105392 ], [ 79.617994656898418, 30.494416438135843 ], [ 79.617526983626902, 30.493785853726692 ], [ 79.616999754249491, 30.493204145750511 ], [ 79.61641804627331, 30.4926769163731 ], [ 79.615787461864159, 30.492209243101581 ], [ 79.615114073894603, 30.491805629885214 ], [ 79.614404367458917, 30.49146996373991 ], [ 79.613665177418028, 30.491205477314143 ], [ 79.612903622576127, 30.491014717756777 ], [ 79.612127037122633, 30.490899522186623 ], [ 79.6113429, 30.490861 ], [ 79.610558762877361, 30.490899522186623 ], [ 79.609782177423867, 30.491014717756777 ], [ 79.609020622581966, 30.491205477314143 ], [ 79.608281432541077, 30.49146996373991 ], [ 79.607571726105391, 30.491805629885214 ], [ 79.606898338135835, 30.492209243101581 ], [ 79.606267753726684, 30.4926769163731 ], [ 79.605686045750502, 30.493204145750511 ], [ 79.605158816373091, 30.493785853726692 ], [ 79.604691143101576, 30.494416438135843 ], [ 79.604287529885212, 30.495089826105392 ], [ 79.603951863739908, 30.495799532541081 ], [ 79.603687377314145, 30.496538722581967 ], [ 79.603496617756775, 30.497300277423872 ], [ 79.603381422186615, 30.498076862877365 ], [ 79.6033429, 30.498861 ], [ 79.603381422186615, 30.499645137122638 ], [ 79.603496617756775, 30.500421722576132 ], [ 79.603687377314145, 30.501183277418036 ], [ 79.603951863739908, 30.501922467458922 ], [ 79.604287529885212, 30.502632173894611 ], [ 79.604691143101576, 30.50330556186416 ], [ 79.605158816373091, 30.503936146273311 ], [ 79.605686045750502, 30.504517854249492 ], [ 79.606267753726684, 30.505045083626904 ], [ 79.606898338135835, 30.505512756898423 ], [ 79.607571726105391, 30.50591637011479 ], [ 79.608281432541077, 30.506252036260094 ], [ 79.609020622581966, 30.50651652268586 ], [ 79.609782177423867, 30.506707282243227 ], [ 79.610558762877361, 30.50682247781338 ], [ 79.6113429, 30.506861 ], [ 79.612127037122633, 30.50682247781338 ], [ 79.612903622576127, 30.506707282243227 ], [ 79.613665177418028, 30.50651652268586 ], [ 79.614404367458917, 30.506252036260094 ], [ 79.615114073894603, 30.50591637011479 ], [ 79.615787461864159, 30.505512756898423 ], [ 79.61641804627331, 30.505045083626904 ], [ 79.616999754249491, 30.504517854249492 ], [ 79.617526983626902, 30.503936146273311 ], [ 79.617994656898418, 30.50330556186416 ], [ 79.618398270114781, 30.502632173894611 ], [ 79.618733936260085, 30.501922467458922 ], [ 79.618998422685848, 30.501183277418036 ], [ 79.619189182243218, 30.500421722576132 ], [ 79.619304377813378, 30.499645137122638 ], [ 79.6193429, 30.498861 ] ] ] } },
{ "type": "Feature", "properties": { "village_id": "V008", "village_name": "Raighadi", "place_type": "village", "pop_total": 0, "lon": 79.6102059, "lat": 30.4779429 }, "geometry": { "type": "Polygon", "coordinates": [ [ [ 79.6182059, 30.4779429 ], [ 79.618167377813378, 30.477158762877362 ], [ 79.618052182243218, 30.476382177423869 ], [ 79.617861422685849, 30.475620622581964 ], [ 79.617596936260085, 30.474881432541078 ], [ 79.617261270114781, 30.474171726105389 ], [ 79.616857656898418, 30.47349833813584 ], [ 79.616389983626902, 30.472867753726689 ], [ 79.615862754249491, 30.472286045750508 ], [ 79.61528104627331, 30.471758816373097 ], [ 79.614650461864159, 30.471291143101578 ], [ 79.613977073894603, 30.470887529885211 ], [ 79.613267367458917, 30.470551863739907 ], [ 79.612528177418028, 30.47028737731414 ], [ 79.611766622576127, 30.470096617756774 ], [ 79.610990037122633, 30.469981422186621 ], [ 79.6102059, 30.4699429 ], [ 79.609421762877361, 30.469981422186621 ], [ 79.608645177423867, 30.470096617756774 ], [ 79.607883622581966, 30.47028737731414 ], [ 79.607144432541077, 30.470551863739907 ], [ 79.606434726105391, 30.470887529885211 ], [ 79.605761338135835, 30.471291143101578 ], [ 79.605130753726684, 30.471758816373097 ], [ 79.604549045750503, 30.472286045750508 ], [ 79.604021816373091, 30.472867753726689 ], [ 79.603554143101576, 30.47349833813584 ], [ 79.603150529885212, 30.474171726105389 ], [ 79.602814863739908, 30.474881432541078 ], [ 79.602550377314145, 30.475620622581964 ], [ 79.602359617756775, 30.476382177423869 ], [ 79.602244422186615, 30.477158762877362 ], [ 79.6022059, 30.4779429 ], [ 79.602244422186615, 30.478727037122635 ], [ 79.602359617756775, 30.479503622576129 ], [ 79.602550377314145, 30.480265177418033 ], [ 79.602814863739908, 30.481004367458919 ], [ 79.603150529885212, 30.481714073894608 ], [ 79.603554143101576, 30.482387461864157 ], [ 79.604021816373091, 30.483018046273308 ], [ 79.604549045750503, 30.483599754249489 ], [ 79.605130753726684, 30.484126983626901 ], [ 79.605761338135835, 30.48459465689842 ], [ 79.606434726105391, 30.484998270114787 ], [ 79.607144432541077, 30.485333936260091 ], [ 79.607883622581966, 30.485598422685857 ], [ 79.608645177423867, 30.485789182243224 ], [ 79.609421762877361, 30.485904377813377 ], [ 79.6102059, 30.4859429 ], [ 79.610990037122633, 30.485904377813377 ], [ 79.611766622576127, 30.485789182243224 ], [ 79.612528177418028, 30.485598422685857 ], [ 79.613267367458917, 30.485333936260091 ], [ 79.613977073894603, 30.484998270114787 ], [ 79.614650461864159, 30.48459465689842 ], [ 79.61528104627331, 30.484126983626901 ], [ 79.615862754249491, 30.483599754249489 ], [ 79.616389983626902, 30.483018046273308 ], [ 79.616857656898418, 30.482387461864157 ], [ 79.617261270114781, 30.481714073894608 ], [ 79.617596936260085, 30.481004367458919 ], [ 79.617861422685849, 30.480265177418033 ], [ 79.618052182243218, 30.479503622576129 ], [ 79.618167377813378, 30.478727037122635 ], [ 79.6182059, 30.4779429 ] ] ] } },
{ "type": "Feature", "properties": { "village_id": "V009", "village_name": "Karchi", "place_type": "village", "pop_total": 0, "lon": 79.6077382, "lat": 30.4830375 }, "geometry": { "type": "Polygon", "coordinates": [ [ [ 79.6157382, 30.4830375 ], [ 79.615699677813382, 30.482253362877362 ], [ 79.615584482243221, 30.481476777423868 ], [ 79.615393722685852, 30.480715222581964 ], [ 79.615129236260088, 30.479976032541078 ], [ 79.614793570114784, 30.479266326105389 ], [ 79.614389956898421, 30.47859293813584 ], [ 79.613922283626906, 30.477962353726689 ], [ 79.613395054249494, 30.477380645750507 ], [ 79.612813346273313, 30.476853416373096 ], [ 79.612182761864162, 30.476385743101577 ], [ 79.611509373894606, 30.47598212988521 ], [ 79.61079966745892, 30.475646463739906 ], [ 79.610060477418031, 30.475381977314139 ], [ 79.60929892257613, 30.475191217756773 ], [ 79.608522337122636, 30.47507602218662 ], [ 79.6077382, 30.4750375 ], [ 79.606954062877364, 30.47507602218662 ], [ 79.60617747742387, 30.475191217756773 ], [ 79.605415922581969, 30.475381977314139 ], [ 79.60467673254108, 30.475646463739906 ], [ 79.603967026105394, 30.47598212988521 ], [ 79.603293638135838, 30.476385743101577 ], [ 79.602663053726687, 30.476853416373096 ], [ 79.602081345750506, 30.477380645750507 ], [ 79.601554116373094, 30.477962353726689 ], [ 79.601086443101579, 30.47859293813584 ], [ 79.600682829885216, 30.479266326105389 ], [ 79.600347163739912, 30.479976032541078 ], [ 79.600082677314148, 30.480715222581964 ], [ 79.599891917756779, 30.481476777423868 ], [ 79.599776722186618, 30.482253362877362 ], [ 79.5997382, 30.4830375 ], [ 79.599776722186618, 30.483821637122634 ], [ 79.599891917756779, 30.484598222576128 ], [ 79.600082677314148, 30.485359777418033 ], [ 79.600347163739912, 30.486098967458918 ], [ 79.600682829885216, 30.486808673894608 ], [ 79.601086443101579, 30.487482061864156 ], [ 79.601554116373094, 30.488112646273308 ], [ 79.602081345750506, 30.488694354249489 ], [ 79.602663053726687, 30.4892215836269 ], [ 79.603293638135838, 30.489689256898419 ], [ 79.603967026105394, 30.490092870114786 ], [ 79.60467673254108, 30.49042853626009 ], [ 79.605415922581969, 30.490693022685857 ], [ 79.60617747742387, 30.490883782243223 ], [ 79.606954062877364, 30.490998977813376 ], [ 79.6077382, 30.4910375 ], [ 79.608522337122636, 30.490998977813376 ], [ 79.60929892257613, 30.490883782243223 ], [ 79.610060477418031, 30.490693022685857 ], [ 79.61079966745892, 30.49042853626009 ], [ 79.611509373894606, 30.490092870114786 ], [ 79.612182761864162, 30.489689256898419 ], [ 79.612813346273313, 30.4892215836269 ], [ 79.613395054249494, 30.488694354249489 ], [ 79.613922283626906, 30.488112646273308 ], [ 79.614389956898421, 30.487482061864156 ], [ 79.614793570114784, 30.486808673894608 ], [ 79.615129236260088, 30.486098967458918 ], [ 79.615393722685852, 30.485359777418033 ], [ 79.615584482243221, 30.484598222576128 ], [ 79.615699677813382, 30.483821637122634 ], [ 79.6157382, 30.4830375 ] ] ] } },
{ "type": "Feature", "properties": { "village_id": "V010", "village_name": "Rangeli", "place_type": "hamlet", "pop_total": 0, "lon": 79.6331412, "lat": 30.4764781 }, "geometry": { "type": "Polygon", "coordinates": [ [ [ 79.6411412, 30.4764781 ], [ 79.641102677813379, 30.475693962877365 ], [ 79.640987482243219, 30.474917377423871 ], [ 79.640796722685849, 30.474155822581967 ], [ 79.640532236260086, 30.473416632541081 ], [ 79.640196570114782, 30.472706926105392 ], [ 79.639792956898418, 30.472033538135843 ], [ 79.639325283626903, 30.471402953726692 ], [ 79.638798054249492, 30.470821245750511 ], [ 79.63821634627331, 30.470294016373099 ], [ 79.637585761864159, 30.46982634310158 ], [ 79.636912373894603, 30.469422729885213 ], [ 79.636202667458917, 30.469087063739909 ], [ 79.635463477418028, 30.468822577314143 ], [ 79.634701922576127, 30.468631817756776 ], [ 79.633925337122633, 30.468516622186623 ], [ 79.6331412, 30.4684781 ], [ 79.632357062877361, 30.468516622186623 ], [ 79.631580477423867, 30.468631817756776 ], [ 79.630818922581966, 30.468822577314143 ], [ 79.630079732541077, 30.469087063739909 ], [ 79.629370026105391, 30.469422729885213 ], [ 79.628696638135835, 30.46982634310158 ], [ 79.628066053726684, 30.470294016373099 ], [ 79.627484345750503, 30.470821245750511 ], [ 79.626957116373092, 30.471402953726692 ], [ 79.626489443101576, 30.472033538135843 ], [ 79.626085829885213, 30.472706926105392 ], [ 79.625750163739909, 30.473416632541081 ], [ 79.625485677314146, 30.474155822581967 ], [ 79.625294917756776, 30.474917377423871 ], [ 79.625179722186616, 30.475693962877365 ], [ 79.6251412, 30.4764781 ], [ 79.625179722186616, 30.477262237122638 ], [ 79.625294917756776, 30.478038822576131 ], [ 79.625485677314146, 30.478800377418036 ], [ 79.625750163739909, 30.479539567458922 ], [ 79.626085829885213, 30.480249273894611 ], [ 79.626489443101576, 30.48092266186416 ], [ 79.626957116373092, 30.481553246273311 ], [ 79.627484345750503, 30.482134954249492 ], [ 79.628066053726684, 30.482662183626903 ], [ 79.628696638135835, 30.483129856898422 ], [ 79.629370026105391, 30.483533470114789 ], [ 79.630079732541077, 30.483869136260093 ], [ 79.630818922581966, 30.48413362268586 ], [ 79.631580477423867, 30.484324382243226 ], [ 79.632357062877361, 30.484439577813379 ], [ 79.6331412, 30.4844781 ], [ 79.633925337122633, 30.484439577813379 ], [ 79.634701922576127, 30.484324382243226 ], [ 79.635463477418028, 30.48413362268586 ], [ 79.636202667458917, 30.483869136260093 ], [ 79.636912373894603, 30.483533470114789 ], [ 79.637585761864159, 30.483129856898422 ], [ 79.63821634627331, 30.482662183626903 ], [ 79.638798054249492, 30.482134954249492 ], [ 79.639325283626903, 30.481553246273311 ], [ 79.639792956898418, 30.48092266186416 ], [ 79.640196570114782, 30.480249273894611 ], [ 79.640532236260086, 30.479539567458922 ], [ 79.640796722685849, 30.478800377418036 ], [ 79.640987482243219, 30.478038822576131 ], [ 79.641102677813379, 30.477262237122638 ], [ 79.6411412, 30.4764781 ] ] ] } },
{ "type": "Feature", "properties": { "village_id": "V011", "village_name": "Rikhulti", "place_type": "hamlet", "pop_total": 0, "lon": 79.6295181, "lat": 30.4703129 }, "geometry": { "type": "Polygon", "coordinates": [ [ [ 79.6375181, 30.4703129 ], [ 79.63747957781338, 30.469528762877363 ], [ 79.63736438224322, 30.46875217742387 ], [ 79.63717362268585, 30.467990622581965 ], [ 79.636909136260087, 30.467251432541079 ], [ 79.636573470114783, 30.46654172610539 ], [ 79.63616985689842, 30.465868338135841 ], [ 79.635702183626904, 30.46523775372669 ], [ 79.635174954249493, 30.464656045750509 ], [ 79.634593246273312, 30.464128816373098 ], [ 79.63396266186416, 30.463661143101579 ], [ 79.633289273894604, 30.463257529885212 ], [ 79.632579567458919, 30.462921863739908 ], [ 79.63184037741803, 30.462657377314141 ], [ 79.631078822576129, 30.462466617756775 ], [ 79.630302237122635, 30.462351422186622 ], [ 79.6295181, 30.4623129 ], [ 79.628733962877362, 30.462351422186622 ], [ 79.627957377423868, 30.462466617756775 ], [ 79.627195822581967, 30.462657377314141 ], [ 79.626456632541078, 30.462921863739908 ], [ 79.625746926105393, 30.463257529885212 ], [ 79.625073538135837, 30.463661143101579 ], [ 79.624442953726685, 30.464128816373098 ], [ 79.623861245750504, 30.464656045750509 ], [ 79.623334016373093, 30.46523775372669 ], [ 79.622866343101578, 30.465868338135841 ], [ 79.622462729885214, 30.46654172610539 ], [ 79.62212706373991, 30.467251432541079 ], [ 79.621862577314147, 30.467990622581965 ], [ 79.621671817756777, 30.46875217742387 ], [ 79.621556622186617, 30.469528762877363 ], [ 79.6215181, 30.4703129 ], [ 79.621556622186617, 30.471097037122636 ], [ 79.621671817756777, 30.47187362257613 ], [ 79.621862577314147, 30.472635177418034 ], [ 79.62212706373991, 30.47337436745892 ], [ 79.622462729885214, 30.474084073894609 ], [ 79.622866343101578, 30.474757461864158 ], [ 79.623334016373093, 30.475388046273309 ], [ 79.623861245750504, 30.475969754249491 ], [ 79.624442953726685, 30.476496983626902 ], [ 79.625073538135837, 30.476964656898421 ], [ 79.625746926105393, 30.477368270114788 ], [ 79.626456632541078, 30.477703936260092 ], [ 79.627195822581967, 30.477968422685858 ], [ 79.627957377423868, 30.478159182243225 ], [ 79.628733962877362, 30.478274377813378 ], [ 79.6295181, 30.4783129 ], [ 79.630302237122635, 30.478274377813378 ], [ 79.631078822576129, 30.478159182243225 ], [ 79.63184037741803, 30.477968422685858 ], [ 79.632579567458919, 30.477703936260092 ], [ 79.633289273894604, 30.477368270114788 ], [ 79.63396266186416, 30.476964656898421 ], [ 79.634593246273312, 30.476496983626902 ], [ 79.635174954249493, 30.475969754249491 ], [ 79.635702183626904, 30.475388046273309 ], [ 79.63616985689842, 30.474757461864158 ], [ 79.636573470114783, 30.474084073894609 ], [ 79.636909136260087, 30.47337436745892 ], [ 79.63717362268585, 30.472635177418034 ], [ 79.63736438224322, 30.47187362257613 ], [ 79.63747957781338, 30.471097037122636 ], [ 79.6375181, 30.4703129 ] ] ] } },
{ "type": "Feature", "properties": { "village_id": "V012", "village_name": "Dhurkunda", "place_type": "hamlet", "pop_total": 0, "lon": 79.626319, "lat": 30.4634951 }, "geometry": { "type": "Polygon", "coordinates": [ [ [ 79.634319, 30.4634951 ], [ 79.634280477813377, 30.462710962877363 ], [ 79.634165282243217, 30.461934377423869 ], [ 79.633974522685847, 30.461172822581965 ], [ 79.633710036260084, 30.460433632541079 ], [ 79.63337437011478, 30.45972392610539 ], [ 79.632970756898416, 30.459050538135841 ], [ 79.632503083626901, 30.45841995372669 ], [ 79.63197585424949, 30.457838245750509 ], [ 79.631394146273308, 30.457311016373097 ], [ 79.630763561864157, 30.456843343101578 ], [ 79.630090173894601, 30.456439729885211 ], [ 79.629380467458915, 30.456104063739907 ], [ 79.628641277418026, 30.455839577314141 ], [ 79.627879722576125, 30.455648817756774 ], [ 79.627103137122631, 30.455533622186621 ], [ 79.626319, 30.4554951 ], [ 79.625534862877359, 30.455533622186621 ], [ 79.624758277423865, 30.455648817756774 ], [ 79.623996722581964, 30.455839577314141 ], [ 79.623257532541075, 30.456104063739907 ], [ 79.622547826105389, 30.456439729885211 ], [ 79.621874438135833, 30.456843343101578 ], [ 79.621243853726682, 30.457311016373097 ], [ 79.620662145750501, 30.457838245750509 ], [ 79.62013491637309, 30.45841995372669 ], [ 79.619667243101574, 30.459050538135841 ], [ 79.619263629885211, 30.45972392610539 ], [ 79.618927963739907, 30.460433632541079 ], [ 79.618663477314144, 30.461172822581965 ], [ 79.618472717756774, 30.461934377423869 ], [ 79.618357522186614, 30.462710962877363 ], [ 79.618319, 30.4634951 ], [ 79.618357522186614, 30.464279237122636 ], [ 79.618472717756774, 30.465055822576129 ], [ 79.618663477314144, 30.465817377418034 ], [ 79.618927963739907, 30.46655656745892 ], [ 79.619263629885211, 30.467266273894609 ], [ 79.619667243101574, 30.467939661864158 ], [ 79.62013491637309, 30.468570246273309 ], [ 79.620662145750501, 30.46915195424949 ], [ 79.621243853726682, 30.469679183626901 ], [ 79.621874438135833, 30.47014685689842 ], [ 79.622547826105389, 30.470550470114787 ], [ 79.623257532541075, 30.470886136260091 ], [ 79.623996722581964, 30.471150622685858 ], [ 79.624758277423865, 30.471341382243224 ], [ 79.625534862877359, 30.471456577813377 ], [ 79.626319, 30.4714951 ], [ 79.627103137122631, 30.471456577813377 ], [ 79.627879722576125, 30.471341382243224 ], [ 79.628641277418026, 30.471150622685858 ], [ 79.629380467458915, 30.470886136260091 ], [ 79.630090173894601, 30.470550470114787 ], [ 79.630763561864157, 30.47014685689842 ], [ 79.631394146273308, 30.469679183626901 ], [ 79.63197585424949, 30.46915195424949 ], [ 79.632503083626901, 30.468570246273309 ], [ 79.632970756898416, 30.467939661864158 ], [ 79.63337437011478, 30.467266273894609 ], [ 79.633710036260084, 30.46655656745892 ], [ 79.633974522685847, 30.465817377418034 ], [ 79.634165282243217, 30.465055822576129 ], [ 79.634280477813377, 30.464279237122636 ], [ 79.634319, 30.4634951 ] ] ] } },
{ "type": "Feature", "properties": { "village_id": "V013", "village_name": "Panwarsa", "place_type": "hamlet", "pop_total": 0, "lon": 79.7553134, "lat": 30.5517287 }, "geometry": { "type": "Polygon", "coordinates": [ [ [ 79.7633134, 30.5517287 ], [ 79.763274877813387, 30.550944562877365 ], [ 79.763159682243227, 30.550167977423872 ], [ 79.762968922685857, 30.549406422581967 ], [ 79.762704436260094, 30.548667232541082 ], [ 79.76236877011479, 30.547957526105392 ], [ 79.761965156898427, 30.547284138135844 ], [ 79.761497483626911, 30.546653553726692 ], [ 79.7609702542495, 30.546071845750511 ], [ 79.760388546273319, 30.5455446163731 ], [ 79.759757961864167, 30.545076943101581 ], [ 79.759084573894611, 30.544673329885214 ], [ 79.758374867458926, 30.54433766373991 ], [ 79.757635677418037, 30.544073177314143 ], [ 79.756874122576136, 30.543882417756777 ], [ 79.756097537122642, 30.543767222186624 ], [ 79.7553134, 30.5437287 ], [ 79.754529262877369, 30.543767222186624 ], [ 79.753752677423876, 30.543882417756777 ], [ 79.752991122581975, 30.544073177314143 ], [ 79.752251932541085, 30.54433766373991 ], [ 79.7515422261054, 30.544673329885214 ], [ 79.750868838135844, 30.545076943101581 ], [ 79.750238253726693, 30.5455446163731 ], [ 79.749656545750511, 30.546071845750511 ], [ 79.7491293163731, 30.546653553726692 ], [ 79.748661643101585, 30.547284138135844 ], [ 79.748258029885221, 30.547957526105392 ], [ 79.747922363739917, 30.548667232541082 ], [ 79.747657877314154, 30.549406422581967 ], [ 79.747467117756784, 30.550167977423872 ], [ 79.747351922186624, 30.550944562877365 ], [ 79.74731340000001, 30.5517287 ], [ 79.747351922186624, 30.552512837122638 ], [ 79.747467117756784, 30.553289422576132 ], [ 79.747657877314154, 30.554050977418036 ], [ 79.747922363739917, 30.554790167458922 ], [ 79.748258029885221, 30.555499873894611 ], [ 79.748661643101585, 30.55617326186416 ], [ 79.7491293163731, 30.556803846273311 ], [ 79.749656545750511, 30.557385554249493 ], [ 79.750238253726693, 30.557912783626904 ], [ 79.750868838135844, 30.558380456898423 ], [ 79.7515422261054, 30.55878407011479 ], [ 79.752251932541085, 30.559119736260094 ], [ 79.752991122581975, 30.559384222685861 ], [ 79.753752677423876, 30.559574982243227 ], [ 79.754529262877369, 30.55969017781338 ], [ 79.7553134, 30.5597287 ], [ 79.756097537122642, 30.55969017781338 ], [ 79.756874122576136, 30.559574982243227 ], [ 79.757635677418037, 30.559384222685861 ], [ 79.758374867458926, 30.559119736260094 ], [ 79.759084573894611, 30.55878407011479 ], [ 79.759757961864167, 30.558380456898423 ], [ 79.760388546273319, 30.557912783626904 ], [ 79.7609702542495, 30.557385554249493 ], [ 79.761497483626911, 30.556803846273311 ], [ 79.761965156898427, 30.55617326186416 ], [ 79.76236877011479, 30.555499873894611 ], [ 79.762704436260094, 30.554790167458922 ], [ 79.762968922685857, 30.554050977418036 ], [ 79.763159682243227, 30.553289422576132 ], [ 79.763274877813387, 30.552512837122638 ], [ 79.7633134, 30.5517287 ] ] ] } },
{ "type": "Feature", "properties": { "village_id": "V014", "village_name": "Pagti", "place_type": "hamlet", "pop_total": 0, "lon": 79.7758162, "lat": 30.5566439 }, "geometry": { "type": "Polygon", "coordinates": [ [ [ 79.7838162, 30.5566439 ], [ 79.783777677813376, 30.555859762877365 ], [ 79.783662482243216, 30.555083177423871 ], [ 79.783471722685846, 30.554321622581966 ], [ 79.783207236260083, 30.553582432541081 ], [ 79.782871570114779, 30.552872726105392 ], [ 79.782467956898415, 30.552199338135843 ], [ 79.7820002836269, 30.551568753726691 ], [ 79.781473054249489, 30.55098704575051 ], [ 79.780891346273307, 30.550459816373099 ], [ 79.780260761864156, 30.54999214310158 ], [ 79.7795873738946, 30.549588529885213 ], [ 79.778877667458914, 30.549252863739909 ], [ 79.778138477418025, 30.548988377314142 ], [ 79.777376922576124, 30.548797617756776 ], [ 79.77660033712263, 30.548682422186623 ], [ 79.7758162, 30.5486439 ], [ 79.775032062877358, 30.548682422186623 ], [ 79.774255477423864, 30.548797617756776 ], [ 79.773493922581963, 30.548988377314142 ], [ 79.772754732541074, 30.549252863739909 ], [ 79.772045026105388, 30.549588529885213 ], [ 79.771371638135832, 30.54999214310158 ], [ 79.770741053726681, 30.550459816373099 ], [ 79.7701593457505, 30.55098704575051 ], [ 79.769632116373089, 30.551568753726691 ], [ 79.769164443101573, 30.552199338135843 ], [ 79.76876082988521, 30.552872726105392 ], [ 79.768425163739906, 30.553582432541081 ], [ 79.768160677314143, 30.554321622581966 ], [ 79.767969917756773, 30.555083177423871 ], [ 79.767854722186613, 30.555859762877365 ], [ 79.7678162, 30.5566439 ], [ 79.767854722186613, 30.557428037122637 ], [ 79.767969917756773, 30.558204622576131 ], [ 79.768160677314143, 30.558966177418036 ], [ 79.768425163739906, 30.559705367458921 ], [ 79.76876082988521, 30.56041507389461 ], [ 79.769164443101573, 30.561088461864159 ], [ 79.769632116373089, 30.561719046273311 ], [ 79.7701593457505, 30.562300754249492 ], [ 79.770741053726681, 30.562827983626903 ], [ 79.771371638135832, 30.563295656898422 ], [ 79.772045026105388, 30.563699270114789 ], [ 79.772754732541074, 30.564034936260093 ], [ 79.773493922581963, 30.56429942268586 ], [ 79.774255477423864, 30.564490182243226 ], [ 79.775032062877358, 30.564605377813379 ], [ 79.7758162, 30.5646439 ], [ 79.77660033712263, 30.564605377813379 ], [ 79.777376922576124, 30.564490182243226 ], [ 79.778138477418025, 30.56429942268586 ], [ 79.778877667458914, 30.564034936260093 ], [ 79.7795873738946, 30.563699270114789 ], [ 79.780260761864156, 30.563295656898422 ], [ 79.780891346273307, 30.562827983626903 ], [ 79.781473054249489, 30.562300754249492 ], [ 79.7820002836269, 30.561719046273311 ], [ 79.782467956898415, 30.561088461864159 ], [ 79.782871570114779, 30.56041507389461 ], [ 79.783207236260083, 30.559705367458921 ], [ 79.783471722685846, 30.558966177418036 ], [ 79.783662482243216, 30.558204622576131 ], [ 79.783777677813376, 30.557428037122637 ], [ 79.7838162, 30.5566439 ] ] ] } },
{ "type": "Feature", "properties": { "village_id": "V015", "village_name": "Bilagarh", "place_type": "hamlet", "pop_total": 0, "lon": 79.6196412, "lat": 30.4952734 }, "geometry": { "type": "Polygon", "coordinates": [ [ [ 79.6276412, 30.4952734 ], [ 79.627602677813385, 30.494489262877362 ], [ 79.627487482243225, 30.493712677423868 ], [ 79.627296722685855, 30.492951122581964 ], [ 79.627032236260092, 30.492211932541078 ], [ 79.626696570114788, 30.491502226105389 ], [ 79.626292956898425, 30.49082883813584 ], [ 79.625825283626909, 30.490198253726689 ], [ 79.625298054249498, 30.489616545750508 ], [ 79.624716346273317, 30.489089316373096 ], [ 79.624085761864166, 30.488621643101578 ], [ 79.62341237389461, 30.488218029885211 ], [ 79.622702667458924, 30.487882363739907 ], [ 79.621963477418035, 30.48761787731414 ], [ 79.621201922576134, 30.487427117756773 ], [ 79.62042533712264, 30.48731192218662 ], [ 79.6196412, 30.4872734 ], [ 79.618857062877368, 30.48731192218662 ], [ 79.618080477423874, 30.487427117756773 ], [ 79.617318922581973, 30.48761787731414 ], [ 79.616579732541084, 30.487882363739907 ], [ 79.615870026105398, 30.488218029885211 ], [ 79.615196638135842, 30.488621643101578 ], [ 79.614566053726691, 30.489089316373096 ], [ 79.613984345750509, 30.489616545750508 ], [ 79.613457116373098, 30.490198253726689 ], [ 79.612989443101583, 30.49082883813584 ], [ 79.612585829885219, 30.491502226105389 ], [ 79.612250163739915, 30.492211932541078 ], [ 79.611985677314152, 30.492951122581964 ], [ 79.611794917756782, 30.493712677423868 ], [ 79.611679722186622, 30.494489262877362 ], [ 79.6116412, 30.4952734 ], [ 79.611679722186622, 30.496057537122635 ], [ 79.611794917756782, 30.496834122576129 ], [ 79.611985677314152, 30.497595677418033 ], [ 79.612250163739915, 30.498334867458919 ], [ 79.612585829885219, 30.499044573894608 ], [ 79.612989443101583, 30.499717961864157 ], [ 79.613457116373098, 30.500348546273308 ], [ 79.613984345750509, 30.500930254249489 ], [ 79.614566053726691, 30.501457483626901 ], [ 79.615196638135842, 30.50192515689842 ], [ 79.615870026105398, 30.502328770114786 ], [ 79.616579732541084, 30.50266443626009 ], [ 79.617318922581973, 30.502928922685857 ], [ 79.618080477423874, 30.503119682243224 ], [ 79.618857062877368, 30.503234877813377 ], [ 79.6196412, 30.5032734 ], [ 79.62042533712264, 30.503234877813377 ], [ 79.621201922576134, 30.503119682243224 ], [ 79.621963477418035, 30.502928922685857 ], [ 79.622702667458924, 30.50266443626009 ], [ 79.62341237389461, 30.502328770114786 ], [ 79.624085761864166, 30.50192515689842 ], [ 79.624716346273317, 30.501457483626901 ], [ 79.625298054249498, 30.500930254249489 ], [ 79.625825283626909, 30.500348546273308 ], [ 79.626292956898425, 30.499717961864157 ], [ 79.626696570114788, 30.499044573894608 ], [ 79.627032236260092, 30.498334867458919 ], [ 79.627296722685855, 30.497595677418033 ], [ 79.627487482243225, 30.496834122576129 ], [ 79.627602677813385, 30.496057537122635 ], [ 79.6276412, 30.4952734 ] ] ] } },
{ "type": "Feature", "properties": { "village_id": "V016", "village_name": "Bhangyul", "place_type": "hamlet", "pop_total": 0, "lon": 79.6321168, "lat": 30.4956893 }, "geometry": { "type": "Polygon", "coordinates": [ [ [ 79.6401168, 30.4956893 ], [ 79.640078277813387, 30.494905162877362 ], [ 79.639963082243227, 30.494128577423869 ], [ 79.639772322685857, 30.493367022581964 ], [ 79.639507836260094, 30.492627832541078 ], [ 79.63917217011479, 30.491918126105389 ], [ 79.638768556898427, 30.49124473813584 ], [ 79.638300883626911, 30.490614153726689 ], [ 79.6377736542495, 30.490032445750508 ], [ 79.637191946273319, 30.489505216373097 ], [ 79.636561361864167, 30.489037543101578 ], [ 79.635887973894611, 30.488633929885211 ], [ 79.635178267458926, 30.488298263739907 ], [ 79.634439077418037, 30.48803377731414 ], [ 79.633677522576136, 30.487843017756774 ], [ 79.632900937122642, 30.487727822186621 ], [ 79.6321168, 30.4876893 ], [ 79.631332662877369, 30.487727822186621 ], [ 79.630556077423876, 30.487843017756774 ], [ 79.629794522581975, 30.48803377731414 ], [ 79.629055332541085, 30.488298263739907 ], [ 79.6283456261054, 30.488633929885211 ], [ 79.627672238135844, 30.489037543101578 ], [ 79.627041653726693, 30.489505216373097 ], [ 79.626459945750511, 30.490032445750508 ], [ 79.6259327163731, 30.490614153726689 ], [ 79.625465043101585, 30.49124473813584 ], [ 79.625061429885221, 30.491918126105389 ], [ 79.624725763739917, 30.492627832541078 ], [ 79.624461277314154, 30.493367022581964 ], [ 79.624270517756784, 30.494128577423869 ], [ 79.624155322186624, 30.494905162877362 ], [ 79.62411680000001, 30.4956893 ], [ 79.624155322186624, 30.496473437122635 ], [ 79.624270517756784, 30.497250022576129 ], [ 79.624461277314154, 30.498011577418033 ], [ 79.624725763739917, 30.498750767458919 ], [ 79.625061429885221, 30.499460473894608 ], [ 79.625465043101585, 30.500133861864157 ], [ 79.6259327163731, 30.500764446273308 ], [ 79.626459945750511, 30.501346154249489 ], [ 79.627041653726693, 30.501873383626901 ], [ 79.627672238135844, 30.50234105689842 ], [ 79.6283456261054, 30.502744670114787 ], [ 79.629055332541085, 30.503080336260091 ], [ 79.629794522581975, 30.503344822685857 ], [ 79.630556077423876, 30.503535582243224 ], [ 79.631332662877369, 30.503650777813377 ], [ 79.6321168, 30.5036893 ], [ 79.632900937122642, 30.503650777813377 ], [ 79.633677522576136, 30.503535582243224 ], [ 79.634439077418037, 30.503344822685857 ], [ 79.635178267458926, 30.503080336260091 ], [ 79.635887973894611, 30.502744670114787 ], [ 79.636561361864167, 30.50234105689842 ], [ 79.637191946273319, 30.501873383626901 ], [ 79.6377736542495, 30.501346154249489 ], [ 79.638300883626911, 30.500764446273308 ], [ 79.638768556898427, 30.500133861864157 ], [ 79.63917217011479, 30.499460473894608 ], [ 79.639507836260094, 30.498750767458919 ], [ 79.639772322685857, 30.498011577418033 ], [ 79.639963082243227, 30.497250022576129 ], [ 79.640078277813387, 30.496473437122635 ], [ 79.6401168, 30.4956893 ] ] ] } },
{ "type": "Feature", "properties": { "village_id": "V017", "village_name": "Tapoban", "place_type": "village", "pop_total": 0, "lon": 79.6252673, "lat": 30.488531 }, "geometry": { "type": "Polygon", "coordinates": [ [ [ 79.6332673, 30.488531 ], [ 79.633228777813386, 30.487746862877362 ], [ 79.633113582243226, 30.486970277423868 ], [ 79.632922822685856, 30.486208722581964 ], [ 79.632658336260093, 30.485469532541078 ], [ 79.632322670114789, 30.484759826105389 ], [ 79.631919056898425, 30.48408643813584 ], [ 79.63145138362691, 30.483455853726689 ], [ 79.630924154249499, 30.482874145750507 ], [ 79.630342446273318, 30.482346916373096 ], [ 79.629711861864166, 30.481879243101577 ], [ 79.62903847389461, 30.48147562988521 ], [ 79.628328767458925, 30.481139963739906 ], [ 79.627589577418036, 30.480875477314139 ], [ 79.626828022576134, 30.480684717756773 ], [ 79.626051437122641, 30.48056952218662 ], [ 79.6252673, 30.480531 ], [ 79.624483162877368, 30.48056952218662 ], [ 79.623706577423874, 30.480684717756773 ], [ 79.622945022581973, 30.480875477314139 ], [ 79.622205832541084, 30.481139963739906 ], [ 79.621496126105399, 30.48147562988521 ], [ 79.620822738135843, 30.481879243101577 ], [ 79.620192153726691, 30.482346916373096 ], [ 79.61961044575051, 30.482874145750507 ], [ 79.619083216373099, 30.483455853726689 ], [ 79.618615543101583, 30.48408643813584 ], [ 79.61821192988522, 30.484759826105389 ], [ 79.617876263739916, 30.485469532541078 ], [ 79.617611777314153, 30.486208722581964 ], [ 79.617421017756783, 30.486970277423868 ], [ 79.617305822186623, 30.487746862877362 ], [ 79.6172673, 30.488531 ], [ 79.617305822186623, 30.489315137122635 ], [ 79.617421017756783, 30.490091722576128 ], [ 79.617611777314153, 30.490853277418033 ], [ 79.617876263739916, 30.491592467458918 ], [ 79.61821192988522, 30.492302173894608 ], [ 79.618615543101583, 30.492975561864156 ], [ 79.619083216373099, 30.493606146273308 ], [ 79.61961044575051, 30.494187854249489 ], [ 79.620192153726691, 30.4947150836269 ], [ 79.620822738135843, 30.495182756898419 ], [ 79.621496126105399, 30.495586370114786 ], [ 79.622205832541084, 30.49592203626009 ], [ 79.622945022581973, 30.496186522685857 ], [ 79.623706577423874, 30.496377282243223 ], [ 79.624483162877368, 30.496492477813376 ], [ 79.6252673, 30.496531 ], [ 79.626051437122641, 30.496492477813376 ], [ 79.626828022576134, 30.496377282243223 ], [ 79.627589577418036, 30.496186522685857 ], [ 79.628328767458925, 30.49592203626009 ], [ 79.62903847389461, 30.495586370114786 ], [ 79.629711861864166, 30.495182756898419 ], [ 79.630342446273318, 30.4947150836269 ], [ 79.630924154249499, 30.494187854249489 ], [ 79.63145138362691, 30.493606146273308 ], [ 79.631919056898425, 30.492975561864156 ], [ 79.632322670114789, 30.492302173894608 ], [ 79.632658336260093, 30.491592467458918 ], [ 79.632922822685856, 30.490853277418033 ], [ 79.633113582243226, 30.490091722576128 ], [ 79.633228777813386, 30.489315137122635 ], [ 79.6332673, 30.488531 ] ] ] } },
{ "type": "Feature", "properties": { "village_id": "V018", "village_name": "Saldhar", "place_type": "hamlet", "pop_total": 0, "lon": 79.666307, "lat": 30.4876073 }, "geometry": { "type": "Polygon", "coordinates": [ [ [ 79.674307, 30.4876073 ], [ 79.674268477813385, 30.486823162877364 ], [ 79.674153282243225, 30.48604657742387 ], [ 79.673962522685855, 30.485285022581966 ], [ 79.673698036260092, 30.48454583254108 ], [ 79.673362370114788, 30.483836126105391 ], [ 79.672958756898424, 30.483162738135842 ], [ 79.672491083626909, 30.482532153726691 ], [ 79.671963854249498, 30.48195044575051 ], [ 79.671382146273316, 30.481423216373098 ], [ 79.670751561864165, 30.48095554310158 ], [ 79.670078173894609, 30.480551929885213 ], [ 79.669368467458924, 30.480216263739909 ], [ 79.668629277418034, 30.479951777314142 ], [ 79.667867722576133, 30.479761017756775 ], [ 79.66709113712264, 30.479645822186622 ], [ 79.666307, 30.4796073 ], [ 79.665522862877367, 30.479645822186622 ], [ 79.664746277423873, 30.479761017756775 ], [ 79.663984722581972, 30.479951777314142 ], [ 79.663245532541083, 30.480216263739909 ], [ 79.662535826105398, 30.480551929885213 ], [ 79.661862438135842, 30.48095554310158 ], [ 79.66123185372669, 30.481423216373098 ], [ 79.660650145750509, 30.48195044575051 ], [ 79.660122916373098, 30.482532153726691 ], [ 79.659655243101582, 30.483162738135842 ], [ 79.659251629885219, 30.483836126105391 ], [ 79.658915963739915, 30.48454583254108 ], [ 79.658651477314152, 30.485285022581966 ], [ 79.658460717756782, 30.48604657742387 ], [ 79.658345522186622, 30.486823162877364 ], [ 79.658307, 30.4876073 ], [ 79.658345522186622, 30.488391437122637 ], [ 79.658460717756782, 30.489168022576131 ], [ 79.658651477314152, 30.489929577418035 ], [ 79.658915963739915, 30.490668767458921 ], [ 79.659251629885219, 30.49137847389461 ], [ 79.659655243101582, 30.492051861864159 ], [ 79.660122916373098, 30.49268244627331 ], [ 79.660650145750509, 30.493264154249491 ], [ 79.66123185372669, 30.493791383626903 ], [ 79.661862438135842, 30.494259056898422 ], [ 79.662535826105398, 30.494662670114788 ], [ 79.663245532541083, 30.494998336260092 ], [ 79.663984722581972, 30.495262822685859 ], [ 79.664746277423873, 30.495453582243226 ], [ 79.665522862877367, 30.495568777813379 ], [ 79.666307, 30.4956073 ], [ 79.66709113712264, 30.495568777813379 ], [ 79.667867722576133, 30.495453582243226 ], [ 79.668629277418034, 30.495262822685859 ], [ 79.669368467458924, 30.494998336260092 ], [ 79.670078173894609, 30.494662670114788 ], [ 79.670751561864165, 30.494259056898422 ], [ 79.671382146273316, 30.493791383626903 ], [ 79.671963854249498, 30.493264154249491 ], [ 79.672491083626909, 30.49268244627331 ], [ 79.672958756898424, 30.492051861864159 ], [ 79.673362370114788, 30.49137847389461 ], [ 79.673698036260092, 30.490668767458921 ], [ 79.673962522685855, 30.489929577418035 ], [ 79.674153282243225, 30.489168022576131 ], [ 79.674268477813385, 30.488391437122637 ], [ 79.674307, 30.4876073 ] ] ] } },
{ "type": "Feature", "properties": { "village_id": "V019", "village_name": "Chanchri", "place_type": "hamlet", "pop_total": 0, "lon": 79.6662528, "lat": 30.483051 }, "geometry": { "type": "Polygon", "coordinates": [ [ [ 79.6742528, 30.483051 ], [ 79.674214277813377, 30.482266862877363 ], [ 79.674099082243217, 30.48149027742387 ], [ 79.673908322685847, 30.480728722581965 ], [ 79.673643836260084, 30.479989532541079 ], [ 79.67330817011478, 30.47927982610539 ], [ 79.672904556898416, 30.478606438135841 ], [ 79.672436883626901, 30.47797585372669 ], [ 79.67190965424949, 30.477394145750509 ], [ 79.671327946273308, 30.476866916373098 ], [ 79.670697361864157, 30.476399243101579 ], [ 79.670023973894601, 30.475995629885212 ], [ 79.669314267458915, 30.475659963739908 ], [ 79.668575077418026, 30.475395477314141 ], [ 79.667813522576125, 30.475204717756775 ], [ 79.667036937122631, 30.475089522186622 ], [ 79.6662528, 30.475051 ], [ 79.665468662877359, 30.475089522186622 ], [ 79.664692077423865, 30.475204717756775 ], [ 79.663930522581964, 30.475395477314141 ], [ 79.663191332541075, 30.475659963739908 ], [ 79.662481626105389, 30.475995629885212 ], [ 79.661808238135833, 30.476399243101579 ], [ 79.661177653726682, 30.476866916373098 ], [ 79.660595945750501, 30.477394145750509 ], [ 79.66006871637309, 30.47797585372669 ], [ 79.659601043101574, 30.478606438135841 ], [ 79.659197429885211, 30.47927982610539 ], [ 79.658861763739907, 30.479989532541079 ], [ 79.658597277314144, 30.480728722581965 ], [ 79.658406517756774, 30.48149027742387 ], [ 79.658291322186614, 30.482266862877363 ], [ 79.6582528, 30.483051 ], [ 79.658291322186614, 30.483835137122636 ], [ 79.658406517756774, 30.48461172257613 ], [ 79.658597277314144, 30.485373277418034 ], [ 79.658861763739907, 30.48611246745892 ], [ 79.659197429885211, 30.486822173894609 ], [ 79.659601043101574, 30.487495561864158 ], [ 79.66006871637309, 30.488126146273309 ], [ 79.660595945750501, 30.48870785424949 ], [ 79.661177653726682, 30.489235083626902 ], [ 79.661808238135833, 30.489702756898421 ], [ 79.662481626105389, 30.490106370114788 ], [ 79.663191332541075, 30.490442036260092 ], [ 79.663930522581964, 30.490706522685858 ], [ 79.664692077423865, 30.490897282243225 ], [ 79.665468662877359, 30.491012477813378 ], [ 79.6662528, 30.491051 ], [ 79.667036937122631, 30.491012477813378 ], [ 79.667813522576125, 30.490897282243225 ], [ 79.668575077418026, 30.490706522685858 ], [ 79.669314267458915, 30.490442036260092 ], [ 79.670023973894601, 30.490106370114788 ], [ 79.670697361864157, 30.489702756898421 ], [ 79.671327946273308, 30.489235083626902 ], [ 79.67190965424949, 30.48870785424949 ], [ 79.672436883626901, 30.488126146273309 ], [ 79.672904556898416, 30.487495561864158 ], [ 79.67330817011478, 30.486822173894609 ], [ 79.673643836260084, 30.48611246745892 ], [ 79.673908322685847, 30.485373277418034 ], [ 79.674099082243217, 30.48461172257613 ], [ 79.674214277813377, 30.483835137122636 ], [ 79.6742528, 30.483051 ] ] ] } },
{ "type": "Feature", "properties": { "village_id": "V020", "village_name": "Juwagwar", "place_type": "hamlet", "pop_total": 0, "lon": 79.6743167, "lat": 30.4931218 }, "geometry": { "type": "Polygon", "coordinates": [ [ [ 79.6823167, 30.4931218 ], [ 79.682278177813387, 30.492337662877365 ], [ 79.682162982243227, 30.491561077423871 ], [ 79.681972222685857, 30.490799522581966 ], [ 79.681707736260094, 30.490060332541081 ], [ 79.68137207011479, 30.489350626105391 ], [ 79.680968456898427, 30.488677238135843 ], [ 79.680500783626911, 30.488046653726691 ], [ 79.6799735542495, 30.48746494575051 ], [ 79.679391846273319, 30.486937716373099 ], [ 79.678761261864167, 30.48647004310158 ], [ 79.678087873894611, 30.486066429885213 ], [ 79.677378167458926, 30.485730763739909 ], [ 79.676638977418037, 30.485466277314142 ], [ 79.675877422576136, 30.485275517756776 ], [ 79.675100837122642, 30.485160322186623 ], [ 79.6743167, 30.4851218 ], [ 79.673532562877369, 30.485160322186623 ], [ 79.672755977423876, 30.485275517756776 ], [ 79.671994422581975, 30.485466277314142 ], [ 79.671255232541085, 30.485730763739909 ], [ 79.6705455261054, 30.486066429885213 ], [ 79.669872138135844, 30.48647004310158 ], [ 79.669241553726692, 30.486937716373099 ], [ 79.668659845750511, 30.48746494575051 ], [ 79.6681326163731, 30.488046653726691 ], [ 79.667664943101585, 30.488677238135843 ], [ 79.667261329885221, 30.489350626105391 ], [ 79.666925663739917, 30.490060332541081 ], [ 79.666661177314154, 30.490799522581966 ], [ 79.666470417756784, 30.491561077423871 ], [ 79.666355222186624, 30.492337662877365 ], [ 79.66631670000001, 30.4931218 ], [ 79.666355222186624, 30.493905937122637 ], [ 79.666470417756784, 30.494682522576131 ], [ 79.666661177314154, 30.495444077418036 ], [ 79.666925663739917, 30.496183267458921 ], [ 79.667261329885221, 30.49689297389461 ], [ 79.667664943101585, 30.497566361864159 ], [ 79.6681326163731, 30.49819694627331 ], [ 79.668659845750511, 30.498778654249492 ], [ 79.669241553726692, 30.499305883626903 ], [ 79.669872138135844, 30.499773556898422 ], [ 79.6705455261054, 30.500177170114789 ], [ 79.671255232541085, 30.500512836260093 ], [ 79.671994422581975, 30.50077732268586 ], [ 79.672755977423876, 30.500968082243226 ], [ 79.673532562877369, 30.501083277813379 ], [ 79.6743167, 30.5011218 ], [ 79.675100837122642, 30.501083277813379 ], [ 79.675877422576136, 30.500968082243226 ], [ 79.676638977418037, 30.50077732268586 ], [ 79.677378167458926, 30.500512836260093 ], [ 79.678087873894611, 30.500177170114789 ], [ 79.678761261864167, 30.499773556898422 ], [ 79.679391846273319, 30.499305883626903 ], [ 79.6799735542495, 30.498778654249492 ], [ 79.680500783626911, 30.49819694627331 ], [ 79.680968456898427, 30.497566361864159 ], [ 79.68137207011479, 30.49689297389461 ], [ 79.681707736260094, 30.496183267458921 ], [ 79.681972222685857, 30.495444077418036 ], [ 79.682162982243227, 30.494682522576131 ], [ 79.682278177813387, 30.493905937122637 ], [ 79.6823167, 30.4931218 ] ] ] } },
{ "type": "Feature", "properties": { "village_id": "V021", "village_name": "Jugju", "place_type": "hamlet", "pop_total": 0, "lon": 79.6903319, "lat": 30.4902886 }, "geometry": { "type": "Polygon", "coordinates": [ [ [ 79.6983319, 30.4902886 ], [ 79.698293377813386, 30.489504462877363 ], [ 79.698178182243225, 30.488727877423869 ], [ 79.697987422685856, 30.487966322581965 ], [ 79.697722936260092, 30.487227132541079 ], [ 79.697387270114788, 30.48651742610539 ], [ 79.696983656898425, 30.485844038135841 ], [ 79.696515983626909, 30.48521345372669 ], [ 79.695988754249498, 30.484631745750509 ], [ 79.695407046273317, 30.484104516373097 ], [ 79.694776461864166, 30.483636843101579 ], [ 79.69410307389461, 30.483233229885212 ], [ 79.693393367458924, 30.482897563739908 ], [ 79.692654177418035, 30.482633077314141 ], [ 79.691892622576134, 30.482442317756774 ], [ 79.69111603712264, 30.482327122186621 ], [ 79.6903319, 30.4822886 ], [ 79.689547762877368, 30.482327122186621 ], [ 79.688771177423874, 30.482442317756774 ], [ 79.688009622581973, 30.482633077314141 ], [ 79.687270432541084, 30.482897563739908 ], [ 79.686560726105398, 30.483233229885212 ], [ 79.685887338135842, 30.483636843101579 ], [ 79.685256753726691, 30.484104516373097 ], [ 79.68467504575051, 30.484631745750509 ], [ 79.684147816373098, 30.48521345372669 ], [ 79.683680143101583, 30.485844038135841 ], [ 79.683276529885219, 30.48651742610539 ], [ 79.682940863739915, 30.487227132541079 ], [ 79.682676377314152, 30.487966322581965 ], [ 79.682485617756782, 30.488727877423869 ], [ 79.682370422186622, 30.489504462877363 ], [ 79.6823319, 30.4902886 ], [ 79.682370422186622, 30.491072737122636 ], [ 79.682485617756782, 30.49184932257613 ], [ 79.682676377314152, 30.492610877418034 ], [ 79.682940863739915, 30.49335006745892 ], [ 79.683276529885219, 30.494059773894609 ], [ 79.683680143101583, 30.494733161864158 ], [ 79.684147816373098, 30.495363746273309 ], [ 79.68467504575051, 30.49594545424949 ], [ 79.685256753726691, 30.496472683626902 ], [ 79.685887338135842, 30.496940356898421 ], [ 79.686560726105398, 30.497343970114787 ], [ 79.687270432541084, 30.497679636260091 ], [ 79.688009622581973, 30.497944122685858 ], [ 79.688771177423874, 30.498134882243225 ], [ 79.689547762877368, 30.498250077813378 ], [ 79.6903319, 30.4982886 ], [ 79.69111603712264, 30.498250077813378 ], [ 79.691892622576134, 30.498134882243225 ], [ 79.692654177418035, 30.497944122685858 ], [ 79.693393367458924, 30.497679636260091 ], [ 79.69410307389461, 30.497343970114787 ], [ 79.694776461864166, 30.496940356898421 ], [ 79.695407046273317, 30.496472683626902 ], [ 79.695988754249498, 30.49594545424949 ], [ 79.696515983626909, 30.495363746273309 ], [ 79.696983656898425, 30.494733161864158 ], [ 79.697387270114788, 30.494059773894609 ], [ 79.697722936260092, 30.49335006745892 ], [ 79.697987422685856, 30.492610877418034 ], [ 79.698178182243225, 30.49184932257613 ], [ 79.698293377813386, 30.491072737122636 ], [ 79.6983319, 30.4902886 ] ] ] } },
{ "type": "Feature", "properties": { "village_id": "V022", "village_name": "Reni", "place_type": "village", "pop_total": 0, "lon": 79.6910907, "lat": 30.4852215 }, "geometry": { "type": "Polygon", "coordinates": [ [ [ 79.6990907, 30.4852215 ], [ 79.699052177813385, 30.484437362877365 ], [ 79.698936982243225, 30.483660777423871 ], [ 79.698746222685855, 30.482899222581967 ], [ 79.698481736260092, 30.482160032541081 ], [ 79.698146070114788, 30.481450326105392 ], [ 79.697742456898425, 30.480776938135843 ], [ 79.697274783626909, 30.480146353726692 ], [ 79.696747554249498, 30.479564645750511 ], [ 79.696165846273317, 30.479037416373099 ], [ 79.695535261864165, 30.478569743101581 ], [ 79.69486187389461, 30.478166129885214 ], [ 79.694152167458924, 30.47783046373991 ], [ 79.693412977418035, 30.477565977314143 ], [ 79.692651422576134, 30.477375217756776 ], [ 79.69187483712264, 30.477260022186623 ], [ 79.6910907, 30.4772215 ], [ 79.690306562877367, 30.477260022186623 ], [ 79.689529977423874, 30.477375217756776 ], [ 79.688768422581973, 30.477565977314143 ], [ 79.688029232541084, 30.47783046373991 ], [ 79.687319526105398, 30.478166129885214 ], [ 79.686646138135842, 30.478569743101581 ], [ 79.686015553726691, 30.479037416373099 ], [ 79.685433845750509, 30.479564645750511 ], [ 79.684906616373098, 30.480146353726692 ], [ 79.684438943101583, 30.480776938135843 ], [ 79.684035329885219, 30.481450326105392 ], [ 79.683699663739915, 30.482160032541081 ], [ 79.683435177314152, 30.482899222581967 ], [ 79.683244417756782, 30.483660777423871 ], [ 79.683129222186622, 30.484437362877365 ], [ 79.6830907, 30.4852215 ], [ 79.683129222186622, 30.486005637122638 ], [ 79.683244417756782, 30.486782222576132 ], [ 79.683435177314152, 30.487543777418036 ], [ 79.683699663739915, 30.488282967458922 ], [ 79.684035329885219, 30.488992673894611 ], [ 79.684438943101583, 30.48966606186416 ], [ 79.684906616373098, 30.490296646273311 ], [ 79.685433845750509, 30.490878354249492 ], [ 79.686015553726691, 30.491405583626904 ], [ 79.686646138135842, 30.491873256898423 ], [ 79.687319526105398, 30.492276870114789 ], [ 79.688029232541084, 30.492612536260093 ], [ 79.688768422581973, 30.49287702268586 ], [ 79.689529977423874, 30.493067782243227 ], [ 79.690306562877367, 30.49318297781338 ], [ 79.6910907, 30.4932215 ], [ 79.69187483712264, 30.49318297781338 ], [ 79.692651422576134, 30.493067782243227 ], [ 79.693412977418035, 30.49287702268586 ], [ 79.694152167458924, 30.492612536260093 ], [ 79.69486187389461, 30.492276870114789 ], [ 79.695535261864165, 30.491873256898423 ], [ 79.696165846273317, 30.491405583626904 ], [ 79.696747554249498, 30.490878354249492 ], [ 79.697274783626909, 30.490296646273311 ], [ 79.697742456898425, 30.48966606186416 ], [ 79.698146070114788, 30.488992673894611 ], [ 79.698481736260092, 30.488282967458922 ], [ 79.698746222685855, 30.487543777418036 ], [ 79.698936982243225, 30.486782222576132 ], [ 79.699052177813385, 30.486005637122638 ], [ 79.6990907, 30.4852215 ] ] ] } },
{ "type": "Feature", "properties": { "village_id": "V023", "village_name": "Subhain", "place_type": "village", "pop_total": 0, "lon": 79.6768841, "lat": 30.4782325 }, "geometry": { "type": "Polygon", "coordinates": [ [ [ 79.6848841, 30.4782325 ], [ 79.684845577813377, 30.477448362877364 ], [ 79.684730382243217, 30.476671777423871 ], [ 79.684539622685847, 30.475910222581966 ], [ 79.684275136260084, 30.475171032541081 ], [ 79.68393947011478, 30.474461326105391 ], [ 79.683535856898416, 30.473787938135843 ], [ 79.683068183626901, 30.473157353726691 ], [ 79.68254095424949, 30.47257564575051 ], [ 79.681959246273308, 30.472048416373099 ], [ 79.681328661864157, 30.47158074310158 ], [ 79.680655273894601, 30.471177129885213 ], [ 79.679945567458915, 30.470841463739909 ], [ 79.679206377418026, 30.470576977314142 ], [ 79.678444822576125, 30.470386217756776 ], [ 79.677668237122631, 30.470271022186623 ], [ 79.6768841, 30.4702325 ], [ 79.676099962877359, 30.470271022186623 ], [ 79.675323377423865, 30.470386217756776 ], [ 79.674561822581964, 30.470576977314142 ], [ 79.673822632541075, 30.470841463739909 ], [ 79.673112926105389, 30.471177129885213 ], [ 79.672439538135833, 30.47158074310158 ], [ 79.671808953726682, 30.472048416373099 ], [ 79.671227245750501, 30.47257564575051 ], [ 79.67070001637309, 30.473157353726691 ], [ 79.670232343101574, 30.473787938135843 ], [ 79.669828729885211, 30.474461326105391 ], [ 79.669493063739907, 30.475171032541081 ], [ 79.669228577314144, 30.475910222581966 ], [ 79.669037817756774, 30.476671777423871 ], [ 79.668922622186614, 30.477448362877364 ], [ 79.6688841, 30.4782325 ], [ 79.668922622186614, 30.479016637122637 ], [ 79.669037817756774, 30.479793222576131 ], [ 79.669228577314144, 30.480554777418035 ], [ 79.669493063739907, 30.481293967458921 ], [ 79.669828729885211, 30.48200367389461 ], [ 79.670232343101574, 30.482677061864159 ], [ 79.67070001637309, 30.48330764627331 ], [ 79.671227245750501, 30.483889354249492 ], [ 79.671808953726682, 30.484416583626903 ], [ 79.672439538135833, 30.484884256898422 ], [ 79.673112926105389, 30.485287870114789 ], [ 79.673822632541075, 30.485623536260093 ], [ 79.674561822581964, 30.48588802268586 ], [ 79.675323377423865, 30.486078782243226 ], [ 79.676099962877359, 30.486193977813379 ], [ 79.6768841, 30.4862325 ], [ 79.677668237122631, 30.486193977813379 ], [ 79.678444822576125, 30.486078782243226 ], [ 79.679206377418026, 30.48588802268586 ], [ 79.679945567458915, 30.485623536260093 ], [ 79.680655273894601, 30.485287870114789 ], [ 79.681328661864157, 30.484884256898422 ], [ 79.681959246273308, 30.484416583626903 ], [ 79.68254095424949, 30.483889354249492 ], [ 79.683068183626901, 30.48330764627331 ], [ 79.683535856898416, 30.482677061864159 ], [ 79.68393947011478, 30.48200367389461 ], [ 79.684275136260084, 30.481293967458921 ], [ 79.684539622685847, 30.480554777418035 ], [ 79.684730382243217, 30.479793222576131 ], [ 79.684845577813377, 30.479016637122637 ], [ 79.6848841, 30.4782325 ] ] ] } },
{ "type": "Feature", "properties": { "village_id": "V024", "village_name": "Aira", "place_type": "hamlet", "pop_total": 0, "lon": 79.6190808, "lat": 30.5416843 }, "geometry": { "type": "Polygon", "coordinates": [ [ [ 79.6270808, 30.5416843 ], [ 79.627042277813388, 30.540900162877364 ], [ 79.626927082243228, 30.54012357742387 ], [ 79.626736322685858, 30.539362022581965 ], [ 79.626471836260095, 30.53862283254108 ], [ 79.626136170114791, 30.537913126105391 ], [ 79.625732556898427, 30.537239738135842 ], [ 79.625264883626912, 30.53660915372669 ], [ 79.6247376542495, 30.536027445750509 ], [ 79.624155946273319, 30.535500216373098 ], [ 79.623525361864168, 30.535032543101579 ], [ 79.622851973894612, 30.534628929885212 ], [ 79.622142267458926, 30.534293263739908 ], [ 79.621403077418037, 30.534028777314141 ], [ 79.620641522576136, 30.533838017756775 ], [ 79.619864937122642, 30.533722822186622 ], [ 79.6190808, 30.5336843 ], [ 79.61829666287737, 30.533722822186622 ], [ 79.617520077423876, 30.533838017756775 ], [ 79.616758522581975, 30.534028777314141 ], [ 79.616019332541086, 30.534293263739908 ], [ 79.6153096261054, 30.534628929885212 ], [ 79.614636238135844, 30.535032543101579 ], [ 79.614005653726693, 30.535500216373098 ], [ 79.613423945750512, 30.536027445750509 ], [ 79.612896716373101, 30.53660915372669 ], [ 79.612429043101585, 30.537239738135842 ], [ 79.612025429885222, 30.537913126105391 ], [ 79.611689763739918, 30.53862283254108 ], [ 79.611425277314154, 30.539362022581965 ], [ 79.611234517756785, 30.54012357742387 ], [ 79.611119322186624, 30.540900162877364 ], [ 79.611080800000011, 30.5416843 ], [ 79.611119322186624, 30.542468437122636 ], [ 79.611234517756785, 30.54324502257613 ], [ 79.611425277314154, 30.544006577418035 ], [ 79.611689763739918, 30.54474576745892 ], [ 79.612025429885222, 30.545455473894609 ], [ 79.612429043101585, 30.546128861864158 ], [ 79.612896716373101, 30.54675944627331 ], [ 79.613423945750512, 30.547341154249491 ], [ 79.614005653726693, 30.547868383626902 ], [ 79.614636238135844, 30.548336056898421 ], [ 79.6153096261054, 30.548739670114788 ], [ 79.616019332541086, 30.549075336260092 ], [ 79.616758522581975, 30.549339822685859 ], [ 79.617520077423876, 30.549530582243225 ], [ 79.61829666287737, 30.549645777813378 ], [ 79.6190808, 30.5496843 ], [ 79.619864937122642, 30.549645777813378 ], [ 79.620641522576136, 30.549530582243225 ], [ 79.621403077418037, 30.549339822685859 ], [ 79.622142267458926, 30.549075336260092 ], [ 79.622851973894612, 30.548739670114788 ], [ 79.623525361864168, 30.548336056898421 ], [ 79.624155946273319, 30.547868383626902 ], [ 79.6247376542495, 30.547341154249491 ], [ 79.625264883626912, 30.54675944627331 ], [ 79.625732556898427, 30.546128861864158 ], [ 79.626136170114791, 30.545455473894609 ], [ 79.626471836260095, 30.54474576745892 ], [ 79.626736322685858, 30.544006577418035 ], [ 79.626927082243228, 30.54324502257613 ], [ 79.627042277813388, 30.542468437122636 ], [ 79.6270808, 30.5416843 ] ] ] } },
{ "type": "Feature", "properties": { "village_id": "V025", "village_name": "Chormi", "place_type": "hamlet", "pop_total": 0, "lon": 79.6089889, "lat": 30.5136333 }, "geometry": { "type": "Polygon", "coordinates": [ [ [ 79.6169889, 30.5136333 ], [ 79.616950377813382, 30.512849162877362 ], [ 79.616835182243221, 30.512072577423869 ], [ 79.616644422685852, 30.511311022581964 ], [ 79.616379936260088, 30.510571832541078 ], [ 79.616044270114784, 30.509862126105389 ], [ 79.615640656898421, 30.50918873813584 ], [ 79.615172983626906, 30.508558153726689 ], [ 79.614645754249494, 30.507976445750508 ], [ 79.614064046273313, 30.507449216373097 ], [ 79.613433461864162, 30.506981543101578 ], [ 79.612760073894606, 30.506577929885211 ], [ 79.61205036745892, 30.506242263739907 ], [ 79.611311177418031, 30.50597777731414 ], [ 79.61054962257613, 30.505787017756774 ], [ 79.609773037122636, 30.505671822186621 ], [ 79.6089889, 30.5056333 ], [ 79.608204762877364, 30.505671822186621 ], [ 79.60742817742387, 30.505787017756774 ], [ 79.606666622581969, 30.50597777731414 ], [ 79.60592743254108, 30.506242263739907 ], [ 79.605217726105394, 30.506577929885211 ], [ 79.604544338135838, 30.506981543101578 ], [ 79.603913753726687, 30.507449216373097 ], [ 79.603332045750506, 30.507976445750508 ], [ 79.602804816373094, 30.508558153726689 ], [ 79.602337143101579, 30.50918873813584 ], [ 79.601933529885216, 30.509862126105389 ], [ 79.601597863739912, 30.510571832541078 ], [ 79.601333377314148, 30.511311022581964 ], [ 79.601142617756778, 30.512072577423869 ], [ 79.601027422186618, 30.512849162877362 ], [ 79.6009889, 30.5136333 ], [ 79.601027422186618, 30.514417437122635 ], [ 79.601142617756778, 30.515194022576129 ], [ 79.601333377314148, 30.515955577418033 ], [ 79.601597863739912, 30.516694767458919 ], [ 79.601933529885216, 30.517404473894608 ], [ 79.602337143101579, 30.518077861864157 ], [ 79.602804816373094, 30.518708446273308 ], [ 79.603332045750506, 30.519290154249489 ], [ 79.603913753726687, 30.519817383626901 ], [ 79.604544338135838, 30.52028505689842 ], [ 79.605217726105394, 30.520688670114787 ], [ 79.60592743254108, 30.521024336260091 ], [ 79.606666622581969, 30.521288822685857 ], [ 79.60742817742387, 30.521479582243224 ], [ 79.608204762877364, 30.521594777813377 ], [ 79.6089889, 30.5216333 ], [ 79.609773037122636, 30.521594777813377 ], [ 79.61054962257613, 30.521479582243224 ], [ 79.611311177418031, 30.521288822685857 ], [ 79.61205036745892, 30.521024336260091 ], [ 79.612760073894606, 30.520688670114787 ], [ 79.613433461864162, 30.52028505689842 ], [ 79.614064046273313, 30.519817383626901 ], [ 79.614645754249494, 30.519290154249489 ], [ 79.615172983626906, 30.518708446273308 ], [ 79.615640656898421, 30.518077861864157 ], [ 79.616044270114784, 30.517404473894608 ], [ 79.616379936260088, 30.516694767458919 ], [ 79.616644422685852, 30.515955577418033 ], [ 79.616835182243221, 30.515194022576129 ], [ 79.616950377813382, 30.514417437122635 ], [ 79.6169889, 30.5136333 ] ] ] } },
{ "type": "Feature", "properties": { "village_id": "V026", "village_name": "Kunj", "place_type": "hamlet", "pop_total": 0, "lon": 79.6061622, "lat": 30.5018638 }, "geometry": { "type": "Polygon", "coordinates": [ [ [ 79.6141622, 30.5018638 ], [ 79.614123677813382, 30.501079662877363 ], [ 79.614008482243221, 30.500303077423869 ], [ 79.613817722685852, 30.499541522581964 ], [ 79.613553236260088, 30.498802332541079 ], [ 79.613217570114784, 30.49809262610539 ], [ 79.612813956898421, 30.497419238135841 ], [ 79.612346283626906, 30.496788653726689 ], [ 79.611819054249494, 30.496206945750508 ], [ 79.611237346273313, 30.495679716373097 ], [ 79.610606761864162, 30.495212043101578 ], [ 79.609933373894606, 30.494808429885211 ], [ 79.60922366745892, 30.494472763739907 ], [ 79.608484477418031, 30.49420827731414 ], [ 79.60772292257613, 30.494017517756774 ], [ 79.606946337122636, 30.493902322186621 ], [ 79.6061622, 30.4938638 ], [ 79.605378062877364, 30.493902322186621 ], [ 79.60460147742387, 30.494017517756774 ], [ 79.603839922581969, 30.49420827731414 ], [ 79.60310073254108, 30.494472763739907 ], [ 79.602391026105394, 30.494808429885211 ], [ 79.601717638135838, 30.495212043101578 ], [ 79.601087053726687, 30.495679716373097 ], [ 79.600505345750506, 30.496206945750508 ], [ 79.599978116373094, 30.496788653726689 ], [ 79.599510443101579, 30.497419238135841 ], [ 79.599106829885216, 30.49809262610539 ], [ 79.598771163739912, 30.498802332541079 ], [ 79.598506677314148, 30.499541522581964 ], [ 79.598315917756779, 30.500303077423869 ], [ 79.598200722186618, 30.501079662877363 ], [ 79.5981622, 30.5018638 ], [ 79.598200722186618, 30.502647937122635 ], [ 79.598315917756779, 30.503424522576129 ], [ 79.598506677314148, 30.504186077418034 ], [ 79.598771163739912, 30.504925267458919 ], [ 79.599106829885216, 30.505634973894608 ], [ 79.599510443101579, 30.506308361864157 ], [ 79.599978116373094, 30.506938946273308 ], [ 79.600505345750506, 30.50752065424949 ], [ 79.601087053726687, 30.508047883626901 ], [ 79.601717638135838, 30.50851555689842 ], [ 79.602391026105394, 30.508919170114787 ], [ 79.60310073254108, 30.509254836260091 ], [ 79.603839922581969, 30.509519322685858 ], [ 79.60460147742387, 30.509710082243224 ], [ 79.605378062877364, 30.509825277813377 ], [ 79.6061622, 30.5098638 ], [ 79.606946337122636, 30.509825277813377 ], [ 79.60772292257613, 30.509710082243224 ], [ 79.608484477418031, 30.509519322685858 ], [ 79.60922366745892, 30.509254836260091 ], [ 79.609933373894606, 30.508919170114787 ], [ 79.610606761864162, 30.50851555689842 ], [ 79.611237346273313, 30.508047883626901 ], [ 79.611819054249494, 30.50752065424949 ], [ 79.612346283626906, 30.506938946273308 ], [ 79.612813956898421, 30.506308361864157 ], [ 79.613217570114784, 30.505634973894608 ], [ 79.613553236260088, 30.504925267458919 ], [ 79.613817722685852, 30.504186077418034 ], [ 79.614008482243221, 30.503424522576129 ], [ 79.614123677813382, 30.502647937122635 ], [ 79.6141622, 30.5018638 ] ] ] } },
{ "type": "Feature", "properties": { "village_id": "V027", "village_name": "Chamtoli", "place_type": "village", "pop_total": 0, "lon": 79.6167121, "lat": 30.5001965 }, "geometry": { "type": "Polygon", "coordinates": [ [ [ 79.6247121, 30.5001965 ], [ 79.624673577813383, 30.499412362877365 ], [ 79.624558382243222, 30.498635777423871 ], [ 79.624367622685853, 30.497874222581967 ], [ 79.624103136260089, 30.497135032541081 ], [ 79.623767470114785, 30.496425326105392 ], [ 79.623363856898422, 30.495751938135843 ], [ 79.622896183626906, 30.495121353726692 ], [ 79.622368954249495, 30.49453964575051 ], [ 79.621787246273314, 30.494012416373099 ], [ 79.621156661864163, 30.49354474310158 ], [ 79.620483273894607, 30.493141129885213 ], [ 79.619773567458921, 30.492805463739909 ], [ 79.619034377418032, 30.492540977314142 ], [ 79.618272822576131, 30.492350217756776 ], [ 79.617496237122637, 30.492235022186623 ], [ 79.6167121, 30.4921965 ], [ 79.615927962877365, 30.492235022186623 ], [ 79.615151377423871, 30.492350217756776 ], [ 79.61438982258197, 30.492540977314142 ], [ 79.613650632541081, 30.492805463739909 ], [ 79.612940926105395, 30.493141129885213 ], [ 79.612267538135839, 30.49354474310158 ], [ 79.611636953726688, 30.494012416373099 ], [ 79.611055245750507, 30.49453964575051 ], [ 79.610528016373095, 30.495121353726692 ], [ 79.61006034310158, 30.495751938135843 ], [ 79.609656729885216, 30.496425326105392 ], [ 79.609321063739912, 30.497135032541081 ], [ 79.609056577314149, 30.497874222581967 ], [ 79.608865817756779, 30.498635777423871 ], [ 79.608750622186619, 30.499412362877365 ], [ 79.6087121, 30.5001965 ], [ 79.608750622186619, 30.500980637122638 ], [ 79.608865817756779, 30.501757222576131 ], [ 79.609056577314149, 30.502518777418036 ], [ 79.609321063739912, 30.503257967458921 ], [ 79.609656729885216, 30.503967673894611 ], [ 79.61006034310158, 30.504641061864159 ], [ 79.610528016373095, 30.505271646273311 ], [ 79.611055245750507, 30.505853354249492 ], [ 79.611636953726688, 30.506380583626903 ], [ 79.612267538135839, 30.506848256898422 ], [ 79.612940926105395, 30.507251870114789 ], [ 79.613650632541081, 30.507587536260093 ], [ 79.61438982258197, 30.50785202268586 ], [ 79.615151377423871, 30.508042782243226 ], [ 79.615927962877365, 30.508157977813379 ], [ 79.6167121, 30.5081965 ], [ 79.617496237122637, 30.508157977813379 ], [ 79.618272822576131, 30.508042782243226 ], [ 79.619034377418032, 30.50785202268586 ], [ 79.619773567458921, 30.507587536260093 ], [ 79.620483273894607, 30.507251870114789 ], [ 79.621156661864163, 30.506848256898422 ], [ 79.621787246273314, 30.506380583626903 ], [ 79.622368954249495, 30.505853354249492 ], [ 79.622896183626906, 30.505271646273311 ], [ 79.623363856898422, 30.504641061864159 ], [ 79.623767470114785, 30.503967673894611 ], [ 79.624103136260089, 30.503257967458921 ], [ 79.624367622685853, 30.502518777418036 ], [ 79.624558382243222, 30.501757222576131 ], [ 79.624673577813383, 30.500980637122638 ], [ 79.6247121, 30.5001965 ] ] ] } },
{ "type": "Feature", "properties": { "village_id": "V028", "village_name": "Garghaniya", "place_type": "hamlet", "pop_total": 0, "lon": 79.6243512, "lat": 30.5008874 }, "geometry": { "type": "Polygon", "coordinates": [ [ [ 79.6323512, 30.5008874 ], [ 79.632312677813388, 30.500103262877364 ], [ 79.632197482243228, 30.49932667742387 ], [ 79.632006722685858, 30.498565122581965 ], [ 79.631742236260095, 30.49782593254108 ], [ 79.631406570114791, 30.497116226105391 ], [ 79.631002956898428, 30.496442838135842 ], [ 79.630535283626912, 30.49581225372669 ], [ 79.630008054249501, 30.495230545750509 ], [ 79.62942634627332, 30.494703316373098 ], [ 79.628795761864168, 30.494235643101579 ], [ 79.628122373894612, 30.493832029885212 ], [ 79.627412667458927, 30.493496363739908 ], [ 79.626673477418038, 30.493231877314141 ], [ 79.625911922576137, 30.493041117756775 ], [ 79.625135337122643, 30.492925922186622 ], [ 79.6243512, 30.4928874 ], [ 79.62356706287737, 30.492925922186622 ], [ 79.622790477423877, 30.493041117756775 ], [ 79.622028922581976, 30.493231877314141 ], [ 79.621289732541086, 30.493496363739908 ], [ 79.620580026105401, 30.493832029885212 ], [ 79.619906638135845, 30.494235643101579 ], [ 79.619276053726693, 30.494703316373098 ], [ 79.618694345750512, 30.495230545750509 ], [ 79.618167116373101, 30.49581225372669 ], [ 79.617699443101586, 30.496442838135842 ], [ 79.617295829885222, 30.497116226105391 ], [ 79.616960163739918, 30.49782593254108 ], [ 79.616695677314155, 30.498565122581965 ], [ 79.616504917756785, 30.49932667742387 ], [ 79.616389722186625, 30.500103262877364 ], [ 79.616351200000011, 30.5008874 ], [ 79.616389722186625, 30.501671537122636 ], [ 79.616504917756785, 30.50244812257613 ], [ 79.616695677314155, 30.503209677418035 ], [ 79.616960163739918, 30.50394886745892 ], [ 79.617295829885222, 30.504658573894609 ], [ 79.617699443101586, 30.505331961864158 ], [ 79.618167116373101, 30.505962546273309 ], [ 79.618694345750512, 30.506544254249491 ], [ 79.619276053726693, 30.507071483626902 ], [ 79.619906638135845, 30.507539156898421 ], [ 79.620580026105401, 30.507942770114788 ], [ 79.621289732541086, 30.508278436260092 ], [ 79.622028922581976, 30.508542922685859 ], [ 79.622790477423877, 30.508733682243225 ], [ 79.62356706287737, 30.508848877813378 ], [ 79.6243512, 30.5088874 ], [ 79.625135337122643, 30.508848877813378 ], [ 79.625911922576137, 30.508733682243225 ], [ 79.626673477418038, 30.508542922685859 ], [ 79.627412667458927, 30.508278436260092 ], [ 79.628122373894612, 30.507942770114788 ], [ 79.628795761864168, 30.507539156898421 ], [ 79.62942634627332, 30.507071483626902 ], [ 79.630008054249501, 30.506544254249491 ], [ 79.630535283626912, 30.505962546273309 ], [ 79.631002956898428, 30.505331961864158 ], [ 79.631406570114791, 30.504658573894609 ], [ 79.631742236260095, 30.50394886745892 ], [ 79.632006722685858, 30.503209677418035 ], [ 79.632197482243228, 30.50244812257613 ], [ 79.632312677813388, 30.501671537122636 ], [ 79.6323512, 30.5008874 ] ] ] } },
{ "type": "Feature", "properties": { "village_id": "V029", "village_name": "Suki", "place_type": "hamlet", "pop_total": 0, "lon": 79.7252943, "lat": 30.5195944 }, "geometry": { "type": "Polygon", "coordinates": [ [ [ 79.7332943, 30.5195944 ], [ 79.733255777813383, 30.518810262877363 ], [ 79.733140582243223, 30.518033677423869 ], [ 79.732949822685853, 30.517272122581964 ], [ 79.73268533626009, 30.516532932541079 ], [ 79.732349670114786, 30.51582322610539 ], [ 79.731946056898423, 30.515149838135841 ], [ 79.731478383626907, 30.514519253726689 ], [ 79.730951154249496, 30.513937545750508 ], [ 79.730369446273315, 30.513410316373097 ], [ 79.729738861864163, 30.512942643101578 ], [ 79.729065473894607, 30.512539029885211 ], [ 79.728355767458922, 30.512203363739907 ], [ 79.727616577418033, 30.51193887731414 ], [ 79.726855022576132, 30.511748117756774 ], [ 79.726078437122638, 30.511632922186621 ], [ 79.7252943, 30.5115944 ], [ 79.724510162877365, 30.511632922186621 ], [ 79.723733577423872, 30.511748117756774 ], [ 79.72297202258197, 30.51193887731414 ], [ 79.722232832541081, 30.512203363739907 ], [ 79.721523126105396, 30.512539029885211 ], [ 79.72084973813584, 30.512942643101578 ], [ 79.720219153726688, 30.513410316373097 ], [ 79.719637445750507, 30.513937545750508 ], [ 79.719110216373096, 30.514519253726689 ], [ 79.718642543101581, 30.515149838135841 ], [ 79.718238929885217, 30.51582322610539 ], [ 79.717903263739913, 30.516532932541079 ], [ 79.71763877731415, 30.517272122581964 ], [ 79.71744801775678, 30.518033677423869 ], [ 79.71733282218662, 30.518810262877363 ], [ 79.7172943, 30.5195944 ], [ 79.71733282218662, 30.520378537122635 ], [ 79.71744801775678, 30.521155122576129 ], [ 79.71763877731415, 30.521916677418034 ], [ 79.717903263739913, 30.522655867458919 ], [ 79.718238929885217, 30.523365573894608 ], [ 79.718642543101581, 30.524038961864157 ], [ 79.719110216373096, 30.524669546273309 ], [ 79.719637445750507, 30.52525125424949 ], [ 79.720219153726688, 30.525778483626901 ], [ 79.72084973813584, 30.52624615689842 ], [ 79.721523126105396, 30.526649770114787 ], [ 79.722232832541081, 30.526985436260091 ], [ 79.72297202258197, 30.527249922685858 ], [ 79.723733577423872, 30.527440682243224 ], [ 79.724510162877365, 30.527555877813377 ], [ 79.7252943, 30.5275944 ], [ 79.726078437122638, 30.527555877813377 ], [ 79.726855022576132, 30.527440682243224 ], [ 79.727616577418033, 30.527249922685858 ], [ 79.728355767458922, 30.526985436260091 ], [ 79.729065473894607, 30.526649770114787 ], [ 79.729738861864163, 30.52624615689842 ], [ 79.730369446273315, 30.525778483626901 ], [ 79.730951154249496, 30.52525125424949 ], [ 79.731478383626907, 30.524669546273309 ], [ 79.731946056898423, 30.524038961864157 ], [ 79.732349670114786, 30.523365573894608 ], [ 79.73268533626009, 30.522655867458919 ], [ 79.732949822685853, 30.521916677418034 ], [ 79.733140582243223, 30.521155122576129 ], [ 79.733255777813383, 30.520378537122635 ], [ 79.7332943, 30.5195944 ] ] ] } },
{ "type": "Feature", "properties": { "village_id": "V030", "village_name": "Kuraipani", "place_type": "hamlet", "pop_total": 0, "lon": 79.7203934, "lat": 30.5147004 }, "geometry": { "type": "Polygon", "coordinates": [ [ [ 79.7283934, 30.5147004 ], [ 79.728354877813388, 30.513916262877363 ], [ 79.728239682243228, 30.513139677423869 ], [ 79.728048922685858, 30.512378122581964 ], [ 79.727784436260094, 30.511638932541079 ], [ 79.72744877011479, 30.510929226105389 ], [ 79.727045156898427, 30.510255838135841 ], [ 79.726577483626912, 30.509625253726689 ], [ 79.7260502542495, 30.509043545750508 ], [ 79.725468546273319, 30.508516316373097 ], [ 79.724837961864168, 30.508048643101578 ], [ 79.724164573894612, 30.507645029885211 ], [ 79.723454867458926, 30.507309363739907 ], [ 79.722715677418037, 30.50704487731414 ], [ 79.721954122576136, 30.506854117756774 ], [ 79.721177537122642, 30.506738922186621 ], [ 79.7203934, 30.5067004 ], [ 79.71960926287737, 30.506738922186621 ], [ 79.718832677423876, 30.506854117756774 ], [ 79.718071122581975, 30.50704487731414 ], [ 79.717331932541086, 30.507309363739907 ], [ 79.7166222261054, 30.507645029885211 ], [ 79.715948838135844, 30.508048643101578 ], [ 79.715318253726693, 30.508516316373097 ], [ 79.714736545750512, 30.509043545750508 ], [ 79.7142093163731, 30.509625253726689 ], [ 79.713741643101585, 30.510255838135841 ], [ 79.713338029885222, 30.510929226105389 ], [ 79.713002363739918, 30.511638932541079 ], [ 79.712737877314154, 30.512378122581964 ], [ 79.712547117756785, 30.513139677423869 ], [ 79.712431922186624, 30.513916262877363 ], [ 79.712393400000011, 30.5147004 ], [ 79.712431922186624, 30.515484537122635 ], [ 79.712547117756785, 30.516261122576129 ], [ 79.712737877314154, 30.517022677418034 ], [ 79.713002363739918, 30.517761867458919 ], [ 79.713338029885222, 30.518471573894608 ], [ 79.713741643101585, 30.519144961864157 ], [ 79.7142093163731, 30.519775546273308 ], [ 79.714736545750512, 30.52035725424949 ], [ 79.715318253726693, 30.520884483626901 ], [ 79.715948838135844, 30.52135215689842 ], [ 79.7166222261054, 30.521755770114787 ], [ 79.717331932541086, 30.522091436260091 ], [ 79.718071122581975, 30.522355922685858 ], [ 79.718832677423876, 30.522546682243224 ], [ 79.71960926287737, 30.522661877813377 ], [ 79.7203934, 30.5227004 ], [ 79.721177537122642, 30.522661877813377 ], [ 79.721954122576136, 30.522546682243224 ], [ 79.722715677418037, 30.522355922685858 ], [ 79.723454867458926, 30.522091436260091 ], [ 79.724164573894612, 30.521755770114787 ], [ 79.724837961864168, 30.52135215689842 ], [ 79.725468546273319, 30.520884483626901 ], [ 79.7260502542495, 30.52035725424949 ], [ 79.726577483626912, 30.519775546273308 ], [ 79.727045156898427, 30.519144961864157 ], [ 79.72744877011479, 30.518471573894608 ], [ 79.727784436260094, 30.517761867458919 ], [ 79.728048922685858, 30.517022677418034 ], [ 79.728239682243228, 30.516261122576129 ], [ 79.728354877813388, 30.515484537122635 ], [ 79.7283934, 30.5147004 ] ] ] } },
{ "type": "Feature", "properties": { "village_id": "V031", "village_name": "Lata", "place_type": "hamlet", "pop_total": 0, "lon": 79.7137972, "lat": 30.4946997 }, "geometry": { "type": "Polygon", "coordinates": [ [ [ 79.7217972, 30.4946997 ], [ 79.721758677813384, 30.493915562877365 ], [ 79.721643482243223, 30.493138977423872 ], [ 79.721452722685854, 30.492377422581967 ], [ 79.72118823626009, 30.491638232541082 ], [ 79.720852570114786, 30.490928526105392 ], [ 79.720448956898423, 30.490255138135844 ], [ 79.719981283626907, 30.489624553726692 ], [ 79.719454054249496, 30.489042845750511 ], [ 79.718872346273315, 30.4885156163731 ], [ 79.718241761864164, 30.488047943101581 ], [ 79.717568373894608, 30.487644329885214 ], [ 79.716858667458922, 30.48730866373991 ], [ 79.716119477418033, 30.487044177314143 ], [ 79.715357922576132, 30.486853417756777 ], [ 79.714581337122638, 30.486738222186624 ], [ 79.7137972, 30.4866997 ], [ 79.713013062877366, 30.486738222186624 ], [ 79.712236477423872, 30.486853417756777 ], [ 79.711474922581971, 30.487044177314143 ], [ 79.710735732541082, 30.48730866373991 ], [ 79.710026026105396, 30.487644329885214 ], [ 79.70935263813584, 30.488047943101581 ], [ 79.708722053726689, 30.4885156163731 ], [ 79.708140345750508, 30.489042845750511 ], [ 79.707613116373096, 30.489624553726692 ], [ 79.707145443101581, 30.490255138135844 ], [ 79.706741829885217, 30.490928526105392 ], [ 79.706406163739913, 30.491638232541082 ], [ 79.70614167731415, 30.492377422581967 ], [ 79.70595091775678, 30.493138977423872 ], [ 79.70583572218662, 30.493915562877365 ], [ 79.7057972, 30.4946997 ], [ 79.70583572218662, 30.495483837122638 ], [ 79.70595091775678, 30.496260422576132 ], [ 79.70614167731415, 30.497021977418036 ], [ 79.706406163739913, 30.497761167458922 ], [ 79.706741829885217, 30.498470873894611 ], [ 79.707145443101581, 30.49914426186416 ], [ 79.707613116373096, 30.499774846273311 ], [ 79.708140345750508, 30.500356554249493 ], [ 79.708722053726689, 30.500883783626904 ], [ 79.70935263813584, 30.501351456898423 ], [ 79.710026026105396, 30.50175507011479 ], [ 79.710735732541082, 30.502090736260094 ], [ 79.711474922581971, 30.502355222685861 ], [ 79.712236477423872, 30.502545982243227 ], [ 79.713013062877366, 30.50266117781338 ], [ 79.7137972, 30.5026997 ], [ 79.714581337122638, 30.50266117781338 ], [ 79.715357922576132, 30.502545982243227 ], [ 79.716119477418033, 30.502355222685861 ], [ 79.716858667458922, 30.502090736260094 ], [ 79.717568373894608, 30.50175507011479 ], [ 79.718241761864164, 30.501351456898423 ], [ 79.718872346273315, 30.500883783626904 ], [ 79.719454054249496, 30.500356554249493 ], [ 79.719981283626907, 30.499774846273311 ], [ 79.720448956898423, 30.49914426186416 ], [ 79.720852570114786, 30.498470873894611 ], [ 79.72118823626009, 30.497761167458922 ], [ 79.721452722685854, 30.497021977418036 ], [ 79.721643482243223, 30.496260422576132 ], [ 79.721758677813384, 30.495483837122638 ], [ 79.7217972, 30.4946997 ] ] ] } },
{ "type": "Feature", "properties": { "village_id": "V032", "village_name": "Murunna", "place_type": "hamlet", "pop_total": 0, "lon": 79.7030888, "lat": 30.4694786 }, "geometry": { "type": "Polygon", "coordinates": [ [ [ 79.7110888, 30.4694786 ], [ 79.711050277813385, 30.468694462877362 ], [ 79.710935082243225, 30.467917877423869 ], [ 79.710744322685855, 30.467156322581964 ], [ 79.710479836260092, 30.466417132541078 ], [ 79.710144170114788, 30.465707426105389 ], [ 79.709740556898424, 30.46503403813584 ], [ 79.709272883626909, 30.464403453726689 ], [ 79.708745654249498, 30.463821745750508 ], [ 79.708163946273316, 30.463294516373097 ], [ 79.707533361864165, 30.462826843101578 ], [ 79.706859973894609, 30.462423229885211 ], [ 79.706150267458924, 30.462087563739907 ], [ 79.705411077418034, 30.46182307731414 ], [ 79.704649522576133, 30.461632317756774 ], [ 79.70387293712264, 30.461517122186621 ], [ 79.7030888, 30.4614786 ], [ 79.702304662877367, 30.461517122186621 ], [ 79.701528077423873, 30.461632317756774 ], [ 79.700766522581972, 30.46182307731414 ], [ 79.700027332541083, 30.462087563739907 ], [ 79.699317626105397, 30.462423229885211 ], [ 79.698644238135842, 30.462826843101578 ], [ 79.69801365372669, 30.463294516373097 ], [ 79.697431945750509, 30.463821745750508 ], [ 79.696904716373098, 30.464403453726689 ], [ 79.696437043101582, 30.46503403813584 ], [ 79.696033429885219, 30.465707426105389 ], [ 79.695697763739915, 30.466417132541078 ], [ 79.695433277314152, 30.467156322581964 ], [ 79.695242517756782, 30.467917877423869 ], [ 79.695127322186622, 30.468694462877362 ], [ 79.6950888, 30.4694786 ], [ 79.695127322186622, 30.470262737122635 ], [ 79.695242517756782, 30.471039322576129 ], [ 79.695433277314152, 30.471800877418033 ], [ 79.695697763739915, 30.472540067458919 ], [ 79.696033429885219, 30.473249773894608 ], [ 79.696437043101582, 30.473923161864157 ], [ 79.696904716373098, 30.474553746273308 ], [ 79.697431945750509, 30.475135454249489 ], [ 79.69801365372669, 30.475662683626901 ], [ 79.698644238135842, 30.47613035689842 ], [ 79.699317626105397, 30.476533970114787 ], [ 79.700027332541083, 30.476869636260091 ], [ 79.700766522581972, 30.477134122685857 ], [ 79.701528077423873, 30.477324882243224 ], [ 79.702304662877367, 30.477440077813377 ], [ 79.7030888, 30.4774786 ], [ 79.70387293712264, 30.477440077813377 ], [ 79.704649522576133, 30.477324882243224 ], [ 79.705411077418034, 30.477134122685857 ], [ 79.706150267458924, 30.476869636260091 ], [ 79.706859973894609, 30.476533970114787 ], [ 79.707533361864165, 30.47613035689842 ], [ 79.708163946273316, 30.475662683626901 ], [ 79.708745654249498, 30.475135454249489 ], [ 79.709272883626909, 30.474553746273308 ], [ 79.709740556898424, 30.473923161864157 ], [ 79.710144170114788, 30.473249773894608 ], [ 79.710479836260092, 30.472540067458919 ], [ 79.710744322685855, 30.471800877418033 ], [ 79.710935082243225, 30.471039322576129 ], [ 79.711050277813385, 30.470262737122635 ], [ 79.7110888, 30.4694786 ] ] ] } },
{ "type": "Feature", "properties": { "village_id": "V033", "village_name": "Paing", "place_type": "hamlet", "pop_total": 0, "lon": 79.713102, "lat": 30.472931 }, "geometry": { "type": "Polygon", "coordinates": [ [ [ 79.721102, 30.472931 ], [ 79.721063477813388, 30.472146862877363 ], [ 79.720948282243228, 30.471370277423869 ], [ 79.720757522685858, 30.470608722581964 ], [ 79.720493036260095, 30.469869532541079 ], [ 79.720157370114791, 30.46915982610539 ], [ 79.719753756898427, 30.468486438135841 ], [ 79.719286083626912, 30.467855853726689 ], [ 79.718758854249501, 30.467274145750508 ], [ 79.71817714627332, 30.466746916373097 ], [ 79.717546561864168, 30.466279243101578 ], [ 79.716873173894612, 30.465875629885211 ], [ 79.716163467458927, 30.465539963739907 ], [ 79.715424277418037, 30.46527547731414 ], [ 79.714662722576136, 30.465084717756774 ], [ 79.713886137122643, 30.464969522186621 ], [ 79.713102, 30.464931 ], [ 79.71231786287737, 30.464969522186621 ], [ 79.711541277423876, 30.465084717756774 ], [ 79.710779722581975, 30.46527547731414 ], [ 79.710040532541086, 30.465539963739907 ], [ 79.709330826105401, 30.465875629885211 ], [ 79.708657438135845, 30.466279243101578 ], [ 79.708026853726693, 30.466746916373097 ], [ 79.707445145750512, 30.467274145750508 ], [ 79.706917916373101, 30.467855853726689 ], [ 79.706450243101585, 30.468486438135841 ], [ 79.706046629885222, 30.46915982610539 ], [ 79.705710963739918, 30.469869532541079 ], [ 79.705446477314155, 30.470608722581964 ], [ 79.705255717756785, 30.471370277423869 ], [ 79.705140522186625, 30.472146862877363 ], [ 79.705102, 30.472931 ], [ 79.705140522186625, 30.473715137122635 ], [ 79.705255717756785, 30.474491722576129 ], [ 79.705446477314155, 30.475253277418034 ], [ 79.705710963739918, 30.475992467458919 ], [ 79.706046629885222, 30.476702173894608 ], [ 79.706450243101585, 30.477375561864157 ], [ 79.706917916373101, 30.478006146273309 ], [ 79.707445145750512, 30.47858785424949 ], [ 79.708026853726693, 30.479115083626901 ], [ 79.708657438135845, 30.47958275689842 ], [ 79.709330826105401, 30.479986370114787 ], [ 79.710040532541086, 30.480322036260091 ], [ 79.710779722581975, 30.480586522685858 ], [ 79.711541277423876, 30.480777282243224 ], [ 79.71231786287737, 30.480892477813377 ], [ 79.713102, 30.480931 ], [ 79.713886137122643, 30.480892477813377 ], [ 79.714662722576136, 30.480777282243224 ], [ 79.715424277418037, 30.480586522685858 ], [ 79.716163467458927, 30.480322036260091 ], [ 79.716873173894612, 30.479986370114787 ], [ 79.717546561864168, 30.47958275689842 ], [ 79.71817714627332, 30.479115083626901 ], [ 79.718758854249501, 30.47858785424949 ], [ 79.719286083626912, 30.478006146273309 ], [ 79.719753756898427, 30.477375561864157 ], [ 79.720157370114791, 30.476702173894608 ], [ 79.720493036260095, 30.475992467458919 ], [ 79.720757522685858, 30.475253277418034 ], [ 79.720948282243228, 30.474491722576129 ], [ 79.721063477813388, 30.473715137122635 ], [ 79.721102, 30.472931 ] ] ] } }
]
}
