{
  "type": "FeatureCollection",
  "features": [
    {
      "type": "Feature",
      "properties": {
        "platform": "Sentinel-1A SAR C-Band",
        "polarization": "VH",
        "backscatter_threshold_db": -16.0,
        "observation_time": "2021-11-18T04:15:00Z",
        "water_class": "SAR Flood Inundation"
      },
      "geometry": {
        "type": "Polygon",
        "coordinates": [
          [
            [
              76.8725,
              33.19
            ],
            [
              76.946,
              33.204
            ],
            [
              76.97749999999999,
              33.274
            ],
            [
              76.94075,
              33.33
            ],
            [
              76.8935,
              33.302
            ],
            [
              76.8725,
              33.19
            ]
          ]
        ]
      }
    }
  ]
}