{
  "type": "FeatureCollection",
  "features": [
    {
      "type": "Feature",
      "properties": {
        "platform": "Sentinel-1A SAR C-Band",
        "polarization": "VH",
        "backscatter_threshold_db": -16.0,
        "observation_time": "2021-11-18T04:15:00Z",
        "water_class": "SAR Flood Inundation"
      },
      "geometry": {
        "type": "Polygon",
        "coordinates": [
          [
            [
              88.36,
              27.625
            ],
            [
              88.486,
              27.65
            ],
            [
              88.54,
              27.775
            ],
            [
              88.477,
              27.875
            ],
            [
              88.396,
              27.825
            ],
            [
              88.36,
              27.625
            ]
          ]
        ]
      }
    }
  ]
}