{"type": "FeatureCollection", "features": [{"type": "Feature", "properties": {"depth_class": 1, "depth_lo_m": 0.3, "t_s": 5.0}, "geometry": {"type": "MultiPolygon", "coordinates": [[[[79.2127565844242, 14.391496188840165], [79.2145342379689, 14.390131869113008], [79.21561887307752, 14.387040114201149], [79.21917132338042, 14.384655820820013], [79.22166644294697, 14.381919080009075], [79.23052675463228, 14.378541112555718], [79.23303249767433, 14.374426542421599], [79.2376364276575, 14.3730831009335], [79.23906047894525, 14.371715930074778], [79.24122075292745, 14.366565348054383], [79.24727257433146, 14.360754672876846], [79.25187616275191, 14.359410911388478], [79.25473457892834, 14.355298642511858], [79.25969663724193, 14.35326845896816], [79.26396796526923, 14.349166421592038], [79.2664515529887, 14.347806806517537], [79.26754052367538, 14.344025841990518], [79.27003724892361, 14.340944035503593], [79.27007159974558, 14.336466458266914], [79.26832378568176, 14.334042570927146], [79.2672640030776, 14.334034834535325], [79.26619098348044, 14.335749235533585], [79.26615655742046, 14.340226803816138], [79.2647302222393, 14.341938610200957], [79.2643583862425, 14.344347020134698], [79.26329059581704, 14.345372543396225], [79.2604696923364, 14.344662972425633], [79.2552505138019, 14.33429125145314], [79.25349755336214, 14.332556126677575], [79.25390411350742, 14.325670199675441], [79.25146341332508, 14.32151888844619], [79.24908419576894, 14.309445765434564], [79.24069005881158, 14.298705997220182], [79.23965190338973, 14.295942759502976], [79.2378966562333, 14.294551986224098], [79.23190852779545, 14.292440895018686], [79.22664039128671, 14.288612818902761], [79.22489879228895, 14.285499853651745], [79.21890021560456, 14.284766159793742], [79.21503973816404, 14.28163727525273], [79.211165767369, 14.280230438696712], [79.20906311468946, 14.278147993078894], [79.20343164882311, 14.275694500718465], [79.20203268712838, 14.273961749801545], [79.19816442637493, 14.271865890414393], [79.19431819408226, 14.267014640941147], [79.19255797681058, 14.266312421873215], [79.18905133432163, 14.263185868288438], [79.18627032866361, 14.257653738290067], [79.17608231339389, 14.25103176051613], [79.17328235483811, 14.247910423720418], [79.1704658187216, 14.246855540408271], [79.16766043112094, 14.244422977012334], [79.16271980111476, 14.244040558368194], [79.16200802474756, 14.244723943354925], [79.16198850570575, 14.24713482277384], [79.16127671652681, 14.247818203979397], [79.15951118873208, 14.247804591367622], [79.15879380290137, 14.249176785272187], [79.15984754047345, 14.249873780008507], [79.16268077644649, 14.248862318902384], [79.16549450455281, 14.250261704560797], [79.17115260622425, 14.249271845657153], [79.17255395373319, 14.250660322079266], [79.17324077066927, 14.253076624616202], [79.17711952038147, 14.253795170557812], [79.17957753181166, 14.255536122415624], [79.17671103489427, 14.26068074878674], [79.17564887802685, 14.261017057693659], [79.17247904533623, 14.25995947606585], [79.17002105388907, 14.258218452383684], [79.16684851095789, 14.257505215417888], [79.16544716556965, 14.25611670532603], [79.16438780745392, 14.256108553193021], [79.16225235131213, 14.25815870127163], [79.15871833884063, 14.258475868461039], [79.15802048615211, 14.257437182746576], [79.16015876128078, 14.25504266553094], [79.16228025302142, 14.254714590321742], [79.16439338107347, 14.255419730140476], [79.16510797426082, 14.25439193007735], [79.16441845867911, 14.252320025886231], [79.16088732868086, 14.252292825691747], [79.15913573601422, 14.250557152865706], [79.1418108945421, 14.25317826416851], [79.13897189037411, 14.254878272326925], [79.13472888526864, 14.255533979616468], [79.13261871670754, 14.254484182472467], [79.11567236700132, 14.254006464757767], [79.11321208149525, 14.252609316711524], [79.11074322635515, 14.252245350137677], [79.10406594351173, 14.248403718404212], [79.09313739162525, 14.24625009644638], [79.08748506808163, 14.246549278712138], [79.08255637692318, 14.244787627602314], [79.07477976341383, 14.245758267550357], [79.06838907826256, 14.24983961703069], [79.06133317894384, 14.24909354963944], [79.05283546700387, 14.25177965078831], [79.05038159366687, 14.249693127655481], [79.04404980248988, 14.246886000224263], [79.04477672627256, 14.244481072944408], [79.04409727259785, 14.241375795733445], [79.0426879549158, 14.241019830810998], [79.04055764476615, 14.24237999808948], [79.03914535549544, 14.242368399009699], [79.03774497129747, 14.240979245419581], [79.03597962377928, 14.240964725866148], [79.02992366823341, 14.247114189297], [79.02991171163829, 14.248491728262412], [79.03166516403404, 14.249883840469908], [79.03200032638377, 14.25195306410504], [79.03339774441557, 14.253686639718746], [79.03302375413695, 14.256094424178862], [79.02378636627002, 14.262561799549031], [79.02024033109788, 14.264254409016086], [79.01493777641797, 14.264899114944043], [79.01351329715114, 14.266264869365592], [79.01138863265365, 14.266935959380636], [79.00963823117316, 14.265199318865623], [79.00681947872567, 14.264486950800165], [79.00684067184835, 14.262076294541147], [79.01077306399392, 14.256598654831757], [79.01115030641056, 14.253846555390236], [79.01222464454345, 14.252133482164552], [79.01189871699447, 14.24903111126513], [79.0073359368278, 14.245893395090432], [78.99744694722143, 14.246155008752277], [78.9956968052328, 14.24441829783585], [78.99571808532747, 14.24200765396051], [78.99857900575368, 14.2378988162242], [79.01382975384095, 14.230104828939998], [79.01778234894395, 14.222216285974321], [79.01990356688542, 14.221889463281796], [79.02168672354301, 14.21983777971867], [79.02171966913033, 14.216049556950844], [79.02067856259359, 14.21397448819481], [79.01681631117576, 14.211531629090894], [79.01293009436576, 14.211843776031177], [79.01150598121049, 14.21320956584005], [79.01107166160011, 14.222504934946892], [79.00927934943788, 14.225589666882799], [79.00147313374777, 14.230001757693625], [78.99758054201004, 14.23100236743172], [78.99188008016327, 14.236809353000918], [78.99008129173862, 14.240582641636204], [78.9900294647044, 14.246437041971214], [78.99072340698748, 14.247820495594505], [78.99317358463225, 14.250251936490958], [78.99809840715906, 14.25235973880977], [79.00445989775349, 14.251724239486554], [79.00551005452195, 14.252766237663353], [79.00514183342125, 14.25448518169301], [79.00157762623428, 14.258243784253796], [78.99870428838649, 14.263730136004016], [78.99867084318706, 14.26751829049742], [78.99971191404734, 14.26959345237345], [79.00075907919754, 14.270979855940052], [79.0035718118444, 14.272381060481687], [79.00675284599917, 14.272063295673584], [79.01133725595118, 14.272790423267189], [79.01381810973369, 14.271777905012762], [79.01805546567368, 14.271813197791813], [79.02089240795766, 14.270459155755322], [79.02513576005187, 14.269805553364264], [79.03081548266964, 14.266408475640048], [79.03224286201565, 14.264698219663943], [79.03507666272205, 14.263688370803433], [79.03793130201197, 14.260267782843856], [79.04077395361416, 14.258224695575132], [79.04185108409828, 14.256167076247685], [79.04433758999588, 14.254465422798447], [79.04715640005404, 14.255177346618932], [79.0499515456376, 14.258644348248227], [79.05240845809624, 14.260386497138095], [79.05699290187968, 14.261112734871412], [79.05910269023353, 14.262163165297265], [79.06510258446998, 14.262556359851265], [79.06723298241947, 14.261195980735076], [79.06795973586523, 14.258790960070648], [79.07114353080163, 14.258127905915755], [79.07540123222978, 14.255751390519249], [79.08635610353923, 14.25480629560897], [79.08954271958733, 14.25379858490271], [79.10010692597254, 14.257327193656828], [79.10395656913481, 14.261490905343694], [79.10995093034657, 14.262571778871566], [79.1134649232151, 14.264666160358253], [79.12299925374666, 14.264741439797268], [79.12830750126832, 14.263405480227268], [79.15019848599927, 14.263920807954607], [79.15371855638449, 14.265325824953996], [79.16290000017572, 14.265396776099056], [79.17626923973482, 14.271699280686693], [79.18191958341107, 14.271742469148661], [79.18650223182767, 14.27281070715048], [79.19001997432966, 14.27455964574096], [79.19563202182118, 14.27942435345167], [79.20196159638188, 14.282916620033967], [79.20510734524095, 14.287073627645169], [79.20932638107945, 14.289516486650173], [79.21107594554323, 14.291596285420361], [79.21740884063746, 14.294743784718877], [79.22305177084698, 14.29581932910877], [79.22832268843811, 14.29930307246526], [79.23149609584094, 14.300015578917685], [79.23429480738123, 14.303480810717287], [79.23850645365442, 14.3069564928057], [79.24059623627906, 14.310760857650749], [79.24198231313166, 14.314215560023023], [79.24225510854686, 14.324550907439628], [79.2379489841094, 14.333130073108165], [79.23545195969675, 14.336211503666126], [79.23328113808194, 14.342739752340448], [79.23290086804533, 14.34618134031007], [79.23037926702897, 14.352362482058878], [79.22752048485401, 14.356474411469135], [79.22677864750543, 14.36094659057914], [79.2243082990685, 14.360583644979402], [79.22290871539269, 14.358850949158336], [79.22470775487487, 14.354731151759442], [79.22472132784061, 14.353009050811865], [79.22261522202758, 14.351271064192867], [79.22014226883728, 14.35125250728671], [79.21518818690674, 14.35224857155241], [79.21022038928447, 14.354966614336213], [79.20773096653252, 14.35701442503641], [79.20487173437729, 14.361126024879768], [79.20414866589628, 14.363187165511219], [79.20446623862924, 14.367667252616185], [79.20799377121656, 14.368382851324837], [79.21009989239215, 14.370120971091488], [79.21006426411194, 14.374598390784369], [79.20826476676181, 14.37871802097865], [79.20788399133184, 14.38215950771277], [79.20609812530404, 14.384557028341888], [79.20606513006594, 14.388690017083825], [79.20922318272326, 14.391469451116329], [79.2127565844242, 14.391496188840165]], [[79.22878726657159, 14.375083691840628], [79.22561284368362, 14.374371032907533], [79.22387617930603, 14.370569167722293], [79.22388977425172, 14.368847069850968], [79.22568889874685, 14.36472727542178], [79.22746354183678, 14.363707242584418], [79.22889300099344, 14.361651290726968], [79.22928151127886, 14.357176460678755], [79.23142559380467, 14.354092500336353], [79.23495305323193, 14.354807683458512], [79.23811647394571, 14.356897880533381], [79.24376108174813, 14.357973116987557], [79.24729938527983, 14.357310430443261], [79.24943253398295, 14.355603978051038], [79.25155495631105, 14.355275203192935], [79.25082964813508, 14.357680963488425], [79.24658207064351, 14.358682899085535], [79.24017699223575, 14.364490936807446], [79.23839430055382, 14.366544337966127], [79.2373047021588, 14.370325093829884], [79.23623666562534, 14.37135046500519], [79.2316354749589, 14.372349461592414], [79.22878726657159, 14.375083691840628]], [[79.2469648590552, 14.354896846868964], [79.24025236915318, 14.35484709522166], [79.2395538687808, 14.353808578323163], [79.24174615689084, 14.344524880635793], [79.24390603684408, 14.339374226162445], [79.24461524772516, 14.339035031389749], [79.24571790648822, 14.333532077846701], [79.24785884327555, 14.330792336760295], [79.24892127274396, 14.330455732694313], [79.24994629369694, 14.334941080592795], [79.25168588911734, 14.338398358694299], [79.25728222066583, 14.345672906435075], [79.25726357637649, 14.348083891503972], [79.25512522191451, 14.350479282135332], [79.2469648590552, 14.354896846868964]], [[79.2575982133196, 14.35049747320646], [79.26009248510934, 14.347760223392974], [79.26150560933017, 14.347770589921394], [79.26149498006507, 14.349148298599154], [79.25935931578027, 14.35119930446577], [79.25759022198147, 14.351530752339471], [79.2575982133196, 14.35049747320646]], [[79.23610189388395, 14.343449634563875], [79.24003625819064, 14.337278885075179], [79.24149763389417, 14.331089733676373], [79.24400255810923, 14.326974948644077], [79.24619694913589, 14.317346713995152], [79.24479473360157, 14.315958577898169], [79.24342734813035, 14.310092911923647], [79.23853060975883, 14.303856675280976], [79.23502004220136, 14.301075090768125], [79.2336260630214, 14.29865363599925], [79.2283415750704, 14.296892115099862], [79.22377167836125, 14.294102496457437], [79.22130205753601, 14.293739602575249], [79.21813963440738, 14.291649290637956], [79.22133184043005, 14.289950967762671], [79.22241573698822, 14.286859090500574], [79.22347527286422, 14.28686700158749], [79.22486367535456, 14.289977341391207], [79.22767835800023, 14.291376092890715], [79.2294281200129, 14.293455777554211], [79.23717953319274, 14.295924449585913], [79.2399675738446, 14.300767318153724], [79.24347017818151, 14.304582111456655], [79.2480085162927, 14.311504510974869], [79.24797646226959, 14.315637619261016], [79.2500584694992, 14.320475203163186], [79.24932796022455, 14.323569827807255], [79.24755373447414, 14.324590075072944], [79.24467957792658, 14.330768844494287], [79.24217998300746, 14.33419478401554], [79.2421558236358, 14.337294599743306], [79.24107454781016, 14.340042134247327], [79.23643360439364, 14.34620764309222], [79.23610189388395, 14.343449634563875]], [[79.25177930824248, 14.326343454377234], [79.2493119324847, 14.32563638150834], [79.2489693758849, 14.324256074271467], [79.25073558681429, 14.324269093079009], [79.25143673556296, 14.324963148943441], [79.25177930824248, 14.326343454377234]], [[79.21743869088567, 14.290955158275908], [79.21778916210963, 14.29130222465759], [79.2174359775882, 14.291299578913915], [79.21743869088567, 14.290955158275908]], [[79.21673232313348, 14.290949865350518], [79.21251044606078, 14.288851545352705], [79.20444470225839, 14.281557605514784], [79.20197800631266, 14.280850112146128], [79.19952228159988, 14.278764924632032], [79.19529807102185, 14.277010759291045], [79.18969709134227, 14.2707683868948], [79.18758647375326, 14.269719030408933], [79.18830652974819, 14.268002323255185], [79.18901831854856, 14.267318860248906], [79.19184070598031, 14.267684730093789], [79.19499979239441, 14.270119744984765], [79.19744442549958, 14.27358263421147], [79.2013127055127, 14.275678507672325], [79.20341525832399, 14.27776101115373], [79.20728912507292, 14.27916796360372], [79.21219807142239, 14.283682595415113], [79.21323311994502, 14.286790330407511], [79.21605039142085, 14.287844786509217], [79.21638999827529, 14.28956953624278], [79.21744140411087, 14.290610737627453], [79.21673232313348, 14.290949865350518]], [[79.01170548008118, 14.271071469890694], [79.00253069398164, 14.270305909658461], [79.00113041410829, 14.268916550645034], [79.00010148546811, 14.265463881718102], [79.00369919168357, 14.257917153443435], [79.00654811666344, 14.255185751026993], [79.00727546116661, 14.252780994435389], [79.0062313469057, 14.25105024361047], [79.00447503988413, 14.250002342857512], [78.99916979081176, 14.250991114360563], [78.99424193972068, 14.24922771375767], [78.99144173707236, 14.246448934898591], [78.99111914215823, 14.243002195671359], [78.99328925199445, 14.23716560448851], [78.9982775328017, 14.232041422052383], [79.0050066095005, 14.229686891707056], [79.01069150892233, 14.225601429054441], [79.01212775729876, 14.222858129292534], [79.01286692992532, 14.219075800474744], [79.01256203663552, 14.213562752986931], [79.01398314130499, 14.212541338816678], [79.0164542866189, 14.212561850093463], [79.01996052664111, 14.21534617680958], [79.02065159775512, 14.21707394186038], [79.02027459039152, 14.219826087145787], [79.0192094927494, 14.220506078856653], [79.01744732599933, 14.22014705994845], [79.01673525386826, 14.220829967613277], [79.01635818748755, 14.223582098942213], [79.01242057543281, 14.229748700073152], [79.00532640355188, 14.23347802088713], [79.00214289054347, 14.234140217236293], [78.99823808868727, 14.236518342458302], [78.99503020425995, 14.239935457305249], [78.99430887868648, 14.241651412513589], [78.9946284814616, 14.24544253130483], [78.99707868432272, 14.247873934639268], [79.00096247786537, 14.24790650862208], [79.00520843436864, 14.246908833140699], [79.00837702000845, 14.247968520022141], [79.01048037292296, 14.249708098557344], [79.01081835682506, 14.251432946340286], [79.0097440129746, 14.253146012371873], [79.00936675611631, 14.255898107671765], [79.00471906733398, 14.262402948740876], [79.00468875729392, 14.265846738677377], [79.00573594172675, 14.267233122474702], [79.00960798965254, 14.26864311834556], [79.01243284601877, 14.268666700067453], [79.0163321028183, 14.266977163695614], [79.02128460780703, 14.265985118402629], [79.0283826661915, 14.261911045944036], [79.03087530377042, 14.25952078568803], [79.03371202620548, 14.258166559929556], [79.03940918886498, 14.252702901389114], [79.04121327544226, 14.248240376234103], [79.04053683999611, 14.244790707562487], [79.04196102586951, 14.243424750965545], [79.04266717482408, 14.243430543641121], [79.04265232952238, 14.245152481061199], [79.04194023440544, 14.245835462259516], [79.04192538097969, 14.247557398582284], [79.04262560298315, 14.248251967754213], [79.04896036826271, 14.250714746734158], [79.05105818722323, 14.253142788042933], [79.05352096535407, 14.25419614092115], [79.0556188657526, 14.256624151728639], [79.05737845684436, 14.257327321841135], [79.06055635350842, 14.257353191914302], [79.0637460155786, 14.256001453855525], [79.06835682993383, 14.253627935061708], [79.0715610378507, 14.250554113680561], [79.07297340531241, 14.250565527426314], [79.07366497170246, 14.252293199348568], [79.07472133442246, 14.252646145941913], [79.07435654715553, 14.254020870354703], [79.07223503612352, 14.25434814809089], [79.06974870223567, 14.256050119372487], [79.06621183547296, 14.256710294820229], [79.06264847793662, 14.2604699357076], [79.05947053366215, 14.260444087982068], [79.05736075811276, 14.259393662484092], [79.0538326925173, 14.259020474654692], [79.04752431320895, 14.253458296876707], [79.04435243262623, 14.252743484978422], [79.04151880181792, 14.253753467857301], [79.04008263854837, 14.256496958542272], [79.03687796561505, 14.25957029029078], [79.0315516022344, 14.262970464561192], [79.02941203378397, 14.265363647354768], [79.02657819496426, 14.266373422737875], [79.02444454695515, 14.268077783293894], [79.02055433676507, 14.268734311240948], [79.01736129220839, 14.270429795094024], [79.0127708537504, 14.270391548107732], [79.01170548008118, 14.271071469890694]], [[79.18299835590358, 14.269339649281136], [79.17876340644399, 14.268962881079705], [79.17876894162477, 14.268274053218052], [79.18089331768584, 14.267601409833471], [79.183006639492, 14.268306405065571], [79.18299835590358, 14.269339649281136]], [[79.17664732590721, 14.268602262597652], [79.16819700989207, 14.265437548763401], [79.16398171382846, 14.26264965038396], [79.15832326104379, 14.263639294205602], [79.1526928357597, 14.261184707154912], [79.14951190479415, 14.261504466638646], [79.1403532817707, 14.258677765277703], [79.1392939267543, 14.258669500254408], [79.13786731531113, 14.260380504123003], [79.13291796311319, 14.261030648222132], [79.13010152013047, 14.259975292028903], [79.12410421575872, 14.259239325477058], [79.12304771822163, 14.258886584632101], [79.1230534184792, 14.258197777942808], [79.12624282974275, 14.256845158485305], [79.12977680056285, 14.256528475311834], [79.13189547975857, 14.256545082761134], [79.1354124621876, 14.258294749165252], [79.13964986994282, 14.25832784916416], [79.14179114888127, 14.25558911429831], [79.14567822186116, 14.255274941453585], [79.14846940276725, 14.259429790956982], [79.15164188311421, 14.260143268811683], [79.15588216507682, 14.259831674886483], [79.15693313831301, 14.260873096723916], [79.16682067290668, 14.260949334416082], [79.16821927151179, 14.262682252553073], [79.17314645154995, 14.264786671270425], [79.17665286737117, 14.267913435529419], [79.17664732590721, 14.268602262597652]], [[79.11352222715429, 14.257778132981562], [79.1103499640945, 14.25706416614492], [79.10931072793117, 14.25464496397637], [79.11248868391198, 14.25467013751199], [79.11459015046859, 14.256753306858956], [79.11352222715429, 14.257778132981562]], [[79.05986488174291, 14.255625493308859], [79.05739910178262, 14.254916590612146], [79.05776399058554, 14.25354190542389], [79.06130964220102, 14.251848678791506], [79.06342525384241, 14.252210280348335], [79.06341643566408, 14.253243454873884], [79.06163625378854, 14.254951068575222], [79.05986488174291, 14.255625493308859]], [[79.10506770961142, 14.255300133214451], [79.10331657658516, 14.253564099958032], [79.09944398769797, 14.252155584374027], [79.09062230817906, 14.251396288836517], [79.08391057153143, 14.25168688798811], [79.08320728872008, 14.251336818520963], [79.08323346725614, 14.248237257936626], [79.08641418873844, 14.247918371308655], [79.09169607966273, 14.249682779262901], [79.09911108192378, 14.249741979069478], [79.10086791750994, 14.25078923782474], [79.10510222501117, 14.251167334168175], [79.10861025865606, 14.253950562926338], [79.10824853883801, 14.254980963907908], [79.1068303665928, 14.255658555968768], [79.10506770961142, 14.255300133214451]], [[79.15557384963861, 14.254318386832622], [79.15698910683032, 14.25398489601157], [79.15733662691399, 14.254676444862966], [79.15556824969947, 14.25500720652207], [79.15557384963861, 14.254318386832622]], [[79.03695544877823, 14.250616254692561], [79.03732938125526, 14.248208456507921], [79.03874170530185, 14.248220070985806], [79.03872682502707, 14.249942003656685], [79.03695544877823, 14.250616254692561]], [[79.03520493500164, 14.248879790776352], [79.0327333668375, 14.248859422413435], [79.03239819841795, 14.24679019903323], [79.03381945816946, 14.245768684773553], [79.03558484072892, 14.245783225093545], [79.03520493500164, 14.248879790776352]], [[79.16763263199815, 14.247867101349243], [79.16551955766946, 14.247161997049817], [79.16588101137076, 14.246131475377023], [79.1679968575194, 14.246492163029512], [79.16763263199815, 14.247867101349243]], [[79.03558782080233, 14.2454388391118], [79.03631482411299, 14.243033948251075], [79.03737404224744, 14.243042661298785], [79.03807423644159, 14.243737240513086], [79.03805935598446, 14.24545917313801], [79.03558782080233, 14.2454388391118]]], [[[79.22541328174158, 14.309959079739055], [79.22614134026612, 14.307208979627866], [79.22509252634109, 14.305823382886274], [79.22015303650437, 14.305097568375931], [79.21767244502745, 14.306112305052782], [79.21695787859107, 14.30714026763451], [79.21729750355219, 14.308865017583416], [79.22118554974222, 14.308549708338207], [79.22329399208644, 14.309943245113443], [79.22541328174158, 14.309959079739055]]]]}}, {"type": "Feature", "properties": {"depth_class": 2, "depth_lo_m": 1.0, "t_s": 5.0}, "geometry": {"type": "MultiPolygon", "coordinates": [[[[79.0042901677688, 14.271009463699784], [79.01170548008118, 14.271071469890694], [79.0127708537504, 14.270391548107732], [79.01736129220839, 14.270429795094024], [79.02055433676507, 14.268734311240948], [79.02515376595366, 14.267739254503677], [79.02657819496426, 14.266373422737875], [79.02941203378397, 14.265363647354768], [79.0315516022344, 14.262970464561192], [79.03687796561505, 14.25957029029078], [79.04008263854837, 14.256496958542272], [79.04151880181792, 14.253753467857301], [79.04435243262623, 14.252743484978422], [79.04752431320895, 14.253458296876707], [79.0538326925173, 14.259020474654692], [79.05736075811276, 14.259393662484092], [79.05947053366215, 14.260444087982068], [79.06264847793662, 14.2604699357076], [79.06621183547296, 14.256710294820229], [79.06974870223567, 14.256050119372487], [79.07223503612352, 14.25434814809089], [79.07435654715553, 14.254020870354703], [79.07472133442246, 14.252646145941913], [79.07366497170246, 14.252293199348568], [79.07297340531241, 14.250565527426314], [79.0715610378507, 14.250554113680561], [79.06835682993383, 14.253627935061708], [79.0637460155786, 14.256001453855525], [79.06055635350842, 14.257353191914302], [79.05737845684436, 14.257327321841135], [79.0556188657526, 14.256624151728639], [79.05352096535407, 14.25419614092115], [79.05105818722323, 14.253142788042933], [79.04896036826271, 14.250714746734158], [79.04262560298315, 14.248251967754213], [79.04192538097969, 14.247557398582284], [79.04266717482408, 14.243430543641121], [79.04196102586951, 14.243424750965545], [79.04053683999611, 14.244790707562487], [79.04121327544226, 14.248240376234103], [79.03940918886498, 14.252702901389114], [79.03371202620548, 14.258166559929556], [79.03087530377042, 14.25952078568803], [79.0283826661915, 14.261911045944036], [79.02128460780703, 14.265985118402629], [79.0163321028183, 14.266977163695614], [79.01243284601877, 14.268666700067453], [79.00960798965254, 14.26864311834556], [79.00573594172675, 14.267233122474702], [79.00468875729392, 14.265846738677377], [79.00471906733398, 14.262402948740876], [79.00936675611631, 14.255898107671765], [79.0097440129746, 14.253146012371873], [79.01081835682506, 14.251432946340286], [79.01048037292296, 14.249708098557344], [79.00837702000845, 14.247968520022141], [79.00520843436864, 14.246908833140699], [79.00096247786537, 14.24790650862208], [78.99707868432272, 14.247873934639268], [78.9946284814616, 14.24544253130483], [78.99430887868648, 14.241651412513589], [78.99503020425995, 14.239935457305249], [78.99823808868727, 14.236518342458302], [79.00214289054347, 14.234140217236293], [79.00532640355188, 14.23347802088713], [79.01242057543281, 14.229748700073152], [79.01635818748755, 14.223582098942213], [79.01673525386826, 14.220829967613277], [79.01744732599933, 14.22014705994845], [79.0192094927494, 14.220506078856653], [79.02027459039152, 14.219826087145787], [79.02065159775512, 14.21707394186038], [79.01996052664111, 14.21534617680958], [79.0164542866189, 14.212561850093463], [79.01398314130499, 14.212541338816678], [79.01256203663552, 14.213562752986931], [79.01286692992532, 14.219075800474744], [79.01212775729876, 14.222858129292534], [79.01069150892233, 14.225601429054441], [79.0050066095005, 14.229686891707056], [78.9982775328017, 14.232041422052383], [78.99328925199445, 14.23716560448851], [78.99111914215823, 14.243002195671359], [78.99144173707236, 14.246448934898591], [78.99424193972068, 14.24922771375767], [78.99916979081176, 14.250991114360563], [79.00447503988413, 14.250002342857512], [79.00692842976565, 14.2520892845286], [79.00726638703183, 14.253814133973124], [79.00369919168357, 14.257917153443435], [79.00046673559675, 14.264089332379319], [79.0000923702338, 14.266497015623962], [79.00253069398164, 14.270305909658461], [79.0042901677688, 14.271009463699784]], [[79.0060597025142, 14.23038449606296], [79.01102948361701, 14.227326275342302], [79.01318385684436, 14.223211319384776], [79.01356396764666, 14.22011481578819], [79.01428205856308, 14.218743153884255], [79.01534415422866, 14.218407567444139], [79.01530207944494, 14.223228922034531], [79.01243563294904, 14.22802679191424], [79.00782191697358, 14.23074360672426], [79.00640670696174, 14.231076203742116], [79.0060597025142, 14.23038449606296]], [[79.01570319246804, 14.21772173310441], [79.01325905938336, 14.214601767257722], [79.013974124304, 14.213574486052321], [79.01574223877931, 14.213244757903844], [79.01749234664743, 14.214981314741609], [79.01747734177185, 14.216703230073602], [79.01570319246804, 14.21772173310441]]], [[[79.03772413880982, 14.24338995109893], [79.03631482411299, 14.243033948251075], [79.03558782080233, 14.2454388391118], [79.03805935598446, 14.24545917313801], [79.03772413880982, 14.24338995109893]]], [[[79.03484887165719, 14.249221268305698], [79.03558484072892, 14.245783225093545], [79.03381945816946, 14.245768684773553], [79.03239819841795, 14.24679019903323], [79.03238625711815, 14.248167740093324], [79.03343654469286, 14.249209629991963], [79.03484887165719, 14.249221268305698]]], [[[79.1068303665928, 14.255658555968768], [79.10824853883801, 14.254980963907908], [79.10861025865606, 14.253950562926338], [79.10510222501117, 14.251167334168175], [79.10086791750994, 14.25078923782474], [79.09911108192378, 14.249741979069478], [79.09169607966273, 14.249682779262901], [79.08641418873844, 14.247918371308655], [79.08323346725614, 14.248237257936626], [79.08320728872008, 14.251336818520963], [79.08391057153143, 14.25168688798811], [79.09062230817906, 14.251396288836517], [79.09944398769797, 14.252155584374027], [79.10331657658516, 14.253564099958032], [79.10506483282897, 14.255644533066759], [79.1068303665928, 14.255658555968768]]], [[[79.15733942416966, 14.254332034669766], [79.15592976371755, 14.253976707515228], [79.15556824969947, 14.25500720652207], [79.15698071345741, 14.2550181263853], [79.15733942416966, 14.254332034669766]]], [[[79.11352222715429, 14.257778132981562], [79.11424276638363, 14.256061711286776], [79.11248868391198, 14.25467013751199], [79.10931072793117, 14.25464496397637], [79.11070020538457, 14.25741136514615], [79.11352222715429, 14.257778132981562]]], [[[79.17664732590721, 14.268602262597652], [79.17314645154995, 14.264786671270425], [79.16821927151179, 14.262682252553073], [79.16682067290668, 14.260949334416082], [79.15693313831301, 14.260873096723916], [79.15588216507682, 14.259831674886483], [79.15164188311421, 14.260143268811683], [79.14846940276725, 14.259429790956982], [79.14567822186116, 14.255274941453585], [79.14179114888127, 14.25558911429831], [79.13964986994282, 14.25832784916416], [79.1354124621876, 14.258294749165252], [79.13189547975857, 14.256545082761134], [79.12624282974275, 14.256845158485305], [79.1230534184792, 14.258197777942808], [79.12304771822163, 14.258886584632101], [79.12410421575872, 14.259239325477058], [79.13010152013047, 14.259975292028903], [79.13291796311319, 14.261030648222132], [79.13786731531113, 14.260380504123003], [79.1392939267543, 14.258669500254408], [79.1403532817707, 14.258677765277703], [79.14951190479415, 14.261504466638646], [79.1526928357597, 14.261184707154912], [79.15832326104379, 14.263639294205602], [79.16398171382846, 14.26264965038396], [79.16679004246872, 14.264737864105594], [79.17348016057521, 14.267200268748727], [79.17453125438831, 14.268241626102602], [79.17664732590721, 14.268602262597652]]], [[[79.16798851883074, 14.247525400456862], [79.16764653248764, 14.246145039311449], [79.165525124211, 14.246473173043482], [79.1662202042559, 14.247856249880241], [79.16798851883074, 14.247525400456862]]], [[[79.183006639492, 14.268306405065571], [79.1794779902729, 14.26793503633747], [79.17876340644399, 14.268962881079705], [79.18299835590358, 14.269339649281136], [79.183006639492, 14.268306405065571]]], [[[79.2177918748702, 14.290957803953201], [79.2174359775882, 14.291299578913915], [79.21778916210963, 14.29130222465759], [79.2177918748702, 14.290957803953201]]], [[[79.21743869088567, 14.290955158275908], [79.21605039142085, 14.287844786509217], [79.21323311994502, 14.286790330407511], [79.21219807142239, 14.283682595415113], [79.20728912507292, 14.27916796360372], [79.20341525832399, 14.27776101115373], [79.2013127055127, 14.275678507672325], [79.19744442549958, 14.27358263421147], [79.19499979239441, 14.270119744984765], [79.19184070598031, 14.267684730093789], [79.18901831854856, 14.267318860248906], [79.18830652974819, 14.268002323255185], [79.18758647375326, 14.269719030408933], [79.18969709134227, 14.2707683868948], [79.19529807102185, 14.277010759291045], [79.19952228159988, 14.278764924632032], [79.20197800631266, 14.280850112146128], [79.20444470225839, 14.281557605514784], [79.21251044606078, 14.288851545352705], [79.21743869088567, 14.290955158275908]]], [[[79.23608033043645, 14.346205015179788], [79.24071590763982, 14.340728361481675], [79.2421558236358, 14.337294599743306], [79.24217998300746, 14.33419478401554], [79.24467957792658, 14.330768844494287], [79.24755373447414, 14.324590075072944], [79.24932796022455, 14.323569827807255], [79.25005046109585, 14.321508480734371], [79.24797646226959, 14.315637619261016], [79.2480085162927, 14.311504510974869], [79.24347017818151, 14.304582111456655], [79.2399675738446, 14.300767318153724], [79.23717953319274, 14.295924449585913], [79.2294281200129, 14.293455777554211], [79.22767835800023, 14.291376092890715], [79.22486367535456, 14.289977341391207], [79.22347527286422, 14.28686700158749], [79.22241573698822, 14.286859090500574], [79.22133184043005, 14.289950967762671], [79.21813963440738, 14.291649290637956], [79.22130205753601, 14.293739602575249], [79.22377167836125, 14.294102496457437], [79.2283415750704, 14.296892115099862], [79.2336260630214, 14.29865363599925], [79.23502004220136, 14.301075090768125], [79.23853060975883, 14.303856675280976], [79.24342734813035, 14.310092911923647], [79.24479473360157, 14.315958577898169], [79.24619694913589, 14.317346713995152], [79.24400255810923, 14.326974948644077], [79.24149763389417, 14.331089733676373], [79.24003625819064, 14.337278885075179], [79.23646324702221, 14.342418993849668], [79.23608033043645, 14.346205015179788]]], [[[79.25178464385333, 14.325654602314865], [79.25073558681429, 14.324269093079009], [79.2489693758849, 14.324256074271467], [79.25036365551908, 14.326677470871276], [79.25142339402132, 14.326685278799868], [79.25178464385333, 14.325654602314865]]], [[[79.25759022198147, 14.351530752339471], [79.26149498006507, 14.349148298599154], [79.26150560933017, 14.347770589921394], [79.25973654432369, 14.348102057307472], [79.2575982133196, 14.35049747320646], [79.25759022198147, 14.351530752339471]]], [[[79.22701796304217, 14.375414884094617], [79.2316354749589, 14.372349461592414], [79.23623666562534, 14.37135046500519], [79.2373047021588, 14.370325093829884], [79.23839430055382, 14.366544337966127], [79.24017699223575, 14.364490936807446], [79.24658207064351, 14.358682899085535], [79.25082964813508, 14.357680963488425], [79.25155495631105, 14.355275203192935], [79.24943253398295, 14.355603978051038], [79.24729938527983, 14.357310430443261], [79.24376108174813, 14.357973116987557], [79.23811647394571, 14.356897880533381], [79.23495305323193, 14.354807683458512], [79.23142559380467, 14.354092500336353], [79.22928151127886, 14.357176460678755], [79.22889300099344, 14.361651290726968], [79.22746354183678, 14.363707242584418], [79.22568889874685, 14.36472727542178], [79.22388977425172, 14.368847069850968], [79.22387617930603, 14.370569167722293], [79.22561284368362, 14.374371032907533], [79.22701796304217, 14.375414884094617]]]]}}, {"type": "Feature", "properties": {"depth_class": 3, "depth_lo_m": 2.0, "t_s": 5.0}, "geometry": {"type": "MultiPolygon", "coordinates": [[[[79.01499713486442, 14.21771587104353], [79.01747734177185, 14.216703230073602], [79.01749234664743, 14.214981314741609], [79.01644528081957, 14.213594998880744], [79.0146831733014, 14.213235966913322], [79.01361809590493, 14.213915935883495], [79.01325304503077, 14.215290531669957], [79.01499713486442, 14.21771587104353]], [[79.01466514401208, 14.215302262050708], [79.01467415901853, 14.214269114529362], [79.01608325009653, 14.214625218508985], [79.01572121552991, 14.215655437078953], [79.01466514401208, 14.215302262050708]]], [[[79.00675975461105, 14.231079150420639], [79.0120795769402, 14.228368235817829], [79.01315075179531, 14.226999520236248], [79.01530207944494, 14.223228922034531], [79.01534415422866, 14.218407567444139], [79.01428205856308, 14.218743153884255], [79.01356396764666, 14.22011481578819], [79.01318385684436, 14.223211319384776], [79.011744605608, 14.22629900836062], [79.01067342702336, 14.227667717035072], [79.00641576991974, 14.230043062784292], [79.00605668099406, 14.230728876308007], [79.00675975461105, 14.231079150420639]]]]}}, {"type": "Feature", "properties": {"depth_class": 4, "depth_lo_m": 3.0, "t_s": 5.0}, "geometry": {"type": "Polygon", "coordinates": [[[79.01466213884916, 14.215646644536777], [79.0143181302978, 14.214610565380362], [79.01573322929738, 14.214277906184874], [79.01607724427977, 14.215313984103753], [79.01466213884916, 14.215646644536777]]]}}]}