{"type": "FeatureCollection", "features": [{"type": "Feature", "properties": {"depth_class": 1, "depth_lo_m": 0.3, "t_s": 18000.055472016556}, "geometry": {"type": "MultiPolygon", "coordinates": [[[[79.05881443134753, 14.25458370111236], [79.06270436612489, 14.25392650238486], [79.06341937513533, 14.252899063375887], [79.0630751010691, 14.251863021785732], [79.06131258456882, 14.251504287684314], [79.05847312471772, 14.253203264872312], [79.05881443134753, 14.25458370111236]]], [[[79.18284755414611, 14.419511636386773], [79.18957567138635, 14.417841181532031], [79.19065803820897, 14.415094015589025], [79.19955598046509, 14.40724004595359], [79.20238840337052, 14.406572750067207], [79.20449755356637, 14.407966536145073], [79.20626437871255, 14.407979961930579], [79.20663150824048, 14.40626056932609], [79.20523183181137, 14.404527758099146], [79.20489224644776, 14.402802998049895], [79.20988044661259, 14.397674294855424], [79.21167736760702, 14.393899089345467], [79.21522996993527, 14.391514873864544], [79.21703494285349, 14.386706356399747], [79.2198752574515, 14.385005558777234], [79.22272642486939, 14.381927045918953], [79.23123340196418, 14.378546396016828], [79.23195900659512, 14.37614073133824], [79.23338581532138, 14.374429179936971], [79.2369243955298, 14.373766682351532], [79.23905778275501, 14.37206035241931], [79.2408593686643, 14.367595992094147], [79.24762587323237, 14.360757286707756], [79.25152019043323, 14.359752729143999], [79.25508787068472, 14.35530124425014], [79.26040587621884, 14.352929219576172], [79.26325608805327, 14.349850101146846], [79.26680483520681, 14.347809389473591], [79.26789380017294, 14.344028422659202], [79.27039052106116, 14.340946611912514], [79.27042750621753, 14.336124604682285], [79.26868233370604, 14.333356290849919], [79.2686955500156, 14.331634146107211], [79.26976588747009, 14.330264158085383], [79.26978965533185, 14.32716429477284], [79.26802076051236, 14.327495844091066], [79.26659188428569, 14.329552102745087], [79.26584036847487, 14.335402225448796], [79.26616450295137, 14.339193518984755], [79.26473552434639, 14.341249754278731], [79.26436369041396, 14.34365816448827], [79.26258404040955, 14.345367367347825], [79.26117358762603, 14.345012581738175], [79.25455465636514, 14.332908350095806], [79.25494254391249, 14.328433403951708], [79.25391210670126, 14.324636920331963], [79.25181665155979, 14.321521489062132], [79.25080495853327, 14.3153140164551], [79.25010383838185, 14.314619961815668], [79.24979330125095, 14.30910654277703], [79.24139645996229, 14.298711221816026], [79.24001045907193, 14.29525652365106], [79.23649193748643, 14.293508244770331], [79.23263642743056, 14.289690755553133], [79.23122638041966, 14.289335835453311], [79.22983519529431, 14.286569946086491], [79.22843056463184, 14.285526166336847], [79.22173102541652, 14.284098440975919], [79.21786238127937, 14.282002861970208], [79.21822639203994, 14.280627821123844], [79.22176078019473, 14.28030980221614], [79.22248333645952, 14.278248544815256], [79.21507231373725, 14.277504228975479], [79.21120928891307, 14.274719721036355], [79.20520016573197, 14.275363395097461], [79.20449931090205, 14.27466923422025], [79.20453751962812, 14.269847371826593], [79.20314677034797, 14.267081373994381], [79.20033255853001, 14.265682382492063], [79.19715155126133, 14.266002778536329], [79.19541051998641, 14.262889659528229], [79.19083624653074, 14.26078836149348], [79.18943471878369, 14.259399972953016], [79.18349496000445, 14.25143275883265], [79.18103143320644, 14.250380678318583], [79.17822587786972, 14.247948221193903], [79.17610999077321, 14.247587620782241], [79.16907561601656, 14.244089404638748], [79.16554738740389, 14.243717876599996], [79.16345107153585, 14.24094628856591], [79.1602843746213, 14.239544172270325], [79.15925858754441, 14.2354030738606], [79.1560472677722, 14.239511481046508], [79.15074248650494, 14.24050373937836], [79.14999140514246, 14.246008812910349], [79.14679100786984, 14.248739420362433], [79.14606791922691, 14.250800382467505], [79.14500296697935, 14.251480963045006], [79.14252839236447, 14.251806135751107], [79.13933630074479, 14.253503400889183], [79.12450573921843, 14.253387240836087], [79.12275160257283, 14.251995737103064], [79.12171794376593, 14.248887767922438], [79.11961361422614, 14.2471490640261], [79.11820122956007, 14.247137928941235], [79.11744932906974, 14.252642798057845], [79.11498046108811, 14.252278874490692], [79.11287902664591, 14.250195712514977], [79.11288475413441, 14.249506909365957], [79.11501192822111, 14.248490452709083], [79.11893310499892, 14.2440438714437], [79.11968206352638, 14.238883389222329], [79.1179366218816, 14.236458656964334], [79.11652144959194, 14.236791922816138], [79.1154450672064, 14.238849979107142], [79.11541648783577, 14.242294002597898], [79.11646146739955, 14.244024376676146], [79.11644432344889, 14.246090791215876], [79.11432289985444, 14.246418460508236], [79.11218142175966, 14.249156920604591], [79.10935664080341, 14.249134551044554], [79.10407745015034, 14.247026118897539], [79.09456131278186, 14.244883787039807], [79.08925920934416, 14.245530232047567], [79.08679340288253, 14.244821635091109], [79.08398324934976, 14.243076992070316], [79.08399777909095, 14.241355012099195], [79.08721320787818, 14.2369033420698], [79.08761556026755, 14.231051422176854], [79.0862207018703, 14.228973729497737], [79.08410233594348, 14.228956748561373], [79.08161347096699, 14.231003288962347], [79.07878023145372, 14.232013771665933], [79.07628545678543, 14.234749035156186], [79.07240463398355, 14.234373321346716], [79.07098359539829, 14.235395097622805], [79.07026283214263, 14.237111358755731], [79.066025991284, 14.237077076029784], [79.06424303431977, 14.239129121999156], [79.06351045982379, 14.242222921722048], [79.06244829031904, 14.242558716723067], [79.058170128436, 14.247345751758798], [79.05462453449407, 14.249038938252614], [79.05144676547009, 14.249013003951902], [79.04899885324795, 14.246237694058033], [79.04546805460389, 14.246208797886442], [79.04624236817256, 14.238293650963579], [79.04484492082491, 14.236560148098507], [79.04342969784852, 14.236892966866055], [79.04021646116142, 14.240999550891852], [79.03492637620023, 14.240267235900044], [79.02815828135695, 14.247099605776272], [79.02813434549357, 14.24985468060315], [79.02989377435088, 14.250558036394454], [79.03128817936503, 14.252636006265805], [79.03089922327297, 14.256765708526364], [79.02842458225463, 14.257089668691258], [79.02597091652174, 14.255002916507191], [79.02314620707452, 14.254979517169998], [79.02136574692516, 14.256686789266011], [79.02135072557277, 14.258408702649277], [79.02274508404231, 14.260486717359212], [79.02202687434647, 14.261858389757476], [79.01919306048508, 14.262868078952158], [79.01319942877693, 14.261784975448053], [79.01177194249513, 14.263495101489713], [79.01176288173528, 14.26452824293623], [79.00859102821163, 14.263812950124334], [79.00788785647099, 14.263462668732695], [79.00790298557615, 14.261740770186314], [79.01148225961911, 14.256260164437963], [79.01149735348996, 14.254538261077975], [79.01293382371246, 14.251794985237174], [79.01260788618332, 14.248692614028412], [79.00980441536151, 14.246258402857409], [79.00734198261772, 14.245204634923857], [78.99815915934506, 14.245472177922359], [78.9967529649296, 14.244771569810174], [78.99642117134802, 14.242357960712415], [78.99927905196111, 14.238593492157053], [79.00354299189836, 14.235529546885365], [79.01275856545799, 14.231473545862919], [79.01525096745553, 14.229083421263152], [79.0177613334905, 14.224626966335107], [79.0181323838533, 14.22256359707371], [79.02132769791919, 14.220523624848338], [79.02172266370303, 14.215705172999746], [79.02103158677058, 14.213977410345805], [79.01787537009876, 14.211540409606993], [79.01257707523628, 14.211840842354107], [79.01114392998348, 14.214239775182309], [79.01144878729457, 14.219752819826976], [79.00928839570648, 14.224556523639322], [79.00431563829628, 14.22795909358044], [78.99651836951438, 14.23133786340471], [78.99117397358937, 14.236803412811353], [78.98937212515428, 14.240921071012462], [78.98967334689925, 14.246778443755712], [78.9924674357053, 14.250245994642905], [78.9970361307832, 14.252695223538097], [79.00445081150484, 14.252757377337346], [79.00407955276978, 14.254820697822314], [79.0012306072774, 14.257552067521894], [78.99800113617117, 14.263379827444762], [78.99831165754794, 14.268204079532977], [78.9997027942877, 14.270626585675462], [79.00180625663961, 14.27236625642088], [79.00391885493309, 14.273072776887737], [79.01203743951855, 14.27348507893716], [79.0141651854942, 14.272469610456062], [79.01911179561338, 14.272166391018358], [79.02265496366678, 14.270818199059129], [79.02371129911906, 14.271171372229496], [79.02545585954829, 14.273596694537765], [79.02757456803273, 14.273614249055756], [79.02900202200115, 14.271904022462445], [79.02974418518589, 14.267777256071618], [79.0325870007972, 14.265734289273615], [79.03505278186775, 14.266443453309487], [79.03717441794052, 14.26611652821652], [79.03824268557534, 14.265092093389008], [79.03862856538315, 14.261306752680085], [79.04254835689383, 14.257206035632244], [79.04360467465112, 14.257559116779456], [79.04391915507637, 14.26203904867702], [79.04601997094775, 14.264122751081034], [79.05061037457936, 14.26416034148931], [79.0548654099287, 14.26212862525097], [79.05661323023949, 14.264209364967972], [79.05872894159266, 14.264571021539123], [79.06085644521134, 14.263555097556656], [79.06615016191986, 14.263942523744403], [79.06970180416471, 14.261560401296975], [79.07217649317552, 14.261236011183476], [79.07432438858798, 14.25780920042679], [79.07750816198165, 14.25714605709489], [79.07820269635931, 14.258529327478746], [79.07571634903542, 14.260231360337473], [79.07534277940357, 14.262639265680777], [79.07851786564932, 14.263009300045407], [79.08062196399001, 14.264748343797958], [79.0834439803513, 14.265115473036609], [79.08696062023725, 14.266865823795111], [79.08871170172549, 14.268601972656407], [79.09044539604038, 14.272404490506318], [79.09289701190764, 14.274835071356168], [79.09606943128799, 14.275549293670856], [79.09923320554137, 14.277296670353866], [79.10202079681433, 14.281796384385114], [79.10870470346883, 14.284949381196855], [79.11682724172398, 14.285013783747807], [79.12142969141102, 14.283672453635871], [79.12462519318724, 14.281631097789887], [79.12891422864782, 14.275465172116826], [79.1282335534856, 14.272359987045535], [79.1286094451726, 14.269607528884391], [79.13252512829565, 14.26584955340455], [79.13676267019615, 14.26588272187848], [79.1406357928003, 14.267290686536935], [79.14312182458119, 14.265587926406898], [79.14665594172541, 14.265271006775176], [79.1547330878581, 14.270844578436696], [79.1607280967594, 14.271924232652974], [79.1660252525122, 14.271965071840796], [79.17377223549101, 14.27478005919587], [79.17586894996299, 14.277551601443365], [79.1807882266036, 14.280689148297839], [79.18670920250797, 14.291067394868442], [79.18953187421297, 14.29143332592101], [79.1944818876002, 14.290782066147592], [79.19414245097732, 14.289057304618517], [79.19027403840678, 14.286961297736466], [79.18922829752967, 14.285231161683841], [79.1892475809844, 14.28282025322522], [79.19208665977419, 14.28111964619785], [79.19558536098491, 14.285279438340106], [79.20649275315864, 14.290528463991512], [79.20964685863376, 14.29365217400595], [79.21211100095232, 14.294704025756632], [79.21349655334556, 14.298158837116874], [79.21596619916649, 14.29852181610644], [79.2205712956219, 14.296834110094759], [79.22268775281738, 14.297194376240325], [79.22337790847396, 14.299266183048285], [79.22583678528082, 14.30100675037206], [79.22582327206955, 14.302728859889662], [79.22475284225357, 14.304098637306497], [79.22298139881113, 14.304774286067943], [79.2198052547714, 14.30440608226711], [79.21732738640779, 14.305076395858348], [79.21625689688358, 14.306446127492714], [79.21658292531036, 14.30989297760372], [79.22153334078281, 14.30924119342455], [79.22681533149465, 14.311347313009312], [79.22752717055444, 14.31066373944358], [79.22790199496421, 14.30791099709945], [79.22967345387573, 14.30723531295634], [79.23211899327825, 14.31069794385916], [79.23422484140835, 14.312435816587946], [79.23528450388471, 14.312443688877284], [79.2363791141026, 14.307974049267912], [79.23813981546981, 14.308675995156689], [79.24161300094686, 14.316279492856552], [79.24119270157848, 14.324887483848533], [79.23795436457371, 14.332441226564098], [79.23509600629201, 14.336553298719542], [79.23290086804533, 14.34618134031007], [79.23183023921347, 14.347551126122157], [79.23037926702897, 14.352362482058878], [79.22789003363859, 14.35441052955768], [79.22720243805915, 14.35199430009091], [79.22439790558329, 14.349217781947317], [79.22228368310266, 14.348513056008738], [79.21769111559775, 14.348478572732338], [79.21593292728345, 14.347432030141515], [79.21559329084202, 14.34570727804198], [79.2170199911463, 14.343995813217154], [79.21634070885118, 14.340546310334902], [79.21388425162918, 14.338461190183212], [79.21141145073842, 14.338442558489826], [79.2064384619164, 14.341849389341613], [79.20357943452564, 14.34596099822236], [79.20038352965176, 14.3480033828656], [79.20001650316097, 14.349722779302905], [79.20069829134887, 14.352827884939304], [79.19601739335093, 14.363814242089726], [79.19246509630996, 14.366198201416655], [79.19138582842135, 14.368601003077536], [79.18960547041654, 14.370309567663437], [79.1803889780178, 14.374027665856772], [79.1789757515661, 14.37401679657399], [79.17612975004626, 14.376405905120796], [79.17646071428499, 14.379163910569945], [79.17855269388916, 14.382624346004016], [79.18205803724463, 14.386095637787603], [79.18417799486969, 14.386111924322709], [79.18809235818823, 14.38269761001928], [79.19059887906852, 14.378583586225803], [79.19451301264155, 14.375169136792625], [79.19769833773172, 14.374504545095135], [79.20762949304668, 14.369757843144715], [79.20938779703489, 14.37080446124636], [79.20936037949663, 14.374248628854332], [79.20792791725832, 14.376648847176915], [79.20718283557545, 14.381465321073328], [79.20504364206343, 14.383860155307708], [79.20467105499772, 14.38626838233564], [79.2021729392928, 14.389349328180453], [79.19965542722655, 14.394841139044091], [79.19360426848827, 14.400305919063877], [79.18894957112367, 14.407847819997484], [79.18361847984247, 14.41159563350384], [79.18076361271727, 14.415017970863936], [79.18039626713173, 14.41673729722049], [79.18109183871664, 14.418120384729095], [79.18284755414611, 14.419511636386773]], [[79.20388177756303, 14.396595472150373], [79.20354496248635, 14.394526296642693], [79.20463252413998, 14.391090197905818], [79.20677454878046, 14.388350961468243], [79.2078675143058, 14.384226004719343], [79.20929180383729, 14.382859043273234], [79.21039839184185, 14.377011980634627], [79.21183083230633, 14.374611744633288], [79.21186916289643, 14.369789903301628], [79.20941520730227, 14.367360292587074], [79.20588219126546, 14.367333548867967], [79.20233267241389, 14.369373245799142], [79.19950073214977, 14.370040597522006], [79.19667430051508, 14.370019084526334], [79.19633756295723, 14.367949906700385], [79.19954757986739, 14.364185541659838], [79.19992290932596, 14.361432905280628], [79.20316574068381, 14.35353547895213], [79.20319595839857, 14.349746900820985], [79.20532931473527, 14.348040874775007], [79.208544346136, 14.343587496427526], [79.21209611630634, 14.341203230258957], [79.21350643353047, 14.341558296464738], [79.21384332209924, 14.34362746800224], [79.21206060241074, 14.345680665753603], [79.21203874160993, 14.34843600979186], [79.2166067582127, 14.351570371457157], [79.22155810338404, 14.35091869471083], [79.22437076038338, 14.352661984072892], [79.22471318427736, 14.354042311411888], [79.22150099192753, 14.358151505738745], [79.22113137546378, 14.360215369615632], [79.22499316165573, 14.363344300603721], [79.22782497662944, 14.362676624978985], [79.22928692765969, 14.356487618760744], [79.23142829814694, 14.35374807889261], [79.23319472332085, 14.353761254613557], [79.2381191686091, 14.356553457924049], [79.24270657621693, 14.35727641124834], [79.24517962575464, 14.357294740325818], [79.25050043415182, 14.35457853070435], [79.25297613592585, 14.354252349676637], [79.25189488005566, 14.356999935567158], [79.25047100140445, 14.358367204704708], [79.24693268456436, 14.359029937760424], [79.24088359913482, 14.364496186436844], [79.2387422154633, 14.367235810932158], [79.23765531611706, 14.370672146359535], [79.236231264672, 14.372039308654188], [79.23198337472633, 14.373040942826712], [79.22948034417308, 14.376811081463131], [79.2202640419761, 14.380530777177613], [79.21847831177611, 14.382928408391079], [79.21421101166045, 14.38634061125271], [79.21347969989576, 14.389435027974931], [79.20957377731719, 14.39181654350576], [79.20600185986378, 14.396611574601748], [79.20388177756303, 14.396595472150373]], [[79.22642806562331, 14.360599525321227], [79.22466974098548, 14.359553033016907], [79.22503932384224, 14.357489159647724], [79.227169907829, 14.356127347853768], [79.22714279138717, 14.359571553168568], [79.22642806562331, 14.360599525321227]], [[79.24025506015002, 14.354502672155816], [79.23992061121514, 14.352089087157418], [79.24246612915411, 14.342807999484863], [79.24497119278125, 14.33869322091239], [79.24642977319718, 14.332848450254579], [79.24856000003506, 14.331486402062371], [79.25168321872239, 14.338742784343559], [79.25483861528788, 14.341866031193117], [79.25728222066583, 14.345672906435075], [79.25726357637649, 14.348083891503972], [79.25370674617133, 14.351157727003558], [79.24555170114807, 14.354886388620082], [79.24025506015002, 14.354502672155816]], [[79.25510654803503, 14.352890263449396], [79.259741864067, 14.347413203574709], [79.26221482792532, 14.347431342705574], [79.26220420325704, 14.34880905194324], [79.25970994136863, 14.351546325343062], [79.25616641239834, 14.352898064142927], [79.25510654803503, 14.352890263449396]], [[79.2350043236953, 14.348263662126634], [79.23575401553568, 14.342758161524104], [79.23861783567773, 14.337957244635193], [79.23935393511067, 14.334173831640076], [79.24330679080494, 14.325592023886617], [79.24337914251818, 14.316292559250215], [79.24060964485038, 14.309038735516022], [79.2367591970755, 14.304532431737618], [79.23394429124654, 14.303133763904036], [79.23184391030095, 14.300707051506963], [79.22831999006037, 14.299647494904212], [79.2248123287206, 14.296521358756516], [79.22234809246682, 14.295469629655019], [79.21740069814255, 14.295777046256458], [79.21529785431956, 14.293694634839122], [79.21072003821719, 14.291938049014735], [79.20791638855229, 14.289161432708717], [79.19770987157679, 14.284606658711677], [79.19665859178897, 14.283565383479088], [79.19632737260176, 14.280807372615099], [79.18896602195525, 14.273862761107193], [79.18615183941083, 14.272463603155083], [79.17909717689271, 14.271376477738391], [79.17802943130174, 14.2724016188398], [79.17766243303109, 14.2741209855255], [79.17660298355196, 14.274112877636695], [79.17310203646402, 14.270297277276363], [79.16500765017379, 14.266790744670303], [79.15300948749497, 14.265664761575817], [79.15160538504918, 14.26462058389879], [79.14843284398519, 14.263907098256361], [79.14384218353356, 14.263871391909392], [79.14242403141448, 14.264549201578895], [79.13254215050118, 14.263783123175122], [79.12684947381398, 14.268904846328931], [79.12714567070195, 14.275795697487682], [79.12393315841928, 14.279903518590178], [79.12109082876302, 14.281947655087825], [79.11543182562212, 14.282936196605649], [79.11296838045998, 14.281883411471771], [79.11369476157797, 14.279478202938565], [79.11618396995789, 14.277431365442773], [79.11901483478115, 14.276764893463586], [79.12043883564668, 14.275398437091194], [79.12223593852345, 14.271623934826817], [79.12508666568529, 14.268546555524932], [79.12545973468156, 14.266138509007556], [79.12193988094363, 14.264733094224805], [79.11310606778342, 14.26535216728234], [79.11028969615549, 14.264296581933042], [79.10958058229687, 14.264635381757943], [79.10991073081792, 14.26739338657477], [79.10814510256101, 14.267379375198603], [79.1063909847631, 14.265987751584957], [79.10676711684908, 14.26323535782208], [79.10395656913481, 14.261490905343694], [79.10010692597254, 14.257327193656828], [79.09553387495869, 14.255224185895957], [79.08847761512163, 14.254478890160618], [79.08705940249119, 14.255156357642532], [79.0775256743478, 14.255079691400196], [79.07469503119549, 14.255745689846508], [79.06866007793805, 14.259485466665694], [79.06580880269694, 14.26256209159812], [79.05769026220547, 14.262151660305603], [79.05628964385116, 14.26076258777541], [79.05275860386469, 14.260733770738936], [79.04850358252169, 14.262765450493285], [79.04568467491085, 14.262053530461376], [79.04536125543804, 14.258606759378878], [79.04679737588786, 14.255863230881276], [79.04574699229028, 14.254821388599106], [79.0439815286656, 14.254806914458735], [79.0422101228348, 14.255481201426736], [79.03829035998129, 14.25958191650046], [79.03577392029143, 14.26472734838797], [79.03153665131704, 14.264692387650486], [79.0286908470851, 14.267079726475833], [79.02653921055519, 14.270850407493485], [79.02442953647946, 14.269799698249189], [79.0208984234242, 14.269770391319632], [79.01841460280126, 14.271127372140706], [79.01523659368192, 14.271100915644961], [79.01134027875497, 14.272446043123065], [79.00463417884289, 14.272045557901064], [79.00216847724195, 14.271336083571697], [79.00006805937583, 14.26925203890798], [78.99903002644024, 14.266832500599065], [78.99905738514431, 14.263733100702403], [79.00264295851748, 14.257563903200346], [79.00549188947298, 14.254832514417005], [79.00586616237956, 14.252424810491426], [79.00446595484833, 14.251035480866598], [79.00234142353324, 14.251706506081428], [78.99775140605661, 14.251668019254812], [78.99282964763515, 14.24921583513232], [78.99038863012439, 14.245751263013632], [78.99079654987936, 14.239555456362885], [78.9968623082362, 14.232373959552788], [79.00395049889843, 14.229333663352664], [79.00998844345456, 14.225251167791535], [79.01250788101302, 14.21976162908677], [79.012202997849, 14.21424858245104], [79.01363012086742, 14.21253840655277], [79.0164542866189, 14.212561850093463], [79.02031055616503, 14.2156934839632], [79.02063661448385, 14.2187958601953], [79.0195625267439, 14.220509004490317], [79.0174353174422, 14.221524591603732], [79.01455089129651, 14.228388789122123], [79.01205849155176, 14.23077890657482], [79.00213380544375, 14.23517335513987], [78.99679853742182, 14.239605900531124], [78.99536502308864, 14.242004688741018], [78.9953437392515, 14.244415332093961], [78.99709083955537, 14.246496423145295], [79.00697984248461, 14.24623482625707], [79.01154564034016, 14.249028168553604], [79.01187759778016, 14.251441777595037], [79.01042601697259, 14.255906948078524], [79.00612842329092, 14.262759147033199], [79.00646335066847, 14.264828376793368], [79.00928512984662, 14.265196369540268], [79.01138863265365, 14.266935959380636], [79.01351631520987, 14.26592048857677], [79.01424062225485, 14.26386008862172], [79.01917801585031, 14.264589989174539], [79.02485166752057, 14.261881813397864], [79.02521676391896, 14.260507205500609], [79.02276309946294, 14.258420419879833], [79.02313120110654, 14.256701432657884], [79.024196473993, 14.25602144582313], [79.0266621154757, 14.256730680286294], [79.02805651862143, 14.25880866913229], [79.02982199646219, 14.258823265128845], [79.03266468824785, 14.256780281437958], [79.03304764156827, 14.25333934265669], [79.03236237069183, 14.250922821707873], [79.02991769009549, 14.247802958800772], [79.03527050575549, 14.24130330043984], [79.0377419954663, 14.241323631976782], [79.03914535549544, 14.242368399009699], [79.04055764476615, 14.24237999808948], [79.04305289622472, 14.239645175144714], [79.04446517187871, 14.239656748945693], [79.04478562359053, 14.243447909149724], [79.04404683493453, 14.24723038791548], [79.04827196437371, 14.248642638872909], [79.05248533309997, 14.251432378799015], [79.05425077945517, 14.251446786671584], [79.06239538132306, 14.248757763861988], [79.06874216823698, 14.249842475803169], [79.0729997220814, 14.24746598533009], [79.07443252078278, 14.245066630582969], [79.07302895551835, 14.244022048669288], [79.06985122195609, 14.24399636827798], [79.06774152900512, 14.242946046573108], [79.06634094419397, 14.241557038225057], [79.06636147023266, 14.239146290981312], [79.06707347790307, 14.23846322449447], [79.07131034723467, 14.238497491901441], [79.07274601492497, 14.235753746829014], [79.07486151158339, 14.236115230742206], [79.07625920930468, 14.237848586557107], [79.07841260508744, 14.23373290689893], [79.08337878902135, 14.231017461425083], [79.0858473367647, 14.231381677670594], [79.08615978992073, 14.236206060530675], [79.08151458242617, 14.24271274130847], [79.08185311671743, 14.244437556891421], [79.084674888506, 14.24480464073714], [79.08854143480056, 14.246902163568008], [79.09313739162525, 14.24625009644638], [79.10512235388806, 14.248756534026759], [79.11531639990422, 14.254348076560875], [79.13897189037411, 14.254878272326925], [79.142517115068, 14.253183765180536], [79.14640696036328, 14.252525167204208], [79.14853686258625, 14.251163988216373], [79.1506470938833, 14.252213649902187], [79.15771770642351, 14.251235069843663], [79.16052583989526, 14.253323335388489], [79.16051746302891, 14.254356567881889], [79.15696392469489, 14.257084586850207], [79.15765897372788, 14.258467685121799], [79.15977491022156, 14.258828457647214], [79.1629641743095, 14.257475321256825], [79.16543602386281, 14.257494352125606], [79.17143077246973, 14.258573701875054], [79.17424468055077, 14.259973004028835], [79.17636621470686, 14.259644806623653], [79.17850987172358, 14.256561276090496], [79.1778202247004, 14.254489395618142], [79.17500358288903, 14.253434554205556], [79.17008772284127, 14.249952548290878], [79.15950001777779, 14.249182234518514], [79.15986708615903, 14.247462904051368], [79.16128787558773, 14.246440559291177], [79.16166886631814, 14.242999166836945], [79.16272816164529, 14.24300732370141], [79.16483283576565, 14.244745683120986], [79.16836107764723, 14.24511722347495], [79.18277769598794, 14.25280504047256], [79.18697107481262, 14.258347940973986], [79.18800293855676, 14.261800153564735], [79.18975485491725, 14.263535649339525], [79.19397602811327, 14.265634297191443], [79.19572253838743, 14.268058591805024], [79.1978331880883, 14.269107878932653], [79.1996043913613, 14.268432391736756], [79.20136738590489, 14.268790144870794], [79.2027663149553, 14.270522896068353], [79.20273079915674, 14.275000335167402], [79.20377934416068, 14.276386001383012], [79.21047576468874, 14.278158613043765], [79.21187209953088, 14.28023574424737], [79.21854704106502, 14.284763516881428], [79.22524656845944, 14.286191331790327], [79.2326122155376, 14.292790566878997], [79.23789129041974, 14.295240834937873], [79.23929334534485, 14.296628994527023], [79.24102986417078, 14.300430733810106], [79.24383409093967, 14.303207020140782], [79.24837508834923, 14.309784985723407], [79.24868825999152, 14.314953976708203], [79.25041437462313, 14.320133379739659], [79.25039302233446, 14.32288878699209], [79.25214588988757, 14.324623924820031], [79.25248046625624, 14.32703750813869], [79.251765967974, 14.328065584350103], [79.2503529745473, 14.328055173786261], [79.24894799955328, 14.32701147843343], [79.24717374349197, 14.328031719302011], [79.24573665441224, 14.331121104746474], [79.24359837232329, 14.333516399018258], [79.2428596623681, 14.337644257811174], [79.24106648683909, 14.341075405127173], [79.23714284658668, 14.345868474602502], [79.23677879418366, 14.347243538431133], [79.2350043236953, 14.348263662126634]], [[79.10840909491398, 14.278058579520001], [79.10172538451236, 14.274905598326399], [79.09786691809909, 14.27177502568921], [79.0971780098032, 14.269702998353534], [79.10001457615337, 14.268347950054176], [79.10425496598543, 14.26803730286104], [79.10882548868263, 14.27048458328123], [79.11094140162491, 14.270845793482701], [79.11127443734367, 14.273259397640585], [79.11302577159616, 14.274995396000381], [79.1130142958169, 14.276372999430839], [79.11123423458697, 14.278081004725989], [79.10840909491398, 14.278058579520001]], [[79.18823768245994, 14.276612714441226], [79.18154432228748, 14.274495088486882], [79.18119946598443, 14.273459149335261], [79.18508411607503, 14.273488778986412], [79.18859910088685, 14.27558215400999], [79.18823768245994, 14.276612714441226]], [[79.09329361938214, 14.26967194368197], [79.09295208558244, 14.268291529271401], [79.0940143534338, 14.26795560844518], [79.09507082951238, 14.268308477455449], [79.09576550311473, 14.26969171306282], [79.09329361938214, 14.26967194368197]], [[79.08099257022927, 14.262684818779523], [79.08065986352949, 14.260271212285913], [79.0827843403741, 14.259599469877696], [79.08383202498186, 14.26098556820462], [79.08382038364145, 14.262363149807317], [79.08275522173464, 14.263043421848431], [79.08099257022927, 14.262684818779523]], [[79.09689716627985, 14.261090229780711], [79.09549339064644, 14.260045756134126], [79.0930245084304, 14.259681599694847], [79.09232408173585, 14.25898715530488], [79.09268877561122, 14.257612391294456], [79.09340077966127, 14.256929244504207], [79.09657584821518, 14.2572990320558], [79.10009250151093, 14.259049187552817], [79.10149052980108, 14.260782434034294], [79.1011316481359, 14.261468419410013], [79.09689716627985, 14.261090229780711]], [[79.17109708681187, 14.256160103991684], [79.17145853571586, 14.255129573281561], [79.17534008062518, 14.255503737979653], [79.17462552583282, 14.256531573756142], [79.17109708681187, 14.256160103991684]], [[79.15670592439702, 14.245371911974496], [79.15671990519746, 14.243649860177914], [79.15743169171714, 14.242966492425253], [79.1595446944355, 14.243671660911], [79.15953073503081, 14.245393715450925], [79.15670592439702, 14.245371911974496]]], [[[79.22250083233453, 14.320959431347683], [79.2228594859059, 14.320273233321712], [79.22179436888773, 14.320954142609045], [79.22250083233453, 14.320959431347683]]], [[[79.22001157448025, 14.367784626745589], [79.2228434545305, 14.367117019089982], [79.22250647273879, 14.365047850642691], [79.21967461897451, 14.365715457260817], [79.21931314177608, 14.366746057312747], [79.22001157448025, 14.367784626745589]]]]}}, {"type": "Feature", "properties": {"depth_class": 2, "depth_lo_m": 1.0, "t_s": 18000.055472016556}, "geometry": {"type": "MultiPolygon", "coordinates": [[[[79.08169588166334, 14.263034898449819], [79.08382038364145, 14.262363149807317], [79.08383202498186, 14.26098556820462], [79.0827843403741, 14.259599469877696], [79.08137190852109, 14.25958810715811], [79.08065986352949, 14.260271212285913], [79.08064528833931, 14.261993186154672], [79.08169588166334, 14.263034898449819]]], [[[79.2350043236953, 14.348263662126634], [79.24106648683909, 14.341075405127173], [79.2428596623681, 14.337644257811174], [79.24359837232329, 14.333516399018258], [79.24573665441224, 14.331121104746474], [79.24717374349197, 14.328031719302011], [79.24859475327354, 14.327008872575327], [79.251765967974, 14.328065584350103], [79.25248046625624, 14.32703750813869], [79.25214588988757, 14.324623924820031], [79.25039302233446, 14.32288878699209], [79.25041437462313, 14.320133379739659], [79.24868825999152, 14.314953976708203], [79.24837508834923, 14.309784985723407], [79.24383409093967, 14.303207020140782], [79.24102986417078, 14.300430733810106], [79.23929334534485, 14.296628994527023], [79.23789129041974, 14.295240834937873], [79.2326122155376, 14.292790566878997], [79.22524656845944, 14.286191331790327], [79.21854704106502, 14.284763516881428], [79.21187209953088, 14.28023574424737], [79.21047576468874, 14.278158613043765], [79.20377934416068, 14.276386001383012], [79.20273079915674, 14.275000335167402], [79.2027663149553, 14.270522896068353], [79.20136738590489, 14.268790144870794], [79.1996043913613, 14.268432391736756], [79.1978331880883, 14.269107878932653], [79.19572253838743, 14.268058591805024], [79.19397602811327, 14.265634297191443], [79.18975485491725, 14.263535649339525], [79.18800293855676, 14.261800153564735], [79.18697107481262, 14.258347940973986], [79.18277769598794, 14.25280504047256], [79.16836107764723, 14.24511722347495], [79.16483283576565, 14.244745683120986], [79.16272816164529, 14.24300732370141], [79.16166886631814, 14.242999166836945], [79.16128787558773, 14.246440559291177], [79.15986708615903, 14.247462904051368], [79.15950001777779, 14.249182234518514], [79.17008772284127, 14.249952548290878], [79.17500358288903, 14.253434554205556], [79.1778202247004, 14.254489395618142], [79.17850987172358, 14.256561276090496], [79.17636621470686, 14.259644806623653], [79.17424468055077, 14.259973004028835], [79.17143077246973, 14.258573701875054], [79.16543602386281, 14.257494352125606], [79.1629641743095, 14.257475321256825], [79.15977491022156, 14.258828457647214], [79.15765897372788, 14.258467685121799], [79.15696392469489, 14.257084586850207], [79.16051746302891, 14.254356567881889], [79.16017831104926, 14.252631790192538], [79.15771770642351, 14.251235069843663], [79.15205953632295, 14.252224596803508], [79.14853686258625, 14.251163988216373], [79.14640696036328, 14.252525167204208], [79.142517115068, 14.253183765180536], [79.13897189037411, 14.254878272326925], [79.11531639990422, 14.254348076560875], [79.10512235388806, 14.248756534026759], [79.09313739162525, 14.24625009644638], [79.08854143480056, 14.246902163568008], [79.084674888506, 14.24480464073714], [79.08185311671743, 14.244437556891421], [79.08151458242617, 14.24271274130847], [79.08615978992073, 14.236206060530675], [79.0858473367647, 14.231381677670594], [79.08337878902135, 14.231017461425083], [79.07841260508744, 14.23373290689893], [79.07625920930468, 14.237848586557107], [79.07486151158339, 14.236115230742206], [79.07274601492497, 14.235753746829014], [79.07131034723467, 14.238497491901441], [79.06707347790307, 14.23846322449447], [79.06636147023266, 14.239146290981312], [79.06634094419397, 14.241557038225057], [79.06774152900512, 14.242946046573108], [79.06985122195609, 14.24399636827798], [79.07302895551835, 14.244022048669288], [79.07443252078278, 14.245066630582969], [79.0729997220814, 14.24746598533009], [79.06874216823698, 14.249842475803169], [79.06239538132306, 14.248757763861988], [79.05425077945517, 14.251446786671584], [79.05248533309997, 14.251432378799015], [79.04827196437371, 14.248642638872909], [79.04404683493453, 14.24723038791548], [79.04478562359053, 14.243447909149724], [79.04446517187871, 14.239656748945693], [79.04305289622472, 14.239645175144714], [79.04055764476615, 14.24237999808948], [79.03914535549544, 14.242368399009699], [79.0377419954663, 14.241323631976782], [79.03527050575549, 14.24130330043984], [79.02991769009549, 14.247802958800772], [79.03236237069183, 14.250922821707873], [79.03304764156827, 14.25333934265669], [79.03266468824785, 14.256780281437958], [79.02982199646219, 14.258823265128845], [79.02805651862143, 14.25880866913229], [79.0266621154757, 14.256730680286294], [79.024196473993, 14.25602144582313], [79.02313120110654, 14.256701432657884], [79.02276309946294, 14.258420419879833], [79.02521676391896, 14.260507205500609], [79.02485166752057, 14.261881813397864], [79.01917801585031, 14.264589989174539], [79.01424062225485, 14.26386008862172], [79.01351631520987, 14.26592048857677], [79.01138863265365, 14.266935959380636], [79.00928512984662, 14.265196369540268], [79.00716652358224, 14.265178662618256], [79.00611630848962, 14.264136664280562], [79.00649060378844, 14.261728962271183], [79.01042601697259, 14.255906948078524], [79.01187759778016, 14.251441777595037], [79.01154564034016, 14.249028168553604], [79.00697984248461, 14.24623482625707], [78.99709083955537, 14.246496423145295], [78.9953437392515, 14.244415332093961], [78.99536502308864, 14.242004688741018], [78.99679853742182, 14.239605900531124], [79.00213380544375, 14.23517335513987], [79.01205849155176, 14.23077890657482], [79.01455089129651, 14.228388789122123], [79.0174353174422, 14.221524591603732], [79.0195625267439, 14.220509004490317], [79.02063661448385, 14.2187958601953], [79.02031055616503, 14.2156934839632], [79.0164542866189, 14.212561850093463], [79.01363012086742, 14.21253840655277], [79.012202997849, 14.21424858245104], [79.01250788101302, 14.21976162908677], [79.00998844345456, 14.225251167791535], [79.00395049889843, 14.229333663352664], [78.9968623082362, 14.232373959552788], [78.99079654987936, 14.239555456362885], [78.99038863012439, 14.245751263013632], [78.99282964763515, 14.24921583513232], [78.99775140605661, 14.251668019254812], [79.00234142353324, 14.251706506081428], [79.00446595484833, 14.251035480866598], [79.00586616237956, 14.252424810491426], [79.00549188947298, 14.254832514417005], [79.00264295851748, 14.257563903200346], [78.99905738514431, 14.263733100702403], [78.99903002644024, 14.266832500599065], [79.00006805937583, 14.26925203890798], [79.00216847724195, 14.271336083571697], [79.00463417884289, 14.272045557901064], [79.01134027875497, 14.272446043123065], [79.01523659368192, 14.271100915644961], [79.01841460280126, 14.271127372140706], [79.0208984234242, 14.269770391319632], [79.02442953647946, 14.269799698249189], [79.02653921055519, 14.270850407493485], [79.0286908470851, 14.267079726475833], [79.03153665131704, 14.264692387650486], [79.03577392029143, 14.26472734838797], [79.03829035998129, 14.25958191650046], [79.0422101228348, 14.255481201426736], [79.0439815286656, 14.254806914458735], [79.04574699229028, 14.254821388599106], [79.04679737588786, 14.255863230881276], [79.04536125543804, 14.258606759378878], [79.04568467491085, 14.262053530461376], [79.04850358252169, 14.262765450493285], [79.05275860386469, 14.260733770738936], [79.05628964385116, 14.26076258777541], [79.05769026220547, 14.262151660305603], [79.06580880269694, 14.26256209159812], [79.06866007793805, 14.259485466665694], [79.07469503119549, 14.255745689846508], [79.0775256743478, 14.255079691400196], [79.08705940249119, 14.255156357642532], [79.08847761512163, 14.254478890160618], [79.09553387495869, 14.255224185895957], [79.10010692597254, 14.257327193656828], [79.10395656913481, 14.261490905343694], [79.10676711684908, 14.26323535782208], [79.1063909847631, 14.265987751584957], [79.10814510256101, 14.267379375198603], [79.10991073081792, 14.26739338657477], [79.10958058229687, 14.264635381757943], [79.11028969615549, 14.264296581933042], [79.11310606778342, 14.26535216728234], [79.12193988094363, 14.264733094224805], [79.12545973468156, 14.266138509007556], [79.12508666568529, 14.268546555524932], [79.12223593852345, 14.271623934826817], [79.12043883564668, 14.275398437091194], [79.11901483478115, 14.276764893463586], [79.11618396995789, 14.277431365442773], [79.11369476157797, 14.279478202938565], [79.11296838045998, 14.281883411471771], [79.11543182562212, 14.282936196605649], [79.12109082876302, 14.281947655087825], [79.12393315841928, 14.279903518590178], [79.12714567070195, 14.275795697487682], [79.12684947381398, 14.268904846328931], [79.13254215050118, 14.263783123175122], [79.13853962787628, 14.2645188950352], [79.14843284398519, 14.263907098256361], [79.15160538504918, 14.26462058389879], [79.15300948749497, 14.265664761575817], [79.16500765017379, 14.266790744670303], [79.17310203646402, 14.270297277276363], [79.17660298355196, 14.274112877636695], [79.17766243303109, 14.2741209855255], [79.17802943130174, 14.2724016188398], [79.17909717689271, 14.271376477738391], [79.18615183941083, 14.272463603155083], [79.18896602195525, 14.273862761107193], [79.19632737260176, 14.280807372615099], [79.19665859178897, 14.283565383479088], [79.19770987157679, 14.284606658711677], [79.20791638855229, 14.289161432708717], [79.21072003821719, 14.291938049014735], [79.21529785431956, 14.293694634839122], [79.21740069814255, 14.295777046256458], [79.22234809246682, 14.295469629655019], [79.2248123287206, 14.296521358756516], [79.22831999006037, 14.299647494904212], [79.23184391030095, 14.300707051506963], [79.23394429124654, 14.303133763904036], [79.2367591970755, 14.304532431737618], [79.24060964485038, 14.309038735516022], [79.24337914251818, 14.316292559250215], [79.24330679080494, 14.325592023886617], [79.23935393511067, 14.334173831640076], [79.23861783567773, 14.337957244635193], [79.23575401553568, 14.342758161524104], [79.2350043236953, 14.348263662126634]], [[79.24552794098292, 14.31251954433132], [79.24554131369386, 14.310797417876982], [79.2462477544642, 14.310802632376234], [79.24658226395637, 14.313216217174135], [79.24552794098292, 14.31251954433132]], [[79.2413348397241, 14.30663299169794], [79.2336260630214, 14.29865363599925], [79.22904526903747, 14.297241798354124], [79.22412216473272, 14.294449555108125], [79.21847925973144, 14.293374039377237], [79.20934818131, 14.286761133078633], [79.20617779006695, 14.285703941286336], [79.20373290424479, 14.282241114087354], [79.19634383140321, 14.278740870789274], [79.18897978678616, 14.27214068229997], [79.1854620894845, 14.270391733394144], [79.18087949599588, 14.269323481547241], [79.17628864197367, 14.269288386899333], [79.1632642950415, 14.264021853738372], [79.15972739395151, 14.264683435355249], [79.1561988819031, 14.26431173291578], [79.15126910517323, 14.262551392472266], [79.12725666543061, 14.26236394684987], [79.12442314869554, 14.263374946087051], [79.11595967659605, 14.261930499445645], [79.11383237174965, 14.26294694847611], [79.11207537692245, 14.261899767256528], [79.11033274812968, 14.259130571128102], [79.10751071986529, 14.258763764115564], [79.10679874636291, 14.25944695753049], [79.10503318315367, 14.259432930749439], [79.10223422044065, 14.256310867816271], [79.09872047239557, 14.25421634815612], [79.09131691459685, 14.25277952943244], [79.0870797288892, 14.252745583691496], [79.08601462383976, 14.25342587769379], [79.07930866878887, 14.25302754934725], [79.07896140327344, 14.252335916239655], [79.08003526134293, 14.250622470899284], [79.07898472662454, 14.249580758429099], [79.0761599951813, 14.249557995283434], [79.07544797202863, 14.250241087362207], [79.0754392098371, 14.25127426940911], [79.07754318390933, 14.2530133253271], [79.07258228209615, 14.255039788697964], [79.06973991037276, 14.25708329743843], [79.06585286209055, 14.257396214717472], [79.06335174744162, 14.260820065168284], [79.05911448151267, 14.260785603801525], [79.05630145100508, 14.259385028425552], [79.05206718768359, 14.25900605619804], [79.04787147799806, 14.254149963810297], [79.04399340538596, 14.253429364557194], [79.04008858963486, 14.255808185321756], [79.03473251391483, 14.262652303562298], [79.03154861221047, 14.263314849200142], [79.02550087406985, 14.268430947312313], [79.02161667107853, 14.268398727298601], [79.01807052677553, 14.270091289784387], [79.01453942281181, 14.270061888054766], [79.01134934668274, 14.271412902627311], [79.00323387507156, 14.270656208368704], [79.00078338472602, 14.268224831887466], [79.00011059997297, 14.264430747717158], [79.00334003943313, 14.258602954550646], [79.00654811666344, 14.255185751026993], [79.00692842976565, 14.2520892845286], [79.00447503988413, 14.250002342857512], [78.99952286784723, 14.250994075780415], [78.99354188264059, 14.248533021339826], [78.99144783131396, 14.245760181477905], [78.99149048189133, 14.240938906350774], [78.9932862096205, 14.237509981841708], [78.99827449912554, 14.232385800608418], [79.0050066095005, 14.229686891707056], [79.01069150892233, 14.225601429054441], [79.01320792712816, 14.220456263419882], [79.01326507341415, 14.213913002803396], [79.01574223877931, 14.213244757903844], [79.01924248119025, 14.2167178619947], [79.0192244886985, 14.218784162259048], [79.01709429302007, 14.22014413126449], [79.01600214445426, 14.223923550486735], [79.01349175608958, 14.228379983689015], [79.01100236086151, 14.230425707363544], [79.00214289054347, 14.234140217236293], [79.00036247872656, 14.235847336007899], [78.99788199916733, 14.236859760426107], [78.99430887868648, 14.241651412513589], [78.9946284814616, 14.24544253130483], [78.99672865213381, 14.247526592454799], [79.00697077134765, 14.247267966173588], [79.01048339193214, 14.24936371792817], [79.0108153378672, 14.251777326980237], [79.0097440129746, 14.253146012371873], [79.0093697781821, 14.25555372745479], [79.00579652805956, 14.260345537934123], [79.00471300597287, 14.26309170681267], [79.00469785115502, 14.264813601807324], [79.00574200181482, 14.266544364210748], [79.00856379964965, 14.266912368082453], [79.00996714429421, 14.267957307929871], [79.01243586624823, 14.268322319574501], [79.01598502614362, 14.266285461345332], [79.01987218807969, 14.265973386332218], [79.02590197098607, 14.262923739102499], [79.02803855090279, 14.260874973165432], [79.03442717090982, 14.257139226712056], [79.03693757282113, 14.252682571231958], [79.03978607692049, 14.24995071013162], [79.03980094917122, 14.248228776365684], [79.03910073699606, 14.247534200012767], [79.0366291776813, 14.247513873873078], [79.03591705848106, 14.248196833681815], [79.0355371487295, 14.25129339936916], [79.03447789327934, 14.251284673230424], [79.03378664269079, 14.249556925853115], [79.0323832715939, 14.248512125332011], [79.03240118354358, 14.246445813741875], [79.03382244091681, 14.245424299157674], [79.03561463788162, 14.242339364802293], [79.03773306749581, 14.242356791585225], [79.03913345897674, 14.243745946175451], [79.04054575680246, 14.243757546422922], [79.04302915404566, 14.24240027639958], [79.04297868506669, 14.248254864329809], [79.0496665428486, 14.250720521596435], [79.0514142363616, 14.25280128407291], [79.05458319956891, 14.253860394592534], [79.05597786651747, 14.255938250973902], [79.05738435579177, 14.256638541542618], [79.06126844080303, 14.256670153187665], [79.06303981863783, 14.255995718580778], [79.06587928926142, 14.254296687452904], [79.06766530330455, 14.251900252504281], [79.07404729491158, 14.248852113453612], [79.07653935285555, 14.246461293671608], [79.08007895862927, 14.24545654544711], [79.08395709092493, 14.24617655535686], [79.08852983401094, 14.248279750599252], [79.09594477673369, 14.248339043075717], [79.10440465629095, 14.250128523613093], [79.10896910429173, 14.253264561606825], [79.1121413090035, 14.253978539945678], [79.11635856248054, 14.256422858253156], [79.12060159563832, 14.255767486611498], [79.13296048959222, 14.255864568696516], [79.13436727559807, 14.25656443435885], [79.13789841893707, 14.256592035111668], [79.14250583656717, 14.254561394442417], [79.14639289224027, 14.254247207660285], [79.14848908301235, 14.257018932447279], [79.15237338009698, 14.25704906138852], [79.15799810920667, 14.260192464343282], [79.16294743702841, 14.259541788271132], [79.1675324936727, 14.260265940304672], [79.16928422405267, 14.262001566773456], [79.1745645364293, 14.264108667831643], [79.17560453597345, 14.266527673155247], [79.17700877756059, 14.267571723842106], [79.1791276165217, 14.267587924041052], [79.18090160981495, 14.26656816667969], [79.18443300159599, 14.266595097033841], [79.1837377606445, 14.265212055293215], [79.18056505652427, 14.264498984586345], [79.17810971501065, 14.262413617718758], [79.17848774502335, 14.25931658958806], [79.18026719751877, 14.257607999918669], [79.18063137190472, 14.256233036088249], [79.18240250517299, 14.255557670262927], [79.18590342919985, 14.25937312994123], [79.18624003039855, 14.261442310211734], [79.1883340558113, 14.264558164950815], [79.19360642037745, 14.267698121804086], [79.19675182517888, 14.27185520204935], [79.19815347070498, 14.273243560519347], [79.20026691571722, 14.273948414785359], [79.20341525832399, 14.27776101115373], [79.20834589141488, 14.279520357072208], [79.21290441474949, 14.28368789915803], [79.21394490874394, 14.286106791978902], [79.2167621764449, 14.287161239103366], [79.21851451165969, 14.28889656849475], [79.21992723601377, 14.288907140187273], [79.22135349523488, 14.287195596195518], [79.22347527286422, 14.28686700158749], [79.22557274386456, 14.289638187630743], [79.22838473129517, 14.291381353484324], [79.2308354943475, 14.294155133902299], [79.23717416465894, 14.296613297953535], [79.2410084281722, 14.303186131714847], [79.24276108048599, 14.304921315899739], [79.24309822834182, 14.306990476527426], [79.2413348397241, 14.30663299169794]], [[79.05881443134753, 14.25458370111236], [79.05847312471772, 14.253203264872312], [79.05954124017512, 14.252178713484586], [79.06131258456882, 14.251504287684314], [79.0630751010691, 14.251863021785732], [79.06341937513533, 14.252899063375887], [79.06270436612489, 14.25392650238486], [79.06022386852857, 14.254939584273618], [79.05881443134753, 14.25458370111236]], [[79.16798295933377, 14.248214225356163], [79.16516645213835, 14.247159281970644], [79.16552790737029, 14.246128761024632], [79.16764653248764, 14.246145039311449], [79.16869751079287, 14.247186409277989], [79.16798295933377, 14.248214225356163]], [[79.07939609429133, 14.242695702575544], [79.07728635728057, 14.241645461155654], [79.07804205795068, 14.23579643561188], [79.0798219631765, 14.2340886623509], [79.08407330246327, 14.232400712019327], [79.08512089195133, 14.233786792916971], [79.08510347589437, 14.23585317151999], [79.08366794696201, 14.238597009622111], [79.08081424100241, 14.242018273124474], [79.07939609429133, 14.242695702575544]], [[79.0727051046755, 14.240575260385148], [79.07271971723566, 14.23885329149427], [79.07378478013852, 14.238173052511456], [79.07411741103355, 14.240586659546864], [79.0727051046755, 14.240575260385148]]], [[[79.25510654803503, 14.352890263449396], [79.25970994136863, 14.351546325343062], [79.26220420325704, 14.34880905194324], [79.26221482792532, 14.347431342705574], [79.259741864067, 14.347413203574709], [79.25510654803503, 14.352890263449396]]], [[[79.2042323699716, 14.39694257229482], [79.20778234125878, 14.394902899883908], [79.21028594656465, 14.391133061583973], [79.21347969989576, 14.389435027974931], [79.21421101166045, 14.38634061125271], [79.21847831177611, 14.382928408391079], [79.2202640419761, 14.380530777177613], [79.22948034417308, 14.376811081463131], [79.23198337472633, 14.373040942826712], [79.236231264672, 14.372039308654188], [79.23765531611706, 14.370672146359535], [79.2387422154633, 14.367235810932158], [79.24088359913482, 14.364496186436844], [79.24693268456436, 14.359029937760424], [79.25047100140445, 14.358367204704708], [79.25189488005566, 14.356999935567158], [79.25297613592585, 14.354252349676637], [79.25050043415182, 14.35457853070435], [79.24517962575464, 14.357294740325818], [79.24270657621693, 14.35727641124834], [79.2381191686091, 14.356553457924049], [79.23319472332085, 14.353761254613557], [79.23142829814694, 14.35374807889261], [79.22928692765969, 14.356487618760744], [79.22782497662944, 14.362676624978985], [79.22499316165573, 14.363344300603721], [79.22113137546378, 14.360215369615632], [79.22150099192753, 14.358151505738745], [79.22471318427736, 14.354042311411888], [79.22437076038338, 14.352661984072892], [79.22155810338404, 14.35091869471083], [79.2166067582127, 14.351570371457157], [79.21203874160993, 14.34843600979186], [79.21206060241074, 14.345680665753603], [79.21384332209924, 14.34362746800224], [79.21350643353047, 14.341558296464738], [79.21209611630634, 14.341203230258957], [79.208544346136, 14.343587496427526], [79.20532931473527, 14.348040874775007], [79.20319595839857, 14.349746900820985], [79.20316574068381, 14.35353547895213], [79.19992290932596, 14.361432905280628], [79.19954757986739, 14.364185541659838], [79.19633756295723, 14.367949906700385], [79.19667430051508, 14.370019084526334], [79.19950073214977, 14.370040597522006], [79.20233267241389, 14.369373245799142], [79.20588219126546, 14.367333548867967], [79.20941520730227, 14.367360292587074], [79.21186916289643, 14.369789903301628], [79.21183083230633, 14.374611744633288], [79.21039839184185, 14.377011980634627], [79.20965336001515, 14.381828468167924], [79.20714986767243, 14.385598313357354], [79.20677454878046, 14.388350961468243], [79.20463252413998, 14.391090197905818], [79.20354496248635, 14.394526296642693], [79.20353118623699, 14.396248371601624], [79.2042323699716, 14.39694257229482]], [[79.21966099487165, 14.367437551629838], [79.2193158671367, 14.366401638505279], [79.220030644444, 14.365373694164713], [79.22285705397077, 14.365394921686347], [79.2228434545305, 14.367117019089982], [79.22213140387377, 14.367800553329072], [79.21966099487165, 14.367437551629838]]]]}}, {"type": "Feature", "properties": {"depth_class": 3, "depth_lo_m": 2.0, "t_s": 18000.055472016556}, "geometry": {"type": "MultiPolygon", "coordinates": [[[[79.07868993220208, 14.242690018825062], [79.08223819679111, 14.240652042794586], [79.08510347589437, 14.23585317151999], [79.08512089195133, 14.233786792916971], [79.08407330246327, 14.232400712019327], [79.07875693558165, 14.234768933188933], [79.07768315945009, 14.236482383125871], [79.07728635728057, 14.241645461155654], [79.07868993220208, 14.242690018825062]], [[79.07870741531428, 14.240623649194605], [79.0783776483284, 14.237865647443245], [79.0791012686596, 14.235804959292352], [79.08229343993796, 14.234108522892276], [79.08370571408251, 14.234119860304913], [79.083685379571, 14.236530633234569], [79.08153785840109, 14.239957577142263], [79.07976373688716, 14.240976567929842], [79.07870741531428, 14.240623649194605]]], [[[79.07376433432697, 14.240583810538707], [79.07413493304148, 14.238520295124742], [79.07307863444355, 14.23816735393484], [79.0727051046755, 14.240575260385148], [79.07376433432697, 14.240583810538707]]], [[[79.16692363658771, 14.248206088898261], [79.16869195358451, 14.247875234471014], [79.1683499625748, 14.246494873797255], [79.16517201974989, 14.246470458100939], [79.16516645213835, 14.247159281970644], [79.16692363658771, 14.248206088898261]]], [[[79.24309822834182, 14.306990476527426], [79.24241322575834, 14.304229854948339], [79.2410084281722, 14.303186131714847], [79.23717416465894, 14.296613297953535], [79.2308354943475, 14.294155133902299], [79.22838473129517, 14.291381353484324], [79.22557274386456, 14.289638187630743], [79.22347527286422, 14.28686700158749], [79.22206255850702, 14.286856452424695], [79.21992723601377, 14.288907140187273], [79.21851451165969, 14.28889656849475], [79.2167621764449, 14.287161239103366], [79.21394490874394, 14.286106791978902], [79.21290441474949, 14.28368789915803], [79.20834589141488, 14.279520357072208], [79.20341525832399, 14.27776101115373], [79.20026691571722, 14.273948414785359], [79.19815347070498, 14.273243560519347], [79.19675182517888, 14.27185520204935], [79.19360642037745, 14.267698121804086], [79.1883340558113, 14.264558164950815], [79.18624003039855, 14.261442310211734], [79.18590342919985, 14.25937312994123], [79.18240250517299, 14.255557670262927], [79.18063137190472, 14.256233036088249], [79.18026719751877, 14.257607999918669], [79.17848774502335, 14.25931658958806], [79.17810971501065, 14.262413617718758], [79.18056505652427, 14.264498984586345], [79.1837377606445, 14.265212055293215], [79.18443300159599, 14.266595097033841], [79.18090160981495, 14.26656816667969], [79.1791276165217, 14.267587924041052], [79.17700877756059, 14.267571723842106], [79.17560453597345, 14.266527673155247], [79.1745645364293, 14.264108667831643], [79.16928422405267, 14.262001566773456], [79.1675324936727, 14.260265940304672], [79.16365368581167, 14.25954722909428], [79.15799810920667, 14.260192464343282], [79.15237338009698, 14.25704906138852], [79.14848908301235, 14.257018932447279], [79.14639289224027, 14.254247207660285], [79.14250583656717, 14.254561394442417], [79.13789841893707, 14.256592035111668], [79.13436727559807, 14.25656443435885], [79.13296048959222, 14.255864568696516], [79.12060159563832, 14.255767486611498], [79.11635856248054, 14.256422858253156], [79.1121413090035, 14.253978539945678], [79.10896910429173, 14.253264561606825], [79.10440465629095, 14.250128523613093], [79.09594477673369, 14.248339043075717], [79.08852983401094, 14.248279750599252], [79.08395709092493, 14.24617655535686], [79.08007895862927, 14.24545654544711], [79.07653935285555, 14.246461293671608], [79.07404729491158, 14.248852113453612], [79.06766530330455, 14.251900252504281], [79.06587928926142, 14.254296687452904], [79.06303981863783, 14.255995718580778], [79.06126844080303, 14.256670153187665], [79.05738435579177, 14.256638541542618], [79.05597786651747, 14.255938250973902], [79.05458319956891, 14.253860394592534], [79.0514142363616, 14.25280128407291], [79.0496665428486, 14.250720521596435], [79.04297868506669, 14.248254864329809], [79.04302915404566, 14.24240027639958], [79.04054575680246, 14.243757546422922], [79.03913345897674, 14.243745946175451], [79.03773306749581, 14.242356791585225], [79.03561463788162, 14.242339364802293], [79.03382244091681, 14.245424299157674], [79.03240118354358, 14.246445813741875], [79.0323832715939, 14.248512125332011], [79.03378664269079, 14.249556925853115], [79.03447789327934, 14.251284673230424], [79.0355371487295, 14.25129339936916], [79.03591705848106, 14.248196833681815], [79.0366291776813, 14.247513873873078], [79.03910073699606, 14.247534200012767], [79.03980094917122, 14.248228776365684], [79.03978607692049, 14.24995071013162], [79.03693757282113, 14.252682571231958], [79.03442717090982, 14.257139226712056], [79.02803855090279, 14.260874973165432], [79.02590197098607, 14.262923739102499], [79.01987218807969, 14.265973386332218], [79.01598502614362, 14.266285461345332], [79.01243586624823, 14.268322319574501], [79.00996714429421, 14.267957307929871], [79.00856379964965, 14.266912368082453], [79.00574200181482, 14.266544364210748], [79.00469785115502, 14.264813601807324], [79.00471300597287, 14.26309170681267], [79.00579652805956, 14.260345537934123], [79.0093697781821, 14.25555372745479], [79.0097440129746, 14.253146012371873], [79.0108153378672, 14.251777326980237], [79.01048339193214, 14.24936371792817], [79.00697077134765, 14.247267966173588], [78.99672865213381, 14.247526592454799], [78.9946284814616, 14.24544253130483], [78.99430887868648, 14.241651412513589], [78.99788199916733, 14.236859760426107], [79.00036247872656, 14.235847336007899], [79.00214289054347, 14.234140217236293], [79.01100236086151, 14.230425707363544], [79.01349175608958, 14.228379983689015], [79.01600214445426, 14.223923550486735], [79.01709429302007, 14.22014413126449], [79.0192244886985, 14.218784162259048], [79.01924248119025, 14.2167178619947], [79.01574223877931, 14.213244757903844], [79.01326507341415, 14.213913002803396], [79.01320792712816, 14.220456263419882], [79.01069150892233, 14.225601429054441], [79.0050066095005, 14.229686891707056], [78.99827449912554, 14.232385800608418], [78.9932862096205, 14.237509981841708], [78.99149048189133, 14.240938906350774], [78.99144783131396, 14.245760181477905], [78.99354188264059, 14.248533021339826], [78.99952286784723, 14.250994075780415], [79.00447503988413, 14.250002342857512], [79.00692842976565, 14.2520892845286], [79.00654811666344, 14.255185751026993], [79.00334003943313, 14.258602954550646], [79.00011059997297, 14.264430747717158], [79.00078338472602, 14.268224831887466], [79.00323387507156, 14.270656208368704], [79.01134934668274, 14.271412902627311], [79.01453942281181, 14.270061888054766], [79.01807052677553, 14.270091289784387], [79.02161667107853, 14.268398727298601], [79.02550087406985, 14.268430947312313], [79.03154861221047, 14.263314849200142], [79.03473251391483, 14.262652303562298], [79.04008858963486, 14.255808185321756], [79.04399340538596, 14.253429364557194], [79.04787147799806, 14.254149963810297], [79.05206718768359, 14.25900605619804], [79.05630145100508, 14.259385028425552], [79.05911448151267, 14.260785603801525], [79.06335174744162, 14.260820065168284], [79.06585286209055, 14.257396214717472], [79.06973991037276, 14.25708329743843], [79.07258228209615, 14.255039788697964], [79.07754318390933, 14.2530133253271], [79.0754392098371, 14.25127426940911], [79.07544797202863, 14.250241087362207], [79.0761599951813, 14.249557995283434], [79.07898472662454, 14.249580758429099], [79.08003526134293, 14.250622470899284], [79.07896140327344, 14.252335916239655], [79.07930866878887, 14.25302754934725], [79.08601462383976, 14.25342587769379], [79.0870797288892, 14.252745583691496], [79.09131691459685, 14.25277952943244], [79.09872047239557, 14.25421634815612], [79.10223422044065, 14.256310867816271], [79.10503318315367, 14.259432930749439], [79.10679874636291, 14.25944695753049], [79.10751071986529, 14.258763764115564], [79.11033274812968, 14.259130571128102], [79.11207537692245, 14.261899767256528], [79.11383237174965, 14.26294694847611], [79.11595967659605, 14.261930499445645], [79.12442314869554, 14.263374946087051], [79.12725666543061, 14.26236394684987], [79.15126910517323, 14.262551392472266], [79.1561988819031, 14.26431173291578], [79.15972739395151, 14.264683435355249], [79.1632642950415, 14.264021853738372], [79.17628864197367, 14.269288386899333], [79.18087949599588, 14.269323481547241], [79.1854620894845, 14.270391733394144], [79.18897978678616, 14.27214068229997], [79.19634383140321, 14.278740870789274], [79.20373290424479, 14.282241114087354], [79.20617779006695, 14.285703941286336], [79.20934818131, 14.286761133078633], [79.21847925973144, 14.293374039377237], [79.22412216473272, 14.294449555108125], [79.22904526903747, 14.297241798354124], [79.2336260630214, 14.29865363599925], [79.2413348397241, 14.30663299169794], [79.24309822834182, 14.306990476527426]], [[79.19566220286083, 14.275635767501283], [79.19461920400256, 14.27356123806291], [79.1921553834583, 14.272509239876223], [79.19112067675331, 14.269401451259876], [79.1925332582569, 14.269412171201715], [79.19428800957598, 14.270803226809063], [79.19497510035903, 14.273219497516038], [79.19742524224675, 14.275993555479843], [79.19566220286083, 14.275635767501283]], [[79.00536162147063, 14.269640820028894], [79.00254587134104, 14.268584017738966], [79.00221401492708, 14.266170408611979], [79.00572685098841, 14.268266259791403], [79.00536162147063, 14.269640820028894]], [[79.00833772906743, 14.252445462146259], [79.00519027435355, 14.24897511052509], [79.0051963280152, 14.24828635143916], [79.00696169948394, 14.248301105995164], [79.00941812026495, 14.250043642548109], [79.00939999440367, 14.252109924704643], [79.00833772906743, 14.252445462146259]], [[79.04082154263816, 14.25271450713916], [79.04155744212017, 14.24927643628221], [79.04508234710245, 14.249994172058562], [79.0478951818139, 14.251394857267636], [79.04858951107099, 14.252778189488753], [79.0471830782591, 14.252077853303891], [79.04082154263816, 14.25271450713916]], [[78.99286010070593, 14.245772065461002], [78.99322230098859, 14.244741903821316], [78.99356319201824, 14.246122381486925], [78.99286010070593, 14.245772065461002]], [[79.03595281437704, 14.244064201212861], [79.03736808848222, 14.243731434130206], [79.03841243275714, 14.245462075912261], [79.03629397331378, 14.245444651441861], [79.03595281437704, 14.244064201212861]], [[78.99718499858798, 14.235820703342421], [78.99897452959806, 14.233080475388027], [79.00180195360745, 14.232759746059578], [78.99895329793932, 14.235491125880529], [78.99718499858798, 14.235820703342421]], [[79.00215500287678, 14.232762699883931], [79.00251107957384, 14.232421273748333], [79.00250805222703, 14.232765653187153], [79.00215500287678, 14.232762699883931]], [[79.00251410683971, 14.232076894298972], [79.01139457676751, 14.225951688519572], [79.01427303882005, 14.219776300773434], [79.01396811256791, 14.214263250823475], [79.01573623253837, 14.213933523435053], [79.0174683378831, 14.217736379146544], [79.0160351945642, 14.220135342088604], [79.01529606747549, 14.22391768680759], [79.01314473164936, 14.22768828389053], [79.00817194601557, 14.231090931924], [79.0042763248674, 14.23243603207578], [79.00251410683971, 14.232076894298972]]], [[[79.24624508113989, 14.311147057818687], [79.24554131369386, 14.310797417876982], [79.24552794098292, 14.31251954433132], [79.24658226395637, 14.313216217174135], [79.24624508113989, 14.311147057818687]]]]}}, {"type": "Feature", "properties": {"depth_class": 4, "depth_lo_m": 3.0, "t_s": 18000.055472016556}, "geometry": {"type": "MultiPolygon", "coordinates": [[[[79.00215500287678, 14.232762699883931], [79.00251107957384, 14.232421273748333], [79.00215803075778, 14.232418320519482], [79.00215500287678, 14.232762699883931]]], [[[79.00533849600608, 14.232100500774923], [79.01136444853226, 14.229395502985582], [79.0138598463041, 14.226661009505435], [79.0174683378831, 14.217736379146544], [79.01573623253837, 14.213933523435053], [79.01396811256791, 14.214263250823475], [79.01427303882005, 14.219776300773434], [79.01139457676751, 14.225951688519572], [79.00251107957384, 14.232421273748333], [79.00533849600608, 14.232100500774923]]], [[[78.99718499858798, 14.235820703342421], [78.99966243608004, 14.235152663778813], [79.00180195360745, 14.232759746059578], [78.99897452959806, 14.233080475388027], [78.99718499858798, 14.235820703342421]]], [[[79.08082588326722, 14.240640691612917], [79.083685379571, 14.236530633234569], [79.08370571408251, 14.234119860304913], [79.08087534901398, 14.234785968314839], [79.07874237313216, 14.236490908799674], [79.07836016574507, 14.239932017148476], [79.07941065839924, 14.240973727194524], [79.08082588326722, 14.240640691612917]]], [[[79.03841243275714, 14.245462075912261], [79.03736808848222, 14.243731434130206], [79.03595281437704, 14.244064201212861], [79.03629397331378, 14.245444651441861], [79.03841243275714, 14.245462075912261]]], [[[78.99356319201824, 14.246122381486925], [78.99322230098859, 14.244741903821316], [78.99286923504143, 14.244738934353744], [78.99286010070593, 14.245772065461002], [78.99356319201824, 14.246122381486925]]], [[[79.00939999440367, 14.252109924704643], [79.00976515747915, 14.250735349521788], [79.00836795407868, 14.249001660670569], [79.0051963280152, 14.24828635143916], [79.00833772906743, 14.252445462146259], [79.00939999440367, 14.252109924704643]]], [[[79.04082154263816, 14.25271450713916], [79.0471830782591, 14.252077853303891], [79.04858951107099, 14.252778189488753], [79.04824530773509, 14.251742135098038], [79.04648875970314, 14.25069451827722], [79.04155744212017, 14.24927643628221], [79.04082154263816, 14.25271450713916]]], [[[79.00572685098841, 14.268266259791403], [79.00502064055149, 14.268260347789251], [79.00221401492708, 14.266170408611979], [79.0032460131588, 14.269278694301608], [79.00536162147063, 14.269640820028894], [79.00572685098841, 14.268266259791403]]], [[[79.19742524224675, 14.275993555479843], [79.19497510035903, 14.273219497516038], [79.19463566967369, 14.271494736935576], [79.19323680364802, 14.269761944710503], [79.19112067675331, 14.269401451259876], [79.19250578623668, 14.272856336129106], [79.19461920400256, 14.27356123806291], [79.19636577237678, 14.275985534435849], [79.19742524224675, 14.275993555479843]]]]}}]}