{"type": "FeatureCollection", "features": [{"type": "Feature", "properties": {"depth_class": 1, "depth_lo_m": 0.3, "t_s": 35100.49281155584}, "geometry": {"type": "MultiPolygon", "coordinates": [[[[79.11680598822896, 14.245060370735448], [79.11892739814174, 14.244732677313422], [79.1196449922694, 14.243360630490233], [79.12038538053808, 14.239233353651114], [79.11899586030789, 14.236467004110674], [79.11688309375461, 14.235761499593597], [79.11545935402852, 14.237127966968828], [79.11400699720363, 14.241938444375828], [79.11575242771096, 14.24436320435647], [79.11680598822896, 14.245060370735448]]], [[[79.07967342463837, 14.25165281327601], [79.07969091026403, 14.249586443996863], [79.07757527748834, 14.249224986543789], [79.07580106410046, 14.250243935768962], [79.07649557182071, 14.251627207918013], [79.07967342463837, 14.25165281327601]]], [[[79.08311415852556, 14.262357471483723], [79.08383784518612, 14.260296777340203], [79.08279307445079, 14.258566284081496], [79.08067443677503, 14.258549238154322], [79.0778320770688, 14.260592846501076], [79.07993323293105, 14.262676287759614], [79.08311415852556, 14.262357471483723]]], [[[79.0953805331438, 14.273477262368333], [79.09468295735745, 14.272438422187054], [79.09362066821015, 14.272774343386336], [79.09396510694765, 14.273810360604513], [79.0953805331438, 14.273477262368333]]], [[[79.10415409590989, 14.28009127290273], [79.10452453587872, 14.278027690209745], [79.10382402010676, 14.277333269246544], [79.10205543467004, 14.277663601823498], [79.10203234399737, 14.280418790366129], [79.10415409590989, 14.28009127290273]]], [[[79.1862897493153, 14.299330653780753], [79.18807502083133, 14.296933211709936], [79.18703202167688, 14.294858649151825], [79.18561652327777, 14.29519229233678], [79.18348082253834, 14.297242603520772], [79.18346699061645, 14.298964673440654], [79.18416783929072, 14.299658896210737], [79.1862897493153, 14.299330653780753]]], [[[79.18550161973025, 14.44088684194005], [79.18587178068651, 14.438823100656004], [79.18271905116902, 14.435354501006444], [79.18203181629325, 14.432938183426621], [79.17886242322699, 14.431536002978092], [79.17958881069471, 14.429130594471872], [79.18315626269442, 14.425024922338196], [79.18423595985448, 14.422622211217572], [79.1877920802379, 14.41989408973729], [79.19203264999065, 14.419926615589135], [79.19242212969196, 14.415451963717706], [79.2002571806601, 14.40793426039848], [79.2023801253011, 14.407605993365134], [79.20483989487872, 14.409346881773345], [79.2069600987128, 14.40936298956789], [79.20802845477317, 14.40833778998573], [79.20804770959725, 14.405926881466991], [79.20629466368234, 14.40419139472762], [79.20630842666267, 14.402469318304766], [79.21022555969762, 14.398710219677724], [79.21202248561882, 14.394935012143804], [79.21628999338489, 14.391522873820577], [79.21773614700395, 14.387400518930079], [79.22092979969493, 14.385702371515931], [79.22378368585565, 14.382279426281071], [79.22803991862621, 14.380244704208836], [79.23122527321011, 14.379579658048995], [79.23264940476868, 14.378212535653613], [79.2337310182204, 14.375465080718804], [79.23869098301876, 14.373779835029305], [79.2404818192009, 14.370693171170162], [79.24546581063427, 14.365907952612101], [79.24868309103499, 14.361109549489473], [79.25222411305715, 14.360102368387542], [79.25578645200648, 14.356339723867253], [79.2671528202622, 14.348500828332796], [79.26859770772793, 14.344378011012473], [79.27109442430152, 14.341296192291946], [79.27148202089784, 14.336821186738023], [79.2700927328154, 14.333711025242874], [79.2701085796692, 14.331644450035736], [79.27189860962166, 14.328557451714449], [79.27262884181054, 14.325462725697143], [79.27616922006017, 14.324455108827848], [79.27830184044313, 14.322748332522101], [79.27831497320126, 14.321026177477385], [79.27761374316157, 14.32033219286643], [79.26877745193335, 14.320956842870112], [79.26811323367421, 14.315440823702504], [79.26636557852254, 14.313016938537398], [79.2653296948891, 14.309909344049094], [79.26006318302514, 14.305737474901463], [79.25688690554948, 14.305369758394349], [79.25299623201408, 14.306030090868221], [79.25050773747307, 14.308078465143426], [79.24909753839427, 14.307723635245697], [79.24770603592883, 14.304957816521233], [79.24139645996229, 14.298711221816026], [79.24001045907193, 14.29525652365106], [79.23719563707834, 14.29385790423232], [79.23263642743056, 14.289690755553133], [79.23122638041966, 14.289335835453311], [79.23053347670755, 14.287608468183322], [79.23265525488938, 14.287279790603602], [79.24146607218884, 14.289756170947149], [79.24712507154734, 14.288764586371352], [79.25139258034292, 14.285007068696116], [79.25635569227502, 14.282632343746963], [79.25636364925403, 14.281599059317612], [79.2553067730135, 14.28124686942921], [79.2549615595819, 14.280210997366297], [79.2570912098803, 14.27884880467151], [79.25920759955643, 14.279208733743978], [79.25953430068391, 14.28265560299909], [79.26483199406317, 14.28269427421947], [79.26908069206434, 14.281347404504315], [79.27506374957976, 14.284146430807535], [79.27964729876624, 14.285212953634423], [79.28315565805651, 14.288338349851186], [79.2841786723471, 14.293168053071811], [79.28523827278092, 14.293175692582368], [79.28597337307555, 14.289392016879914], [79.28494249890726, 14.285595617375616], [79.2814393782925, 14.281781383369172], [79.27896972546964, 14.281419092686498], [79.27123131635913, 14.277229629424273], [79.2691149129762, 14.276869807143289], [79.26666116003962, 14.274440815332767], [79.26101577540814, 14.273710770079328], [79.25962163316072, 14.271289449846899], [79.25751325985095, 14.269896246482581], [79.25578722230347, 14.264716899300485], [79.25580841866768, 14.261961470650972], [79.25688903621806, 14.259213789021004], [79.25655707298982, 14.25645577595995], [79.25550560602763, 14.255414742044994], [79.25268582693928, 14.25470520361203], [79.25092015682975, 14.254692261075693], [79.2505510868866, 14.25675623800872], [79.25301243701738, 14.258152073246602], [79.25299917228398, 14.259874214203155], [79.25084578136293, 14.264336239058213], [79.25328863211847, 14.268143076125186], [79.2532727051201, 14.270209643819529], [79.2515015988318, 14.270885547026529], [79.24974378420653, 14.269839299562719], [79.24834712755478, 14.26776235610504], [79.24269400705, 14.26806518006191], [79.24091754967152, 14.26942985434169], [79.24125199328049, 14.271843441112514], [79.2447622382379, 14.274624896922553], [79.24508338126805, 14.27876061378327], [79.24754224835583, 14.280500953113396], [79.2475315861047, 14.281878659279732], [79.24362261202108, 14.284949863058966], [79.2411503565947, 14.284931608139797], [79.23939517618138, 14.283540853437843], [79.2351570621999, 14.283509471370959], [79.23269558761929, 14.282113435417163], [79.22916655395981, 14.281742769025932], [79.2253086595925, 14.278269617348116], [79.21824265085989, 14.278561294398695], [79.21613180160561, 14.277512167656486], [79.21295333995482, 14.277488337490157], [79.21049481211098, 14.275747674890479], [79.20519470803171, 14.276052232640676], [79.20379299895413, 14.274663908836196], [79.20348080458845, 14.269494967155142], [79.20067203036112, 14.267407139825327], [79.19678471090418, 14.267722193953196], [79.19081426272697, 14.263543692915917], [79.18836157453106, 14.261114005601101], [79.18768008132115, 14.258008894274964], [79.18628409766188, 14.255931659725839], [79.18278321245478, 14.252116210137741], [79.18067003626271, 14.25141123001723], [79.17891827989622, 14.24967568514219], [79.17329344113689, 14.246532769751054], [79.17117758028823, 14.246172128042414], [79.16766321062487, 14.244078564521155], [79.16448808708184, 14.243709731846698], [79.16133249991084, 14.2409299788654], [79.1610546796345, 14.231628150069092], [79.16176919816401, 14.230600350889343], [79.16389323876874, 14.229927820820555], [79.16390158533552, 14.228894584253094], [79.16250319862837, 14.227161665080866], [79.16074061657375, 14.226803669187476], [79.15863612728641, 14.225065294972518], [79.15722384841197, 14.225054407334662], [79.15543614648841, 14.227796071131706], [79.15260876214182, 14.228118655644048], [79.15189701514774, 14.228802013680765], [79.15187180994066, 14.23190170211306], [79.15291145065518, 14.234320765836308], [79.15537464555248, 14.235373101618972], [79.15607243006535, 14.236411787260387], [79.15673388413074, 14.241927808119907], [79.15955306918342, 14.242638428061577], [79.16059841130169, 14.244368649835712], [79.15987266996953, 14.246774082255204], [79.1538362989485, 14.250860630302633], [79.15171764633611, 14.250844224130724], [79.15138978491844, 14.247741805305338], [79.14927397241419, 14.247380972107864], [79.14750002755498, 14.248400496517586], [79.14605947809972, 14.25183360672251], [79.14146060543482, 14.252831105745285], [79.13897754063143, 14.254189459122532], [79.11638143878908, 14.253667641299336], [79.11145229776099, 14.251906541524763], [79.10442479104562, 14.247717724239324], [79.09419955174722, 14.2459141613184], [79.08748796961264, 14.246204882131153], [79.08221201919514, 14.24375160353085], [79.0865099615131, 14.236553287030839], [79.08619460093547, 14.23207330050692], [79.08514410901668, 14.231031620858733], [79.08231959795569, 14.231008959510925], [79.07770647126108, 14.23372722373996], [79.07592072179222, 14.236123768713764], [79.07310200495472, 14.235412202421259], [79.07168388516983, 14.23608958867481], [79.07060420156405, 14.23849178588127], [79.06636440221054, 14.238801898475892], [79.0659937336471, 14.240865392797415], [79.06774445970592, 14.242601653895397], [79.06950399728552, 14.243304726270962], [79.07303772402696, 14.242988867466163], [79.07550053043943, 14.244041993094768], [79.07442667853016, 14.24575541850992], [79.06874802948198, 14.249153690426109], [79.06063583269882, 14.248054636771009], [79.05708729208976, 14.25009225106316], [79.05213520026616, 14.25108510642232], [79.05038455214762, 14.249348738729191], [79.04440288275097, 14.246888894421492], [79.04514759366326, 14.24241763746783], [79.04375013437812, 14.240684126574674], [79.0423378529434, 14.240672547727806], [79.04056061655861, 14.242035610979807], [79.03879823222832, 14.241676724435887], [79.03774794704916, 14.240634858851857], [79.03456436655428, 14.241297486735796], [79.0331282239909, 14.244040937541367], [79.02921153296592, 14.247797126664162], [79.02955265211747, 14.249177581581035], [79.03165918996865, 14.250572610538308], [79.03199136533564, 14.252986219222029], [79.03304167018867, 14.254028113100459], [79.03266767515039, 14.256435896378894], [79.0301810744464, 14.258137413785667], [79.02876869597709, 14.25812574070834], [79.02702119820533, 14.256044834396468], [79.02526174085733, 14.255341453364995], [79.02243102396193, 14.256006810998295], [79.02170682282063, 14.258067250010889], [79.02274808681274, 14.260142334472352], [79.02415447135384, 14.260842811172576], [79.02414546874648, 14.261875960621373], [79.02094954193537, 14.263915891911724], [79.0152878633585, 14.265246437027539], [79.01280105109045, 14.266947742491043], [79.0110325061961, 14.267277392535977], [79.00927908111669, 14.265885129372505], [79.00680736659274, 14.265864468430134], [79.00611025060414, 14.264825422840874], [79.00613145178922, 14.262414767694958], [79.01042601697259, 14.255906948078524], [79.01152149949337, 14.251783215153356], [79.01118652796832, 14.249713986885457], [79.00838306355816, 14.247279759537118], [79.00592062898774, 14.246225976424677], [79.00309606321859, 14.246202353919088], [78.9999062951232, 14.247553252615234], [78.99743783276648, 14.247188142643946], [78.99603163125563, 14.246487529271132], [78.99463760753257, 14.24440939904548], [78.99466194014705, 14.241654379222839], [78.99574240056381, 14.239252631755573], [79.0010837365675, 14.234131353307053], [79.00532640355188, 14.23347802088713], [79.00745981098112, 14.231773803245533], [79.01277663344636, 14.22940725591269], [79.01599913941672, 14.224267933005224], [79.01672624388657, 14.221863115864458], [79.01990356688542, 14.221889463281796], [79.02096866992005, 14.221209469120577], [79.02168672354301, 14.21983777971867], [79.02137562667045, 14.215013483734918], [79.01751935036573, 14.211881866481264], [79.01293009436576, 14.211843776031177], [79.01150297172912, 14.213553947723556], [79.01216989820551, 14.218036783871788], [79.01145480907574, 14.21906405642834], [79.01176869877023, 14.223543955521567], [79.01069150892233, 14.225601429054441], [79.00784606551014, 14.227988561500855], [79.00501265517985, 14.228998131588707], [79.00252016112879, 14.231388135368631], [78.99933970721011, 14.231705918358836], [78.99721232047705, 14.232721298920227], [78.99329533649849, 14.236476849750462], [78.99113742223165, 14.240935935097962], [78.99108866885827, 14.24644596244921], [78.99353274883075, 14.24956615254699], [78.99845756169984, 14.25167394604541], [79.00446595484833, 14.251035480866598], [79.00621621693746, 14.252772141937866], [79.00549188947298, 14.254832514417005], [79.00264599115616, 14.257219524446755], [78.99905434561268, 14.264077478510961], [78.99902394583616, 14.267521256015426], [79.00006502015384, 14.269596416770932], [79.00251855063682, 14.271683423003845], [79.0116933918154, 14.272448990868993], [79.01311188487011, 14.271772015566029], [79.01911781724067, 14.2714776274255], [79.02053929602151, 14.270456222040847], [79.02513576005187, 14.269805553364264], [79.03081548266964, 14.266408475640048], [79.03224286201565, 14.264698219663943], [79.03507367789399, 14.264032756153595], [79.04149204298277, 14.256852950212792], [79.04362249627225, 14.255492792806498], [79.04609118651398, 14.255857445486926], [79.04464615035702, 14.259634131048239], [79.04462833266511, 14.261700455573635], [79.0463819812782, 14.263092482699516], [79.04991896864935, 14.262432621933085], [79.05134619007893, 14.260722229301043], [79.06544981655477, 14.263248009247015], [79.06793626290916, 14.261546097819975], [79.06936628809318, 14.259491186671362], [79.07504228672441, 14.256437328006006], [79.09059332592216, 14.254840259002531], [79.10010115641889, 14.258015991246726], [79.10395080951514, 14.262179704236415], [79.10711736027687, 14.263582562420876], [79.11064568742394, 14.263954980767478], [79.11275294450425, 14.265349371177146], [79.12405292730023, 14.265438587377233], [79.12475348071973, 14.266132952571498], [79.11974113057784, 14.274359655593733], [79.1137119724838, 14.277411797454029], [79.11050783469489, 14.280486203348003], [79.11013744114898, 14.282549801187567], [79.1122448527724, 14.283944214970242], [79.11683297178861, 14.284324981034494], [79.12072624330361, 14.28332247640304], [79.12498975167819, 14.28025626708465], [79.12820225244505, 14.27614843010278], [79.128259156599, 14.26926035087249], [79.13110409819598, 14.266871694663303], [79.13253647673542, 14.264471933293537], [79.14948660662913, 14.264604142406842], [79.15970502589487, 14.267438717935661], [79.16429858906905, 14.267129716341595], [79.17239019509157, 14.270980685731606], [79.17763749661809, 14.277220707140465], [79.1843032673229, 14.28278259410156], [79.18463433777492, 14.285540604328592], [79.1870734181214, 14.289692426582628], [79.19059692061786, 14.290752554777521], [79.19199862660652, 14.292140956747284], [79.1912729902645, 14.294546497197894], [79.1891428561249, 14.295908035834557], [79.18878139610815, 14.29693859188447], [79.19228023923199, 14.301098449070102], [79.19330954816994, 14.304895075104374], [79.19470584779135, 14.306972303557604], [79.1964773680142, 14.306296877605543], [79.19720849724378, 14.303202488541933], [79.20074871534504, 14.30219599290545], [79.20145237214565, 14.30254575466756], [79.20142771008317, 14.305645509821566], [79.20071033555641, 14.307017832160101], [79.20139755953751, 14.309434098302107], [79.20280492032755, 14.310133621248475], [79.20492692409087, 14.309805221008444], [79.20812767308487, 14.30707386422029], [79.20922003840036, 14.302948825724055], [79.21100512119091, 14.300551186938666], [79.21808808705464, 14.298193283097012], [79.22021810193027, 14.296831467479533], [79.22233726516221, 14.296847315313425], [79.22338873135068, 14.297888496888365], [79.22337790847396, 14.299266183048285], [79.2215956664549, 14.30131951030995], [79.21735454504778, 14.301632193191328], [79.21557766962165, 14.302996626518533], [79.21449902037735, 14.305399609473296], [79.21448269548712, 14.307466127318753], [79.21551512546809, 14.31091828248568], [79.21727304743486, 14.311964798052816], [79.21904184691252, 14.311633621102], [79.22046556414797, 14.310266523576358], [79.22363908384582, 14.310979149264307], [79.22504112699313, 14.312367392367781], [79.22501406426436, 14.31581160636703], [79.22287574939483, 14.31820670824593], [79.21968855830286, 14.319216162681691], [79.21861800431364, 14.320585897306499], [79.21854732937025, 14.329540813993548], [79.21532181279707, 14.335372055087545], [79.21071586803593, 14.337059558333895], [79.20715320168271, 14.340821479624346], [79.20538141979688, 14.34149695547753], [79.20217460812246, 14.344917039309246], [79.19933472876247, 14.34661767312632], [79.19861167453901, 14.348678798768765], [79.19927967537444, 14.353505983204432], [79.1981867754239, 14.3576309094781], [79.19604775389843, 14.360025682182407], [79.19496303629452, 14.363117337922219], [79.1917640375181, 14.365503979528038], [79.19068476677784, 14.367906777638355], [79.1881950337582, 14.369954343327366], [79.18181890989885, 14.371972057734903], [79.1779297826088, 14.372286585356363], [79.1743799781279, 14.374325823235438], [79.16943089751501, 14.374632026630964], [79.16696618150623, 14.373579658793457], [79.16307422279077, 14.374238344282247], [79.15737339543224, 14.380049315749082], [79.15489456218717, 14.380718852819872], [79.15276053899845, 14.382424338084558], [79.15061798167903, 14.385163015344116], [79.14917066612621, 14.389284817173255], [79.1495098057048, 14.391009606352824], [79.15723215742449, 14.397269631030234], [79.16034446497785, 14.405560162988474], [79.16595869665348, 14.410425832490295], [79.16807886485752, 14.410442290457441], [79.1741280663477, 14.405322683114386], [79.1784186418817, 14.399156042227055], [79.18130120034428, 14.392289601523066], [79.18592794478138, 14.388191953194816], [79.19308039577733, 14.37756924588024], [79.19521410739208, 14.375863354511958], [79.19875275382672, 14.375201443656264], [79.20655859466461, 14.371127481416053], [79.20832513220869, 14.371140858264953], [79.20866198336603, 14.373210031881943], [79.20686796879612, 14.376640817861853], [79.20648443193176, 14.380426716838498], [79.20398090899145, 14.384196524539837], [79.20325222473888, 14.386946479453831], [79.20182787393081, 14.38831339678954], [79.19931036858951, 14.39380520480194], [79.19361535377234, 14.398928267141192], [79.18825397226857, 14.406464752568935], [79.18469530289947, 14.409537320517458], [79.18221338788022, 14.410551524374416], [79.1768681321988, 14.416021210765914], [79.16941921332406, 14.419407857226519], [79.1651364142315, 14.424541029254126], [79.16159693461577, 14.425202330615837], [79.15772104583912, 14.42379438477831], [79.15629618964549, 14.425160963217655], [79.1566382385644, 14.42654134512753], [79.1587415649496, 14.42862433756437], [79.15871891669194, 14.431379580609297], [79.15514527121023, 14.43617362498902], [79.15618845184972, 14.438248347406262], [79.16926159960694, 14.438694675254792], [79.17315750570528, 14.437691613242189], [79.17703094812458, 14.439443752113755], [79.18056224324674, 14.43981546882163], [79.18302493440416, 14.441212192045159], [79.18550161973025, 14.44088684194005]], [[79.17429072614814, 14.428745211875256], [79.17007816151458, 14.425268271037703], [79.17116923439694, 14.421488004397164], [79.17365973043714, 14.419440712032625], [79.17684852813838, 14.418432075579307], [79.18290895685223, 14.4119346062764], [79.18539088571046, 14.41092039664103], [79.18823728546094, 14.40853122293098], [79.1918042206989, 14.404425356353196], [79.1932426015031, 14.401336456063518], [79.20036487384456, 14.394502106220585], [79.20753890560844, 14.381123582287866], [79.2082839777693, 14.376307106121878], [79.20971369230445, 14.374251301664556], [79.21008893115267, 14.371498638878542], [79.20939602087853, 14.369771210758952], [79.20763223688323, 14.36941342662827], [79.2001825402274, 14.373145705938022], [79.19380639013647, 14.375163744940263], [79.19167267669272, 14.376869623231313], [79.18738015948195, 14.383381020777652], [79.18489021181377, 14.385428525519048], [79.18452575620994, 14.386803460153743], [79.1770555874365, 14.392945764237504], [79.17423730186954, 14.391890720988485], [79.16932992976328, 14.387030746125035], [79.16654547860026, 14.381842724484196], [79.1655164446573, 14.37804601731944], [79.16622868277383, 14.377362677974208], [79.17365378702772, 14.37673124059253], [79.17791304226073, 14.37435304979462], [79.18109559168704, 14.374033097337781], [79.18995600212388, 14.370656682359867], [79.1924595634327, 14.366887028861282], [79.19637344705832, 14.363472518349171], [79.1978169510088, 14.359694712343794], [79.1992411206058, 14.358327797758516], [79.19961918845581, 14.355230744464182], [79.20069554021597, 14.353172300622141], [79.20001650316097, 14.349722779302905], [79.20038628022836, 14.347658967092235], [79.20287015368655, 14.346300060384872], [79.20643572174446, 14.342193806431226], [79.20785150804963, 14.341860071270139], [79.21141145073842, 14.338442558489826], [79.21529183028737, 14.3391606630171], [79.21773741759714, 14.34262344776015], [79.21772652488988, 14.344001124496966], [79.2264985870759, 14.351644593573766], [79.2271753302537, 14.355438506664878], [79.22575133029643, 14.356805611328605], [79.22502574889043, 14.359211260243814], [79.22537361171551, 14.359902747263309], [79.22714279138717, 14.359571553168568], [79.22787648351236, 14.356132633268915], [79.23108312754198, 14.352712177973888], [79.23396068819734, 14.346189236664866], [79.23509870158541, 14.336208876083022], [79.23794091287661, 14.33416334284572], [79.23866893708949, 14.331413201067182], [79.24224974429139, 14.325239756038597], [79.24268340433292, 14.314909635676962], [79.23851182217778, 14.306267644540046], [79.23464532459076, 14.303827857127523], [79.23149340215508, 14.300360001929095], [79.22867318970587, 14.299650125999072], [79.22446183834052, 14.296174300687014], [79.2230544764908, 14.295474907546092], [79.21705022148677, 14.295429978690313], [79.21600423008427, 14.293699933016631], [79.21178231312572, 14.291601595367341], [79.20897865254807, 14.288824990476613], [79.20440372666546, 14.286723881241135], [79.20161116371587, 14.28256953444724], [79.19352678859737, 14.277686204583297], [79.18862113096134, 14.272826828750903], [79.1854538158267, 14.271424978841457], [79.18051805742917, 14.270354027794825], [79.17663069974144, 14.270668743551225], [79.16396219017169, 14.265060528868029], [79.157958938055, 14.26501420552542], [79.15020691573194, 14.262887582316582], [79.12160102408085, 14.263008296810385], [79.11666591389356, 14.261936080325471], [79.11347925206712, 14.262944153907627], [79.11032987853417, 14.259474971921902], [79.1085671837631, 14.25911657081285], [79.1071461101758, 14.260138561608349], [79.10467431418645, 14.260118923127479], [79.10117778256127, 14.25595803580006], [79.09695495818265, 14.254202266626525], [79.09307372837588, 14.253826843832233], [79.09061071620478, 14.25277387702895], [79.07612203655565, 14.254035118939601], [79.07009301189842, 14.257086155632607], [79.06620302708137, 14.257743470664893], [79.06441400528223, 14.260484277275989], [79.06193638079014, 14.261152977369864], [79.05312353393718, 14.259359098050501], [79.04716825782539, 14.25379979413976], [79.04364031503935, 14.253426468454396], [79.04186891987247, 14.25410075420826], [79.03758714268444, 14.259231718441015], [79.03119550912301, 14.263311932703044], [79.02870282735294, 14.265702190667962], [79.01736430533968, 14.270085413619043], [79.01313000295896, 14.269705732132257], [79.01561986157598, 14.26766004602518], [79.01844772691392, 14.26733917313202], [79.02270003287009, 14.265652459396225], [79.03123139057004, 14.259179317219383], [79.03406810690012, 14.25782508636238], [79.03514230879273, 14.256111890433067], [79.03691671391854, 14.25509327338194], [79.03905907693485, 14.252355612144878], [79.04050711214795, 14.24823457734343], [79.03945976631245, 14.246848328183834], [79.03628205682104, 14.246822195890669], [79.03484290753988, 14.249910039734337], [79.03238028598992, 14.248856510560167], [79.03204512085934, 14.246787287097776], [79.03453157423027, 14.245085730931494], [79.03525858666593, 14.242680844516446], [79.03773306749581, 14.242356791585225], [79.03948355952048, 14.244093233857837], [79.04089883145738, 14.243760445180795], [79.04161389228491, 14.242733079241043], [79.04337925952264, 14.242747558897195], [79.04335848414158, 14.245158272379056], [79.04264342138973, 14.246185643386942], [79.0433317672295, 14.248257760383636], [79.04931641583893, 14.250373245749348], [79.0514142363616, 14.25280128407291], [79.05458319956891, 14.253860394592534], [79.05597786651747, 14.255938250973902], [79.05738435579177, 14.256638541542618], [79.06091534177251, 14.256667282012318], [79.06233362201104, 14.255989981217668], [79.07334696277283, 14.248157624165641], [79.0800760460214, 14.245800940550783], [79.08395709092493, 14.24617655535686], [79.0881796431998, 14.247932524736973], [79.09876952577535, 14.248361570152786], [79.10087944556174, 14.249411641155396], [79.10476063026267, 14.249786929203124], [79.1100284156104, 14.253272958205788], [79.11249727961815, 14.253636933392606], [79.1170705001901, 14.255739631388073], [79.1326102120758, 14.255517398483402], [79.133663881411, 14.256214502438295], [79.13790124608664, 14.25624762877504], [79.14357081053299, 14.253880827849763], [79.14816126813322, 14.253916514959133], [79.14884501118229, 14.256677265583749], [79.1516699499338, 14.256699179078918], [79.15237899057023, 14.256360243062014], [79.15133367203579, 14.25462998779061], [79.1520511215906, 14.253257824447969], [79.15805683849867, 14.25295984872341], [79.15875188513876, 14.254342943541], [79.15768135197055, 14.25571240365523], [79.15414177527428, 14.256718325970553], [79.15659681006436, 14.258803907012245], [79.1583568272017, 14.259506371992408], [79.16224677007651, 14.258847523336051], [79.16824709185441, 14.259238131348463], [79.17211203798693, 14.2616788332823], [79.17493153188992, 14.262389305419694], [79.17669718844016, 14.262402817477186], [79.1784960430896, 14.258283347104884], [79.1809955409014, 14.254858071026367], [79.18346187139929, 14.255565742089164], [79.18626206638254, 14.258686985303209], [79.18659867067919, 14.26075616544691], [79.18869269624805, 14.263872017036704], [79.19431270664897, 14.26770347482939], [79.1985121002399, 14.272557396406098], [79.20132911269286, 14.27361199927083], [79.20307302714167, 14.276380673238021], [79.20941083108859, 14.278839487833093], [79.21080988014744, 14.280572204834929], [79.21292344400783, 14.28127695891176], [79.2181911556746, 14.285105294404651], [79.22489339047544, 14.286188698034286], [79.23190852779545, 14.292440895018686], [79.23789129041974, 14.295240834937873], [79.23929334534485, 14.296628994527023], [79.24033149833608, 14.299392233517628], [79.2487283076545, 14.309787588844376], [79.24870161098866, 14.313231847681568], [79.2507489312555, 14.322546963507994], [79.25284971045828, 14.324973550862676], [79.25317629642315, 14.328420412736632], [79.25174728861863, 14.330476565872754], [79.25068753213316, 14.330468757369433], [79.24963846355462, 14.32908324203927], [79.247516291763, 14.329412028116293], [79.24501675387538, 14.332838004528162], [79.24426734694086, 14.338343568395873], [79.2428381905719, 14.340399649820817], [79.23921942762033, 14.351394993175244], [79.2391978898411, 14.354150376589457], [79.23990177246091, 14.354500048452945], [79.24413854438052, 14.354875921954036], [79.24804348062298, 14.352493713277038], [79.25193230423088, 14.352177982384001], [79.25512522191451, 14.350479282135332], [79.25761952044252, 14.34774206172432], [79.2579967611468, 14.344644818523289], [79.25590375672711, 14.341184974543257], [79.25274835212163, 14.33806174110864], [79.251709919479, 14.335298527379976], [79.25207652434808, 14.333579000875918], [79.2541880716416, 14.334627882789261], [79.25905658837553, 14.34465260192133], [79.26011109870551, 14.34534923461802], [79.26293731807804, 14.345369955634887], [79.26400245717905, 14.344688861887402], [79.26651247574851, 14.339884957545854], [79.26659453014656, 14.329207674089657], [79.26909636180187, 14.32543699847885], [79.26946281233384, 14.323717426973595], [79.27053046375592, 14.322691859450677], [79.27194080236329, 14.32304657599841], [79.27086523948547, 14.32510543909545], [79.27048823767939, 14.328202731212347], [79.26833700538745, 14.332320426611497], [79.27007688343427, 14.335777600073637], [79.27003989171581, 14.340599606548135], [79.26718459944047, 14.344367689130989], [79.26645420257833, 14.347462378416484], [79.26326139771548, 14.349161246223433], [79.26005524753486, 14.352582199403757], [79.25508787068472, 14.35530124425014], [79.25116956763394, 14.359405696352727], [79.2479845328041, 14.360071051348381], [79.24476994218354, 14.364525021758341], [79.2401419767683, 14.368968431890815], [79.23799244210036, 14.372741309221585], [79.23267918009904, 14.374423904379418], [79.23159485222386, 14.377515774632535], [79.23052675463228, 14.378541112555718], [79.22734141420769, 14.379206150810175], [79.22237582116607, 14.381579972201086], [79.22058737499313, 14.384322039333378], [79.21668160905986, 14.386703692260207], [79.21523544290156, 14.390826039214376], [79.21168285241137, 14.39321025617398], [79.20917100027143, 14.398013356676937], [79.2045388896889, 14.402800312840123], [79.20487571721777, 14.404869488057797], [79.20627814570108, 14.406257886087316], [79.20591376762269, 14.407632862748859], [79.20309788612784, 14.406233713178791], [79.19991486946604, 14.406553911487915], [79.19065803820897, 14.415094015589025], [79.18992626824001, 14.418188303621744], [79.18603354008583, 14.418847281965402], [79.17641107746941, 14.428761615414805], [79.17429072614814, 14.428745211875256]], [[79.1615229775544, 14.391103329834007], [79.16293911416676, 14.39076990871298], [79.16363451105995, 14.392153028337887], [79.16183684461402, 14.395927775868332], [79.1611301697514, 14.39592227873448], [79.1615229775544, 14.391103329834007]], [[79.2282595734308, 14.352346645950252], [79.22581372374287, 14.348883941683795], [79.22300381299428, 14.346796253003523], [79.22231628492187, 14.344380016586964], [79.21985972738767, 14.342294947783484], [79.21917224202207, 14.339878706849545], [79.22313137650117, 14.330608497955808], [79.22455791557273, 14.328896968061292], [79.22318561053207, 14.323720084530574], [79.22390021255482, 14.322692107357721], [79.2270901472448, 14.32133817856706], [79.22923385719366, 14.318254193476845], [79.23029354409205, 14.318262091155384], [79.23239404720283, 14.320688830709349], [79.23201384159786, 14.32413042604572], [79.23306007686497, 14.325860427427155], [79.23294676737453, 14.340326165762269], [79.2325583986684, 14.34480101954733], [79.23039279431889, 14.350640375461637], [79.22931941990643, 14.352354566371378], [79.2282595734308, 14.352346645950252]], [[79.25195368322916, 14.349422579643031], [79.25161643578657, 14.347353422172171], [79.25269496450156, 14.344950256220597], [79.25481995002919, 14.344277013884742], [79.25586911277986, 14.345662516226348], [79.25549717282185, 14.348070900155255], [79.2530081884082, 14.350119243724325], [79.25195368322916, 14.349422579643031]], [[79.24880894254342, 14.344921589160483], [79.2463762128779, 14.339736945032367], [79.24642174096402, 14.333881724738202], [79.24749221408852, 14.332511853989725], [79.24855197835122, 14.332519677846697], [79.24889988618035, 14.333211135349613], [79.25131659782583, 14.34046230823462], [79.25130056860307, 14.342528861205407], [79.24880894254342, 14.344921589160483]], [[79.26188810928761, 14.34398447979912], [79.25664757690903, 14.336368197246504], [79.25599430741721, 14.32947447254831], [79.25461326735113, 14.32533096802848], [79.25182198518449, 14.320832636706944], [79.25150608298824, 14.316008069475687], [79.25046240066247, 14.313933710975078], [79.25048107124498, 14.311522727763098], [79.25154606930471, 14.3108416742605], [79.25401329863679, 14.311548707170276], [79.2550623277242, 14.31293419890563], [79.26106717071508, 14.312978221207453], [79.25963038228828, 14.316067726952804], [79.25961711184102, 14.317789865641208], [79.26239262336715, 14.324354688087507], [79.26484680352485, 14.32678377024719], [79.26444056923594, 14.333669752912131], [79.2651311940608, 14.335741488717254], [79.26509939718127, 14.339874626407191], [79.26438225279499, 14.341247169396139], [79.26295058981847, 14.34364781789101], [79.26188810928761, 14.34398447979912]], [[79.23551122618161, 14.328634201566532], [79.23623656163139, 14.326228490523324], [79.23621771891908, 14.32863945226514], [79.23551122618161, 14.328634201566532]], [[79.23553546157336, 14.325534394701416], [79.23448920721675, 14.323804402185463], [79.23450267510128, 14.322082287618498], [79.2355919882691, 14.318301508718958], [79.23733125327905, 14.321758856953982], [79.23731511786787, 14.323825397619913], [79.23624194461937, 14.325539644217159], [79.23553546157336, 14.325534394701416]], [[79.26348944647704, 14.319540444927396], [79.26279886925643, 14.317468708943276], [79.26386386692396, 14.316787599486743], [79.26490504304847, 14.319206342680198], [79.26348944647704, 14.319540444927396]], [[79.25684971427475, 14.310191743331286], [79.25650712244496, 14.308811442692322], [79.25722152942473, 14.30778334126549], [79.25899027264448, 14.307451856245018], [79.26074575897864, 14.308842498477146], [79.26073515514523, 14.310220211103935], [79.25790672368223, 14.310543941173746], [79.25684971427475, 14.310191743331286]], [[79.22576649693613, 14.30996171700815], [79.21977270174732, 14.30853912991105], [79.21729206936566, 14.309553857761003], [79.21659107992458, 14.308859717751526], [79.21697418047094, 14.305073746935012], [79.21768602364845, 14.304390203675066], [79.22015846021137, 14.304408726864704], [79.22544032685376, 14.306514863299835], [79.22647833391339, 14.30927814637271], [79.22576649693613, 14.30996171700815]], [[79.20317182460032, 14.308414205055957], [79.20249006065869, 14.305309107207817], [79.2035879858641, 14.300495269586794], [79.20111561455548, 14.300476579122096], [79.19971105867542, 14.299432636240024], [79.20112931364591, 14.298754492579762], [79.20818772948606, 14.299496656429966], [79.20671757716342, 14.306718791110885], [79.2042314502618, 14.308422213584084], [79.20317182460032, 14.308414205055957]], [[79.2240734850165, 14.300649145774003], [79.22548628702508, 14.300659692952499], [79.2254727714869, 14.302381802191947], [79.2240626641326, 14.30202683212855], [79.2240734850165, 14.300649145774003]], [[79.19654879722991, 14.297342052030316], [79.1954947237042, 14.296645182725609], [79.19515802382813, 14.294576005191724], [79.19764129846362, 14.293217082769676], [79.19801642620725, 14.290464422713871], [79.19696512094596, 14.289423145959804], [79.18921176599073, 14.287297654240177], [79.18817981526095, 14.283845437984713], [79.18500959696347, 14.282787980255446], [79.18572420622976, 14.281760119702124], [79.1888999252159, 14.282128735741509], [79.19069051637516, 14.27904241970049], [79.19351030536701, 14.27975270337061], [79.19525690042882, 14.282177010910376], [79.1955963419074, 14.28390177157954], [79.19769890294816, 14.28598432700044], [79.20684866361756, 14.290186707172158], [79.20894866533486, 14.292613600040971], [79.2117605348325, 14.294356951499735], [79.21139645367391, 14.295731973803907], [79.20785363927064, 14.297083064600393], [79.20255850967794, 14.296698668845915], [79.19654879722991, 14.297342052030316]], [[79.22526006977006, 14.284469220425095], [79.21785695944376, 14.282691703912027], [79.21646326564661, 14.280270179315703], [79.22246982016887, 14.279970654474612], [79.22352662198475, 14.280322983689654], [79.22562404274942, 14.28309416378267], [79.22526006977006, 14.284469220425095]], [[79.11757936611028, 14.279508945761204], [79.1204159723307, 14.278153655482233], [79.1236456269315, 14.271979467794093], [79.12471358553918, 14.270954600028075], [79.12577298910166, 14.27096293683045], [79.12647071565718, 14.272001703033727], [79.12608054534662, 14.27647617090432], [79.12110226009244, 14.280570045878545], [79.11721476584806, 14.280883759827846], [79.11757936611028, 14.279508945761204]], [[79.24967992372513, 14.27810555120935], [79.24721839621762, 14.27670966134409], [79.24723438599108, 14.274643101484948], [79.24935869547224, 14.273969830845433], [79.25111387879397, 14.275360511638743], [79.25110324225837, 14.276738221038869], [79.24967992372513, 14.27810555120935]], [[79.18964480117377, 14.277312288328426], [79.1808269567606, 14.27586735167426], [79.17907226509837, 14.274476202549087], [79.17908333774515, 14.273098547182311], [79.17979516887733, 14.272415117219433], [79.18226720458188, 14.272433992991077], [79.1875506601805, 14.274196432207134], [79.18965581183205, 14.275934625182499], [79.18964480117377, 14.277312288328426]], [[79.25888090217046, 14.275761864219932], [79.25818780679433, 14.274034556228806], [79.25994569813668, 14.275080749144152], [79.259940406967, 14.275769607134393], [79.25888090217046, 14.275761864219932]], [[79.00429623392144, 14.270320706262519], [79.00184269758945, 14.268233717916456], [79.00185484198117, 14.26685620474351], [79.00362035432667, 14.26687100285479], [79.00818648294705, 14.269664453692755], [79.01206765482458, 14.270041275751137], [79.00429623392144, 14.270320706262519]], [[79.0245195693085, 14.259468204560951], [79.02418747474859, 14.257054595714866], [79.0259529348097, 14.257069218591568], [79.02665312699128, 14.257763831658707], [79.0262850485052, 14.25948282740048], [79.0245195693085, 14.259468204560951]], [[79.17461166774903, 14.258253641035937], [79.16720998127778, 14.256474693827062], [79.16687355885182, 14.254405507425107], [79.16547779912976, 14.252328175764244], [79.16619794248841, 14.25061154641285], [79.17007939155825, 14.250985786631844], [79.17217587308338, 14.253757334987062], [79.17499804227963, 14.254123381472958], [79.17710568399355, 14.255517240633246], [79.17602693646096, 14.257920036848326], [79.17461166774903, 14.258253641035937]], [[79.15943296699149, 14.257448089908998], [79.16015038169017, 14.256075897661884], [79.16191597445496, 14.256089513271876], [79.16084544902435, 14.257458988715268], [79.15943296699149, 14.257448089908998]], [[79.05916752669492, 14.25458657498675], [79.06059462841826, 14.252876110765577], [79.06200700114856, 14.252887591246504], [79.06057990887092, 14.254598065263972], [79.05916752669492, 14.25458657498675]], [[79.16586153143994, 14.248542359767542], [79.16375403075752, 14.247148416435222], [79.16376517424295, 14.245770769747569], [79.1644741651202, 14.245431791177364], [79.16765209216369, 14.245456214423161], [79.16940650083757, 14.246847415728384], [79.16903950449334, 14.248566769755378], [79.16586153143994, 14.248542359767542]], [[79.07904592671971, 14.24234846597742], [79.07729218910626, 14.240956671830332], [79.07769190196328, 14.235449198434882], [79.08266103869485, 14.232389378119018], [79.08477653210694, 14.232750772272913], [79.08510057294669, 14.236197567917097], [79.08330615240506, 14.239627362961256], [79.08116732140547, 14.242021111987984], [79.07904592671971, 14.24234846597742]], [[79.07412617238863, 14.239553477383064], [79.07306694731444, 14.239544929439578], [79.07307863444355, 14.23816735393484], [79.07413785310305, 14.238175901017629], [79.07412617238863, 14.239553477383064]], [[79.15819932974183, 14.235394905869878], [79.156100381072, 14.232967682060588], [79.1561087649173, 14.231934450296858], [79.1575210856344, 14.23194534967712], [79.15857195433291, 14.232986751943363], [79.15890550153563, 14.235400351718445], [79.15819932974183, 14.235394905869878]], [[79.01426401835329, 14.220809447567888], [79.01355795178685, 14.220803580011543], [79.01356697545589, 14.219770433660718], [79.01427303882005, 14.219776300773434], [79.01426401835329, 14.220809447567888]], [[79.0192094927494, 14.220506078856653], [79.01676828428329, 14.217041756548586], [79.01324101536012, 14.216668060368143], [79.01254398765876, 14.215629045399083], [79.01327409385694, 14.212879856043], [79.01610126561869, 14.2125589214722], [79.02030755945819, 14.21603786761961], [79.02027459039152, 14.219826087145787], [79.0192094927494, 14.220506078856653]]]]}}, {"type": "Feature", "properties": {"depth_class": 2, "depth_lo_m": 1.0, "t_s": 35100.49281155584}, "geometry": {"type": "MultiPolygon", "coordinates": [[[[79.0192094927494, 14.220506078856653], [79.02063361758911, 14.21914024383072], [79.02030755945819, 14.21603786761961], [79.01610126561869, 14.2125589214722], [79.01327409385694, 14.212879856043], [79.01255902867392, 14.213907135081932], [79.01324101536012, 14.216668060368143], [79.01676828428329, 14.217041756548586], [79.01815339219868, 14.220152915754356], [79.0192094927494, 14.220506078856653]], [[79.01360606965545, 14.215293465045868], [79.013974124304, 14.213574486052321], [79.01609225821912, 14.213592070037937], [79.01678929857849, 14.214631076117234], [79.01571821188715, 14.215999819776169], [79.01360606965545, 14.215293465045868]]], [[[79.01355795178685, 14.220803580011543], [79.01426401835329, 14.220809447567888], [79.01427303882005, 14.219776300773434], [79.01356697545589, 14.219770433660718], [79.01355795178685, 14.220803580011543]]], [[[79.15857195433291, 14.232986751943363], [79.1575210856344, 14.23194534967712], [79.1561087649173, 14.231934450296858], [79.156100381072, 14.232967682060588], [79.15819932974183, 14.235394905869878], [79.15890550153563, 14.235400351718445], [79.15857195433291, 14.232986751943363]]], [[[79.0811702315536, 14.241676716554396], [79.08330615240506, 14.239627362961256], [79.08510057294669, 14.236197567917097], [79.08512379435601, 14.23344239644641], [79.08407330246327, 14.232400712019327], [79.08266103869485, 14.232389378119018], [79.07946889537874, 14.234085823045593], [79.07733300316185, 14.236135145376954], [79.07763943637073, 14.241648305163356], [79.07904592671971, 14.24234846597742], [79.0811702315536, 14.241676716554396]], [[79.07871324239564, 14.239934859233783], [79.07874237313216, 14.236490908799674], [79.08299957685492, 14.234114192641156], [79.08369118981958, 14.235841841021424], [79.08189675289896, 14.23927162324468], [79.08011972697174, 14.240635012892916], [79.07871324239564, 14.239934859233783]]], [[[79.07306694731444, 14.239544929439578], [79.07412617238863, 14.239553477383064], [79.07413785310305, 14.238175901017629], [79.07307863444355, 14.23816735393484], [79.07306694731444, 14.239544929439578]]], [[[79.02665312699128, 14.257763831658707], [79.0259529348097, 14.257069218591568], [79.02418747474859, 14.257054595714866], [79.02381937995807, 14.258773585480736], [79.0245195693085, 14.259468204560951], [79.0262850485052, 14.25948282740048], [79.02665312699128, 14.257763831658707]]], [[[79.00888664722449, 14.270359116292644], [79.01207067591203, 14.26969689537445], [79.00818648294705, 14.269664453692755], [79.00362035432667, 14.26687100285479], [79.00185484198117, 14.26685620474351], [79.00184269758945, 14.268233717916456], [79.00323994427704, 14.269967451356285], [79.00888664722449, 14.270359116292644]]], [[[79.12181141413005, 14.280231216173137], [79.1264393859671, 14.275790142370887], [79.12647071565718, 14.272001703033727], [79.12577298910166, 14.27096293683045], [79.12471358553918, 14.270954600028075], [79.1236456269315, 14.271979467794093], [79.1204159723307, 14.278153655482233], [79.11757936611028, 14.279508945761204], [79.11721476584806, 14.280883759827846], [79.12181141413005, 14.280231216173137]]], [[[79.17747685793682, 14.428080991942558], [79.18139771113505, 14.423978078249508], [79.18211845090671, 14.422261474676088], [79.18603354008583, 14.418847281965402], [79.19028242650582, 14.417846601697953], [79.19065803820897, 14.415094015589025], [79.19884925512994, 14.407234657426013], [79.20062435499206, 14.40621488246047], [79.20309788612784, 14.406233713178791], [79.20520703857476, 14.40762749309644], [79.20626988572661, 14.407291131624888], [79.20627814570108, 14.406257886087316], [79.20453062377746, 14.40383355769081], [79.2052566191416, 14.401428022248265], [79.20917100027143, 14.398013356676937], [79.21168285241137, 14.39321025617398], [79.21523544290156, 14.390826039214376], [79.21668160905986, 14.386703692260207], [79.21810586894489, 14.38533667359698], [79.22058737499313, 14.384322039333378], [79.22237582116607, 14.381579972201086], [79.22734141420769, 14.379206150810175], [79.23052675463228, 14.378541112555718], [79.23159485222386, 14.377515774632535], [79.23267918009904, 14.374423904379418], [79.23799244210036, 14.372741309221585], [79.2401419767683, 14.368968431890815], [79.24476994218354, 14.364525021758341], [79.2479845328041, 14.360071051348381], [79.25116956763394, 14.359405696352727], [79.25508787068472, 14.35530124425014], [79.26005524753486, 14.352582199403757], [79.26326139771548, 14.349161246223433], [79.26645420257833, 14.347462378416484], [79.26718459944047, 14.344367689130989], [79.27003989171581, 14.340599606548135], [79.27007688343427, 14.335777600073637], [79.26833700538745, 14.332320426611497], [79.27048823767939, 14.328202731212347], [79.27086523948547, 14.32510543909545], [79.27194080236329, 14.32304657599841], [79.27053046375592, 14.322691859450677], [79.26946281233384, 14.323717426973595], [79.26909636180187, 14.32543699847885], [79.26659453014656, 14.329207674089657], [79.26651247574851, 14.339884957545854], [79.26400245717905, 14.344688861887402], [79.26293731807804, 14.345369955634887], [79.26011109870551, 14.34534923461802], [79.25905658837553, 14.34465260192133], [79.2541880716416, 14.334627882789261], [79.25207652434808, 14.333579000875918], [79.251709919479, 14.335298527379976], [79.25274835212163, 14.33806174110864], [79.25590375672711, 14.341184974543257], [79.2579967611468, 14.344644818523289], [79.25761952044252, 14.34774206172432], [79.25512522191451, 14.350479282135332], [79.25193230423088, 14.352177982384001], [79.24804348062298, 14.352493713277038], [79.24413854438052, 14.354875921954036], [79.23990177246091, 14.354500048452945], [79.2391978898411, 14.354150376589457], [79.23921942762033, 14.351394993175244], [79.2428381905719, 14.340399649820817], [79.24426734694086, 14.338343568395873], [79.24501675387538, 14.332838004528162], [79.247516291763, 14.329412028116293], [79.24963846355462, 14.32908324203927], [79.25068753213316, 14.330468757369433], [79.25174728861863, 14.330476565872754], [79.25317629642315, 14.328420412736632], [79.25284971045828, 14.324973550862676], [79.2507489312555, 14.322546963507994], [79.24870161098866, 14.313231847681568], [79.2487283076545, 14.309787588844376], [79.24033149833608, 14.299392233517628], [79.23929334534485, 14.296628994527023], [79.23789129041974, 14.295240834937873], [79.23190852779545, 14.292440895018686], [79.22489339047544, 14.286188698034286], [79.2181911556746, 14.285105294404651], [79.21292344400783, 14.28127695891176], [79.21080988014744, 14.280572204834929], [79.20941083108859, 14.278839487833093], [79.20307302714167, 14.276380673238021], [79.20132911269286, 14.27361199927083], [79.1985121002399, 14.272557396406098], [79.19431270664897, 14.26770347482939], [79.18869269624805, 14.263872017036704], [79.18659867067919, 14.26075616544691], [79.18626206638254, 14.258686985303209], [79.18346187139929, 14.255565742089164], [79.1809955409014, 14.254858071026367], [79.1784960430896, 14.258283347104884], [79.17669718844016, 14.262402817477186], [79.17493153188992, 14.262389305419694], [79.17211203798693, 14.2616788332823], [79.16824709185441, 14.259238131348463], [79.16224677007651, 14.258847523336051], [79.1583568272017, 14.259506371992408], [79.15659681006436, 14.258803907012245], [79.15414177527428, 14.256718325970553], [79.15768135197055, 14.25571240365523], [79.15875188513876, 14.254342943541], [79.15805683849867, 14.25295984872341], [79.1520511215906, 14.253257824447969], [79.15133367203579, 14.25462998779061], [79.15237899057023, 14.256360243062014], [79.1516699499338, 14.256699179078918], [79.14884501118229, 14.256677265583749], [79.14816126813322, 14.253916514959133], [79.14357081053299, 14.253880827849763], [79.13790124608664, 14.25624762877504], [79.133663881411, 14.256214502438295], [79.1326102120758, 14.255517398483402], [79.1170705001901, 14.255739631388073], [79.11249727961815, 14.253636933392606], [79.1100284156104, 14.253272958205788], [79.10476063026267, 14.249786929203124], [79.10087944556174, 14.249411641155396], [79.09876952577535, 14.248361570152786], [79.0881796431998, 14.247932524736973], [79.08395709092493, 14.24617655535686], [79.0800760460214, 14.245800940550783], [79.07334696277283, 14.248157624165641], [79.06233362201104, 14.255989981217668], [79.06091534177251, 14.256667282012318], [79.05738435579177, 14.256638541542618], [79.05597786651747, 14.255938250973902], [79.05458319956891, 14.253860394592534], [79.0514142363616, 14.25280128407291], [79.04931641583893, 14.250373245749348], [79.0433317672295, 14.248257760383636], [79.04263451254333, 14.247218805617948], [79.04337925952264, 14.242747558897195], [79.04161389228491, 14.242733079241043], [79.04018970950278, 14.244099034127537], [79.03878038471889, 14.243743044809591], [79.03773306749581, 14.242356791585225], [79.03525858666593, 14.242680844516446], [79.03453157423027, 14.245085730931494], [79.03204512085934, 14.246787287097776], [79.03238028598992, 14.248856510560167], [79.03484290753988, 14.249910039734337], [79.03628205682104, 14.246822195890669], [79.03945976631245, 14.246848328183834], [79.04050711214795, 14.24823457734343], [79.03905907693485, 14.252355612144878], [79.03691671391854, 14.25509327338194], [79.03514230879273, 14.256111890433067], [79.03406810690012, 14.25782508636238], [79.03123139057004, 14.259179317219383], [79.02270003287009, 14.265652459396225], [79.01844772691392, 14.26733917313202], [79.01561986157598, 14.26766004602518], [79.01313000295896, 14.269705732132257], [79.01736430533968, 14.270085413619043], [79.02870282735294, 14.265702190667962], [79.03119550912301, 14.263311932703044], [79.03758714268444, 14.259231718441015], [79.04186891987247, 14.25410075420826], [79.04364031503935, 14.253426468454396], [79.04716825782539, 14.25379979413976], [79.05312353393718, 14.259359098050501], [79.06193638079014, 14.261152977369864], [79.06441400528223, 14.260484277275989], [79.06620302708137, 14.257743470664893], [79.07009301189842, 14.257086155632607], [79.07612203655565, 14.254035118939601], [79.09061071620478, 14.25277387702895], [79.09307372837588, 14.253826843832233], [79.09695495818265, 14.254202266626525], [79.10117778256127, 14.25595803580006], [79.10467431418645, 14.260118923127479], [79.1071461101758, 14.260138561608349], [79.1085671837631, 14.25911657081285], [79.11032987853417, 14.259474971921902], [79.11347925206712, 14.262944153907627], [79.11666591389356, 14.261936080325471], [79.12160102408085, 14.263008296810385], [79.15020691573194, 14.262887582316582], [79.157958938055, 14.26501420552542], [79.16396219017169, 14.265060528868029], [79.17663069974144, 14.270668743551225], [79.18051805742917, 14.270354027794825], [79.1854538158267, 14.271424978841457], [79.18862113096134, 14.272826828750903], [79.19352678859737, 14.277686204583297], [79.20161116371587, 14.28256953444724], [79.20440372666546, 14.286723881241135], [79.20897865254807, 14.288824990476613], [79.21178231312572, 14.291601595367341], [79.21600423008427, 14.293699933016631], [79.21705022148677, 14.295429978690313], [79.2230544764908, 14.295474907546092], [79.22446183834052, 14.296174300687014], [79.22867318970587, 14.299650125999072], [79.23149340215508, 14.300360001929095], [79.23464532459076, 14.303827857127523], [79.23851182217778, 14.306267644540046], [79.24268340433292, 14.314909635676962], [79.24224974429139, 14.325239756038597], [79.23866893708949, 14.331413201067182], [79.23794091287661, 14.33416334284572], [79.23509870158541, 14.336208876083022], [79.23396068819734, 14.346189236664866], [79.23108312754198, 14.352712177973888], [79.22787648351236, 14.356132633268915], [79.22714279138717, 14.359571553168568], [79.22537361171551, 14.359902747263309], [79.22502574889043, 14.359211260243814], [79.22575133029643, 14.356805611328605], [79.2271753302537, 14.355438506664878], [79.2264985870759, 14.351644593573766], [79.21772652488988, 14.344001124496966], [79.21773741759714, 14.34262344776015], [79.21529183028737, 14.3391606630171], [79.21141145073842, 14.338442558489826], [79.20785150804963, 14.341860071270139], [79.20643572174446, 14.342193806431226], [79.20287015368655, 14.346300060384872], [79.20038628022836, 14.347658967092235], [79.20001650316097, 14.349722779302905], [79.20069554021597, 14.353172300622141], [79.19961918845581, 14.355230744464182], [79.1992411206058, 14.358327797758516], [79.1978169510088, 14.359694712343794], [79.19637344705832, 14.363472518349171], [79.1924595634327, 14.366887028861282], [79.18995600212388, 14.370656682359867], [79.18109559168704, 14.374033097337781], [79.17791304226073, 14.37435304979462], [79.17365378702772, 14.37673124059253], [79.16622868277383, 14.377362677974208], [79.1655164446573, 14.37804601731944], [79.16654547860026, 14.381842724484196], [79.16932992976328, 14.387030746125035], [79.17423730186954, 14.391890720988485], [79.1770555874365, 14.392945764237504], [79.18452575620994, 14.386803460153743], [79.18489021181377, 14.385428525519048], [79.18738015948195, 14.383381020777652], [79.19167267669272, 14.376869623231313], [79.19380639013647, 14.375163744940263], [79.2001825402274, 14.373145705938022], [79.20763223688323, 14.36941342662827], [79.20939602087853, 14.369771210758952], [79.21008893115267, 14.371498638878542], [79.20971369230445, 14.374251301664556], [79.2082839777693, 14.376307106121878], [79.20753890560844, 14.381123582287866], [79.20036487384456, 14.394502106220585], [79.1932426015031, 14.401336456063518], [79.1918042206989, 14.404425356353196], [79.18823728546094, 14.40853122293098], [79.18539088571046, 14.41092039664103], [79.18290895685223, 14.4119346062764], [79.17684852813838, 14.418432075579307], [79.17365973043714, 14.419440712032625], [79.17116923439694, 14.421488004397164], [79.17007816151458, 14.425268271037703], [79.17429072614814, 14.428745211875256], [79.17747685793682, 14.428080991942558]], [[79.19176536271034, 14.409247130268609], [79.19535994709587, 14.401697072395834], [79.20141386889186, 14.395887832823258], [79.20607612964443, 14.387312354338263], [79.20680478211595, 14.384562386926731], [79.20894945491162, 14.381478702669842], [79.20933295468693, 14.37769279541076], [79.21148299627279, 14.37392024070054], [79.21151038066832, 14.370476068987044], [79.20940972583044, 14.368049126403028], [79.20693660627946, 14.368030410393386], [79.1977148965444, 14.372438057971792], [79.19099098420341, 14.373764503616014], [79.19171975134627, 14.371014596088068], [79.19422329010688, 14.36724492104293], [79.1977811054499, 14.36417210569143], [79.19958339033796, 14.359708143950208], [79.20065151215579, 14.358682950118517], [79.20102956206915, 14.355585892467536], [79.20210590381427, 14.353527440968968], [79.20214713187241, 14.348361200760825], [79.2042749916597, 14.347344016439001], [79.20748729175092, 14.343235070673305], [79.20925908355412, 14.342559580027022], [79.21175105025964, 14.340167312607871], [79.21351735008264, 14.340180622624844], [79.2149222104083, 14.341224517373792], [79.21525638511292, 14.34363810711579], [79.21383240480317, 14.34500514168864], [79.21310675381052, 14.34741074606125], [79.21733239193316, 14.349164754391882], [79.22262609060678, 14.349893384624291], [79.22473218491601, 14.351631369864926], [79.22577303668616, 14.354050248603423], [79.22327015971771, 14.357820339606446], [79.22290056005768, 14.35988420823053], [79.22570790368722, 14.362316334763896], [79.2278331110219, 14.361643363381924], [79.22928692765969, 14.356487618760744], [79.23142559380467, 14.354092500336353], [79.23495575232222, 14.354463261377528], [79.2377685732428, 14.35620640811683], [79.24554096882271, 14.356264084706256], [79.25582379110384, 14.351517760372639], [79.25974452383268, 14.347068776692618], [79.26292404457492, 14.3470920931171], [79.26291607962693, 14.348125375480823], [79.26006588825446, 14.351204492181537], [79.25332408371494, 14.3549438048257], [79.25118026797989, 14.358027996467412], [79.24728598069512, 14.359032551791108], [79.24016083275136, 14.366557473220128], [79.23800862875223, 14.3706747763042], [79.2362285640879, 14.372383730462932], [79.23233668999667, 14.373043581659045], [79.23091259329938, 14.374410706266461], [79.22983095356928, 14.37715814518496], [79.22096796599347, 14.380880510705694], [79.21847012181965, 14.383961662870266], [79.21669800801962, 14.384637185704342], [79.21491494117849, 14.386690363653674], [79.21418363712564, 14.389784783455017], [79.21027496975155, 14.39251072707095], [79.20812194478812, 14.396627658058723], [79.20385146854439, 14.400384036753389], [79.20169823969897, 14.404500884179436], [79.19922196584697, 14.404826454927521], [79.19388832309986, 14.408918942543195], [79.19176536271034, 14.409247130268609]], [[79.26795465554478, 14.336106565101812], [79.26865853992238, 14.336456150728095], [79.26864531869444, 14.338178294738858], [79.26759080841698, 14.337481700414513], [79.26795465554478, 14.336106565101812]], [[79.24688469393624, 14.319762906280198], [79.24830030471931, 14.319428906006571], [79.24900143185656, 14.320122966773361], [79.24827892773428, 14.322184310296166], [79.2468659737567, 14.322173883169233], [79.24688469393624, 14.319762906280198]], [[79.24550921619827, 14.314930520928328], [79.24273965856955, 14.307676715337045], [79.24133215972732, 14.306977416350009], [79.23748172631083, 14.302471125912097], [79.23537055736831, 14.30142213587468], [79.23327555462427, 14.298306589044223], [79.21919105774386, 14.292690486170759], [79.21919919023274, 14.291657223355475], [79.22097594962203, 14.290292748852796], [79.22205714752977, 14.287545295665018], [79.22382304602385, 14.287558481471722], [79.2248663770891, 14.2896329193201], [79.2269773825229, 14.290681985340623], [79.23048230286562, 14.294152507005544], [79.23787519126395, 14.297307380828471], [79.23891332828764, 14.30007062423355], [79.24206537296672, 14.303538393692858], [79.24380197998161, 14.307340122028538], [79.24730207266008, 14.31149930145845], [79.24691945073744, 14.315285376412511], [79.24550921619827, 14.314930520928328]], [[79.2100735970127, 14.284355510537257], [79.20515376600206, 14.281218512882088], [79.20163031162495, 14.280158608937088], [79.20022860466914, 14.278770264176147], [79.1953008151427, 14.276666342432751], [79.19390466231933, 14.274589133815654], [79.19109593296768, 14.272501197317409], [79.18935219982771, 14.269732455504142], [79.18936595757404, 14.268010375732302], [79.19113167208486, 14.268023786073575], [79.1939458409328, 14.26942288277951], [79.19708853177494, 14.27392437881139], [79.20060639165912, 14.275673172472922], [79.20305663255063, 14.278447183146357], [79.2065800705487, 14.27950706378009], [79.2093835967736, 14.28228368209761], [79.2100735970127, 14.284355510537257]], [[79.07649557182071, 14.251627207918013], [79.07580106410046, 14.250243935768962], [79.07757527748834, 14.249224986543789], [79.08004108865912, 14.249933680975564], [79.08002943371554, 14.251311260780978], [79.07861122351639, 14.251988677482684], [79.07649557182071, 14.251627207918013]], [[79.04295492702963, 14.251009963479605], [79.04366406895613, 14.250671368728556], [79.04366109999398, 14.251015756231139], [79.04295492702963, 14.251009963479605]]], [[[79.16940650083757, 14.246847415728384], [79.16765209216369, 14.245456214423161], [79.16376517424295, 14.245770769747569], [79.16375403075752, 14.247148416435222], [79.16586153143994, 14.248542359767542], [79.16903950449334, 14.248566769755378], [79.16940650083757, 14.246847415728384]]], [[[79.259940406967, 14.275769607134393], [79.25924201023184, 14.274731159102405], [79.25818780679433, 14.274034556228806], [79.25888090217046, 14.275761864219932], [79.259940406967, 14.275769607134393]]], [[[79.25039158513722, 14.277421887451853], [79.25111387879397, 14.275360511638743], [79.24935869547224, 14.273969830845433], [79.24794604177137, 14.273959444450526], [79.24723438599108, 14.274643101484948], [79.24721839621762, 14.27670966134409], [79.24932675368672, 14.278102955135775], [79.25039158513722, 14.277421887451853]]], [[[79.20317182460032, 14.308414205055957], [79.20671757716342, 14.306718791110885], [79.20743491624994, 14.30534644622631], [79.20818772948606, 14.299496656429966], [79.20324847271756, 14.298770512541116], [79.19971105867542, 14.299432636240024], [79.20111561455548, 14.300476579122096], [79.2035879858641, 14.300495269586794], [79.20247088676781, 14.307720028776341], [79.20317182460032, 14.308414205055957]], [[79.20532662838464, 14.303952784530244], [79.2053184252137, 14.30498603842509], [79.20461201834681, 14.3049807044133], [79.20461748935001, 14.304291868761304], [79.20532662838464, 14.303952784530244]]], [[[79.22612511965026, 14.309275510284424], [79.22579083302237, 14.306861921665107], [79.22227227710935, 14.305113425750053], [79.21768602364845, 14.304390203675066], [79.21661553986078, 14.305759937629725], [79.21659107992458, 14.308859717751526], [79.21729206936566, 14.309553857761003], [79.21977270174732, 14.30853912991105], [79.22541328174158, 14.309959079739055], [79.22612511965026, 14.309275510284424]]], [[[79.26074575897864, 14.308842498477146], [79.25899027264448, 14.307451856245018], [79.25793062006862, 14.307444092290744], [79.25686565508951, 14.308125178608984], [79.25650180776465, 14.30950029746989], [79.25684971427475, 14.310191743331286], [79.25931961328146, 14.310554294399301], [79.26073515514523, 14.310220211103935], [79.26074575897864, 14.308842498477146]]], [[[79.26491298216169, 14.31817305671103], [79.26386386692396, 14.316787599486743], [79.26279886925643, 14.317468708943276], [79.26348944647704, 14.319540444927396], [79.26454915891608, 14.319548190505737], [79.26491298216169, 14.31817305671103]]], [[[79.23695649866686, 14.324511621701259], [79.23733125327905, 14.321758856953982], [79.23523875815569, 14.318298884554029], [79.23448920721675, 14.323804402185463], [79.23553546157336, 14.325534394701416], [79.23695649866686, 14.324511621701259]]], [[[79.23552738375382, 14.326567663750675], [79.23551122618161, 14.328634201566532], [79.23621771891908, 14.32863945226514], [79.23623656163139, 14.326228490523324], [79.23552738375382, 14.326567663750675]]]]}}, {"type": "Feature", "properties": {"depth_class": 3, "depth_lo_m": 2.0, "t_s": 35100.49281155584}, "geometry": {"type": "MultiPolygon", "coordinates": [[[[79.0164272670522, 14.215661296171254], [79.01678929857849, 14.214631076117234], [79.01609225821912, 14.213592070037937], [79.01361809590493, 14.213915935883495], [79.01430610767282, 14.21598809505003], [79.0164272670522, 14.215661296171254]]], [[[79.08082879363903, 14.240296296208783], [79.08369118981958, 14.235841841021424], [79.08299957685492, 14.234114192641156], [79.07981032040792, 14.235466243802607], [79.07838347523338, 14.237176857457499], [79.07871324239564, 14.239934859233783], [79.07976664894066, 14.24063217275063], [79.08082879363903, 14.240296296208783]]], [[[79.04366406895613, 14.250671368728556], [79.04295492702963, 14.251009963479605], [79.04366109999398, 14.251015756231139], [79.04366406895613, 14.250671368728556]]], [[[79.2100735970127, 14.284355510537257], [79.2065800705487, 14.27950706378009], [79.20305663255063, 14.278447183146357], [79.20060639165912, 14.275673172472922], [79.19708853177494, 14.27392437881139], [79.1939458409328, 14.26942288277951], [79.19113167208486, 14.268023786073575], [79.18936595757404, 14.268010375732302], [79.18935219982771, 14.269732455504142], [79.19109593296768, 14.272501197317409], [79.19390466231933, 14.274589133815654], [79.1953008151427, 14.276666342432751], [79.20022860466914, 14.278770264176147], [79.20163031162495, 14.280158608937088], [79.20515376600206, 14.281218512882088], [79.2065527918635, 14.282951252496375], [79.20901408065218, 14.284347541178194], [79.2100735970127, 14.284355510537257]]], [[[79.24691945073744, 14.315285376412511], [79.24660632031588, 14.310116387792382], [79.24450038316995, 14.30837861609285], [79.24206537296672, 14.303538393692858], [79.23891332828764, 14.30007062423355], [79.23787519126395, 14.297307380828471], [79.23048230286562, 14.294152507005544], [79.2269773825229, 14.290681985340623], [79.2248663770891, 14.2896329193201], [79.22382304602385, 14.287558481471722], [79.22205714752977, 14.287545295665018], [79.22097594962203, 14.290292748852796], [79.21919919023274, 14.291657223355475], [79.21919105774386, 14.292690486170759], [79.23327555462427, 14.298306589044223], [79.23537055736831, 14.30142213587468], [79.23748172631083, 14.302471125912097], [79.24378859738819, 14.309062247370944], [79.24550921619827, 14.314930520928328], [79.24691945073744, 14.315285376412511]]], [[[79.2049734265271, 14.303950117986966], [79.20461748935001, 14.304291868761304], [79.20461201834681, 14.3049807044133], [79.2053184252137, 14.30498603842509], [79.2049734265271, 14.303950117986966]]], [[[79.24863483824005, 14.321842490200995], [79.24900143185656, 14.320122966773361], [79.2472406020455, 14.319421088015103], [79.24652343526512, 14.320793574319984], [79.2468659737567, 14.322173883169233], [79.24863483824005, 14.321842490200995]]], [[[79.26830791971584, 14.33610914376088], [79.26759874579272, 14.336448414557335], [79.2679387838156, 14.338173137171971], [79.26864531869444, 14.338178294738858], [79.26830791971584, 14.33610914376088]]], [[[79.19389109582399, 14.408574529774649], [79.19851248336533, 14.405165480041788], [79.20241047500878, 14.403817434142265], [79.20385146854439, 14.400384036753389], [79.20812194478812, 14.396627658058723], [79.21027496975155, 14.39251072707095], [79.21418363712564, 14.389784783455017], [79.21491494117849, 14.386690363653674], [79.21669800801962, 14.384637185704342], [79.21847012181965, 14.383961662870266], [79.22096796599347, 14.380880510705694], [79.22983095356928, 14.37715814518496], [79.23091259329938, 14.374410706266461], [79.23233668999667, 14.373043581659045], [79.2362285640879, 14.372383730462932], [79.23800862875223, 14.3706747763042], [79.24016083275136, 14.366557473220128], [79.24728598069512, 14.359032551791108], [79.25118026797989, 14.358027996467412], [79.25332408371494, 14.3549438048257], [79.26006588825446, 14.351204492181537], [79.26291607962693, 14.348125375480823], [79.26292404457492, 14.3470920931171], [79.25974452383268, 14.347068776692618], [79.25582379110384, 14.351517760372639], [79.24554096882271, 14.356264084706256], [79.2377685732428, 14.35620640811683], [79.23495575232222, 14.354463261377528], [79.23142559380467, 14.354092500336353], [79.22928692765969, 14.356487618760744], [79.2278331110219, 14.361643363381924], [79.22570790368722, 14.362316334763896], [79.22290056005768, 14.35988420823053], [79.22327015971771, 14.357820339606446], [79.22577303668616, 14.354050248603423], [79.22473218491601, 14.351631369864926], [79.22262609060678, 14.349893384624291], [79.21733239193316, 14.349164754391882], [79.21310675381052, 14.34741074606125], [79.21383240480317, 14.34500514168864], [79.21525638511292, 14.34363810711579], [79.2149222104083, 14.341224517373792], [79.21351735008264, 14.340180622624844], [79.21175105025964, 14.340167312607871], [79.20925908355412, 14.342559580027022], [79.20748729175092, 14.343235070673305], [79.2042749916597, 14.347344016439001], [79.20214713187241, 14.348361200760825], [79.20210590381427, 14.353527440968968], [79.20102956206915, 14.355585892467536], [79.20065151215579, 14.358682950118517], [79.19958339033796, 14.359708143950208], [79.1977811054499, 14.36417210569143], [79.19422329010688, 14.36724492104293], [79.19100206418037, 14.372386850604352], [79.19099098420341, 14.373764503616014], [79.19665221264593, 14.372774399583815], [79.20693660627946, 14.368030410393386], [79.21011359230621, 14.368398886121145], [79.21151038066832, 14.370476068987044], [79.21148299627279, 14.37392024070054], [79.20933295468693, 14.37769279541076], [79.20894945491162, 14.381478702669842], [79.20680478211595, 14.384562386926731], [79.20607612964443, 14.387312354338263], [79.20141386889186, 14.395887832823258], [79.19535994709587, 14.401697072395834], [79.19176536271034, 14.409247130268609], [79.19389109582399, 14.408574529774649]], [[79.23593465729881, 14.364803816784756], [79.23137419765999, 14.3606365057742], [79.23175454178062, 14.357194929713025], [79.24339704010568, 14.35934819202995], [79.24267969510069, 14.360720645182022], [79.24019584171644, 14.362079977181944], [79.23805717325384, 14.36447517528487], [79.23593465729881, 14.364803816784756]]]]}}, {"type": "Feature", "properties": {"depth_class": 4, "depth_lo_m": 3.0, "t_s": 35100.49281155584}, "geometry": {"type": "Polygon", "coordinates": [[[79.23593465729881, 14.364803816784756], [79.23172208279578, 14.361327985877157], [79.23175454178062, 14.357194929713025], [79.24339704010568, 14.35934819202995], [79.24267969510069, 14.360720645182022], [79.24019584171644, 14.362079977181944], [79.23805717325384, 14.36447517528487], [79.23593465729881, 14.364803816784756]]]}}]}