{"type": "FeatureCollection", "features": [{"type": "Feature", "properties": {"depth_class": 1, "depth_lo_m": 0.3, "t_s": 72000.00181815911}, "geometry": {"type": "MultiPolygon", "coordinates": [[[[79.01353689374338, 14.223214254461691], [79.01602618186206, 14.221168489959858], [79.01990356688542, 14.221889463281796], [79.02168672354301, 14.21983777971867], [79.02171966913033, 14.216049556950844], [79.02102559621225, 14.214666178048029], [79.01646329169536, 14.211528701211513], [79.01293009436576, 14.211843776031177], [79.01150297172912, 14.213553947723556], [79.01148190310485, 14.215964620613429], [79.01217892634699, 14.21700363815606], [79.01145480907574, 14.21906405642834], [79.01178676525986, 14.221477665450031], [79.01353689374338, 14.223214254461691]], [[79.01815339219868, 14.220152915754356], [79.01641525626744, 14.217038827487833], [79.01324101536012, 14.216668060368143], [79.01254398765876, 14.215629045399083], [79.01291806577964, 14.213221304854397], [79.01610126561869, 14.2125589214722], [79.01819839683871, 14.214987168333762], [79.02030755945819, 14.21603786761961], [79.02027459039152, 14.219826087145787], [79.01815339219868, 14.220152915754356]]], [[[79.16062073082857, 14.241613360551185], [79.16141054658739, 14.231286456682], [79.16388767401897, 14.23061664514664], [79.16425466223365, 14.228897297796511], [79.16320934656169, 14.227167095131888], [79.16109368959671, 14.226806387010601], [79.15898919719153, 14.225068015579426], [79.15722384841197, 14.225054407334662], [79.15543614648841, 14.227796071131706], [79.15331770701934, 14.227779705115275], [79.15189701514774, 14.228802013680765], [79.15187180994066, 14.23190170211306], [79.15291145065518, 14.234320765836308], [79.15572493499282, 14.235720239400475], [79.15708977487797, 14.241586124182863], [79.15814347395816, 14.242283121995076], [79.15990895746806, 14.242296739560603], [79.16062073082857, 14.241613360551185]], [[79.15890271052439, 14.235744762761133], [79.156100381072, 14.232967682060588], [79.1561087649173, 14.231934450296858], [79.1582244551067, 14.232295207249601], [79.15890271052439, 14.235744762761133]]], [[[79.08115859049458, 14.243054298225754], [79.08615978992073, 14.236206060530675], [79.08618589922843, 14.233106490654498], [79.08443507785556, 14.231370355050153], [79.08231669182003, 14.231353355484158], [79.07770355755726, 14.234071618699938], [79.07591488787189, 14.236812557760208], [79.0723871015607, 14.236439684372865], [79.07131327157252, 14.238153098368386], [79.07129864910195, 14.23987506592863], [79.07305233664657, 14.24126689858418], [79.07623587291111, 14.24060374264391], [79.07693036170394, 14.241987011201704], [79.07868701807759, 14.243034413726718], [79.08115859049458, 14.243054298225754]], [[79.07800417460139, 14.24027356938424], [79.07768607369903, 14.236137988239372], [79.08301119914269, 14.23273660844995], [79.0844205620407, 14.23309233689971], [79.08475040425927, 14.235850339677373], [79.08224110502438, 14.240307647104727], [79.081173141624, 14.241332321110304], [79.07870158792157, 14.241312439113432], [79.07800417460139, 14.24027356938424]]], [[[79.11821835883717, 14.245071512487145], [79.12036827828598, 14.241299773694987], [79.1203882306469, 14.238888950273804], [79.11899871194554, 14.236122600929617], [79.11653001572947, 14.235758714744671], [79.1143801013723, 14.239530419205416], [79.11400413678402, 14.242282846396957], [79.11680598822896, 14.245060370735448], [79.11821835883717, 14.245071512487145]]], [[[79.16938705731988, 14.249258304748714], [79.17011271268609, 14.246852832703508], [79.16871418063701, 14.245119933448054], [79.16695422780072, 14.244417553686498], [79.16306732832118, 14.244732099680535], [79.16305060756646, 14.246798569016825], [79.16514696315588, 14.24957016518527], [79.16796905929223, 14.249936287421468], [79.16938705731988, 14.249258304748714]]], [[[79.03554013007644, 14.250949013555928], [79.0366291776813, 14.247513873873078], [79.0394686893612, 14.245815167890548], [79.03913643322558, 14.2434015593998], [79.03738594882373, 14.241665115509615], [79.03561761715916, 14.24199497871526], [79.03418744478843, 14.24404966533019], [79.03170398768316, 14.245406833998175], [79.03027674584823, 14.24711710443601], [79.03026180257916, 14.248839028483157], [79.0316681509471, 14.249539455419903], [79.03306256862246, 14.251617416362873], [79.03554013007644, 14.250949013555928]], [[79.03381349243577, 14.24645745597372], [79.03486676209809, 14.24715495376699], [79.03450175466527, 14.248529588185537], [79.0330924167534, 14.248173562985087], [79.03310435377429, 14.246796021339028], [79.03381349243577, 14.24645745597372]]], [[[79.15065832104086, 14.250836013997782], [79.15067796568138, 14.24842515076216], [79.14891525250266, 14.248067050447604], [79.14785032105834, 14.248747646479444], [79.14748316062173, 14.250466947029198], [79.14853124258536, 14.251852805341743], [79.14994368108526, 14.251863764496576], [79.15065832104086, 14.250836013997782]]], [[[79.15802887627488, 14.256403951975123], [79.15945532202726, 14.254692805448435], [79.15946649775496, 14.253315162967034], [79.15771211425199, 14.251923890545152], [79.15205392657627, 14.252913415243613], [79.15134209087852, 14.253596760684701], [79.15133086560505, 14.254974396804977], [79.15378865714396, 14.256715592266994], [79.15590456712766, 14.257076396500338], [79.15802887627488, 14.256403951975123]]], [[[79.13435027899126, 14.25863086799425], [79.1318926434322, 14.256889487906616], [79.12553091224349, 14.257528415659044], [79.12587548875491, 14.25856440310563], [79.13011571779887, 14.258253268408247], [79.13186995009566, 14.259644728693168], [79.13434177966712, 14.259664084670472], [79.13435027899126, 14.25863086799425]]], [[[79.02804154572235, 14.260530589186269], [79.0284185952044, 14.257778436996752], [79.02702119820533, 14.256044834396468], [79.02455556226504, 14.255335604427632], [79.02207192835726, 14.256692648188968], [79.0220509053966, 14.259103327882938], [79.02345127789235, 14.260492573724974], [79.0252107656334, 14.261195972272752], [79.02804154572235, 14.260530589186269]], [[79.02383138253299, 14.257396052775857], [79.02559984263743, 14.257066295060401], [79.02664413778716, 14.25879698293623], [79.02487266498778, 14.259471130173212], [79.02381937995807, 14.258773585480736], [79.02383138253299, 14.257396052775857]]], [[[79.04956882551404, 14.262085344424321], [79.04994562326007, 14.259333125376621], [79.04783887698481, 14.257938234206215], [79.04607338689839, 14.25792377245424], [79.04499925057591, 14.2596370268955], [79.04497846673935, 14.262047739314534], [79.04603184337627, 14.262745200570048], [79.04850358252169, 14.262765450493285], [79.04956882551404, 14.262085344424321]]], [[[79.08311707004823, 14.262013076241544], [79.08349346713261, 14.259260752706338], [79.08279307445079, 14.258566284081496], [79.07996530927423, 14.258887946705295], [79.07854121259146, 14.260254145413967], [79.0785324580722, 14.261287328479622], [79.07958303760977, 14.26232904852435], [79.08205190822744, 14.262693345098118], [79.08311707004823, 14.262013076241544]]], [[[79.12394171778831, 14.278870309831907], [79.12643083991121, 14.276823352878795], [79.12715136554822, 14.275106890150902], [79.12717129511866, 14.272696064141567], [79.12612612377445, 14.270965714719107], [79.12436045117038, 14.270951820048477], [79.12364847891735, 14.271635064713587], [79.12112797612751, 14.277470424543266], [79.12111369020307, 14.279192436501212], [79.12181712704009, 14.279542411204645], [79.12394171778831, 14.278870309831907]]], [[[79.10415986245036, 14.279402474961445], [79.10381825341616, 14.27802206717275], [79.1024056894136, 14.278010814823002], [79.10238837462667, 14.28007720665401], [79.10415986245036, 14.279402474961445]]], [[[79.16183402528017, 14.396272182838453], [79.16432991571462, 14.393536146779038], [79.16434961879118, 14.391125293821842], [79.16330089151991, 14.389739431609161], [79.16224090765948, 14.389731195144094], [79.16116964773569, 14.391100581962391], [79.16114709068017, 14.393855837514069], [79.16183402528017, 14.396272182838453]]], [[[79.181635512504, 14.263129411051285], [79.18305632710259, 14.26210693779567], [79.18307012498198, 14.260384862952822], [79.18236938668979, 14.259690649578681], [79.1795443619238, 14.259669095228567], [79.17812078375164, 14.261035961701381], [79.17810971501065, 14.262413617718758], [79.1795167122345, 14.263113238089316], [79.181635512504, 14.263129411051285]]], [[[79.28492684051648, 14.287662216755708], [79.28143414990502, 14.282470248821124], [79.27755700305482, 14.281408876636018], [79.27087288486712, 14.277915927327292], [79.26946019034945, 14.27790566571039], [79.26770222629861, 14.276859535837069], [79.26665588953048, 14.275129675822535], [79.26171417830967, 14.274749213557858], [79.2599562796295, 14.273703033038622], [79.25926318010376, 14.271975727678338], [79.25610857610862, 14.268852625927817], [79.2557792725003, 14.265750184872187], [79.25507827077084, 14.26505615788966], [79.25584814965526, 14.25679504013676], [79.2537346253257, 14.256090676589668], [79.25337088100419, 14.257465803729731], [79.25406390240312, 14.259193118076196], [79.25155207918924, 14.264341421286517], [79.25400024901559, 14.26745939622591], [79.25431360732541, 14.272628405254387], [79.25816662066376, 14.276789985596242], [79.26027770338955, 14.277838761169141], [79.26131606496638, 14.280601932089462], [79.26272612779684, 14.280956673259677], [79.2641573164895, 14.278555969473791], [79.2666189880955, 14.279951698084073], [79.26979494473927, 14.28031924676533], [79.27577274141896, 14.283807116590435], [79.27859559575238, 14.284171997000142], [79.2828181443281, 14.28626920467017], [79.28455015185015, 14.29075956906645], [79.28526698425225, 14.289386927896484], [79.28492684051648, 14.287662216755708]]], [[[79.25073411393275, 14.278802190714982], [79.25182818450921, 14.274332414439032], [79.25077666865626, 14.273291354156772], [79.24724770884812, 14.272920967982243], [79.24618022624361, 14.273946449689683], [79.24615622742353, 14.27704628776227], [79.2472077349474, 14.278087367708272], [79.25073411393275, 14.278802190714982]]], [[[79.19695414393004, 14.290800813125486], [79.1948405619527, 14.290095913102396], [79.19447089438155, 14.292159731264253], [79.19517176236126, 14.29285392346381], [79.1972936034678, 14.29252557322824], [79.19695414393004, 14.290800813125486]]], [[[79.27887019828835, 14.294507512505202], [79.27815855292856, 14.295191264181438], [79.2788623365868, 14.295540808165784], [79.27887019828835, 14.294507512505202]]], [[[79.18595313436131, 14.297261473103875], [79.18418719697677, 14.29724799744926], [79.18452656044182, 14.298972764562219], [79.18629527385743, 14.298641824783541], [79.18595313436131, 14.297261473103875]]], [[[79.20493513193222, 14.308771967754], [79.2081413253558, 14.305351771985597], [79.20923913368198, 14.300537894241733], [79.21101602043746, 14.299173510242358], [79.21102419411052, 14.298140252610258], [79.21032053189737, 14.29779051893805], [79.20748679872786, 14.29880249588417], [79.20324573626863, 14.299114930272282], [79.2035825132392, 14.301184105067795], [79.20215329237895, 14.303239931995751], [79.20176447246655, 14.307714685307179], [79.20246266829233, 14.308753280720026], [79.20493513193222, 14.308771967754]], [[79.20427249467154, 14.303255947747084], [79.20603849858513, 14.303269279794971], [79.20602209891082, 14.305335788418056], [79.20495428101353, 14.306361043127053], [79.20389740149534, 14.306008621303166], [79.20427249467154, 14.303255947747084]]], [[[79.22506277199183, 14.309612020414889], [79.22438069783061, 14.306506950330064], [79.22156315347395, 14.30545256306025], [79.21908798995557, 14.305778473684407], [79.217667013073, 14.306801145530613], [79.21765343192163, 14.308523246542045], [79.22083504917154, 14.30820264373953], [79.222943485995, 14.309596183040178], [79.22506277199183, 14.309612020414889]]], [[[79.26179217279817, 14.310572392354768], [79.26181071796782, 14.308161393861278], [79.25970201220284, 14.306768173522379], [79.25687362454231, 14.307091896106826], [79.25508892688053, 14.309489928243392], [79.25578207386516, 14.311217250016881], [79.26108042546358, 14.311256080491736], [79.26179217279817, 14.310572392354768]]], [[[79.27936682633405, 14.322067151341288], [79.28328394142262, 14.317962090326239], [79.28436720414362, 14.314869856407505], [79.28442996748394, 14.306603477932107], [79.28586113567623, 14.304202640792225], [79.28589769219808, 14.299380579308561], [79.28519910721353, 14.298342187849437], [79.28378104698785, 14.299020862301292], [79.2819783640359, 14.303830163039501], [79.28191290451122, 14.312440964716005], [79.27906082994056, 14.315864829530787], [79.27764263938377, 14.316543452030727], [79.2765487617086, 14.321013366599885], [79.27476939229373, 14.322722694436761], [79.27936682633405, 14.322067151341288]]], [[[79.26595417470595, 14.320591797022404], [79.26631799208188, 14.319216660414149], [79.26527944545741, 14.316453492923731], [79.26422768777542, 14.315412466407066], [79.26246153336433, 14.31539955574383], [79.26174977086426, 14.316083244132399], [79.26172591184292, 14.319183097082039], [79.2627723722026, 14.320912991470143], [79.26488916292132, 14.321272914336435], [79.26595417470595, 14.320591797022404]]], [[[79.23312476835999, 14.317594282942515], [79.23135592905307, 14.31792556164448], [79.23169836989608, 14.319305881585604], [79.23311398931166, 14.318971974108608], [79.23312476835999, 14.317594282942515]]], [[[79.23591561908935, 14.322092788219965], [79.23555430731318, 14.323123433220095], [79.23625809186572, 14.323473105047448], [79.23662209151291, 14.322098035371836], [79.23591561908935, 14.322092788219965]]], [[[79.2555664756541, 14.339115818614797], [79.25729021001449, 14.344639626962783], [79.25727156721064, 14.34705061225155], [79.25513055667116, 14.349790430237048], [79.2452037786638, 14.354194924767434], [79.23884460290593, 14.354147751374038], [79.23851824834095, 14.350700897572176], [79.23924903459756, 14.347606339885205], [79.24391408381045, 14.33834095355417], [79.24429952192655, 14.334210476235418], [79.24679641114446, 14.331128935697802], [79.24716839288739, 14.328720569522496], [79.24823883362681, 14.327350691534905], [79.24929590218753, 14.327702934832843], [79.25069287267789, 14.329779905948994], [79.25175262593201, 14.32978771406145], [79.2528203804159, 14.328762239066446], [79.25320561976315, 14.324631723701968], [79.25110483910004, 14.322205139358275], [79.25112351407276, 14.319794156990374], [79.24939204561302, 14.315303609238077], [79.24837508834923, 14.309784985723407], [79.24383409093967, 14.303207020140782], [79.24137770997127, 14.301122195843504], [79.23824448501654, 14.295243451032878], [79.23013988919672, 14.292772187778517], [79.22874061416684, 14.291039560239906], [79.22557274386456, 14.289638187630743], [79.22524116743146, 14.286880176263287], [79.2238365595082, 14.285836371637945], [79.22207067443217, 14.285823187485851], [79.22028854255753, 14.28787651804461], [79.21922900379813, 14.287868592227813], [79.21465669324937, 14.285423250882669], [79.21291528904617, 14.282310219080014], [79.20974765812561, 14.280908660303437], [79.20764774021058, 14.278481783905148], [79.20271713595545, 14.276722426658242], [79.20096775407633, 14.274642586381391], [79.19709949446285, 14.272546709595538], [79.19395407467871, 14.268389632290013], [79.19149305932814, 14.266993217372171], [79.18902382191148, 14.266630028360032], [79.18618491985403, 14.268330619556105], [79.18441920780589, 14.268317172288386], [79.18125474866147, 14.266570862066954], [79.17630526958096, 14.267221906102096], [79.17384717200218, 14.265480910007005], [79.17385272070813, 14.264792083837701], [79.1661199888471, 14.260255079006111], [79.16259431274845, 14.259539067076044], [79.15693593744848, 14.260528686787735], [79.15553464378561, 14.259140123779586], [79.14988469792425, 14.259096347573838], [79.1484750260696, 14.258740974292285], [79.14603133612556, 14.255277686892017], [79.14214708335284, 14.255247458350505], [79.1389464604829, 14.257977931228153], [79.13753116470653, 14.258311308565514], [79.13752550835544, 14.25900012096386], [79.14388165148057, 14.259049688846975], [79.14915596899799, 14.261846133573084], [79.15656041336948, 14.26328123515416], [79.15867079652313, 14.264330842851107], [79.16078958339403, 14.264347202417362], [79.1618573547602, 14.26332214274179], [79.16362579509865, 14.262991341315546], [79.166431338128, 14.265423970939551], [79.17136411044109, 14.266839606231759], [79.1755768125766, 14.269971806458754], [79.18299007165226, 14.270372893402566], [79.1858069631337, 14.271427668380404], [79.1903951342839, 14.271807000882665], [79.19355150849933, 14.274586455696339], [79.19634657428085, 14.2783964537817], [79.1988159588226, 14.278759582995452], [79.20514557563133, 14.282251768648107], [79.20618870688713, 14.28432626652707], [79.21004908566108, 14.287455285117138], [79.21214638228442, 14.290226570971816], [79.21355639096078, 14.290581601350677], [79.21741698248172, 14.293710523087183], [79.2181097943828, 14.295437918311213], [79.22446994882687, 14.295141035205106], [79.22903987522109, 14.29793064361092], [79.23221326729842, 14.29864313860708], [79.23431094649924, 14.301414269897247], [79.23712046359148, 14.303501779330928], [79.24131607824846, 14.309043964042907], [79.24340324821036, 14.31319273601038], [79.24295622897556, 14.325244985475441], [79.23686768538587, 14.335877585769499], [79.23649557455755, 14.338285920502614], [79.23399037233891, 14.342400592484582], [79.2336128135818, 14.345497760901841], [79.23181132013087, 14.349962077790723], [79.22966999545633, 14.352701626615941], [79.2286074387039, 14.353038128522474], [79.22475660911999, 14.348531587120588], [79.22124288906339, 14.346094168128596], [79.21565326551574, 14.338130063835608], [79.2114196460028, 14.337409304041005], [79.2075064616355, 14.340824149643367], [79.2046694130209, 14.342180441861869], [79.20252512676612, 14.345264133748096], [79.1993292247393, 14.34730650432321], [79.19895668606306, 14.349714729332002], [79.1996549742221, 14.35075334320229], [79.19963570649807, 14.353164251794718], [79.19818401949087, 14.357975324544272], [79.19675984674684, 14.359342232320492], [79.19496027433216, 14.36346175221551], [79.19176127018301, 14.365848393141947], [79.189969856708, 14.36893461660662], [79.18429759833803, 14.371302217084741], [79.17686987231625, 14.372278424141612], [79.1743827737739, 14.373981413201555], [79.16943650400962, 14.373943208480737], [79.16732509747746, 14.372893577349869], [79.16378926560701, 14.373210603524406], [79.16130488969576, 14.374569034471634], [79.15738186376306, 14.379016095993277], [79.15348414288727, 14.380363420545129], [79.14992268601695, 14.383779868770059], [79.1484838844029, 14.386868452470658], [79.14457460918712, 14.38959322205143], [79.14420990453645, 14.390968063958073], [79.14064528413546, 14.394728735366252], [79.13920056390741, 14.398506041139916], [79.13987013683021, 14.402988837954203], [79.13771577522758, 14.407104959271946], [79.13696617120198, 14.412265411624501], [79.13590037180987, 14.412945847198245], [79.13343259263054, 14.412237502235836], [79.12636258115, 14.412525924565854], [79.12387180053003, 14.414572676271698], [79.12315066891016, 14.416289052675626], [79.12067136489405, 14.416958168184593], [79.11605450786742, 14.419676725757943], [79.1135519636565, 14.423100933248259], [79.11035711129652, 14.424797463371826], [79.10892908836186, 14.426508115580901], [79.10959515033923, 14.43133532080772], [79.10885930201093, 14.434773608627488], [79.10565258785587, 14.437847627775326], [79.10141188708108, 14.437813508886402], [79.09714192061946, 14.441223243159268], [79.0978282215559, 14.443639699951461], [79.10308542683954, 14.448848343037756], [79.10306498122459, 14.451259099738062], [79.10092403337305, 14.453652764254624], [79.09981695123933, 14.45915449896672], [79.09482497479772, 14.464280383485972], [79.08775046099002, 14.464911829992873], [79.08632198699827, 14.466622287095378], [79.08627477521682, 14.472132525110604], [79.08696100631295, 14.474549004856327], [79.09149397962885, 14.481818541827439], [79.09991248348814, 14.489463891476289], [79.10345014212824, 14.48914805841079], [79.10736756908042, 14.48573547616289], [79.1091582606829, 14.48299455079034], [79.11662752846695, 14.477543816655995], [79.1184238412418, 14.474114004852883], [79.1212717437262, 14.471725833294967], [79.12235235876234, 14.4693235208729], [79.12449038210603, 14.467274052283077], [79.12593593001269, 14.463496940728673], [79.12771754273837, 14.461789015094286], [79.12983815117155, 14.46180587483703], [79.13194148824543, 14.463889110574296], [79.13511669065336, 14.464603139072008], [79.13618850323331, 14.463233939676817], [79.13620286510917, 14.461511939528593], [79.13410525289935, 14.458739939992627], [79.13199042441808, 14.458034323534454], [79.1309416541643, 14.456648311325818], [79.13061702159959, 14.453201513880153], [79.12957404015873, 14.45112670067633], [79.13030390716018, 14.448377119214246], [79.1327864297935, 14.447363542737158], [79.13670265613288, 14.443950317812027], [79.13849834464564, 14.440520273954746], [79.1427820455545, 14.435387701529729], [79.15130621380692, 14.43028830641349], [79.15626501351721, 14.428949418107106], [79.15731951296027, 14.429646513623618], [79.15730817985022, 14.43102413400552], [79.15337827426876, 14.436159790489127], [79.15406519492618, 14.438576155695698], [79.15547029442362, 14.439620435492547], [79.16394921288791, 14.440031066840357], [79.17385588862842, 14.43873031412698], [79.17596510816556, 14.440124366438603], [79.17984421988152, 14.441187648068128], [79.18265474106792, 14.443275924929086], [79.18404604612005, 14.446042102084714], [79.18471935145479, 14.450180467664522], [79.18717938843753, 14.451921572839362], [79.18820619472615, 14.45606265628207], [79.19206615839752, 14.459536650757741], [79.19240010411171, 14.461950241826695], [79.19096679712759, 14.464350254069531], [79.19447904658355, 14.467132688029368], [79.19516091423556, 14.470237812977192], [79.19475176519313, 14.477123321770325], [79.19648294932574, 14.48161422946159], [79.19467096574762, 14.487111234561825], [79.1953445025009, 14.491249593294707], [79.20204980601329, 14.492678738027609], [79.20770855452766, 14.492377546642123], [79.21408809374367, 14.490359522006168], [79.22012778150896, 14.486616555934265], [79.22618917772535, 14.48011807629648], [79.2297840926489, 14.472567533486037], [79.23055924136501, 14.463962404240904], [79.22814237303534, 14.456711016061618], [79.22673678339056, 14.455667119535443], [79.22532300641481, 14.455656468099328], [79.22106798020542, 14.457346545531935], [79.21576355026136, 14.457650842270237], [79.21363187006962, 14.459012421257057], [79.21221808205702, 14.459001688733004], [79.20940706181207, 14.456913712566873], [79.19916279350477, 14.45614671208121], [79.1967192693943, 14.45233924447338], [79.1960401813088, 14.448889711383073], [79.19464036828099, 14.447156821828326], [79.19465982144033, 14.444745939018537], [79.19749551406896, 14.443734348273074], [79.19821067297813, 14.442706516444696], [79.1978738939245, 14.440637338542603], [79.19541109690378, 14.439240760447378], [79.19081674222846, 14.439205540360456], [79.1872965757583, 14.437456333890257], [79.18448886334676, 14.435023704715473], [79.18380160930319, 14.432607390117747], [79.1823991915495, 14.431218858400484], [79.18028160800289, 14.43085809643896], [79.18029559747943, 14.429136048704764], [79.18350965027874, 14.425027643618321], [79.1842331694779, 14.422966621731392], [79.18672636740071, 14.420574768515937], [79.191676490374, 14.420268320024492], [79.19238880852285, 14.419584910479994], [79.19277827975294, 14.41511025699996], [79.19455346838903, 14.414090538809091], [79.19919156010214, 14.408615007165453], [79.20061330687831, 14.407592538871826], [79.20273348920482, 14.407608682679687], [79.20483989487872, 14.409346881773345], [79.20767233716994, 14.40867952385199], [79.20804495912651, 14.406271297001284], [79.20595231716187, 14.402811050512067], [79.21058440121082, 14.398024063164781], [79.21202522773405, 14.39459059552828], [79.2162927282811, 14.391178456301311], [79.21845100938874, 14.386372589620276], [79.22093252632878, 14.38535795295498], [79.22343035771878, 14.382276773019914], [79.2283959585809, 14.379902930103409], [79.23087194788653, 14.379577016384198], [79.2322960813201, 14.378209896360238], [79.23338040443247, 14.375118022344687], [79.23762833152993, 14.374116367021996], [79.23940840211587, 14.372407402919347], [79.24120190828675, 14.368976308101544], [79.24404720987151, 14.366586324445755], [79.24833247124758, 14.360762512790677], [79.25258275815378, 14.35941612431922], [79.25543849457529, 14.355648271314097], [79.26040321633127, 14.35327364640989], [79.26360937287366, 14.349852689223475], [79.26715811749528, 14.347811971903818], [79.2682470767408, 14.344031002802204], [79.2700266770527, 14.342321751220808], [79.27110762982628, 14.339574046495969], [79.27113403561313, 14.336129754119687], [79.26938885377916, 14.333361444509425], [79.26939942265784, 14.331983728220305], [79.2708309327806, 14.329583022492127], [79.27192498218879, 14.325113154705374], [79.27441878047591, 14.322375697459616], [79.27195134774396, 14.321668856651494], [79.26982925579746, 14.321997854037585], [79.26553212374367, 14.329544360992905], [79.26545001705884, 14.340221638117594], [79.26438225279499, 14.341247169396139], [79.2636518336472, 14.344341847628707], [79.26258404040955, 14.345367367347825], [79.25940720444937, 14.344999622226483], [79.25767276844714, 14.340853530087344], [79.25731949884634, 14.340850934758308], [79.25627034529855, 14.33946543982698], [79.25591707813668, 14.339462842655612], [79.25591974220625, 14.339118416246684], [79.2555664756541, 14.339115818614797]], [[79.11527184257729, 14.470644576751788], [79.10332489770025, 14.462282543686731], [79.1030240786573, 14.456080611576144], [79.10517670585156, 14.452309351920325], [79.10555637519279, 14.449212646628146], [79.10486414361505, 14.447484989673642], [79.10030494521796, 14.443315263909838], [79.09996324165884, 14.441934840885821], [79.10174483484498, 14.440227112137366], [79.10634189193817, 14.439919675621125], [79.10954572307314, 14.43719004555025], [79.1117038331641, 14.432729892994075], [79.11104353228978, 14.427213896105204], [79.11531012809856, 14.42414824474157], [79.11745640136148, 14.421065595734914], [79.12136366014128, 14.418685786270025], [79.12348673545652, 14.41835825515644], [79.1270549130579, 14.414253530210646], [79.13623941976117, 14.41467064422993], [79.13872724697175, 14.412968150468943], [79.13912346387411, 14.407804904263973], [79.14163685885667, 14.403002742365082], [79.14096724998971, 14.398519946324246], [79.14205291134348, 14.395428655361185], [79.14561752343545, 14.391667961428247], [79.14633838879513, 14.389951482815302], [79.14989149573914, 14.38756832322825], [79.15061514735584, 14.385507420443252], [79.15382331151207, 14.382088207112847], [79.15843050942836, 14.380401975365954], [79.1627096645164, 14.375613232897496], [79.1648379317308, 14.374596456604806], [79.17295556257899, 14.37569255680465], [79.17507820622102, 14.375364503207628], [79.17898132858839, 14.373327974708449], [79.18180777402941, 14.37334970376166], [79.18959992713505, 14.370998393777239], [79.19209242937052, 14.36860639974489], [79.19281286139052, 14.366889725541943], [79.19601187229925, 14.36450307102709], [79.19817023872837, 14.359697399717486], [79.19959440645907, 14.35833048275907], [79.1999724695257, 14.355233428335], [79.20104606760157, 14.35351939825205], [79.20109281900046, 14.347664329254389], [79.20286466059329, 14.346988892943026], [79.20536496840766, 14.343563456717716], [79.20891402973955, 14.341523659630953], [79.2110527288083, 14.339128730831202], [79.21352553673545, 14.33914736713478], [79.21598472229385, 14.340888072450575], [79.21666672438305, 14.34399315678881], [79.21524002167274, 14.345704619178736], [79.21558510976153, 14.346740534131245], [79.2191178216112, 14.346767095842933], [79.21981620252906, 14.34780566026156], [79.22474304083839, 14.350253688750124], [79.22649316407671, 14.352333434729243], [79.22682746681514, 14.354747022201504], [79.22433002906841, 14.357828285293824], [79.22431101557079, 14.360239225055443], [79.22571604758112, 14.361283074324469], [79.22748523815682, 14.360951878895818], [79.22822164214182, 14.357168537486212], [79.23107771813744, 14.353401020782039], [79.23495845134086, 14.35411883928606], [79.23777126830277, 14.355861985552165], [79.24519036109332, 14.355917044626924], [79.2540520232945, 14.35219360666031], [79.25974452383268, 14.347068776692618], [79.26363060551584, 14.347097268761042], [79.2654076129458, 14.345732486893958], [79.26539966016804, 14.346765770741296], [79.26220154691362, 14.349153479226484], [79.260416515063, 14.35155151213658], [79.2543866261412, 14.354607188902584], [79.25117491794892, 14.358716846431033], [79.24728061836313, 14.359721400256861], [79.24585669579409, 14.361088636214616], [79.24015275204451, 14.367590741284813], [79.23764182471807, 14.372394256821998], [79.23232856955347, 14.374076844788336], [79.2312442392973, 14.377168713160183], [79.23017614213678, 14.378194049534084], [79.22805349123506, 14.378522603842649], [79.22237854477021, 14.381235553248922], [79.2202367716881, 14.383974962460144], [79.21846466148689, 14.384650499137145], [79.21632827533867, 14.386701027593409], [79.21488210297878, 14.3908233716405], [79.21132950942673, 14.39320758285955], [79.209173747371, 14.397668940689568], [79.20454439993182, 14.402111482886973], [79.20452511280509, 14.404522387538579], [79.20591927557442, 14.40694403255578], [79.20520979367052, 14.4072830781389], [79.20345124801081, 14.406236401169469], [79.19956150777213, 14.406551218150316], [79.19350722216362, 14.412360366190883], [79.19350167394362, 14.413049191350744], [79.19137034070134, 14.414410607280931], [79.19063580417587, 14.417849310988291], [79.18603075323185, 14.419191692933534], [79.17996458770693, 14.426378045470978], [79.177813440169, 14.430150176882297], [79.17779943058949, 14.431872222082937], [79.18167562013487, 14.43327986819635], [79.18271625589028, 14.435698910858513], [79.18798387725396, 14.439872643495027], [79.19468482736066, 14.441646231787706], [79.19255042476213, 14.443352035957584], [79.19252816855862, 14.446107327662006], [79.19426192221498, 14.450253818263109], [79.19458754871803, 14.453700643986037], [79.19598461718039, 14.455777949450626], [79.19561172042948, 14.458186123073192], [79.19455139374786, 14.458177993788718], [79.19034075888105, 14.45435691120703], [79.18895490996955, 14.450901936817116], [79.18614702625102, 14.448469308255426], [79.18581873659818, 14.445366895599175], [79.18442741150513, 14.442600726697329], [79.18126906412994, 14.439820924084314], [79.1777405701349, 14.439104809039087], [79.17457393672225, 14.43735815624587], [79.16467014679806, 14.438314540664006], [79.15583788596358, 14.437901178156848], [79.15550434520381, 14.435487581136554], [79.15871325387916, 14.432068391264709], [79.15909212314479, 14.428971501563227], [79.15768989687447, 14.427582843155074], [79.15450942110849, 14.427557980324076], [79.14954780243455, 14.42924123788068], [79.14208954175943, 14.433660122567957], [79.13673706401386, 14.439817509047554], [79.13601305181407, 14.441878324024342], [79.13209398149965, 14.445635940852885], [79.12818918892944, 14.44767148122775], [79.12744776615543, 14.451798647973336], [79.12849072900899, 14.453873468492073], [79.12915722656346, 14.458700668729245], [79.12596481035744, 14.460052960471899], [79.12418320144215, 14.461760873121378], [79.12166863573177, 14.46656270177574], [79.11810231484034, 14.470322818956602], [79.11527184257729, 14.470644576751788]], [[79.2661353662417, 14.342982229572836], [79.26757228541274, 14.339892700381865], [79.26689221672447, 14.336443254483202], [79.26725341958286, 14.335412549025294], [79.26831585301505, 14.335075857391068], [79.26936506969349, 14.336461305548292], [79.26898007734161, 14.340591874361358], [79.2661353662417, 14.342982229572836]], [[79.24864819634249, 14.320120362219912], [79.24899341882275, 14.321156243789078], [79.24757779742882, 14.321490247033761], [79.24758849022666, 14.320112545411071], [79.24864819634249, 14.320120362219912]]], [[[79.2552158742494, 14.338768794168002], [79.2555664756541, 14.339115818614797], [79.25556914019181, 14.33877139226038], [79.2552158742494, 14.338768794168002]]], [[[79.2545333347797, 14.335663760501253], [79.2524271132463, 14.333926028646879], [79.2513886977115, 14.331162815202653], [79.25068219130446, 14.33115760874802], [79.25031023930033, 14.33356598377218], [79.25170190999701, 14.336331804578952], [79.2552158742494, 14.338768794168002], [79.2545333347797, 14.335663760501253]]], [[[79.16619374574651, 14.424893679172298], [79.17082990752348, 14.419763225312105], [79.17792265134865, 14.416718215249698], [79.18255559001744, 14.411931886512225], [79.18397184635683, 14.411598351615794], [79.18859342883404, 14.408189521801024], [79.19216035200849, 14.40408364833334], [79.1939548482259, 14.400653033187488], [79.20036211386997, 14.394846520630482], [79.20789222886228, 14.38112625906744], [79.20863729360127, 14.376309780912896], [79.21042853930022, 14.373223394932447], [79.21009989239215, 14.370120971091488], [79.20939876201432, 14.36942679390879], [79.2065723226778, 14.369405399940932], [79.19805716748907, 14.373818406222398], [79.19451854255765, 14.374480309045413], [79.1920287593146, 14.376527909573918], [79.18487351949233, 14.387494995685973], [79.18024398406503, 14.391937033674811], [79.17735301215347, 14.399836688028767], [79.17413367091378, 14.404633864934295], [79.16985972267022, 14.408733950256412], [79.16589672812555, 14.418002791695004], [79.16199268635174, 14.420038990837842], [79.15984981442446, 14.422777714298885], [79.16018905645828, 14.424502499312878], [79.16194749307182, 14.425549490353507], [79.16619374574651, 14.424893679172298]], [[79.16232911990252, 14.422108180925699], [79.1676607794937, 14.418360922958373], [79.17126754526589, 14.40943371658414], [79.17447021325742, 14.406703050767831], [79.17733623303229, 14.40190314699944], [79.17840187339402, 14.401222502546407], [79.18165174780628, 14.392636730438365], [79.18556627035953, 14.389222477604363], [79.19308039577733, 14.37756924588024], [79.1959234956249, 14.375524328302644], [79.19839944165865, 14.375198754314995], [79.20691464723592, 14.370785741498326], [79.20832787525593, 14.370796441657038], [79.20865649726083, 14.373898865073542], [79.20722677646991, 14.375954662337863], [79.20684050106006, 14.380084979008709], [79.20397815661732, 14.384540939935482], [79.2032494706994, 14.387290894631404], [79.20182511743572, 14.388657811657106], [79.19859539780991, 14.394833062707901], [79.19183196758934, 14.400981230862387], [79.1911086112263, 14.403042296140518], [79.18825397226857, 14.406464752568935], [79.18469530289947, 14.409537320517458], [79.18150386678599, 14.410890493088843], [79.1772271037631, 14.415335121047002], [79.16942483807019, 14.418719041683719], [79.16478867212791, 14.423849467101745], [79.16231499952741, 14.423830212340333], [79.16232911990252, 14.422108180925699]]]]}}, {"type": "Feature", "properties": {"depth_class": 2, "depth_lo_m": 1.0, "t_s": 72000.00181815911}, "geometry": {"type": "MultiPolygon", "coordinates": [[[[79.02027459039152, 14.219826087145787], [79.02065159775512, 14.21707394186038], [79.01960750057071, 14.215343252802397], [79.01819839683871, 14.214987168333762], [79.01610126561869, 14.2125589214722], [79.01291806577964, 14.213221304854397], [79.01254398765876, 14.215629045399083], [79.01324101536012, 14.216668060368143], [79.01641525626744, 14.217038827487833], [79.01815339219868, 14.220152915754356], [79.02027459039152, 14.219826087145787]], [[79.01430610767282, 14.21598809505003], [79.013974124304, 14.213574486052321], [79.01644227872582, 14.213939381788796], [79.0164272670522, 14.215661296171254], [79.01430610767282, 14.21598809505003]]], [[[79.15890271052439, 14.235744762761133], [79.1582244551067, 14.232295207249601], [79.1561087649173, 14.231934450296858], [79.156100381072, 14.232967682060588], [79.15890271052439, 14.235744762761133]]], [[[79.08152913049344, 14.240990763783339], [79.08475040425927, 14.235850339677373], [79.08476782352267, 14.233783961502166], [79.08336426558029, 14.232739442257003], [79.07768607369903, 14.236137988239372], [79.07765109757193, 14.240270726184372], [79.07870158792157, 14.241312439113432], [79.08152913049344, 14.240990763783339]], [[79.0794456043216, 14.23684098520907], [79.08051064079866, 14.23616071237002], [79.08192001837978, 14.236516457667234], [79.0811964193886, 14.23857715717962], [79.08013137226935, 14.239257431785127], [79.07942813276097, 14.238907356390781], [79.0794456043216, 14.23684098520907]]], [[[79.03486676209809, 14.24715495376699], [79.034166569858, 14.24646036522745], [79.03310435377429, 14.246796021339028], [79.0330924167534, 14.248173562985087], [79.03450175466527, 14.248529588185537], [79.03486676209809, 14.24715495376699]]], [[[79.02593195250584, 14.259479903876935], [79.02630303036523, 14.257416525317973], [79.02383138253299, 14.257396052775857], [79.02416947409795, 14.259120895213629], [79.02593195250584, 14.259479903876935]]], [[[79.20566342654273, 14.306021958645927], [79.20603849858513, 14.303269279794971], [79.20427249467154, 14.303255947747084], [79.20389740149534, 14.306008621303166], [79.20566342654273, 14.306021958645927]]], [[[79.24899341882275, 14.321156243789078], [79.2486508677498, 14.319775936592327], [79.24758849022666, 14.320112545411071], [79.24757779742882, 14.321490247033761], [79.24899341882275, 14.321156243789078]]], [[[79.2661353662417, 14.342982229572836], [79.26862151605721, 14.341278153299324], [79.26934392350796, 14.339216736871773], [79.26936506969349, 14.336461305548292], [79.26831585301505, 14.335075857391068], [79.26725341958286, 14.335412549025294], [79.26689221672447, 14.336443254483202], [79.26757228541274, 14.339892700381865], [79.2661353662417, 14.342982229572836]]], [[[79.22141934889632, 14.36848408489009], [79.22355006303434, 14.367122321367876], [79.22356637566591, 14.365055803657647], [79.2214492922205, 14.36469547363202], [79.21931859242501, 14.366057219687304], [79.22000884991061, 14.368129045643695], [79.22141934889632, 14.36848408489009]]], [[[79.11739251985149, 14.470661558748663], [79.12166863573177, 14.46656270177574], [79.12418320144215, 14.461760873121378], [79.12596481035744, 14.460052960471899], [79.12915722656346, 14.458700668729245], [79.12849072900899, 14.453873468492073], [79.12744776615543, 14.451798647973336], [79.12818918892944, 14.44767148122775], [79.13209398149965, 14.445635940852885], [79.13601305181407, 14.441878324024342], [79.13673706401386, 14.439817509047554], [79.14208954175943, 14.433660122567957], [79.14954780243455, 14.42924123788068], [79.15450942110849, 14.427557980324076], [79.15768989687447, 14.427582843155074], [79.15909212314479, 14.428971501563227], [79.15871325387916, 14.432068391264709], [79.15550434520381, 14.435487581136554], [79.15583788596358, 14.437901178156848], [79.16467014679806, 14.438314540664006], [79.17457393672225, 14.43735815624587], [79.1777405701349, 14.439104809039087], [79.18126906412994, 14.439820924084314], [79.18442741150513, 14.442600726697329], [79.18581873659818, 14.445366895599175], [79.18614702625102, 14.448469308255426], [79.18895490996955, 14.450901936817116], [79.19034075888105, 14.45435691120703], [79.19455139374786, 14.458177993788718], [79.19561172042948, 14.458186123073192], [79.19598461718039, 14.455777949450626], [79.19458754871803, 14.453700643986037], [79.19426192221498, 14.450253818263109], [79.19252816855862, 14.446107327662006], [79.19255042476213, 14.443352035957584], [79.19468482736066, 14.441646231787706], [79.18798387725396, 14.439872643495027], [79.18271625589028, 14.435698910858513], [79.18167562013487, 14.43327986819635], [79.17779943058949, 14.431872222082937], [79.177813440169, 14.430150176882297], [79.17996458770693, 14.426378045470978], [79.18603075323185, 14.419191692933534], [79.19063580417587, 14.417849310988291], [79.19137034070134, 14.414410607280931], [79.19350167394362, 14.413049191350744], [79.19350722216362, 14.412360366190883], [79.19956150777213, 14.406551218150316], [79.20345124801081, 14.406236401169469], [79.20520979367052, 14.4072830781389], [79.20591927557442, 14.40694403255578], [79.20452511280509, 14.404522387538579], [79.20454439993182, 14.402111482886973], [79.209173747371, 14.397668940689568], [79.21132950942673, 14.39320758285955], [79.21488210297878, 14.3908233716405], [79.21632827533867, 14.386701027593409], [79.21846466148689, 14.384650499137145], [79.2202367716881, 14.383974962460144], [79.22237854477021, 14.381235553248922], [79.22805349123506, 14.378522603842649], [79.23017614213678, 14.378194049534084], [79.2312442392973, 14.377168713160183], [79.23232856955347, 14.374076844788336], [79.23764182471807, 14.372394256821998], [79.24015275204451, 14.367590741284813], [79.24585669579409, 14.361088636214616], [79.24728061836313, 14.359721400256861], [79.25117491794892, 14.358716846431033], [79.2543866261412, 14.354607188902584], [79.260416515063, 14.35155151213658], [79.26220154691362, 14.349153479226484], [79.26539966016804, 14.346765770741296], [79.2654076129458, 14.345732486893958], [79.26363060551584, 14.347097268761042], [79.25974452383268, 14.347068776692618], [79.2540520232945, 14.35219360666031], [79.24519036109332, 14.355917044626924], [79.23777126830277, 14.355861985552165], [79.23495845134086, 14.35411883928606], [79.23107771813744, 14.353401020782039], [79.22822164214182, 14.357168537486212], [79.22748523815682, 14.360951878895818], [79.22571604758112, 14.361283074324469], [79.22431101557079, 14.360239225055443], [79.22433002906841, 14.357828285293824], [79.22682746681514, 14.354747022201504], [79.22649316407671, 14.352333434729243], [79.22474304083839, 14.350253688750124], [79.21981620252906, 14.34780566026156], [79.2191178216112, 14.346767095842933], [79.21558510976153, 14.346740534131245], [79.21524002167274, 14.345704619178736], [79.21666672438305, 14.34399315678881], [79.21598472229385, 14.340888072450575], [79.21352553673545, 14.33914736713478], [79.2110527288083, 14.339128730831202], [79.20891402973955, 14.341523659630953], [79.20536496840766, 14.343563456717716], [79.20286466059329, 14.346988892943026], [79.20109281900046, 14.347664329254389], [79.20104606760157, 14.35351939825205], [79.1999724695257, 14.355233428335], [79.19959440645907, 14.35833048275907], [79.19817023872837, 14.359697399717486], [79.19601187229925, 14.36450307102709], [79.19281286139052, 14.366889725541943], [79.19209242937052, 14.36860639974489], [79.18959992713505, 14.370998393777239], [79.18180777402941, 14.37334970376166], [79.17898132858839, 14.373327974708449], [79.17507820622102, 14.375364503207628], [79.17295556257899, 14.37569255680465], [79.1648379317308, 14.374596456604806], [79.1627096645164, 14.375613232897496], [79.15843050942836, 14.380401975365954], [79.15382331151207, 14.382088207112847], [79.15061514735584, 14.385507420443252], [79.14989149573914, 14.38756832322825], [79.14633838879513, 14.389951482815302], [79.14561752343545, 14.391667961428247], [79.14205291134348, 14.395428655361185], [79.14096724998971, 14.398519946324246], [79.14163685885667, 14.403002742365082], [79.13912346387411, 14.407804904263973], [79.13872724697175, 14.412968150468943], [79.13623941976117, 14.41467064422993], [79.1270549130579, 14.414253530210646], [79.12348673545652, 14.41835825515644], [79.12136366014128, 14.418685786270025], [79.11745640136148, 14.421065595734914], [79.11531012809856, 14.42414824474157], [79.11104353228978, 14.427213896105204], [79.1117038331641, 14.432729892994075], [79.10954572307314, 14.43719004555025], [79.10634189193817, 14.439919675621125], [79.10174483484498, 14.440227112137366], [79.09996324165884, 14.441934840885821], [79.10030494521796, 14.443315263909838], [79.10486414361505, 14.447484989673642], [79.10555637519279, 14.449212646628146], [79.10517670585156, 14.452309351920325], [79.1030240786573, 14.456080611576144], [79.10332489770025, 14.462282543686731], [79.11246465017386, 14.4682111385294], [79.11456785815943, 14.470294516330513], [79.11739251985149, 14.470661558748663]], [[79.16053961151044, 14.424849660775175], [79.15984133058645, 14.423810931676945], [79.1605678797502, 14.421405601424306], [79.16589672812555, 14.418002791695004], [79.16985972267022, 14.408733950256412], [79.17413367091378, 14.404633864934295], [79.17735301215347, 14.399836688028767], [79.18024398406503, 14.391937033674811], [79.18487351949233, 14.387494995685973], [79.1920287593146, 14.376527909573918], [79.19451854255765, 14.374480309045413], [79.19805716748907, 14.373818406222398], [79.2065723226778, 14.369405399940932], [79.20939876201432, 14.36942679390879], [79.21009989239215, 14.370120971091488], [79.21042853930022, 14.373223394932447], [79.20863729360127, 14.376309780912896], [79.20789222886228, 14.38112625906744], [79.20538871849955, 14.384896083301076], [79.20466004763966, 14.387646044137671], [79.20252076309464, 14.39004084440227], [79.20036211386997, 14.394846520630482], [79.1939548482259, 14.400653033187488], [79.19216035200849, 14.40408364833334], [79.18894957112367, 14.407847819997484], [79.18503751998476, 14.410917680777002], [79.18255559001744, 14.411931886512225], [79.17792265134865, 14.416718215249698], [79.17082990752348, 14.419763225312105], [79.16619374574651, 14.424893679172298], [79.16477456886935, 14.425571500647132], [79.16053961151044, 14.424849660775175]], [[79.19283100494816, 14.408566420038671], [79.19606388562782, 14.402046882715364], [79.20283276316472, 14.395209754433472], [79.20463527681812, 14.390745782576385], [79.20713612795146, 14.387320393028444], [79.20786476788005, 14.384570420850277], [79.20964787351659, 14.382517301233959], [79.21039290954101, 14.377700814261955], [79.21254293460103, 14.373928247869106], [79.21222520600408, 14.369448154175021], [79.2090646465381, 14.36701320372742], [79.20623549254157, 14.367336225609154], [79.19666049614605, 14.371741156516165], [79.19348074185056, 14.371716911085445], [79.19456553500422, 14.368625271494668], [79.19919428483762, 14.364182855518909], [79.19992566329155, 14.3610884899841], [79.20135258293575, 14.359377146784249], [79.20316574068381, 14.35353547895213], [79.20319870502593, 14.349402484564227], [79.20818834381238, 14.343929244822096], [79.21209611630634, 14.341203230258957], [79.21350643353047, 14.341558296464738], [79.21384332209924, 14.34362746800224], [79.2117018681234, 14.346366837572806], [79.21168820224534, 14.348088927237413], [79.21731604095501, 14.351231267839598], [79.22191138194405, 14.35092134510527], [79.2236696287057, 14.35196784938252], [79.22435446980364, 14.35472850484461], [79.22328918101523, 14.355409400720117], [79.22113409675194, 14.359870950277093], [79.22218037545285, 14.36160100420936], [79.2253410292295, 14.364035788164713], [79.2278168415894, 14.36370988648157], [79.22924087925695, 14.36234277372587], [79.23034138106287, 14.357184379136019], [79.23176535914504, 14.355817243989229], [79.2377550968699, 14.357928520782822], [79.24481559411232, 14.358669818734285], [79.24373690235419, 14.361072929153448], [79.24089436637578, 14.363118494760808], [79.23804099432886, 14.366541709335797], [79.23695408928096, 14.369978040894425], [79.2355300389816, 14.371345199059633], [79.23128216091277, 14.37234682183837], [79.22877641583027, 14.376461373102922], [79.22062281886879, 14.3798445975358], [79.21492862068024, 14.384968276545345], [79.21348243868505, 14.38909061092463], [79.20957377731719, 14.39181654350576], [79.20741799903692, 14.396277883321199], [79.2027914105144, 14.400375976195669], [79.20099704395678, 14.403806674552037], [79.19816465489275, 14.404473957467872], [79.19283100494816, 14.408566420038671]], [[79.16114709068017, 14.393855837514069], [79.16152861498942, 14.390414515703524], [79.16330089151991, 14.389739431609161], [79.16434961879118, 14.391125293821842], [79.16432991571462, 14.393536146779038], [79.16254070152384, 14.39627767799907], [79.16183402528017, 14.396272182838453], [79.16114709068017, 14.393855837514069]]]]}}, {"type": "Feature", "properties": {"depth_class": 3, "depth_lo_m": 2.0, "t_s": 72000.00181815911}, "geometry": {"type": "MultiPolygon", "coordinates": [[[[79.01360606965545, 14.215293465045868], [79.0164272670522, 14.215661296171254], [79.01644227872582, 14.213939381788796], [79.013974124304, 14.213574486052321], [79.01360606965545, 14.215293465045868]]], [[[79.07942813276097, 14.238907356390781], [79.08155531211784, 14.237891203576662], [79.08156985474447, 14.23616922531665], [79.0794456043216, 14.23684098520907], [79.07942813276097, 14.238907356390781]]], [[[79.19283100494816, 14.408566420038671], [79.19531563284738, 14.407207683107021], [79.19816465489275, 14.404473957467872], [79.2017092786821, 14.403123226584277], [79.2027914105144, 14.400375976195669], [79.20741799903692, 14.396277883321199], [79.20957377731719, 14.39181654350576], [79.21348243868505, 14.38909061092463], [79.21492862068024, 14.384968276545345], [79.2188398276661, 14.381897814391309], [79.21955739262556, 14.380525460249602], [79.22877641583027, 14.376461373102922], [79.23128216091277, 14.37234682183837], [79.2355300389816, 14.371345199059633], [79.23659807832678, 14.370319831438588], [79.23804099432886, 14.366541709335797], [79.24089436637578, 14.363118494760808], [79.24373690235419, 14.361072929153448], [79.24481559411232, 14.358669818734285], [79.2377550968699, 14.357928520782822], [79.23176535914504, 14.355817243989229], [79.23034138106287, 14.357184379136019], [79.22924087925695, 14.36234277372587], [79.2278168415894, 14.36370988648157], [79.2253410292295, 14.364035788164713], [79.22218037545285, 14.36160100420936], [79.22113409675194, 14.359870950277093], [79.22328918101523, 14.355409400720117], [79.22435446980364, 14.35472850484461], [79.2236696287057, 14.35196784938252], [79.22191138194405, 14.35092134510527], [79.21731604095501, 14.351231267839598], [79.21168820224534, 14.348088927237413], [79.2117018681234, 14.346366837572806], [79.21384332209924, 14.34362746800224], [79.21350643353047, 14.341558296464738], [79.2113868610255, 14.341542321269799], [79.20747633593062, 14.344612739602367], [79.20568807054835, 14.347354715259815], [79.20319870502593, 14.349402484564227], [79.20316574068381, 14.35353547895213], [79.20135258293575, 14.359377146784249], [79.19992566329155, 14.3610884899841], [79.19955308997461, 14.363496711358614], [79.19456553500422, 14.368625271494668], [79.19348074185056, 14.371716911085445], [79.19666049614605, 14.371741156516165], [79.20623549254157, 14.367336225609154], [79.2090646465381, 14.36701320372742], [79.21222520600408, 14.369448154175021], [79.21254293460103, 14.373928247869106], [79.21039290954101, 14.377700814261955], [79.20964787351659, 14.382517301233959], [79.20786476788005, 14.384570420850277], [79.20713612795146, 14.387320393028444], [79.20463527681812, 14.390745782576385], [79.20283276316472, 14.395209754433472], [79.19606388562782, 14.402046882715364], [79.19283932755582, 14.40753318227561], [79.19283100494816, 14.408566420038671]], [[79.22000884991061, 14.368129045643695], [79.21931859242501, 14.366057219687304], [79.22038666883351, 14.365031930399027], [79.22356637566591, 14.365055803657647], [79.22355006303434, 14.367122321367876], [79.22248198823651, 14.368147625278757], [79.22000884991061, 14.368129045643695]]]]}}]}