{"type": "FeatureCollection", "features": [{"type": "Feature", "properties": {"depth_class": 1, "depth_lo_m": 0.3, "t_s": 63000.133773129855}, "geometry": {"type": "MultiPolygon", "coordinates": [[[[79.01459600492306, 14.223223056567745], [79.01602618186206, 14.221168489959858], [79.0195505306757, 14.221886537873932], [79.02096866992005, 14.221209469120577], [79.02168672354301, 14.21983777971867], [79.02171966913033, 14.216049556950844], [79.02102559621225, 14.214666178048029], [79.01646329169536, 14.211528701211513], [79.01293009436576, 14.211843776031177], [79.01150297172912, 14.213553947723556], [79.01148190310485, 14.215964620613429], [79.01217892634699, 14.21700363815606], [79.01145480907574, 14.21906405642834], [79.01178676525986, 14.221477665450031], [79.01318385684436, 14.223211319384776], [79.01459600492306, 14.223223056567745]], [[79.01815339219868, 14.220152915754356], [79.01641525626744, 14.217038827487833], [79.01324101536012, 14.216668060368143], [79.01254398765876, 14.215629045399083], [79.01291806577964, 14.213221304854397], [79.01610126561869, 14.2125589214722], [79.01819839683871, 14.214987168333762], [79.02030755945819, 14.21603786761961], [79.02027459039152, 14.219826087145787], [79.01815339219868, 14.220152915754356]]], [[[79.16062073082857, 14.241613360551185], [79.16141054658739, 14.231286456682], [79.16388767401897, 14.23061664514664], [79.16425466223365, 14.228897297796511], [79.16320934656169, 14.227167095131888], [79.16074340297509, 14.226459257530584], [79.15898919719153, 14.225068015579426], [79.15722384841197, 14.225054407334662], [79.15543614648841, 14.227796071131706], [79.15331770701934, 14.227779705115275], [79.15189701514774, 14.228802013680765], [79.15187180994066, 14.23190170211306], [79.15291145065518, 14.234320765836308], [79.15572493499282, 14.235720239400475], [79.15708977487797, 14.241586124182863], [79.15814347395816, 14.242283121995076], [79.15990895746806, 14.242296739560603], [79.16062073082857, 14.241613360551185]], [[79.15890271052439, 14.235744762761133], [79.156100381072, 14.232967682060588], [79.1561087649173, 14.231934450296858], [79.1582244551067, 14.232295207249601], [79.15890271052439, 14.235744762761133]]], [[[79.08151167257954, 14.243057136781996], [79.08615978992073, 14.236206060530675], [79.08618589922843, 14.233106490654498], [79.08443507785556, 14.231370355050153], [79.08231669182003, 14.231353355484158], [79.07805953813532, 14.233730065580076], [79.07591488787189, 14.236812557760208], [79.0730961627953, 14.236100990362662], [79.07131619583222, 14.237808704824829], [79.07129572437343, 14.240219459409161], [79.07269925910487, 14.241264047867972], [79.0762329555112, 14.240948137107504], [79.078333936615, 14.24303157099753], [79.08151167257954, 14.243057136781996]], [[79.07799834522582, 14.240962359037873], [79.07731842846601, 14.237857119346552], [79.07840095407995, 14.235110487248326], [79.08123423514522, 14.234100014359356], [79.08194909323745, 14.23307249975079], [79.0844205620407, 14.23309233689971], [79.08475040425927, 14.235850339677373], [79.08259709068597, 14.239966087753174], [79.08046407189465, 14.241671038448708], [79.07799834522582, 14.240962359037873]]], [[[79.11821835883717, 14.245071512487145], [79.12036827828598, 14.241299773694987], [79.1203882306469, 14.238888950273804], [79.11899871194554, 14.236122600929617], [79.11653001572947, 14.235758714744671], [79.1143801013723, 14.239530419205416], [79.11400413678402, 14.242282846396957], [79.11680598822896, 14.245060370735448], [79.11821835883717, 14.245071512487145]]], [[[79.16832216969821, 14.249938998871327], [79.17046026701183, 14.247544366303783], [79.16871418063701, 14.245119933448054], [79.16730732942369, 14.244420265610302], [79.16306454171482, 14.245076511262727], [79.1630478205135, 14.247142980536276], [79.16479385395367, 14.249567449105914], [79.16832216969821, 14.249938998871327]]], [[[79.03554013007644, 14.250949013555928], [79.0366291776813, 14.247513873873078], [79.03982176698648, 14.245818068651142], [79.03878930883116, 14.24270988467011], [79.03773901955564, 14.241668018523457], [79.03597366669133, 14.241653498239108], [79.03418744478843, 14.24404966533019], [79.03206004836434, 14.245065360902002], [79.03027674584823, 14.24711710443601], [79.03026180257916, 14.248839028483157], [79.0316681509471, 14.249539455419903], [79.03306256862246, 14.251617416362873], [79.03554013007644, 14.250949013555928]], [[79.0334604150932, 14.246454546198297], [79.03486676209809, 14.24715495376699], [79.03450175466527, 14.248529588185537], [79.0330924167534, 14.248173562985087], [79.0334604150932, 14.246454546198297]]], [[[79.14994087311307, 14.252208173319229], [79.15102826467518, 14.248772296647056], [79.15032766775767, 14.248078004482615], [79.14820623550241, 14.248405978891922], [79.14749159442616, 14.24943372182049], [79.14782783489385, 14.251502914212578], [79.14994087311307, 14.252208173319229]]], [[[79.04296086701467, 14.250321188755324], [79.04261372245927, 14.249629517121843], [79.04190458285147, 14.249968108991991], [79.04224875438246, 14.251004168640558], [79.04296086701467, 14.250321188755324]]], [[[79.15802607964194, 14.25674836224274], [79.15981123164912, 14.25435111971196], [79.15947208517129, 14.252626341663555], [79.15841833724303, 14.251929344020526], [79.15559344707114, 14.251907517589915], [79.15063867272822, 14.253246876720594], [79.15062744347222, 14.254624512331928], [79.15448928928132, 14.257409878282596], [79.15802607964194, 14.25674836224274]]], [[[79.02804154572235, 14.260530589186269], [79.0287627095181, 14.258814509097384], [79.02702119820533, 14.256044834396468], [79.02455556226504, 14.255335604427632], [79.02207192835726, 14.256692648188968], [79.0220509053966, 14.259103327882938], [79.02345127789235, 14.260492573724974], [79.0252107656334, 14.261195972272752], [79.02804154572235, 14.260530589186269]], [[79.02383138253299, 14.257396052775857], [79.02559984263743, 14.257066295060401], [79.02664413778716, 14.25879698293623], [79.02487266498778, 14.259471130173212], [79.02381937995807, 14.258773585480736], [79.02383138253299, 14.257396052775857]]], [[[79.04850358252169, 14.262765450493285], [79.05028984157772, 14.260369179149508], [79.04924534627528, 14.258638571089168], [79.04783887698481, 14.257938234206215], [79.04607338689839, 14.25792377245424], [79.04536125543804, 14.258606759378878], [79.04532860188453, 14.262395022668189], [79.04850358252169, 14.262765450493285]]], [[[79.08311707004823, 14.262013076241544], [79.08349346713261, 14.259260752706338], [79.08279307445079, 14.258566284081496], [79.08067443677503, 14.258549238154322], [79.0785441306088, 14.259909751037718], [79.0785324580722, 14.261287328479622], [79.07958303760977, 14.26232904852435], [79.08205190822744, 14.262693345098118], [79.08311707004823, 14.262013076241544]]], [[[79.12358286399841, 14.27955633290947], [79.12714567070195, 14.275795697487682], [79.12717698859835, 14.272007256615879], [79.1257786861097, 14.270274129757976], [79.12329534370475, 14.271632283026035], [79.12005425100767, 14.279184074273235], [79.12039882164338, 14.280220068834458], [79.12358286399841, 14.27955633290947]]], [[[79.10415986245036, 14.279402474961445], [79.10381825341616, 14.27802206717275], [79.10204966246354, 14.278352399022232], [79.10238837462667, 14.28007720665401], [79.10415986245036, 14.279402474961445]]], [[[79.16183684461402, 14.395927775868332], [79.16432991571462, 14.393536146779038], [79.16434961879118, 14.391125293821842], [79.16365140433741, 14.390086583545266], [79.16224090765948, 14.389731195144094], [79.16116682836517, 14.391444988943292], [79.16114709068017, 14.393855837514069], [79.16183684461402, 14.395927775868332]]], [[[79.25144045679367, 14.278807378414335], [79.25359666338463, 14.27400093982307], [79.24902150221772, 14.271900672714215], [79.24689987706888, 14.272229515882422], [79.24582973006757, 14.273599422729234], [79.24615089357022, 14.277735140552567], [79.25002244859274, 14.279485855044365], [79.25144045679367, 14.278807378414335]]], [[[79.18574904025168, 14.2786603852944], [79.18574076290639, 14.279693630191161], [79.18715340434656, 14.279704389602344], [79.18680851639424, 14.278668455029576], [79.18574904025168, 14.2786603852944]]], [[[79.19693767621268, 14.292867313560018], [79.19660645396279, 14.29010930312891], [79.1948405619527, 14.290095913102396], [79.19411771305107, 14.292157050761265], [79.19481857981049, 14.292851243873615], [79.19693767621268, 14.292867313560018]]], [[[79.2781664176434, 14.294157968874304], [79.27815330943618, 14.295880127667404], [79.27921291920664, 14.295887795428202], [79.27922339946642, 14.294510067645213], [79.2781664176434, 14.294157968874304]]], [[[79.18629527385743, 14.298641824783541], [79.18630908392548, 14.296919752107145], [79.18560547254506, 14.296569950167878], [79.18383124402081, 14.2975897148195], [79.184523795448, 14.299317178717667], [79.18629527385743, 14.298641824783541]]], [[[79.20599749448762, 14.30843555064588], [79.20813859504698, 14.305696190453475], [79.20959233103855, 14.300540553829041], [79.21207833038515, 14.298837059373568], [79.21138283574767, 14.297454070504417], [79.209263679529, 14.297438124439502], [79.20748952865756, 14.29845807734044], [79.202194368756, 14.29807366982582], [79.2004201871256, 14.299093565596968], [79.20040922340944, 14.300471234273786], [79.20252292187436, 14.301176097610767], [79.20141948808254, 14.306678761351048], [79.20175899140547, 14.308403519678915], [79.20245992865466, 14.309097698013634], [79.20599749448762, 14.30843555064588]], [[79.20391929410728, 14.303253279765338], [79.20463116558363, 14.302569779448078], [79.20639443207318, 14.302927526425067], [79.20637530313648, 14.30533845365633], [79.20530475180625, 14.306708128040416], [79.20354145926254, 14.30635036984033], [79.20391929410728, 14.303253279765338]]], [[[79.22612241596244, 14.309619932023896], [79.22579083302237, 14.306861921665107], [79.22156857302546, 14.304763721039816], [79.21944933651132, 14.304747857773625], [79.21660738719977, 14.306793197764524], [79.21659107992458, 14.308859717751526], [79.21729206936566, 14.309553857761003], [79.21906356388644, 14.308878257988146], [79.22153605138817, 14.308896772534661], [79.22399771462543, 14.310292946741193], [79.22612241596244, 14.309619932023896]]], [[[79.26072720152935, 14.311253495464369], [79.26214804485217, 14.310230547289763], [79.26215864008213, 14.30885283362684], [79.25970201220284, 14.306768173522379], [79.25687362454231, 14.307091896106826], [79.25508892688053, 14.309489928243392], [79.25578207386516, 14.311217250016881], [79.26072720152935, 14.311253495464369]]], [[[79.26523975690705, 14.321619923582208], [79.26667122951612, 14.319219238535807], [79.26528473606766, 14.31576463532501], [79.2621109526643, 14.315052543794035], [79.26139653925854, 14.316080659247323], [79.26137532721731, 14.318836083615189], [79.26241913285213, 14.320910407252855], [79.2631203124434, 14.32160443167203], [79.26523975690705, 14.321619923582208]]], [[[79.23346991440295, 14.318630178711505], [79.232774234945, 14.317247232484718], [79.23135862639774, 14.317581139166496], [79.23169836989608, 14.319305881585604], [79.23346991440295, 14.318630178711505]]], [[[79.2214329976641, 14.32198475899161], [79.22356052804555, 14.320967360519994], [79.22356865731834, 14.319934097694945], [79.22073738839345, 14.320601785164031], [79.22072924577259, 14.321635046336883], [79.2214329976641, 14.32198475899161]]], [[[79.23662209151291, 14.322098035371836], [79.23556507473235, 14.321745740714789], [79.23485321809545, 14.322429336556164], [79.23554892317406, 14.323812279409951], [79.23696456873827, 14.32347835167518], [79.23662209151291, 14.322098035371836]]], [[[79.20634995250899, 14.48547849841489], [79.2141570192697, 14.481749163245173], [79.21771660815548, 14.47867625398045], [79.22093085859107, 14.474567357111813], [79.2238243826198, 14.466322732545557], [79.2235256814365, 14.459431728378897], [79.22247628754904, 14.45804605722927], [79.21682388681377, 14.457658875760098], [79.2139853172544, 14.459015103063036], [79.21221808205702, 14.459001688733004], [79.20940706181207, 14.456913712566873], [79.19916279350477, 14.45614671208121], [79.1967192693943, 14.45233924447338], [79.19638805507248, 14.449581241871124], [79.19464314752395, 14.446812410030075], [79.19465982144033, 14.444745939018537], [79.19820790004779, 14.443050929041938], [79.19822453653106, 14.440984453299974], [79.19682197262183, 14.439595991837376], [79.19117015368569, 14.439208252773318], [79.18694595695862, 14.437109205382724], [79.18414104565002, 14.434332162760695], [79.18310319217898, 14.431568715031252], [79.18028440604613, 14.430513686913267], [79.18065458517047, 14.428449955724691], [79.18637019952257, 14.420916463855379], [79.1874359149973, 14.420235787021166], [79.19132032967286, 14.420610023786008], [79.19238603128129, 14.41992932264157], [79.19277550400834, 14.415454669366092], [79.2002571806601, 14.40793426039848], [79.2023801253011, 14.407605993365134], [79.20483989487872, 14.409346881773345], [79.2069600987128, 14.40936298956789], [79.20802845477317, 14.40833778998573], [79.20839557202822, 14.406618393190618], [79.20629466368234, 14.40419139472762], [79.20630842666267, 14.402469318304766], [79.21022555969762, 14.398710219677724], [79.21273740024367, 14.393907106523441], [79.21628999338489, 14.391522873820577], [79.21737734695827, 14.388086691370342], [79.21880434300346, 14.38637525105716], [79.22128585882707, 14.385360610502296], [79.22236220206237, 14.38330206680421], [79.22484911055437, 14.381598544102593], [79.23158130772146, 14.379237878454017], [79.23373372323205, 14.375120659464887], [79.23727231417062, 14.374458157836823], [79.23940570632293, 14.372751825308484], [79.24119921590956, 14.369320730923452], [79.2447565112261, 14.36624713971797], [79.24832979138085, 14.361106937172208], [79.25187081431211, 14.360099761528803], [79.25543582656783, 14.35599269715539], [79.26004726625354, 14.353615479710463], [79.26396265776455, 14.3498552767742], [79.26715546891391, 14.348156400123539], [79.26824443055061, 14.344375431330645], [79.27109970672194, 14.340607334004929], [79.27148202089784, 14.336821186738023], [79.26974211392107, 14.333364020551262], [79.26975532215044, 14.33164187484142], [79.27263411346925, 14.324773865933402], [79.27901095652656, 14.322409022724305], [79.28328394142262, 14.317962090326239], [79.28436458813444, 14.315214288713571], [79.28478841597853, 14.305917161655488], [79.28621957541192, 14.303516321314737], [79.28591335510738, 14.297313980904415], [79.28662237808108, 14.29697463749804], [79.28628221915932, 14.295249926916576], [79.28523044091926, 14.29420899182336], [79.28563844142654, 14.28697843947387], [79.2814367641336, 14.282125816100354], [79.27826336412261, 14.281413985707864], [79.27087551428222, 14.277571496397226], [79.26946282191015, 14.27756123503803], [79.26665852482019, 14.27478524558286], [79.26101313174945, 14.274055199315693], [79.25646173301519, 14.268855210308072], [79.25647762937155, 14.266788638854102], [79.25543407196949, 14.264714314654205], [79.25545262278621, 14.262303315077073], [79.25652795104801, 14.260244493442677], [79.25620393537068, 14.2564531939174], [79.25479933449711, 14.255409574693472], [79.25091484613962, 14.255381116916652], [79.25090687957278, 14.25641440059999], [79.2533655766776, 14.258154660315348], [79.25335231462223, 14.259876801597162], [79.25156535924124, 14.262619282308723], [79.25119627348178, 14.26468325813286], [79.253644441103, 14.267801236507175], [79.25395248222114, 14.27365910089998], [79.25746028155017, 14.276784818556354], [79.2595740067904, 14.277489171155139], [79.26201977397452, 14.280951518267454], [79.2634351232141, 14.280617396677824], [79.26415203678346, 14.279244828809064], [79.26521156084243, 14.27925255012415], [79.26555945997369, 14.279943982660013], [79.26873541311149, 14.280311545275303], [79.27506637381687, 14.283801999293123], [79.27894616235027, 14.284518982950557], [79.28140800378655, 14.285914575455987], [79.28350623814354, 14.288685330471683], [79.28348272465504, 14.291785226256817], [79.28452664910228, 14.293859466014636], [79.28449530333889, 14.297992660632572], [79.28342783791992, 14.299018313139694], [79.28161729333692, 14.304860906715414], [79.28155443510641, 14.313127274162916], [79.27764263938377, 14.316543452030727], [79.27655401970482, 14.320324505150564], [79.27477992017003, 14.321344972989879], [79.27018777603197, 14.321311568356212], [79.26876688773736, 14.322334559981114], [79.26481237324333, 14.331261338704337], [79.26545266671751, 14.339877209980136], [79.26402632921759, 14.341589011825004], [79.26329855745527, 14.34433926058718], [79.26082031084948, 14.345009990887256], [79.25593306149227, 14.337396284045058], [79.25524518541887, 14.334980104293612], [79.25313896340396, 14.333242378768317], [79.25244579002643, 14.331515046945054], [79.25352688013433, 14.32876743830798], [79.25355619833134, 14.32497874867266], [79.25145807834024, 14.322207740629302], [79.25044906240284, 14.315655841527215], [79.24940272253372, 14.313925905557719], [79.24942674145073, 14.310826071665458], [79.24488836776388, 14.303903695464369], [79.24138306746819, 14.300433346173607], [79.23964922291849, 14.296287184151291], [79.23824716742195, 14.294899026615592], [79.23049577217765, 14.292430391891692], [79.22944698681897, 14.291044817559811], [79.22593132739237, 14.288951976430587], [79.22559434656087, 14.286882809628082], [79.22454291404287, 14.28584164163489], [79.2178325576066, 14.285791492132956], [79.21327389431272, 14.281624029665474], [79.21045671371138, 14.280569550684993], [79.20800362795237, 14.278140022612641], [79.20377661298352, 14.276730419861016], [79.20132911269286, 14.27361199927083], [79.19815894868604, 14.272554725487776], [79.19395956347661, 14.267700798578083], [79.18973835434075, 14.26560214625432], [79.18519992808577, 14.259023339633492], [79.18238318734693, 14.257968575046691], [79.17955265539182, 14.258635852166458], [79.1774145246037, 14.261030563168395], [79.17739514603245, 14.263441460138985], [79.17562670936644, 14.263772365759174], [79.17210093223055, 14.263056484594943], [79.16753805943794, 14.259577116273876], [79.16542488096634, 14.258871998757796], [79.15800090658615, 14.259848054180326], [79.15518992570205, 14.2581041627171], [79.14918688744316, 14.258057640688701], [79.14709349229899, 14.254941511897464], [79.14498044175672, 14.254236225690825], [79.14215272412552, 14.254558643920747], [79.13683341740452, 14.25727257259458], [79.13400849537585, 14.257250482526238], [79.1319011521842, 14.255856272438725], [79.12836434928136, 14.256517393235153], [79.12342077935936, 14.256478540171285], [79.12060444886771, 14.255423083667274], [79.11495184658297, 14.25572289319101], [79.11214417469762, 14.253634138632352], [79.10896623385725, 14.253608962297452], [79.10545532465281, 14.251170138875661], [79.10368982721252, 14.251156110118666], [79.10087656366423, 14.249756040338477], [79.09204627888576, 14.250030000920832], [79.08500182656493, 14.2479070391734], [79.08498148529348, 14.250317811160624], [79.08745314612617, 14.250337640409962], [79.09272931230899, 14.25279082797539], [79.09485369449398, 14.252118964350036], [79.10296923264725, 14.252872492630528], [79.1061270280336, 14.255308548310426], [79.108957622094, 14.254642164306375], [79.11105618395251, 14.257069761770946], [79.11281600408356, 14.257772544385169], [79.11705048797624, 14.258150446800629], [79.11776242996628, 14.257467218372359], [79.1198811032959, 14.257483933607865], [79.12128499563117, 14.258528275686174], [79.12197696487891, 14.260255855039022], [79.12974840176628, 14.259972522118852], [79.13185576429969, 14.261366753844092], [79.14492692507001, 14.260779971788576], [79.148444094192, 14.262529465429703], [79.15901833392142, 14.265022391206477], [79.1632642950415, 14.264021853738372], [79.17627755542362, 14.270666040554897], [79.18122158259419, 14.27070383493008], [79.18897703396681, 14.272485098082331], [79.19248929950741, 14.274922834583634], [79.19634108845246, 14.279085287786396], [79.1995140670106, 14.27979817740406], [79.20091577465296, 14.281186526492894], [79.20373290424479, 14.282241114087354], [79.20582188660337, 14.286045697929522], [79.20828592773053, 14.287097578211542], [79.2121409398001, 14.290915410284521], [79.21671060613835, 14.293705229099322], [79.21668888451478, 14.29646059217886], [79.21845484739792, 14.29647382587616], [79.21952255925578, 14.295448497139576], [79.22376086080304, 14.29548018334204], [79.22903448111742, 14.298619488825906], [79.23220788257778, 14.299331984966495], [79.24025911029621, 14.308691696073334], [79.24267804514693, 14.315598484992666], [79.24260834977663, 14.324553522289579], [79.23866087016101, 14.332446471355565], [79.23545195969675, 14.336211503666126], [79.23289816743927, 14.346525762247953], [79.23074066451798, 14.351331855444824], [79.22931671261455, 14.352698987461524], [79.22825686452052, 14.352691066842445], [79.22686271070081, 14.350269554036649], [79.22159887778956, 14.345752398286233], [79.2163597803552, 14.338135377060842], [79.21354190808353, 14.33708085587144], [79.21142237761242, 14.337064885870417], [79.20964790108688, 14.338084816569355], [79.207862459386, 14.34048240173816], [79.20538141979688, 14.34149695547753], [79.20252787352364, 14.344919717488718], [79.19933197678742, 14.346962088730017], [79.19927967537444, 14.353505983204432], [79.1981867754239, 14.3576309094781], [79.19676260513131, 14.358997817564966], [79.19496303629452, 14.363117337922219], [79.1917640375181, 14.365503979528038], [79.19068476677784, 14.367906777638355], [79.18890441024277, 14.369615337063943], [79.1825283003781, 14.371633072520883], [79.17757926944321, 14.371939454769425], [79.17402946830842, 14.373978687716608], [79.16943650400962, 14.373943208480737], [79.16732509747746, 14.372893577349869], [79.16485198252765, 14.372874415588685], [79.16130488969576, 14.374569034471634], [79.15845871911306, 14.376957907190706], [79.15738186376306, 14.379016095993277], [79.15348414288727, 14.380363420545129], [79.14992268601695, 14.383779868770059], [79.14812772536345, 14.38721009047861], [79.14457460918712, 14.38959322205143], [79.14420990453645, 14.390968063958073], [79.14064528413546, 14.394728735366252], [79.13920056390741, 14.398506041139916], [79.13987013683021, 14.402988837954203], [79.13771577522758, 14.407104959271946], [79.13732238970736, 14.411923797942558], [79.13590037180987, 14.412945847198245], [79.13307923519028, 14.41223470839221], [79.12671593768837, 14.412528728513765], [79.12422804059908, 14.41423108527103], [79.12279442373476, 14.416630641398728], [79.11996175246932, 14.417296938123606], [79.11640787357366, 14.41967954649564], [79.11319279385442, 14.423786900802437], [79.10928536964087, 14.426166552548928], [79.10957770795741, 14.433401694596505], [79.10885639328552, 14.435118004038435], [79.10564967355276, 14.438192022455953], [79.1006992608146, 14.43849660236936], [79.0974923888664, 14.441570489315124], [79.09818162132123, 14.44364255259773], [79.10343883591125, 14.448851188804781], [79.1034154735327, 14.451606339842376], [79.10126867625364, 14.454688794188764], [79.10120724344583, 14.461921051505175], [79.10577555578517, 14.465057620189034], [79.11598745011626, 14.469617052125356], [79.11951609965655, 14.470334125157652], [79.12307371895642, 14.467607175589624], [79.12523194593183, 14.46314691273733], [79.12772331321615, 14.46110021832359], [79.13019734904017, 14.461119885192149], [79.13370868262867, 14.463903131971001], [79.13512531381176, 14.463569939767671], [79.13514830556399, 14.460814741155588], [79.13058246736468, 14.457334303491107], [79.12923502511518, 14.449401898628455], [79.13030678566498, 14.44803271993211], [79.13314271650584, 14.447021943805607], [79.13741807230997, 14.442922703659793], [79.14064451093196, 14.437437398247749], [79.14349454841009, 14.434704463865627], [79.15130621380692, 14.43028830641349], [79.15626501351721, 14.428949418107106], [79.15731951296027, 14.429646513623618], [79.15730817985022, 14.43102413400552], [79.15338111475347, 14.435815386324464], [79.15371463227977, 14.43822898362573], [79.15476632347675, 14.439270498629053], [79.15652767357795, 14.43997313498484], [79.16430262034379, 14.44003381967862], [79.17350248133481, 14.438727575850427], [79.18019483197412, 14.441534786491797], [79.18300256440392, 14.443967469669358], [79.18471935145479, 14.450180467664522], [79.18682874991721, 14.451574441938366], [79.18855405128292, 14.4567541964309], [79.19031566979474, 14.457456607641102], [79.19241124632464, 14.460572598005456], [79.19240010411171, 14.461950241826695], [79.19096679712759, 14.464350254069531], [79.19447904658355, 14.467132688029368], [79.19516091423556, 14.470237812977192], [79.195096883287, 14.478159268204665], [79.19683642893308, 14.481616941143498], [79.19680581359833, 14.485405463760877], [79.19786070673321, 14.4861024203982], [79.20634995250899, 14.48547849841489]], [[79.19454861208239, 14.458522405237945], [79.19068862042174, 14.455048448754896], [79.18860426977277, 14.450554808397754], [79.18614423359895, 14.448813718382238], [79.18442461739083, 14.44294513666581], [79.18091565365135, 14.439818196717594], [79.17738716148251, 14.439102076515779], [79.17422053145204, 14.437355419299838], [79.17068648283407, 14.43732802073674], [79.1689110103996, 14.43834752299307], [79.15618845184972, 14.438248347406262], [79.15513675744889, 14.43720683845121], [79.15514527121023, 14.43617362498902], [79.15907797088384, 14.430693528835793], [79.15909212314479, 14.428971501563227], [79.15768989687447, 14.427582843155074], [79.15450942110849, 14.427557980324076], [79.15025742149166, 14.42890237839308], [79.14173614880534, 14.433657337635395], [79.13924236644334, 14.43604863833017], [79.13494709771918, 14.442558736405223], [79.13174344738567, 14.44528873902751], [79.12855412508719, 14.446296693237107], [79.125703762276, 14.449029404635835], [79.12287645320013, 14.449006890548398], [79.11829367443586, 14.447592645274922], [79.10773509280696, 14.442341794172394], [79.10774674022102, 14.44096421420263], [79.11060299273167, 14.437542941174675], [79.11204850819061, 14.433765911039096], [79.11139400561552, 14.427561121926118], [79.11530433485953, 14.424837038743183], [79.1174535087227, 14.421409993257557], [79.12136077400102, 14.419030184637668], [79.1234838526451, 14.418702653954444], [79.12669867671482, 14.414595125995767], [79.13552983261042, 14.415009464776514], [79.13872724697175, 14.412968150468943], [79.13912346387411, 14.407804904263973], [79.14163685885667, 14.403002742365082], [79.14096724998971, 14.398519946324246], [79.14241194196258, 14.394742626189732], [79.14705072030603, 14.389268213359411], [79.14989149573914, 14.38756832322825], [79.15061514735584, 14.385507420443252], [79.15382331151207, 14.382088207112847], [79.15772106227752, 14.380740880480031], [79.1630657835373, 14.375271567771009], [79.16590065448261, 14.374260264586253], [79.16871867762264, 14.375315377948603], [79.174724898446, 14.375361778504143], [79.17756531700682, 14.373661508207519], [79.18428647818537, 14.372679865091113], [79.19031207603236, 14.370314970270483], [79.1924595634327, 14.366887028861282], [79.19672949968596, 14.363130793937366], [79.19745539078863, 14.360725269018845], [79.19959991408109, 14.357641652100439], [79.19997797475308, 14.35454459735308], [79.20069003773105, 14.353861131956295], [79.20038352965176, 14.3480033828656], [79.2028674071764, 14.3466444766692], [79.20501170457963, 14.34356078301086], [79.20856076841793, 14.341520991580452], [79.21069947082329, 14.339126066400382], [79.21352826547472, 14.338802948617117], [79.2149358447759, 14.339502423664786], [79.21703361224013, 14.34227371793398], [79.21701454220221, 14.344684651256987], [79.21629982939787, 14.345712594191395], [79.21877543865264, 14.345386764839947], [79.22087602278081, 14.34781361596555], [79.22579745086472, 14.3509504647349], [79.227183463351, 14.354405244802852], [79.22468060353818, 14.358175352867544], [79.22466702516711, 14.359897453028003], [79.22678136030122, 14.360602170202926], [79.22894447301215, 14.355107294656618], [79.2317896940157, 14.35271745049702], [79.23390939515912, 14.352733255443004], [79.23848054112055, 14.355522816563145], [79.24483975444318, 14.355570004141754], [79.25334544998964, 14.352188400672121], [79.25618774074468, 14.350142655325316], [79.25868468485626, 14.347060995086888], [79.26328263354438, 14.346405826111074], [79.26506228800652, 14.34469661847474], [79.26543411762856, 14.342288206722635], [79.26686045049053, 14.340576395797896], [79.26690809604321, 14.334376683261072], [79.26832378568176, 14.334042570927146], [79.26972097710271, 14.336119453143345], [79.26969190663925, 14.339908171864717], [79.26647804571869, 14.344362525036074], [79.26574763943182, 14.347457211056097], [79.26255483044372, 14.349156068751341], [79.25934867074488, 14.352577011169313], [79.25402799562816, 14.355293437457], [79.25117224282693, 14.359061271397115], [79.2472779370904, 14.360065824474004], [79.24406333371454, 14.364519783710556], [79.24014736454932, 14.3682795866088], [79.23763912622357, 14.372738678882996], [79.23268188651663, 14.37407948329147], [79.2315975609089, 14.37717135383672], [79.23017343107414, 14.378538470034725], [79.22769745326192, 14.378864377661186], [79.22344124579179, 14.380899096437746], [79.22023404426174, 14.384319380930563], [79.21739647328026, 14.385675766382846], [79.21487936599081, 14.391167788904339], [79.21132676651973, 14.393551999383918], [79.20881490250478, 14.398355094645876], [79.2045388896889, 14.402800312840123], [79.20626988572661, 14.407291131624888], [79.20485367416016, 14.407624807478168], [79.20380185292306, 14.406583503353703], [79.20097771636368, 14.406217574147039], [79.19778086804105, 14.40825981129352], [79.1913675629356, 14.414755019398697], [79.19063024493235, 14.418538134732563], [79.1863841321871, 14.419194408835168], [79.18282242455615, 14.42261132904973], [79.1820988944584, 14.424672345281513], [79.18067695896362, 14.425694678088895], [79.177813440169, 14.430150176882297], [79.17850342426382, 14.432222091834593], [79.18202902044608, 14.433282593217225], [79.18306686541317, 14.436046044675633], [79.18552953683295, 14.437442739115742], [79.18692922105616, 14.439175668889831], [79.19080282348453, 14.440927596704512], [79.19503824342753, 14.441648938849882], [79.19255042476213, 14.443352035957584], [79.19253095084126, 14.445762916235951], [79.19426470266204, 14.449909406627304], [79.19493820363594, 14.454047765056885], [79.19633527738841, 14.456125069011195], [79.19631860525081, 14.458191539946364], [79.19454861208239, 14.458522405237945]], [[79.23956732737403, 14.352086463387542], [79.24211554517493, 14.342460957404462], [79.24462061014252, 14.338346182712137], [79.24536465061601, 14.333529466021771], [79.24678838159457, 14.33216221053438], [79.24751094166649, 14.330100878383643], [79.24893196432035, 14.329078031115518], [79.24963312006265, 14.32977209311046], [79.24995163824236, 14.334252229705148], [79.25204182359718, 14.338056536251372], [79.25449601109615, 14.34048572709918], [79.25693160731436, 14.34532588325613], [79.25656234419301, 14.347389843977231], [79.25513322394325, 14.349446004272194], [79.25300284703698, 14.350808094821135], [79.24769287377059, 14.352146677026042], [79.24520646196416, 14.353850500764088], [79.24026044192941, 14.35381382599267], [79.23956732737403, 14.352086463387542]], [[79.26801283023566, 14.328529130957335], [79.26907522928776, 14.328192431962833], [79.26906466134501, 14.329570148453996], [79.26728781182716, 14.330934976321219], [79.26801283023566, 14.328529130957335]], [[79.2468873679631, 14.319418480968507], [79.24865888154541, 14.31874265964682], [79.24970523323388, 14.320472600118794], [79.249341314721, 14.321847699435388], [79.24792034309976, 14.322870555138971], [79.246510060306, 14.32251570023815], [79.2468873679631, 14.319418480968507]], [[79.24553863929403, 14.311141843188757], [79.2462477544642, 14.310802632376234], [79.24729672888245, 14.312188152682916], [79.24692479687079, 14.314596525506795], [79.24587046672295, 14.31389985340655], [79.24553863929403, 14.311141843188757]], [[79.24134287928648, 14.305599717679025], [79.24064717935815, 14.30421679214846], [79.2417068069843, 14.304224631400793], [79.2423998356204, 14.305951979452248], [79.24134287928648, 14.305599717679025]], [[79.23854939383895, 14.301445705509769], [79.23539743405085, 14.297977898366076], [79.23611188929534, 14.296949866566052], [79.23716879583915, 14.297302146279364], [79.23854939383895, 14.301445705509769]], [[79.22307611904714, 14.29271953466833], [79.22237786160693, 14.291680993231902], [79.2241491989365, 14.291005336607935], [79.22660800052606, 14.292745887407456], [79.22659990121778, 14.293779154298496], [79.22307611904714, 14.29271953466833]], [[79.1837212032119, 14.267278545006777], [79.18091266495479, 14.265190508994893], [79.17914421619135, 14.265521439672629], [79.17844624472531, 14.264482800592345], [79.18127132771406, 14.264504375070594], [79.18411020784201, 14.262803840613891], [79.18656286104589, 14.265233568146238], [79.18690222536253, 14.266958332729697], [79.1837212032119, 14.267278545006777]]], [[[79.16584036179718, 14.424890931987376], [79.17118609415411, 14.419421555977012], [79.17721310468433, 14.417057167840365], [79.181846064687, 14.412270855766566], [79.18788392293835, 14.408528511764741], [79.19144808830615, 14.404767063699852], [79.19288647651734, 14.4016781664921], [79.20036487384456, 14.394502106220585], [79.20789772018531, 14.380437426584614], [79.20828123355795, 14.376651522561541], [79.21006974618533, 14.373909557101118], [79.21009441191777, 14.370809805006042], [79.20904545684263, 14.369424121505862], [79.20621627209114, 14.369747139574548], [79.1977010977168, 14.374160130600883], [79.19522516319459, 14.374485698521601], [79.19166990693456, 14.377214036497946], [79.1845146249475, 14.388181106534702], [79.18024398406503, 14.391937033674811], [79.17699407163177, 14.400522781754283], [79.17592843137203, 14.401203419780503], [79.17448982622638, 14.404292186772162], [79.16985972267022, 14.408733950256412], [79.16589672812555, 14.418002791695004], [79.16199268635174, 14.420038990837842], [79.15984981442446, 14.422777714298885], [79.16019188408626, 14.424158093483356], [79.16194749307182, 14.425549490353507], [79.16584036179718, 14.424890931987376]], [[79.16232911990252, 14.422108180925699], [79.1676607794937, 14.418360922958373], [79.17126754526589, 14.40943371658414], [79.17447021325742, 14.406703050767831], [79.17840187339402, 14.401222502546407], [79.18165174780628, 14.392636730438365], [79.18592238303502, 14.38888077686299], [79.1934364777587, 14.37722753000178], [79.19521410739208, 14.375863354511958], [79.19769005733735, 14.375537788514762], [79.20655859466461, 14.371127481416053], [79.20832513220869, 14.371140858264953], [79.2086592403498, 14.373554448483], [79.20722952215696, 14.375610246077487], [79.20684599518984, 14.379396146863495], [79.20398090899145, 14.384196524539837], [79.20289338400619, 14.387632624895447], [79.20146902641518, 14.38899953923404], [79.19931036858951, 14.39380520480194], [79.19290311226146, 14.399611689605674], [79.18968130291023, 14.404753530058967], [79.18540760161633, 14.408853929965106], [79.18186002336057, 14.41054880382484], [79.17758327395964, 14.414993439954696], [79.16942483807019, 14.418719041683719], [79.16514487411203, 14.423507808858307], [79.16231499952741, 14.423830212340333], [79.16232911990252, 14.422108180925699]]]]}}, {"type": "Feature", "properties": {"depth_class": 2, "depth_lo_m": 1.0, "t_s": 63000.133773129855}, "geometry": {"type": "MultiPolygon", "coordinates": [[[[79.02027459039152, 14.219826087145787], [79.02065159775512, 14.21707394186038], [79.01960750057071, 14.215343252802397], [79.01819839683871, 14.214987168333762], [79.01610126561869, 14.2125589214722], [79.01291806577964, 14.213221304854397], [79.01254398765876, 14.215629045399083], [79.01324101536012, 14.216668060368143], [79.01641525626744, 14.217038827487833], [79.01815339219868, 14.220152915754356], [79.02027459039152, 14.219826087145787]], [[79.01430610767282, 14.21598809505003], [79.013974124304, 14.213574486052321], [79.01644227872582, 14.213939381788796], [79.0164272670522, 14.215661296171254], [79.01430610767282, 14.21598809505003]]], [[[79.15890271052439, 14.235744762761133], [79.1578741660003, 14.231948073218977], [79.1561087649173, 14.231934450296858], [79.156100381072, 14.232967682060588], [79.15890271052439, 14.235744762761133]]], [[[79.07940483298951, 14.241662517378431], [79.08259709068597, 14.239966087753174], [79.08475040425927, 14.235850339677373], [79.08476782352267, 14.233783961502166], [79.08371733209553, 14.232742275542826], [79.08194909323745, 14.23307249975079], [79.07768607369903, 14.236137988239372], [79.07731259804244, 14.238545908860893], [79.07799834522582, 14.240962359037873], [79.07940483298951, 14.241662517378431]], [[79.07942522056187, 14.239251751550986], [79.07944851597605, 14.236496589975374], [79.08192583397293, 14.235827666167905], [79.08191129440726, 14.2375496448375], [79.08048444823977, 14.239260271119985], [79.07942522056187, 14.239251751550986]]], [[[79.03485781723595, 14.248188111083739], [79.03486676209809, 14.24715495376699], [79.0334604150932, 14.246454546198297], [79.0330924167534, 14.248173562985087], [79.03485781723595, 14.248188111083739]]], [[[79.02593195250584, 14.259479903876935], [79.02630303036523, 14.257416525317973], [79.02383138253299, 14.257396052775857], [79.02416947409795, 14.259120895213629], [79.02593195250584, 14.259479903876935]]], [[[79.20530475180625, 14.306708128040416], [79.20637530313648, 14.30533845365633], [79.20639443207318, 14.302927526425067], [79.20463116558363, 14.302569779448078], [79.20356061982518, 14.30393944657301], [79.20354145926254, 14.30635036984033], [79.20530475180625, 14.306708128040416]]], [[[79.19631860525081, 14.458191539946364], [79.19633527738841, 14.456125069011195], [79.19493820363594, 14.454047765056885], [79.19426470266204, 14.449909406627304], [79.19253095084126, 14.445762916235951], [79.19255042476213, 14.443352035957584], [79.19503824342753, 14.441648938849882], [79.19080282348453, 14.440927596704512], [79.18692922105616, 14.439175668889831], [79.18552953683295, 14.437442739115742], [79.18306686541317, 14.436046044675633], [79.18202902044608, 14.433282593217225], [79.17850342426382, 14.432222091834593], [79.177813440169, 14.430150176882297], [79.18067695896362, 14.425694678088895], [79.1820988944584, 14.424672345281513], [79.18282242455615, 14.42261132904973], [79.1863841321871, 14.419194408835168], [79.19063024493235, 14.418538134732563], [79.1913675629356, 14.414755019398697], [79.19778086804105, 14.40825981129352], [79.20097771636368, 14.406217574147039], [79.20380185292306, 14.406583503353703], [79.20485367416016, 14.407624807478168], [79.20626988572661, 14.407291131624888], [79.2045388896889, 14.402800312840123], [79.20881490250478, 14.398355094645876], [79.21132676651973, 14.393551999383918], [79.21487936599081, 14.391167788904339], [79.21739647328026, 14.385675766382846], [79.22023404426174, 14.384319380930563], [79.22344124579179, 14.380899096437746], [79.22769745326192, 14.378864377661186], [79.23017343107414, 14.378538470034725], [79.2315975609089, 14.37717135383672], [79.23268188651663, 14.37407948329147], [79.23763912622357, 14.372738678882996], [79.24014736454932, 14.3682795866088], [79.24406333371454, 14.364519783710556], [79.2472779370904, 14.360065824474004], [79.25117224282693, 14.359061271397115], [79.25402799562816, 14.355293437457], [79.25934867074488, 14.352577011169313], [79.26255483044372, 14.349156068751341], [79.26574763943182, 14.347457211056097], [79.26647804571869, 14.344362525036074], [79.26969190663925, 14.339908171864717], [79.26972097710271, 14.336119453143345], [79.26832378568176, 14.334042570927146], [79.26690809604321, 14.334376683261072], [79.26686045049053, 14.340576395797896], [79.26543411762856, 14.342288206722635], [79.26506228800652, 14.34469661847474], [79.26328263354438, 14.346405826111074], [79.25868468485626, 14.347060995086888], [79.25618774074468, 14.350142655325316], [79.25334544998964, 14.352188400672121], [79.24483975444318, 14.355570004141754], [79.23848054112055, 14.355522816563145], [79.23390939515912, 14.352733255443004], [79.2317896940157, 14.35271745049702], [79.22894447301215, 14.355107294656618], [79.22678136030122, 14.360602170202926], [79.22466702516711, 14.359897453028003], [79.22468060353818, 14.358175352867544], [79.227183463351, 14.354405244802852], [79.22579745086472, 14.3509504647349], [79.22087602278081, 14.34781361596555], [79.21877543865264, 14.345386764839947], [79.21629982939787, 14.345712594191395], [79.21701454220221, 14.344684651256987], [79.21703361224013, 14.34227371793398], [79.2149358447759, 14.339502423664786], [79.21352826547472, 14.338802948617117], [79.21069947082329, 14.339126066400382], [79.20856076841793, 14.341520991580452], [79.20501170457963, 14.34356078301086], [79.2028674071764, 14.3466444766692], [79.20038352965176, 14.3480033828656], [79.20069003773105, 14.353861131956295], [79.19997797475308, 14.35454459735308], [79.19959991408109, 14.357641652100439], [79.19745539078863, 14.360725269018845], [79.19672949968596, 14.363130793937366], [79.1924595634327, 14.366887028861282], [79.19031207603236, 14.370314970270483], [79.18428647818537, 14.372679865091113], [79.17756531700682, 14.373661508207519], [79.174724898446, 14.375361778504143], [79.16871867762264, 14.375315377948603], [79.1662539587794, 14.374263002254], [79.1630657835373, 14.375271567771009], [79.15772106227752, 14.380740880480031], [79.15382331151207, 14.382088207112847], [79.15061514735584, 14.385507420443252], [79.14989149573914, 14.38756832322825], [79.14705072030603, 14.389268213359411], [79.14241194196258, 14.394742626189732], [79.14096724998971, 14.398519946324246], [79.14163685885667, 14.403002742365082], [79.13912346387411, 14.407804904263973], [79.13872724697175, 14.412968150468943], [79.13552983261042, 14.415009464776514], [79.12669867671482, 14.414595125995767], [79.1234838526451, 14.418702653954444], [79.12136077400102, 14.419030184637668], [79.1174535087227, 14.421409993257557], [79.11530433485953, 14.424837038743183], [79.11139400561552, 14.427561121926118], [79.11204850819061, 14.433765911039096], [79.11060299273167, 14.437542941174675], [79.10774674022102, 14.44096421420263], [79.10773509280696, 14.442341794172394], [79.11829367443586, 14.447592645274922], [79.12287645320013, 14.449006890548398], [79.125703762276, 14.449029404635835], [79.12855412508719, 14.446296693237107], [79.13174344738567, 14.44528873902751], [79.13494709771918, 14.442558736405223], [79.13924236644334, 14.43604863833017], [79.14173614880534, 14.433657337635395], [79.15025742149166, 14.42890237839308], [79.15450942110849, 14.427557980324076], [79.15768989687447, 14.427582843155074], [79.15909212314479, 14.428971501563227], [79.15907797088384, 14.430693528835793], [79.15514527121023, 14.43617362498902], [79.15513675744889, 14.43720683845121], [79.15618845184972, 14.438248347406262], [79.1689110103996, 14.43834752299307], [79.17068648283407, 14.43732802073674], [79.17422053145204, 14.437355419299838], [79.17738716148251, 14.439102076515779], [79.18021163288253, 14.439468331145614], [79.18442461739083, 14.44294513666581], [79.18614423359895, 14.448813718382238], [79.18860426977277, 14.450554808397754], [79.19068862042174, 14.455048448754896], [79.19454861208239, 14.458522405237945], [79.19631860525081, 14.458191539946364]], [[79.16194749307182, 14.425549490353507], [79.15984415860721, 14.42346652589484], [79.1605678797502, 14.421405601424306], [79.16589672812555, 14.418002791695004], [79.16985972267022, 14.408733950256412], [79.17448982622638, 14.404292186772162], [79.17592843137203, 14.401203419780503], [79.17699407163177, 14.400522781754283], [79.18024398406503, 14.391937033674811], [79.1845146249475, 14.388181106534702], [79.19166990693456, 14.377214036497946], [79.19522516319459, 14.374485698521601], [79.1977010977168, 14.374160130600883], [79.20621627209114, 14.369747139574548], [79.20904545684263, 14.369424121505862], [79.21009441191777, 14.370809805006042], [79.21006974618533, 14.373909557101118], [79.20828123355795, 14.376651522561541], [79.2075361592971, 14.381467998446722], [79.20539421899464, 14.384207251985185], [79.20394787568722, 14.388329508592847], [79.20252351879994, 14.389696429442846], [79.19893769158668, 14.39621341180846], [79.19288647651734, 14.4016781664921], [79.19216312641308, 14.403739235753799], [79.18895235121165, 14.407503408140757], [79.18539367187911, 14.410575985554761], [79.181846064687, 14.412270855766566], [79.17721310468433, 14.417057167840365], [79.17118609415411, 14.419421555977012], [79.16584036179718, 14.424890931987376], [79.16442118413346, 14.425568751210808], [79.16194749307182, 14.425549490353507]], [[79.18073846249511, 14.418117661103935], [79.18252767870729, 14.415375991064183], [79.19071082517942, 14.40855018630901], [79.19320932946532, 14.405469409632131], [79.19429157547103, 14.402722212141061], [79.20141386889186, 14.395887832823258], [79.203572509512, 14.391082145934929], [79.20607063000092, 14.388001185732099], [79.20680203399507, 14.384906802846766], [79.20894396639584, 14.38216753549005], [79.20968627289892, 14.377695468888058], [79.21183630897626, 14.373922910283492], [79.21186368796917, 14.370478737903724], [79.21046689607562, 14.368401556744278], [79.20905916413156, 14.367702037430966], [79.20623000134847, 14.368025058223262], [79.2030337782721, 14.370067441372527], [79.19629890469926, 14.372771707552134], [79.19346967758821, 14.373094566067115], [79.18991719951302, 14.37547846506917], [79.18779455995663, 14.375806654263313], [79.18780566114948, 14.374429003932718], [79.19171421425317, 14.371703422968675], [79.19386446231839, 14.36793105432091], [79.1981344001871, 14.364174793937865], [79.20245918269782, 14.353530120822663], [79.20214163574671, 14.349050032925119], [79.20498427437909, 14.347004950236107], [79.20748455290497, 14.343579487921314], [79.20925634754884, 14.342903997629735], [79.21174831853565, 14.340511730750668], [79.21386515321163, 14.34087212012583], [79.21491402891837, 14.342257773473325], [79.2149031192508, 14.343635448125818], [79.21312313883486, 14.345344236708057], [79.21275075082217, 14.347752501307552], [79.21732694189656, 14.349853592249765], [79.22156625956454, 14.349885435614759], [79.2250773241238, 14.352667276582876], [79.22541975247785, 14.35404760339893], [79.22255814304684, 14.358503879173245], [79.22254182892186, 14.360570396888864], [79.22570247406446, 14.36300517500436], [79.22782497662944, 14.362676624978985], [79.22889571069419, 14.36130686997561], [79.22963480113499, 14.357179100690653], [79.23106419336948, 14.355123127618837], [79.23459436660184, 14.355493895798125], [79.23811377921079, 14.357242303132228], [79.24341047473145, 14.357626074329897], [79.24694877309082, 14.356963392503388], [79.24978850178512, 14.355262162935777], [79.25155228243867, 14.35561962832898], [79.2504763534523, 14.357678354980788], [79.24693804769119, 14.35834108938335], [79.2405276031208, 14.364837984712596], [79.23623396518448, 14.371694886834932], [79.23198608193748, 14.372696521828475], [79.22912431113653, 14.377152858035911], [79.22700166985328, 14.377481403881239], [79.22097069161573, 14.380536091997529], [79.21882891061053, 14.383275487400867], [79.21527648090583, 14.385659777996542], [79.2138302990435, 14.389782114498548], [79.21027771406388, 14.392166310714995], [79.20812194478812, 14.396627658058723], [79.20313649224106, 14.401411907844855], [79.20205159858168, 14.404503573947046], [79.19957532475954, 14.404829148457644], [79.19744410593906, 14.406190633522186], [79.18889951695664, 14.414047231614306], [79.18782270338147, 14.416105565023592], [79.1853435095623, 14.416775383492718], [79.18179021152278, 14.41915906089401], [79.181083455605, 14.419153614822354], [79.18073846249511, 14.418117661103935]], [[79.16148914667139, 14.395236213730252], [79.16116682836517, 14.391444988943292], [79.16152861498942, 14.390414515703524], [79.16294756349181, 14.389736686648119], [79.16434961879118, 14.391125293821842], [79.16432991571462, 14.393536146779038], [79.16254351977528, 14.395933270892003], [79.16148914667139, 14.395236213730252]]], [[[79.22625751221686, 14.292398832238238], [79.2241491989365, 14.291005336607935], [79.22237786160693, 14.291680993231902], [79.2230734139798, 14.293063956314636], [79.22659990121778, 14.293779154298496], [79.22625751221686, 14.292398832238238]]], [[[79.23854939383895, 14.301445705509769], [79.23715805734165, 14.298679842805644], [79.23716879583915, 14.297302146279364], [79.23540280852855, 14.297289050738947], [79.2367914301707, 14.300399344577043], [79.23854939383895, 14.301445705509769]]], [[[79.2423998356204, 14.305951979452248], [79.2417068069843, 14.304224631400793], [79.24064717935815, 14.30421679214846], [79.24169341147127, 14.305946755249915], [79.2423998356204, 14.305951979452248]]], [[[79.24729672888245, 14.312188152682916], [79.2462477544642, 14.310802632376234], [79.24553863929403, 14.311141843188757], [79.2462183439836, 14.314591311668243], [79.24728336819412, 14.313910280561151], [79.24729672888245, 14.312188152682916]]], [[[79.24792034309976, 14.322870555138971], [79.24970523323388, 14.320472600118794], [79.24865888154541, 14.31874265964682], [79.24759918188691, 14.318734843621057], [79.24652878475075, 14.3201047238795], [79.246510060306, 14.32251570023815], [79.24792034309976, 14.322870555138971]]], [[[79.26728781182716, 14.330934976321219], [79.26906466134501, 14.329570148453996], [79.26907522928776, 14.328192431962833], [79.26801283023566, 14.328529130957335], [79.26728781182716, 14.330934976321219]]]]}}, {"type": "Feature", "properties": {"depth_class": 3, "depth_lo_m": 2.0, "t_s": 63000.133773129855}, "geometry": {"type": "MultiPolygon", "coordinates": [[[[79.01360606965545, 14.215293465045868], [79.0164272670522, 14.215661296171254], [79.01644227872582, 14.213939381788796], [79.013974124304, 14.213574486052321], [79.01360606965545, 14.215293465045868]]], [[[79.07942522056187, 14.239251751550986], [79.08191129440726, 14.2375496448375], [79.08192583397293, 14.235827666167905], [79.0801575696389, 14.236157873678428], [79.07908962005953, 14.237182539962072], [79.07942522056187, 14.239251751550986]]], [[[79.181083455605, 14.419153614822354], [79.18782270338147, 14.416105565023592], [79.18889951695664, 14.414047231614306], [79.19886584267317, 14.405168174694886], [79.20205159858168, 14.404503573947046], [79.20313649224106, 14.401411907844855], [79.20812194478812, 14.396627658058723], [79.21027771406388, 14.392166310714995], [79.2138302990435, 14.389782114498548], [79.21527648090583, 14.385659777996542], [79.21882891061053, 14.383275487400867], [79.22097069161573, 14.380536091997529], [79.22700166985328, 14.377481403881239], [79.22912431113653, 14.377152858035911], [79.23198608193748, 14.372696521828475], [79.23623396518448, 14.371694886834932], [79.2405276031208, 14.364837984712596], [79.24693804769119, 14.35834108938335], [79.2504763534523, 14.357678354980788], [79.25155228243867, 14.35561962832898], [79.24978850178512, 14.355262162935777], [79.24694877309082, 14.356963392503388], [79.24341047473145, 14.357626074329897], [79.23811377921079, 14.357242303132228], [79.23459436660184, 14.355493895798125], [79.23106419336948, 14.355123127618837], [79.22963480113499, 14.357179100690653], [79.22889571069419, 14.36130686997561], [79.22782497662944, 14.362676624978985], [79.22570247406446, 14.36300517500436], [79.22254182892186, 14.360570396888864], [79.22255814304684, 14.358503879173245], [79.22541975247785, 14.35404760339893], [79.2250773241238, 14.352667276582876], [79.22156625956454, 14.349885435614759], [79.21732694189656, 14.349853592249765], [79.21275075082217, 14.347752501307552], [79.21276440824913, 14.34603041059147], [79.2149031192508, 14.343635448125818], [79.21491402891837, 14.342257773473325], [79.21386515321163, 14.34087212012583], [79.21174831853565, 14.340511730750668], [79.20925634754884, 14.342903997629735], [79.20748455290497, 14.343579487921314], [79.20498427437909, 14.347004950236107], [79.20214163574671, 14.349050032925119], [79.20245918269782, 14.353530120822663], [79.1981344001871, 14.364174793937865], [79.19386446231839, 14.36793105432091], [79.19171421425317, 14.371703422968675], [79.18780566114948, 14.374429003932718], [79.18779455995663, 14.375806654263313], [79.18991719951302, 14.37547846506917], [79.19346967758821, 14.373094566067115], [79.19736158891835, 14.372435367587366], [79.20729265286688, 14.367688669186423], [79.20905916413156, 14.367702037430966], [79.21116802732548, 14.369095730830551], [79.21186368796917, 14.370478737903724], [79.21183630897626, 14.373922910283492], [79.20968627289892, 14.377695468888058], [79.20894396639584, 14.38216753549005], [79.20680203399507, 14.384906802846766], [79.20607063000092, 14.388001185732099], [79.203572509512, 14.391082145934929], [79.20212883175762, 14.394859965364356], [79.19429157547103, 14.402722212141061], [79.19320932946532, 14.405469409632131], [79.19071082517942, 14.40855018630901], [79.18217151444762, 14.415717680423937], [79.18073846249511, 14.418117661103935], [79.181083455605, 14.419153614822354]]]]}}]}