{"type": "FeatureCollection", "features": [{"type": "Feature", "properties": {"depth_class": 1, "depth_lo_m": 0.3, "t_s": 45900.6317029622}, "geometry": {"type": "MultiPolygon", "coordinates": [[[[79.01102345690194, 14.22801503808742], [79.00854310002987, 14.229027591316186], [79.00853706503204, 14.229716352918652], [79.01102345690194, 14.22801503808742]]], [[[79.0113765007929, 14.228017977325571], [79.01102647029975, 14.227670656720127], [79.01102345690194, 14.22801503808742], [79.0113765007929, 14.228017977325571]]], [[[79.0113795136567, 14.227673595884237], [79.01637921620154, 14.22117142042738], [79.0195505306757, 14.221886537873932], [79.02168672354301, 14.21983777971867], [79.02171966913033, 14.216049556950844], [79.02102559621225, 14.214666178048029], [79.01646329169536, 14.211528701211513], [79.01293009436576, 14.211843776031177], [79.01150297172912, 14.213553947723556], [79.01148190310485, 14.215964620613429], [79.01217892634699, 14.21700363815606], [79.0114397540188, 14.220785964845978], [79.01283382962676, 14.222864001902288], [79.01281878081731, 14.224585911220954], [79.0113795136567, 14.227673595884237]], [[79.01815339219868, 14.220152915754356], [79.01641525626744, 14.217038827487833], [79.01324101536012, 14.216668060368143], [79.01254398765876, 14.215629045399083], [79.01291806577964, 14.213221304854397], [79.01610126561869, 14.2125589214722], [79.01819839683871, 14.214987168333762], [79.01995752948092, 14.215690560402804], [79.02064860126119, 14.217418325548406], [79.02027459039152, 14.219826087145787], [79.01815339219868, 14.220152915754356]]], [[[79.07903427220504, 14.243726045849147], [79.08293272458654, 14.242035298481827], [79.08651576321033, 14.235864493676953], [79.08584153494576, 14.232070471012241], [79.0837318528652, 14.23102029435414], [79.0784155176447, 14.233388511785341], [79.07591780487103, 14.236468163242238], [79.07203403165892, 14.236436833618454], [79.07023942429846, 14.239866505254255], [79.06741482826351, 14.23984365384395], [79.06916263140845, 14.241924298025525], [79.0762242028438, 14.241981320435263], [79.07903427220504, 14.243726045849147]], [[79.07764818238846, 14.24061512094487], [79.07768898787008, 14.23579359334238], [79.08230506650045, 14.23273093927216], [79.0840703986884, 14.232745108307421], [79.08511798946911, 14.234131189377038], [79.08510637876446, 14.235508775112384], [79.08223819679111, 14.240652042794586], [79.08081715168525, 14.241673877762336], [79.07869867410847, 14.241656834057089], [79.07764818238846, 14.24061512094487]]], [[[79.11892739814174, 14.244732677313422], [79.12036827828598, 14.241299773694987], [79.12038538053808, 14.239233353651114], [79.11829540661789, 14.235772633775452], [79.11653001572947, 14.235758714744671], [79.11401843811802, 14.240560836186502], [79.11400413678402, 14.242282846396957], [79.11680598822896, 14.245060370735448], [79.11892739814174, 14.244732677313422]]], [[[79.04885668843036, 14.262768341250137], [79.0502809583138, 14.261402344886147], [79.0499515456376, 14.258644348248227], [79.04607635369894, 14.257579384652683], [79.04464021144337, 14.260322905932176], [79.04497846673935, 14.262047739314534], [79.04567873810072, 14.262742305634553], [79.04885668843036, 14.262768341250137]]], [[[79.08240502104898, 14.262696186159577], [79.08347309294126, 14.26167152026909], [79.08349346713261, 14.259260752706338], [79.08279307445079, 14.258566284081496], [79.08067443677503, 14.258549238154322], [79.07818518574358, 14.260595693401529], [79.07852953974337, 14.26163172281381], [79.080286345286, 14.262679131955288], [79.08240502104898, 14.262696186159577]]], [[[79.09396800441786, 14.273465963502773], [79.09467426862636, 14.273471613981144], [79.094680061191, 14.272782819462263], [79.0939737991265, 14.272777169267746], [79.09396800441786, 14.273465963502773]]], [[[79.1030917779148, 14.28042723346568], [79.10417139460901, 14.278024878952735], [79.10276171529125, 14.277669229948954], [79.10204966246354, 14.278352399022232], [79.10203523060076, 14.280074391835095], [79.1030917779148, 14.28042723346568]]], [[[79.19840039524145, 14.463029547524453], [79.2005349659189, 14.46132370960859], [79.20126126447002, 14.458918224142566], [79.19845313879227, 14.45648571674509], [79.19428972338186, 14.44680970142927], [79.19430640055808, 14.44474323082146], [79.19750106232222, 14.443045523378943], [79.19786834778336, 14.441326163719017], [79.19576173331664, 14.439587878212748], [79.19152078270082, 14.439555376081712], [79.18764719564389, 14.437803461993157], [79.18413825276417, 14.434676572915262], [79.18310039825549, 14.431913125067311], [79.18063220664483, 14.431205232684116], [79.17993660739613, 14.429822140842488], [79.18637019952257, 14.420916463855379], [79.1874359149973, 14.420235787021166], [79.19132032967286, 14.420610023786008], [79.19274218934473, 14.41958761693658], [79.19277550400834, 14.415454669366092], [79.19990105335842, 14.408275981252423], [79.2020267614704, 14.407603303522547], [79.20554387420697, 14.409696668111792], [79.20802570379279, 14.408682205446253], [79.20840107195914, 14.405929561999042], [79.20629741642416, 14.403846979464118], [79.20630567421236, 14.402813733610408], [79.21058165620387, 14.398368479408418], [79.21237857302863, 14.394593268054164], [79.21664606903484, 14.391181121831993], [79.21773341506832, 14.387744936830806], [79.21880161290763, 14.386719669188603], [79.22128313273407, 14.385705029129523], [79.22378368585565, 14.382279426281071], [79.23193463264809, 14.379240518998927], [79.23444036104637, 14.375125932124783], [79.23691629573054, 14.37479994798299], [79.23904699727896, 14.37343804169246], [79.2404818192009, 14.370693171170162], [79.24546581063427, 14.365907952612101], [79.24868309103499, 14.361109549489473], [79.25222411305715, 14.360102368387542], [79.25578645200648, 14.356339723867253], [79.26004460568515, 14.35395990645842], [79.26325077810907, 14.350538956028371], [79.26573173436635, 14.34952377873026], [79.26786732971566, 14.347472706827512], [79.26823913795937, 14.345064288356136], [79.2703773087423, 14.342668756855096], [79.27145825959273, 14.3399210503151], [79.27183000812752, 14.33751261904669], [79.2700927328154, 14.333711025242874], [79.2701085796692, 14.331644450035736], [79.27189860962166, 14.328557451714449], [79.27262884181054, 14.325462725697143], [79.27616922006017, 14.324455108827848], [79.27971744619796, 14.32241414181509], [79.28115140294847, 14.319668921316628], [79.2832813231727, 14.318306522346594], [79.28472043815148, 14.31487240693638], [79.28477273296255, 14.307983757346154], [79.28657279202253, 14.303518867114224], [79.28661194099571, 14.298352370361512], [79.28838580464632, 14.297331786123753], [79.2883936238809, 14.29629848544121], [79.28629004681272, 14.294216627194716], [79.28633960742567, 14.287672393445503], [79.28564626729691, 14.285945139385008], [79.28214312888217, 14.282130913915438], [79.27826598297118, 14.281069553532452], [79.2743993777549, 14.278630407863638], [79.2691149129762, 14.276869807143289], [79.26701432763876, 14.274443385061513], [79.26066525420248, 14.273363762406731], [79.2599721497524, 14.27163645856773], [79.25716539847231, 14.269204806169213], [79.25683872874922, 14.265757936259604], [79.25579252181873, 14.2640280422006], [79.25687579988343, 14.260935933395643], [79.2565623669697, 14.255766918100475], [79.25409836430168, 14.254715548240464], [79.25270174124682, 14.252638633886223], [79.25022451409482, 14.253309369119696], [79.24984481305512, 14.256751055511932], [79.25265399067587, 14.258838341939194], [79.25228492491617, 14.260902321906292], [79.25085640983266, 14.262958528417832], [79.25083780926614, 14.265369521929108], [79.25328597779577, 14.268487504100293], [79.25327005037254, 14.27055407173211], [79.2521999476031, 14.271924012696553], [79.25078996328418, 14.271569217184991], [79.2479833242935, 14.269137467866821], [79.24586439090753, 14.269121878069146], [79.24338162658987, 14.270481370590906], [79.24302045832002, 14.271512044539284], [79.24512073778007, 14.273938646557356], [79.24544188795211, 14.278074363798892], [79.25035699276948, 14.281899439884993], [79.25356745459729, 14.27778964574252], [79.25639812214379, 14.277121492372737], [79.25956871356023, 14.278178028869842], [79.26166130896604, 14.281637798270049], [79.26342719906333, 14.281650685089529], [79.26449465328868, 14.280625121908034], [79.26908332486327, 14.281002974000597], [79.27576749502148, 14.28449597986577], [79.27859035780214, 14.284860861281302], [79.28245188737053, 14.287988820138008], [79.28276848698378, 14.29281342707135], [79.28380979510194, 14.29523210237547], [79.28378888821788, 14.297987564264782], [79.2816277658051, 14.303483178223368], [79.2812012044151, 14.313124719232862], [79.27977254537771, 14.315181083269009], [79.27728677696282, 14.316885321662475], [79.27620340812378, 14.31997751085292], [79.27407606855621, 14.320995409329234], [79.26983717399511, 14.320964565608438], [79.26770980261819, 14.321982402676904], [79.26446441613611, 14.33056989925512], [79.26509939718127, 14.339874626407191], [79.26330651845906, 14.343305977683942], [79.26118155875781, 14.34397930006302], [79.25629697742008, 14.336021174617114], [79.25563839332341, 14.329816303372658], [79.25426268648785, 14.32498394438289], [79.25181665155979, 14.321521489062132], [79.2511555202228, 14.31566104316777], [79.25010917454856, 14.313931109693808], [79.25013318378483, 14.310831274628057], [79.25085029102705, 14.30945877022636], [79.24804056008136, 14.307371401183659], [79.24629853410985, 14.30425854698401], [79.24139378160612, 14.299055646708437], [79.23965726411804, 14.295253910175003], [79.23402766337293, 14.292456633998924], [79.23262835744464, 14.290724026089109], [79.22805581673737, 14.288278919458905], [79.22525466946169, 14.285158065002527], [79.21890563508757, 14.284077317579197], [79.21399109775602, 14.280251648342828], [79.21082076470984, 14.279194525978939], [79.2073082078084, 14.276757029872288], [79.20448839150276, 14.276046908813655], [79.20308941911009, 14.274314162953376], [79.20311400214553, 14.27121439682093], [79.20241316574244, 14.270520231826247], [79.20100056961988, 14.27050956962975], [79.19993291556791, 14.271534821218793], [79.19781949355999, 14.270829966620267], [79.19502447850302, 14.267019991606766], [79.19221032942552, 14.265620910113276], [79.18835607137456, 14.26180283755466], [79.18662620809853, 14.257312008322367], [79.18171834305133, 14.252796967137597], [79.17820099679243, 14.25104795057276], [79.17364100537276, 14.247224299832581], [79.17011826516931, 14.24616400690245], [79.16801353289243, 14.244425687892592], [79.16413220234476, 14.244051427704138], [79.16167165461724, 14.24265475546574], [79.16097382683375, 14.241616081318917], [79.16141054658739, 14.231286456682], [79.16388767401897, 14.23061664514664], [79.16425466223365, 14.228897297796511], [79.16320934656169, 14.227167095131888], [79.16074340297509, 14.226459257530584], [79.15898919719153, 14.225068015579426], [79.15722384841197, 14.225054407334662], [79.15543614648841, 14.227796071131706], [79.15331770701934, 14.227779705115275], [79.15189701514774, 14.228802013680765], [79.15221368698735, 14.233282073302131], [79.15572493499282, 14.235720239400475], [79.15673947518127, 14.24123898722351], [79.15779037748001, 14.24228039691693], [79.16026205439377, 14.242299461508665], [79.1613157680247, 14.242996446838701], [79.16128787558773, 14.246440559291177], [79.15880218443937, 14.24814355333599], [79.15878542069188, 14.250210017114252], [79.15453691542935, 14.25155491433713], [79.1513589265412, 14.251530306190276], [79.15103107029252, 14.248427887513147], [79.14856214887638, 14.248064310634124], [79.14749440554417, 14.249089313396654], [79.1474747261417, 14.251500172143695], [79.14640696036328, 14.252525167204208], [79.1418108945421, 14.25317826416851], [79.13684756118278, 14.255550541951841], [79.13437577288076, 14.25553121739968], [79.13226560637942, 14.25448141733137], [79.12343502409396, 14.25475652265299], [79.12202829063077, 14.2540565978556], [79.11496615479041, 14.254000883971955], [79.11356232171572, 14.252956511320724], [79.10933368681896, 14.251889757846147], [79.10371284845768, 14.24840091217372], [79.1008880907926, 14.248378443543212], [79.09842508764781, 14.247325559873898], [79.08712907718566, 14.246890844810615], [79.08431599090157, 14.245490598471514], [79.07902261644507, 14.245103625552836], [79.0729997220814, 14.24746598533009], [79.06340173713072, 14.2549654122061], [79.0598589907613, 14.25631427468253], [79.0563280124934, 14.256285519272561], [79.05423305985776, 14.253513124478923], [79.0517673273784, 14.252804168547138], [79.04896628989925, 14.250025969515141], [79.04544136443522, 14.249308289538709], [79.04333770487602, 14.247568985345193], [79.04335848414158, 14.245158272379056], [79.04407354007971, 14.244130898315621], [79.04338519463235, 14.242058783521946], [79.04197290496084, 14.242047201423153], [79.04054872891244, 14.24341315935535], [79.03948950702818, 14.243404460171066], [79.03738892526901, 14.241320729036003], [79.03562059635712, 14.241650592617704], [79.03418744478843, 14.24404966533019], [79.03027973426263, 14.246772719594972], [79.02990872228995, 14.248836112977422], [79.03236535677416, 14.250578436542924], [79.03270649762888, 14.25195888965205], [79.03411585734962, 14.25231491997221], [79.03589321485069, 14.250951921151946], [79.03698225734487, 14.247516779172535], [79.03945679180399, 14.247192714927209], [79.04015403061987, 14.248231677115442], [79.03941216464449, 14.252358514814228], [79.03513335932519, 14.257145047147581], [79.02945393854246, 14.260542268495785], [79.02702119820533, 14.256044834396468], [79.02526174085733, 14.255341453364995], [79.02314020492764, 14.255668283396787], [79.02171283037121, 14.257378484520803], [79.0220509053966, 14.259103327882938], [79.02380137369316, 14.260839884221653], [79.0280355560033, 14.261219357134049], [79.02802956596462, 14.261908125039648], [79.02482466501368, 14.264981262498672], [79.01985413636982, 14.268039678882444], [79.0156108155931, 14.2686931895323], [79.01560176888638, 14.269726332944405], [79.02302910740832, 14.268410450982461], [79.02905892796213, 14.2653607272834], [79.03297596397012, 14.261604585199645], [79.03829631785099, 14.258893144199694], [79.04115381732879, 14.255128115554959], [79.04434946425864, 14.253087872563489], [79.04681813101097, 14.253452514588595], [79.04996931087352, 14.256578016610339], [79.05066070531554, 14.2583057345934], [79.05241733101184, 14.259353330000634], [79.05981774508402, 14.26113574311961], [79.06440812602085, 14.2611730602311], [79.06582642857079, 14.260495741129944], [79.06619421798449, 14.258776646414876], [79.06761543480509, 14.257754921770163], [79.0704431837955, 14.25743340611598], [79.07611327500177, 14.255068301069544], [79.08211889232324, 14.254772257036777], [79.08848922148808, 14.253101303885497], [79.093065044126, 14.254860036263839], [79.09659318714685, 14.25523264328271], [79.10151935923217, 14.257338443676057], [79.10325898048997, 14.260452089000223], [79.10466280015328, 14.261496521603629], [79.10854707624408, 14.26152737368511], [79.10996528368237, 14.260849775621773], [79.11311753377235, 14.263974562507828], [79.12759556604989, 14.264088741457135], [79.1272253709155, 14.266152390953039], [79.1240215722258, 14.269227023531917], [79.11972111953726, 14.276770470963053], [79.115110210505, 14.279144988300786], [79.11508727612255, 14.281900197356231], [79.11649127954219, 14.282944581547518], [79.12037880904091, 14.282630883934159], [79.12250628838736, 14.281614397074375], [79.12713428009829, 14.277173312035293], [79.12785764844219, 14.275112442897083], [79.1275557372602, 14.268910397610188], [79.13075380902104, 14.266524520295546], [79.13183590100527, 14.263777588615076], [79.1449043836084, 14.26353523217215], [79.15160819304215, 14.264276175108776], [79.15336542493965, 14.265323089009273], [79.15795054233291, 14.266047435511746], [79.16289720910247, 14.265741187053552], [79.1762664676907, 14.272043694043031], [79.18121328941851, 14.27173707791049], [79.18861011651157, 14.274204491464122], [79.19175824676152, 14.278017219267756], [79.19844087763796, 14.281512250298965], [79.20404235318478, 14.287754471132137], [79.20721003008319, 14.289156112176766], [79.21071459071231, 14.29262688768995], [79.21387966509452, 14.294372871968752], [79.21280649390313, 14.296087012332556], [79.20997824206383, 14.296410184700642], [79.20714179567607, 14.297766578024685], [79.20078708083035, 14.297374151598325], [79.1993688342563, 14.298052294185318], [79.19548373195205, 14.298022847937045], [79.19337834459274, 14.29628468010778], [79.19160965388892, 14.296615676052152], [79.1919463213916, 14.298684854813821], [79.19370127334561, 14.300075937810515], [79.19474435548956, 14.302150480279266], [79.20180831045201, 14.302204008825056], [79.20106628272693, 14.306676088506897], [79.20175076926677, 14.309436771157953], [79.20422050231794, 14.30979988407597], [79.20563881597154, 14.309121720083809], [79.20813040368444, 14.306729445794295], [79.20994007518534, 14.30123205077784], [79.21455341784878, 14.298511213934159], [79.21879990305779, 14.297509733221295], [79.21986761900507, 14.29648440340535], [79.22269316568378, 14.296505533320541], [79.22655669397497, 14.2992899094619], [79.22688288421986, 14.302736764388888], [79.22581246020525, 14.304106547315493], [79.21840600517328, 14.302673396332523], [79.21663456020467, 14.303348996948928], [79.21520543238528, 14.305404914266756], [79.21517551325465, 14.309193531491717], [79.2162215551137, 14.310923586260726], [79.21869134581192, 14.311286553252637], [79.22011506246957, 14.309919457782568], [79.2243455168131, 14.310984428918426], [79.22574215502014, 14.313061511503685], [79.22572051286711, 14.315816883676975], [79.223935432408, 14.31821463425574], [79.21932718159968, 14.320246775211258], [79.21925381843343, 14.329546115494892], [79.21602559462795, 14.335721787388138], [79.2153136366181, 14.336405311921448], [79.21178109443348, 14.33637871234476], [79.21000662498503, 14.337398646599935], [79.20715320168271, 14.340821479624346], [79.20467215588783, 14.34183602510649], [79.20324264114501, 14.343891823027922], [79.20004951611261, 14.345589790764064], [79.19897870880858, 14.346959405417248], [79.19860066013179, 14.350056460331688], [79.19928242873824, 14.353161567800331], [79.19855383584857, 14.35591152009875], [79.1946069813338, 14.363459059366232], [79.19247616118379, 14.364820546401162], [79.18997262740434, 14.368590203424397], [79.18784173189489, 14.369951639195056], [79.1825283003781, 14.371633072520883], [79.17793257240787, 14.371942174579791], [79.17261344884058, 14.37431219020323], [79.16555858642666, 14.372879893010948], [79.1616581935635, 14.374571779055243], [79.15737904106095, 14.379360502589094], [79.15348131393986, 14.380707826342801], [79.15027600208126, 14.383782632069572], [79.14883720503316, 14.386871218499216], [79.14528410085873, 14.389254362347815], [79.14456323075389, 14.390970837142426], [79.14099861554989, 14.3947315145859], [79.13955104693997, 14.398853225776735], [79.14021777314412, 14.40368042497314], [79.13806626743776, 14.407452147211956], [79.13731380878534, 14.412957003058935], [79.13447547641664, 14.414312287337918], [79.13164572175592, 14.414634331667155], [79.13021504759995, 14.416689541896096], [79.13018632286237, 14.420133543190396], [79.13190436671802, 14.426002341949692], [79.13468838508074, 14.43119072366725], [79.13748684565033, 14.434657080508803], [79.13889469570078, 14.435357046005414], [79.14066453164915, 14.435026586570032], [79.15060227845944, 14.429938361110187], [79.15626784808538, 14.428605013170065], [79.15732234605055, 14.429302108501687], [79.15730534638546, 14.431368539074537], [79.15373735331566, 14.435473749969713], [79.15372031298904, 14.437540175275261], [79.1551197279014, 14.439273265089684], [79.1692531494296, 14.439727896713054], [79.17102863235928, 14.438708393097139], [79.17385588862842, 14.43873031412698], [79.18054824502016, 14.441537515256059], [79.18335598184343, 14.443970194673076], [79.18472494162287, 14.449491648025942], [79.18753281926028, 14.451924293043877], [79.18926929695698, 14.455726402456627], [79.19347158310563, 14.460580738243516], [79.19415899405483, 14.462997041351434], [79.19521378007703, 14.463693997912358], [79.19840039524145, 14.463029547524453]], [[79.19037698814999, 14.449879570400467], [79.18686225091176, 14.44744151911187], [79.18653115974683, 14.444683516536514], [79.18513424270313, 14.442606171398936], [79.18056784201963, 14.439126650173826], [79.17738996564503, 14.438757667786772], [79.17351653089848, 14.437005535786364], [79.16396333724163, 14.438309036200785], [79.1607883569257, 14.437595428825325], [79.15724866136138, 14.438256638232025], [79.15584072302318, 14.437556773563742], [79.15550150805116, 14.435831985724459], [79.15799513554005, 14.433440491915398], [79.15943136263712, 14.43069628723116], [79.15875005681141, 14.427591121247929], [79.15628768796424, 14.426194178314478], [79.15063355254368, 14.426149918680363], [79.14611364936997, 14.417159376011771], [79.1412064754786, 14.41229883317624], [79.14088736914728, 14.408163221340292], [79.14268549195744, 14.404388690737116], [79.14201871158755, 14.399561492160547], [79.14311006202469, 14.395781388855552], [79.14667466476224, 14.392020677625428], [79.14703935732007, 14.390645830426974], [79.14988015156571, 14.38894594271449], [79.15203408772405, 14.384829656880015], [79.1548832542969, 14.382096477005362], [79.15842486659398, 14.381090788874431], [79.16341627616548, 14.37561871773475], [79.16483512134788, 14.374940864776407], [79.17436879480256, 14.375703463265616], [79.1779186226727, 14.373664228357331], [79.18180777402941, 14.37334970376166], [79.18960269881255, 14.3706539807256], [79.19246232990803, 14.366542615144233], [79.19566133856375, 14.364155965158995], [79.197460905911, 14.360036439312728], [79.19924387499302, 14.357983382501533], [79.20033675867307, 14.353858449405706], [79.20038903073191, 14.347314551308367], [79.20358217981159, 14.345616581783158], [79.20572645671378, 14.342532879125573], [79.20820750716902, 14.34151832300443], [79.21176743907941, 14.338100803530798], [79.21529183028737, 14.3391606630171], [79.21774286351673, 14.341934609328808], [79.21808523729034, 14.34331494086823], [79.22054178614407, 14.345400027283024], [79.22123473364746, 14.347127427372108], [79.22404734387801, 14.348870715360825], [79.22719972760247, 14.352338720795514], [79.22752590634343, 14.355785570169152], [79.22538718468928, 14.35818064644158], [79.22572961929689, 14.35956097338214], [79.2267894982566, 14.359568909011307], [79.22788190377867, 14.355443791815897], [79.23143911479804, 14.352370393012741], [79.23251517632657, 14.350311768912913], [79.23431396172474, 14.346191867731676], [79.23542770432717, 14.339311307609327], [79.24259225938451, 14.326620068353739], [79.2433175128559, 14.324214325903197], [79.24338717839028, 14.315259284931047], [79.23991662390121, 14.307311383151244], [79.2325583905449, 14.29967903346194], [79.22657289884874, 14.297223376589233], [79.22376356530064, 14.295135761636573], [79.21776745742307, 14.294057589916294], [79.20828865411535, 14.286753159178629], [79.20582461652694, 14.285701279332667], [79.20373290424479, 14.282241114087354], [79.19458901009554, 14.277349822485357], [79.18863214423621, 14.271449165870344], [79.18546484722332, 14.27004731822412], [79.17593549987366, 14.26928568365191], [79.16995712272286, 14.266139938152662], [79.16713760661077, 14.265429403636809], [79.16327266531385, 14.262988620481249], [79.15937985464758, 14.263991887818346], [79.15304315545048, 14.261531852478806], [79.14951190479415, 14.261504466638646], [79.14740441253177, 14.260110377766866], [79.14105951882516, 14.258683272681818], [79.14072333904244, 14.256614078115396], [79.14285331045262, 14.25525295914838], [79.1460285215149, 14.255622094851379], [79.14811628155223, 14.259427048346264], [79.15199500615003, 14.260146006336802], [79.1551787200938, 14.259481801318834], [79.15658281282984, 14.260525956506974], [79.1657668628265, 14.260252362375535], [79.1706856276393, 14.26339006081065], [79.17421140273665, 14.264105962990364], [79.17595767371242, 14.26653037638193], [79.17771505691886, 14.267577125999086], [79.18230864191781, 14.267267774414334], [79.18406606561699, 14.268314481266737], [79.1858317772973, 14.26832793114797], [79.18689947042915, 14.267302748264024], [79.18691048972168, 14.265925086063984], [79.18410744950499, 14.263148255733116], [79.18092924545253, 14.26312402215396], [79.17881874496372, 14.262074600580409], [79.1788298091244, 14.260696943978546], [79.18061203430632, 14.258643938355572], [79.18203006167077, 14.257965882919683], [79.18379293294592, 14.258323753529615], [79.18519717216493, 14.259367755070503], [79.18623452066743, 14.262131141334352], [79.1893824644476, 14.265943879661078], [79.1936036754792, 14.268042538598014], [79.19744990577128, 14.272893799469275], [79.20061733436059, 14.274295500783063], [79.20271713595545, 14.276722426658242], [79.20729457764648, 14.278479125446998], [79.21712349306345, 14.286130622974847], [79.22383385695538, 14.286180793625599], [79.22592862741227, 14.28929639872088], [79.22839282103969, 14.290348085383576], [79.2308462677926, 14.29277744156852], [79.23858963365116, 14.296279339990111], [79.23962777657832, 14.299042580961736], [79.24837241846463, 14.310129411588917], [79.250395691619, 14.322544361122137], [79.25249646662807, 14.324970951170274], [79.25211654878004, 14.328412611706735], [79.25034763363544, 14.328744025180983], [79.24929590218753, 14.327702934832843], [79.24788023878453, 14.328036935084983], [79.24466617918496, 14.332490967261448], [79.24356082075133, 14.338338338187025], [79.24177302065327, 14.341080643740327], [79.23852094117755, 14.350356474708477], [79.23814611130909, 14.353109231253944], [79.23919519729704, 14.354494799469046], [79.24484512262178, 14.354881156339202], [79.24839408855436, 14.352840749122116], [79.25157634473497, 14.352519801727373], [79.25726091262362, 14.348428317900499], [79.25869799071371, 14.345338861492184], [79.26258138531072, 14.345711794800483], [79.26400245717905, 14.344688861887402], [79.26650982770683, 14.340229385877105], [79.26659188428569, 14.329552102745087], [79.26944960948693, 14.325439573563068], [79.26981869721779, 14.323375571796854], [79.27088370741511, 14.322694431919652], [79.27194080236329, 14.32304657599841], [79.26976852862447, 14.329919728870243], [79.26833964911776, 14.331975997717002], [79.2686770466904, 14.334045148673818], [79.27007688343427, 14.335777600073637], [79.27004253443779, 14.34025517758222], [79.26718724724815, 14.344023260796149], [79.26609827084094, 14.347804223035661], [79.26326139771548, 14.349161246223433], [79.2589900584352, 14.353263269422321], [79.2540226553671, 14.3559822886299], [79.25116956763394, 14.359405696352727], [79.2479845328041, 14.360071051348381], [79.24298728798237, 14.366578462247857], [79.2404979805891, 14.368626635119679], [79.2376364276575, 14.3730831009335], [79.23338852065822, 14.374084758717359], [79.23052675463228, 14.378541112555718], [79.22840410052446, 14.378869669685656], [79.22272914800506, 14.381582626911078], [79.2198752574515, 14.385005558777234], [79.21845920086473, 14.385339335361952], [79.2166788756464, 14.387048109982699], [79.21559151873022, 14.39048428885348], [79.21168011004552, 14.393554672764987], [79.20952709695543, 14.397671618036327], [79.20525386528547, 14.401772437384958], [79.20488122725283, 14.404180658097316], [79.20663150824048, 14.40626056932609], [79.20662049696222, 14.407638230289104], [79.20520428340609, 14.407971908043441], [79.20344849042542, 14.40658081582408], [79.20026823123311, 14.406556604297517], [79.19920261776095, 14.407237351953812], [79.19278660654615, 14.414077019838235], [79.19172371317127, 14.414413314312132], [79.19100863316113, 14.41544113584089], [79.1909864028766, 14.418196431695046], [79.19027408590375, 14.418879837096238], [79.1863841321871, 14.419194408835168], [79.17996458770693, 14.426378045470978], [79.17744883594379, 14.431525082034723], [79.1792046202159, 14.43291636899017], [79.181672823671, 14.433624277908631], [79.18236285163154, 14.435696186421533], [79.18552395400248, 14.438131559765178], [79.18586898955614, 14.439167511011338], [79.19149851992914, 14.442310667099346], [79.19144005776528, 14.449543302801358], [79.19037698814999, 14.449879570400467]], [[79.2434829909047, 14.348326634220664], [79.24629045715007, 14.350758527963569], [79.24592644743387, 14.352133610773095], [79.2448612254476, 14.35281461267997], [79.24345613912377, 14.351770872189125], [79.2434829909047, 14.348326634220664]], [[79.22826228226916, 14.352002225047574], [79.22370764305074, 14.347145967671734], [79.22232171754824, 14.343691176536488], [79.21951190312602, 14.341603456775836], [79.21882714347775, 14.338842795859307], [79.22169395491137, 14.333697697451921], [79.22242488261857, 14.330603207608988], [79.22385142649853, 14.328891682576941], [79.22386226986228, 14.327513999488202], [79.22246015201888, 14.326125741080473], [79.22247913818558, 14.32371479683178], [79.22426157449038, 14.321661486106738], [79.22781013042895, 14.319621343021165], [79.22960328565017, 14.316190293576302], [79.22891033742856, 14.314462917225983], [79.22964647184202, 14.310679537108662], [79.22825250726204, 14.308258052479696], [79.22826870722989, 14.306191519257696], [79.231105169431, 14.304834872234613], [79.23142064552196, 14.309659419284952], [79.2328173471287, 14.311736467031944], [79.23279848780665, 14.314147427247088], [79.23066835913187, 14.315509343686694], [79.2309973043571, 14.318611776042289], [79.23345644202854, 14.320352292815025], [79.232725711799, 14.323446840417027], [79.23377734046164, 14.324487993568496], [79.2333000315224, 14.340328797287288], [79.23255029587828, 14.345834285257817], [79.2300313967933, 14.35167100154677], [79.22826228226916, 14.352002225047574]], [[79.25159238307188, 14.350453250188142], [79.24598275015666, 14.344900700436561], [79.24421638222827, 14.344887627899107], [79.24606580631863, 14.334223538640064], [79.24785081878652, 14.33182561221588], [79.24890523324761, 14.332522284748581], [79.25201512255376, 14.341500793028752], [79.25517589066425, 14.343935187410278], [79.25621972476986, 14.346009540842124], [79.2554945063724, 14.348415326227], [79.25336147171767, 14.350121847116926], [79.25159238307188, 14.350453250188142]], [[79.23839364863572, 14.321422296722043], [79.2363118974145, 14.316584638427432], [79.23568344075247, 14.306591112108004], [79.23674307666587, 14.306598974753445], [79.23814518578297, 14.307987147126818], [79.24126513662137, 14.315588029254041], [79.2404889034681, 14.324537825316206], [79.23905175568511, 14.327627163226392], [79.23834526503397, 14.327621921322445], [79.23800008697279, 14.32658602924858], [79.23839364863572, 14.321422296722043]], [[79.28081389483177, 14.317599775304988], [79.2804580348013, 14.317941650012106], [79.27975155884332, 14.317936534686558], [79.28011004276362, 14.317250229691773], [79.28081389483177, 14.317599775304988]], [[79.2215496033328, 14.307174667928251], [79.21943034424287, 14.307158801878273], [79.21801479067348, 14.307492634306296], [79.21837614562159, 14.30646202105388], [79.21979169227504, 14.306128185635204], [79.22366886501977, 14.307190515106104], [79.22401395589232, 14.308226418652978], [79.22260110773983, 14.30821585726744], [79.2215496033328, 14.307174667928251]], [[79.2032128931973, 14.303247942229667], [79.2053512339667, 14.30085302228032], [79.20746495667295, 14.301557843857237], [79.20708171180605, 14.305343782560454], [79.20494333911822, 14.307738714405287], [79.20317730136072, 14.307725370148603], [79.2028295715718, 14.307033864909199], [79.2032128931973, 14.303247942229667]], [[79.25853038181144, 14.275414853471725], [79.25783728997732, 14.273687544836484], [79.25994569813668, 14.275080749144152], [79.259940406967, 14.275769607134393], [79.25853038181144, 14.275414853471725]], [[79.25367628017231, 14.26366809908766], [79.25402147134089, 14.264703970842668], [79.25331251783653, 14.265043223880346], [79.25296998363913, 14.26366292339105], [79.25367628017231, 14.26366809908766]], [[79.02383138253299, 14.257396052775857], [79.02559984263743, 14.257066295060401], [79.02664413778716, 14.25879698293623], [79.02487266498778, 14.259471130173212], [79.02381937995807, 14.258773585480736], [79.02383138253299, 14.257396052775857]], [[79.1325705147885, 14.260339071953986], [79.12728795076148, 14.258575501477791], [79.12729363801678, 14.257886693092017], [79.13188980703012, 14.257233893041619], [79.13540679941104, 14.258983560730881], [79.13433611307296, 14.260352895735544], [79.1325705147885, 14.260339071953986]], [[79.17283772178173, 14.259273356607286], [79.16649817300457, 14.25715808848913], [79.1654499508105, 14.255772293599987], [79.16477435758176, 14.251978331329859], [79.16053700800677, 14.2519456919175], [79.1598447479344, 14.250218190817693], [79.17008772284127, 14.249952548290878], [79.17184218001579, 14.251343737123324], [79.17288488100317, 14.253418333103282], [79.17711398604793, 14.254483998619344], [79.17851540266041, 14.255872447611566], [79.17814845043524, 14.257591820925995], [79.17600754754889, 14.260330932576611], [79.17318529919993, 14.259964888818157], [79.17283772178173, 14.259273356607286]], [[79.15873231777071, 14.256753816594156], [79.16051187807861, 14.255045389491842], [79.16333123846081, 14.255755985044168], [79.1629641743095, 14.257475321256825], [79.16013082670231, 14.258486772267851], [79.15836801353247, 14.258128730919713], [79.15873231777071, 14.256753816594156]], [[79.15557664949606, 14.253973976972201], [79.15734222135066, 14.253987624466102], [79.15733382958366, 14.2550208550457], [79.15521513394681, 14.255004475250859], [79.15557664949606, 14.253973976972201]], [[79.07686325921816, 14.249908083534722], [79.07898472662454, 14.249580758429099], [79.07968216780137, 14.250619628683713], [79.07720467900158, 14.251288507298417], [79.07650141030524, 14.250938419488431], [79.07686325921816, 14.249908083534722]], [[79.03275127605626, 14.24679311044698], [79.03487272494142, 14.246466182169833], [79.03449877227077, 14.248873973853014], [79.03273933689593, 14.248170651800082], [79.03275127605626, 14.24679311044698]], [[79.16621742179505, 14.248200661983413], [79.16553069045523, 14.24578434899533], [79.1676493123628, 14.245800626872528], [79.1683499625748, 14.246494873797255], [79.16798295933377, 14.248214225356163], [79.16621742179505, 14.248200661983413]], [[79.15890271052439, 14.235744762761133], [79.156100381072, 14.232967682060588], [79.1561087649173, 14.231934450296858], [79.1582244551067, 14.232295207249601], [79.15890271052439, 14.235744762761133]]], [[[79.16323610864377, 14.397660799919754], [79.1646776209529, 14.394227705555515], [79.1647085769789, 14.390439221584803], [79.16330652294835, 14.389050616709614], [79.16153988896338, 14.389036887315935], [79.16046862900322, 14.390406270917719], [79.16041220874476, 14.397294406211348], [79.16146094605394, 14.398680282482562], [79.16323610864377, 14.397660799919754]]], [[[79.1889302248047, 14.278340164782161], [79.18717270210502, 14.277293482805632], [79.18187535909077, 14.277253098954185], [79.18186706493003, 14.278286341744474], [79.1843170765703, 14.28106052104413], [79.1885550266379, 14.281092802519591], [79.1889302248047, 14.278340164782161]]], [[[79.24714107624574, 14.286698028702999], [79.24927349466351, 14.284991492282291], [79.24963999016724, 14.28327195543835], [79.24645338683366, 14.28428184193684], [79.24608419640369, 14.286345796910492], [79.24714107624574, 14.286698028702999]]], [[[79.24008546425245, 14.285612626837633], [79.23868078438849, 14.284568902777929], [79.23726807271646, 14.284558445488193], [79.23655098509832, 14.285930911249782], [79.23901520666345, 14.286982489605053], [79.24007743065943, 14.286645901887761], [79.24008546425245, 14.285612626837633]]], [[[79.19658174788367, 14.293209053223373], [79.19800271171108, 14.292186507494812], [79.19696237680166, 14.289767562766922], [79.19237106740954, 14.289732729153851], [79.19339759938481, 14.29387376833572], [79.19658174788367, 14.293209053223373]]], [[[79.27957660071428, 14.294512622261415], [79.27781583918092, 14.293810980501263], [79.27815068758524, 14.296224559394753], [79.27921029896723, 14.296232227347893], [79.27957660071428, 14.294512622261415]]], [[[79.1852274127811, 14.299666984594738], [79.18700441485699, 14.29830279622202], [79.18666779359775, 14.296233615796314], [79.18383677534699, 14.296900886663858], [79.18347252360621, 14.298275845504133], [79.18417060489539, 14.29931448213339], [79.1852274127811, 14.299666984594738]]], [[[79.2652212301639, 14.324030923751616], [79.26771508794553, 14.321293544508451], [79.2667029498855, 14.31508609021912], [79.26354505363409, 14.31230744681945], [79.26356093568708, 14.310240875085407], [79.26216658576439, 14.307819548270002], [79.2597073160751, 14.30607931740983], [79.25617250610985, 14.30639785970627], [79.25475166615855, 14.30742077211709], [79.25403192810002, 14.309137718889188], [79.25472240545437, 14.311209469762593], [79.25612732158505, 14.312253124122588], [79.26284124988283, 14.311957854727236], [79.26283330488964, 14.312991140096434], [79.26033949766634, 14.315728473545782], [79.26032092657245, 14.318139468616947], [79.26240587899092, 14.32263254780082], [79.26380825183483, 14.324020596100661], [79.2652212301639, 14.324030923751616]]], [[[79.25163246773609, 14.345286869690185], [79.2516404827528, 14.34425359330781], [79.25022204044318, 14.344932020905757], [79.25056729480043, 14.345967903260997], [79.25163246773609, 14.345286869690185]]], [[[79.16583754269811, 14.425235338890987], [79.17082990752348, 14.419763225312105], [79.17721310468433, 14.417057167840365], [79.18220222325652, 14.411929166219869], [79.1857498226898, 14.410234289658602], [79.19180699571851, 14.404080943851568], [79.19324537369579, 14.400992043197602], [79.19965266609644, 14.395185553309316], [79.20754165184698, 14.380779166118492], [79.20792517243375, 14.376993263539292], [79.20971369230445, 14.374251301664556], [79.20974384525371, 14.370462716504193], [79.20904271516669, 14.369768538289305], [79.2069228824233, 14.369752492412829], [79.19309423339237, 14.375847178147515], [79.18701850192036, 14.384411549495344], [79.18559686307732, 14.385433947767265], [79.1845174078737, 14.38783669495527], [79.17989064922621, 14.391934313618439], [79.17664631883811, 14.399831235825573], [79.17271464802745, 14.405311753243895], [79.1687996452433, 14.408725732594132], [79.16556871509553, 14.41490038145259], [79.16519843777118, 14.416964077475123], [79.16093821125918, 14.419341919324292], [79.15879533536686, 14.422080632618881], [79.15877835815343, 14.424147066172122], [79.16053395696541, 14.425538472518427], [79.16441836271555, 14.425913157819762], [79.16583754269811, 14.425235338890987]], [[79.16161953738725, 14.422447081659785], [79.1630471683241, 14.420736058374755], [79.16695121562316, 14.418699842193716], [79.17091418466836, 14.409430979867304], [79.17411685632537, 14.406700319347895], [79.17804852431163, 14.401219778020288], [79.18129562276138, 14.39297842317867], [79.1862812749241, 14.38819466354165], [79.18700460916587, 14.386133610179813], [79.18949732338454, 14.383741669287154], [79.19272154435801, 14.378255374523762], [79.19556741998196, 14.375866048728838], [79.19804336989947, 14.375540478976761], [79.20584923325512, 14.371466543119757], [79.2079718245543, 14.371138183948473], [79.2083004415095, 14.374240607263038], [79.20687071516922, 14.376296401689311], [79.20648717964647, 14.380082300848489], [79.20398366129267, 14.383852109133668], [79.20289613865953, 14.387288209795356], [79.20111293431275, 14.389341266139091], [79.19895426508114, 14.394146927053823], [79.19219086641952, 14.40029510937843], [79.18896903019436, 14.405436936778882], [79.1843419394885, 14.409534603867732], [79.18186002336057, 14.41054880382484], [79.17616138811107, 14.41601575112068], [79.17332880309496, 14.41668270861752], [79.16906865033359, 14.419060708193168], [79.16478867212791, 14.423849467101745], [79.16266555734684, 14.424177370926053], [79.1616110619083, 14.423480300097628], [79.16161953738725, 14.422447081659785]]]]}}, {"type": "Feature", "properties": {"depth_class": 2, "depth_lo_m": 1.0, "t_s": 45900.6317029622}, "geometry": {"type": "MultiPolygon", "coordinates": [[[[79.02027459039152, 14.219826087145787], [79.02064860126119, 14.217418325548406], [79.01960750057071, 14.215343252802397], [79.01819839683871, 14.214987168333762], [79.01610126561869, 14.2125589214722], [79.01291806577964, 14.213221304854397], [79.01254398765876, 14.215629045399083], [79.01324101536012, 14.216668060368143], [79.01641525626744, 14.217038827487833], [79.01815339219868, 14.220152915754356], [79.02027459039152, 14.219826087145787]], [[79.01430610767282, 14.21598809505003], [79.013974124304, 14.213574486052321], [79.01644227872582, 14.213939381788796], [79.0164272670522, 14.215661296171254], [79.01430610767282, 14.21598809505003]]], [[[79.15890271052439, 14.235744762761133], [79.1578741660003, 14.231948073218977], [79.1561087649173, 14.231934450296858], [79.156100381072, 14.232967682060588], [79.15890271052439, 14.235744762761133]]], [[[79.08081715168525, 14.241673877762336], [79.08330905880148, 14.239282967025751], [79.08510637876446, 14.235508775112384], [79.08511798946911, 14.234131189377038], [79.0840703986884, 14.232745108307421], [79.08230506650045, 14.23273093927216], [79.08088116703641, 14.234097177139159], [79.07875693558165, 14.234768933188933], [79.07732717351719, 14.236823934996288], [79.07730093626057, 14.239923487763578], [79.07799543042124, 14.241306753848937], [79.08081715168525, 14.241673877762336]], [[79.07941939593026, 14.2399405418399], [79.07873654760753, 14.237179698970483], [79.07980740952131, 14.235810639139295], [79.08157857938784, 14.235136038234693], [79.08298795332465, 14.235491776664464], [79.0822614604819, 14.237896876981779], [79.08047862681572, 14.239949061837834], [79.07941939593026, 14.2399405418399]]], [[[79.03487272494142, 14.246466182169833], [79.03275127605626, 14.24679311044698], [79.03343952877178, 14.24886524455462], [79.03485483545599, 14.248532496834923], [79.03487272494142, 14.246466182169833]]], [[[79.15734222135066, 14.253987624466102], [79.15557664949606, 14.253973976972201], [79.15521513394681, 14.255004475250859], [79.15733382958366, 14.2550208550457], [79.15734222135066, 14.253987624466102]]], [[[79.13433611307296, 14.260352895735544], [79.13505651347957, 14.2586363931559], [79.13188980703012, 14.257233893041619], [79.12729363801678, 14.257886693092017], [79.12728795076148, 14.258575501477791], [79.13046315579238, 14.258944847066818], [79.1325705147885, 14.260339071953986], [79.13433611307296, 14.260352895735544]]], [[[79.02593195250584, 14.259479903876935], [79.02630303036523, 14.257416525317973], [79.02383138253299, 14.257396052775857], [79.02416947409795, 14.259120895213629], [79.02593195250584, 14.259479903876935]]], [[[79.16833884631482, 14.247872523952326], [79.1676493123628, 14.245800626872528], [79.16517480344415, 14.246126046150408], [79.16516645213835, 14.247159281970644], [79.16621742179505, 14.248200661983413], [79.16833884631482, 14.247872523952326]]], [[[79.25402412381307, 14.264359542622879], [79.25367628017231, 14.26366809908766], [79.25296998363913, 14.26366292339105], [79.25331251783653, 14.265043223880346], [79.25402412381307, 14.264359542622879]]], [[[79.259940406967, 14.275769607134393], [79.258543619579, 14.273692709662487], [79.25783728997732, 14.273687544836484], [79.25853038181144, 14.275414853471725], [79.259940406967, 14.275769607134393]]], [[[79.20494333911822, 14.307738714405287], [79.2060084305145, 14.307057878649346], [79.20708171180605, 14.305343782560454], [79.20746495667295, 14.301557843857237], [79.20676402277986, 14.30086368080716], [79.20428617249964, 14.301533858611188], [79.2032128931973, 14.303247942229667], [79.20317730136072, 14.307725370148603], [79.20494333911822, 14.307738714405287]]], [[[79.22366886501977, 14.307190515106104], [79.21943848421984, 14.30612554018192], [79.21837614562159, 14.30646202105388], [79.21801479067348, 14.307492634306296], [79.2215496033328, 14.307174667928251], [79.22260110773983, 14.30821585726744], [79.22401395589232, 14.308226418652978], [79.22366886501977, 14.307190515106104]]], [[[79.28081651670885, 14.317255343711706], [79.28011004276362, 14.317250229691773], [79.27975155884332, 14.317936534686558], [79.2804580348013, 14.317941650012106], [79.28081651670885, 14.317255343711706]]], [[[79.19144005776528, 14.449543302801358], [79.19149851992914, 14.442310667099346], [79.18586898955614, 14.439167511011338], [79.18552395400248, 14.438131559765178], [79.18236285163154, 14.435696186421533], [79.181672823671, 14.433624277908631], [79.1792046202159, 14.43291636899017], [79.17744883594379, 14.431525082034723], [79.17996458770693, 14.426378045470978], [79.1863841321871, 14.419194408835168], [79.19027408590375, 14.418879837096238], [79.1909864028766, 14.418196431695046], [79.19100863316113, 14.41544113584089], [79.19172371317127, 14.414413314312132], [79.19278660654615, 14.414077019838235], [79.19920261776095, 14.407237351953812], [79.20026823123311, 14.406556604297517], [79.20344849042542, 14.40658081582408], [79.20520428340609, 14.407971908043441], [79.20662049696222, 14.407638230289104], [79.20663150824048, 14.40626056932609], [79.20488122725283, 14.404180658097316], [79.20525386528547, 14.401772437384958], [79.20952709695543, 14.397671618036327], [79.21168011004552, 14.393554672764987], [79.21559151873022, 14.39048428885348], [79.2166788756464, 14.387048109982699], [79.21845920086473, 14.385339335361952], [79.2198752574515, 14.385005558777234], [79.22272914800506, 14.381582626911078], [79.22840410052446, 14.378869669685656], [79.23052675463228, 14.378541112555718], [79.23338852065822, 14.374084758717359], [79.2376364276575, 14.3730831009335], [79.2404979805891, 14.368626635119679], [79.24298728798237, 14.366578462247857], [79.2479845328041, 14.360071051348381], [79.25116956763394, 14.359405696352727], [79.2540226553671, 14.3559822886299], [79.2589900584352, 14.353263269422321], [79.26326139771548, 14.349161246223433], [79.26609827084094, 14.347804223035661], [79.26718724724815, 14.344023260796149], [79.27004253443779, 14.34025517758222], [79.27007688343427, 14.335777600073637], [79.2686770466904, 14.334045148673818], [79.26833964911776, 14.331975997717002], [79.26976852862447, 14.329919728870243], [79.27194080236329, 14.32304657599841], [79.27088370741511, 14.322694431919652], [79.26981869721779, 14.323375571796854], [79.26944960948693, 14.325439573563068], [79.26659188428569, 14.329552102745087], [79.26650982770683, 14.340229385877105], [79.26400245717905, 14.344688861887402], [79.26258138531072, 14.345711794800483], [79.25869799071371, 14.345338861492184], [79.25726091262362, 14.348428317900499], [79.25157634473497, 14.352519801727373], [79.24839408855436, 14.352840749122116], [79.24484512262178, 14.354881156339202], [79.23919519729704, 14.354494799469046], [79.23814611130909, 14.353109231253944], [79.23852094117755, 14.350356474708477], [79.24177302065327, 14.341080643740327], [79.24356082075133, 14.338338338187025], [79.24466617918496, 14.332490967261448], [79.24788023878453, 14.328036935084983], [79.24929590218753, 14.327702934832843], [79.25034763363544, 14.328744025180983], [79.25211654878004, 14.328412611706735], [79.25249646662807, 14.324970951170274], [79.250395691619, 14.322544361122137], [79.24837241846463, 14.310129411588917], [79.23962777657832, 14.299042580961736], [79.23858963365116, 14.296279339990111], [79.2308462677926, 14.29277744156852], [79.22839282103969, 14.290348085383576], [79.22592862741227, 14.28929639872088], [79.22383385695538, 14.286180793625599], [79.21712349306345, 14.286130622974847], [79.20729457764648, 14.278479125446998], [79.20271713595545, 14.276722426658242], [79.20061733436059, 14.274295500783063], [79.19744990577128, 14.272893799469275], [79.1936036754792, 14.268042538598014], [79.1893824644476, 14.265943879661078], [79.18623452066743, 14.262131141334352], [79.18519717216493, 14.259367755070503], [79.18379293294592, 14.258323753529615], [79.18203006167077, 14.257965882919683], [79.18061203430632, 14.258643938355572], [79.1788298091244, 14.260696943978546], [79.17881874496372, 14.262074600580409], [79.18092924545253, 14.26312402215396], [79.18410744950499, 14.263148255733116], [79.18691048972168, 14.265925086063984], [79.18689947042915, 14.267302748264024], [79.1858317772973, 14.26832793114797], [79.18406606561699, 14.268314481266737], [79.18230864191781, 14.267267774414334], [79.17771505691886, 14.267577125999086], [79.17595767371242, 14.26653037638193], [79.17421140273665, 14.264105962990364], [79.1706856276393, 14.26339006081065], [79.1657668628265, 14.260252362375535], [79.15658281282984, 14.260525956506974], [79.1551787200938, 14.259481801318834], [79.1530543757068, 14.260154215778032], [79.14811628155223, 14.259427048346264], [79.1460285215149, 14.255622094851379], [79.14285331045262, 14.25525295914838], [79.14072333904244, 14.256614078115396], [79.14105951882516, 14.258683272681818], [79.14740441253177, 14.260110377766866], [79.14951190479415, 14.261504466638646], [79.15304315545048, 14.261531852478806], [79.15937985464758, 14.263991887818346], [79.16327266531385, 14.262988620481249], [79.16713760661077, 14.265429403636809], [79.16995712272286, 14.266139938152662], [79.17593549987366, 14.26928568365191], [79.18546484722332, 14.27004731822412], [79.18863214423621, 14.271449165870344], [79.19458901009554, 14.277349822485357], [79.20373290424479, 14.282241114087354], [79.20582461652694, 14.285701279332667], [79.20828865411535, 14.286753159178629], [79.21776745742307, 14.294057589916294], [79.22376356530064, 14.295135761636573], [79.22657289884874, 14.297223376589233], [79.2325583905449, 14.29967903346194], [79.23991662390121, 14.307311383151244], [79.24304466719732, 14.313878973920954], [79.2433175128559, 14.324214325903197], [79.24259225938451, 14.326620068353739], [79.23542770432717, 14.339311307609327], [79.23431396172474, 14.346191867731676], [79.23251517632657, 14.350311768912913], [79.23143911479804, 14.352370393012741], [79.22788190377867, 14.355443791815897], [79.2267894982566, 14.359568909011307], [79.22572961929689, 14.35956097338214], [79.22538718468928, 14.35818064644158], [79.22752590634343, 14.355785570169152], [79.22719972760247, 14.352338720795514], [79.22404734387801, 14.348870715360825], [79.22123473364746, 14.347127427372108], [79.22054178614407, 14.345400027283024], [79.21808523729034, 14.34331494086823], [79.21774286351673, 14.341934609328808], [79.21529183028737, 14.3391606630171], [79.21176743907941, 14.338100803530798], [79.20820750716902, 14.34151832300443], [79.20572645671378, 14.342532879125573], [79.20358217981159, 14.345616581783158], [79.20038903073191, 14.347314551308367], [79.20033675867307, 14.353858449405706], [79.19924387499302, 14.357983382501533], [79.197460905911, 14.360036439312728], [79.19566133856375, 14.364155965158995], [79.19246232990803, 14.366542615144233], [79.18960269881255, 14.3706539807256], [79.18180777402941, 14.37334970376166], [79.1779186226727, 14.373664228357331], [79.17436879480256, 14.375703463265616], [79.16836256605545, 14.375657052596804], [79.16730825898942, 14.374960029407196], [79.16341627616548, 14.37561871773475], [79.15842486659398, 14.381090788874431], [79.1548832542969, 14.382096477005362], [79.15203408772405, 14.384829656880015], [79.14988015156571, 14.38894594271449], [79.14703935732007, 14.390645830426974], [79.14667466476224, 14.392020677625428], [79.14311006202469, 14.395781388855552], [79.14201871158755, 14.399561492160547], [79.14268549195744, 14.404388690737116], [79.14088736914728, 14.408163221340292], [79.1412064754786, 14.41229883317624], [79.14611364936997, 14.417159376011771], [79.15063355254368, 14.426149918680363], [79.15628768796424, 14.426194178314478], [79.15875005681141, 14.427591121247929], [79.15943136263712, 14.43069628723116], [79.15799513554005, 14.433440491915398], [79.15550150805116, 14.435831985724459], [79.15584072302318, 14.437556773563742], [79.15724866136138, 14.438256638232025], [79.16008155118442, 14.437589912994698], [79.16396333724163, 14.438309036200785], [79.17351653089848, 14.437005535786364], [79.17738996564503, 14.438757667786772], [79.18056784201963, 14.439126650173826], [79.18513424270313, 14.442606171398936], [79.18653115974683, 14.444683516536514], [79.18686225091176, 14.44744151911187], [79.19037698814999, 14.449879570400467], [79.19144005776528, 14.449543302801358]], [[79.15983001775543, 14.425188554699613], [79.15877835815343, 14.424147066172122], [79.15915437087197, 14.421394578421777], [79.16093821125918, 14.419341919324292], [79.16519843777118, 14.416964077475123], [79.16556871509553, 14.41490038145259], [79.1687996452433, 14.408725732594132], [79.17271464802745, 14.405311753243895], [79.17664631883811, 14.399831235825573], [79.17989064922621, 14.391934313618439], [79.1845174078737, 14.38783669495527], [79.19166990693456, 14.377214036497946], [79.19451577763625, 14.37482472292428], [79.19805440811749, 14.37416282079432], [79.2069228824233, 14.369752492412829], [79.20904271516669, 14.369768538289305], [79.20974384525371, 14.370462716504193], [79.20971369230445, 14.374251301664556], [79.2082867219079, 14.375962689671695], [79.20754165184698, 14.380779166118492], [79.20503814063261, 14.384548986510909], [79.20430946725685, 14.387298945975965], [79.2025262744322, 14.389352014472887], [79.19965266609644, 14.395185553309316], [79.19324537369579, 14.400992043197602], [79.19002354790297, 14.406133886353677], [79.1857498226898, 14.410234289658602], [79.18220222325652, 14.411929166219869], [79.17721310468433, 14.417057167840365], [79.17082990752348, 14.419763225312105], [79.16583754269811, 14.425235338890987], [79.16441836271555, 14.425913157819762], [79.15983001775543, 14.425188554699613]], [[79.18108904442, 14.418464794770742], [79.18253326156012, 14.41468717023825], [79.18573032227015, 14.412645167588003], [79.1907163801588, 14.407861361952712], [79.19429711712125, 14.402033386079212], [79.20141938595927, 14.39519900365392], [79.2060816289965, 14.386623522902319], [79.20645145367358, 14.384559707897889], [79.20895494313643, 14.38078986980756], [79.20933844023061, 14.377003962183602], [79.21112694426262, 14.374261987637716], [79.2111598120204, 14.370128982381203], [79.20940698498548, 14.368393543295236], [79.20587120642762, 14.368711213786787], [79.19700275989295, 14.373121505490817], [79.19311083610906, 14.373780696520894], [79.18884617151701, 14.376848006767604], [79.18673185015152, 14.376142947616337], [79.18674573493199, 14.374420885742456], [79.19065152829836, 14.372039737001097], [79.19351392759567, 14.367583945130326], [79.19742781078587, 14.364169416918624], [79.1992301023259, 14.359705458681335], [79.20065701668594, 14.357994119078588], [79.2006735285233, 14.355927625706585], [79.20174987534315, 14.353869176452163], [79.20143784140038, 14.348700257438626], [79.20356845265265, 14.347338663874158], [79.20713402802512, 14.343232400186816], [79.20890582054278, 14.3425569123019], [79.21175378191104, 14.339822894454588], [79.21316681946868, 14.339833543252759], [79.21527547249723, 14.341227175898325], [79.21560965104749, 14.343640765580153], [79.21382694572014, 14.34569397846888], [79.21381329674387, 14.347416070235836], [79.22262880757121, 14.349548964705916], [79.22578388815242, 14.352672566988995], [79.22576489733021, 14.35508350970407], [79.22434089233825, 14.356450605199125], [79.22325928881799, 14.359198018739141], [79.22395228778072, 14.360925416261122], [79.22571061839055, 14.361971914627915], [79.22712380559535, 14.361982496264448], [79.22819182909606, 14.360957165107358], [79.22892822149461, 14.357173820140718], [79.23142559380467, 14.354092500336353], [79.23354530746575, 14.354108310018532], [79.23953233131537, 14.356563961674935], [79.24447840978651, 14.356600658510429], [79.25440264113554, 14.35254063461646], [79.25902732064338, 14.348441296428028], [79.25903264268523, 14.347752442975581], [79.26045108350353, 14.347073961800822], [79.26256810875879, 14.347433931906762], [79.26220420325704, 14.34880905194324], [79.25900070619387, 14.35188556306197], [79.25403600548819, 14.354260160619061], [79.25153623771367, 14.357686178925146], [79.24728598069512, 14.359032551791108], [79.23944613571054, 14.367585488369272], [79.2369378937633, 14.37204457275578], [79.23198066744338, 14.373385363814453], [79.22982824218175, 14.377502565651174], [79.2277055978012, 14.377831117544975], [79.22132129146229, 14.380883167391389], [79.21846739168946, 14.384306081008965], [79.21598314474083, 14.385665109567505], [79.21453697528034, 14.389787451884118], [79.2102694809088, 14.393199559751274], [79.20847254456649, 14.396974752673684], [79.2042020661053, 14.400731137518054], [79.20275555826257, 14.404853366471919], [79.19992592103569, 14.405176255486541], [79.19815082743855, 14.406196025871001], [79.18925010742566, 14.41439435399974], [79.18817329481409, 14.41645268913313], [79.1853407220664, 14.41711979438899], [79.1828531376871, 14.418822815678828], [79.18108904442, 14.418464794770742]], [[79.1607599055669, 14.397985969805445], [79.16046862900322, 14.390406270917719], [79.16153988896338, 14.389036887315935], [79.16330652294835, 14.389050616709614], [79.1647085769789, 14.390439221584803], [79.1646776209529, 14.394227705555515], [79.16287713192902, 14.398346867619495], [79.16146094605394, 14.398680282482562], [79.1607599055669, 14.397985969805445]], [[79.26795201043232, 14.336450993806316], [79.26865060739641, 14.337489437165928], [79.26794142927953, 14.337828708519757], [79.26795201043232, 14.336450993806316]], [[79.23609308539297, 14.299360834071225], [79.23575331918171, 14.297636094779266], [79.23645971510882, 14.297641333650695], [79.23749783512291, 14.30040458135575], [79.23609308539297, 14.299360834071225]], [[79.22342660234064, 14.293066594011274], [79.22237786160693, 14.291680993231902], [79.22450238429175, 14.291007972336695], [79.22626021230748, 14.292054409975925], [79.22659990121778, 14.293779154298496], [79.22342660234064, 14.293066594011274]]]]}}, {"type": "Feature", "properties": {"depth_class": 3, "depth_lo_m": 2.0, "t_s": 45900.6317029622}, "geometry": {"type": "MultiPolygon", "coordinates": [[[[79.01430610767282, 14.21598809505003], [79.0164272670522, 14.215661296171254], [79.01609225821912, 14.213592070037937], [79.01361809590493, 14.213915935883495], [79.01430610767282, 14.21598809505003]]], [[[79.0808346141494, 14.239607505369005], [79.08262034885722, 14.23721092120123], [79.08263778922321, 14.235144545846437], [79.07980740952131, 14.235810639139295], [79.07873654760753, 14.237179698970483], [79.07906923201335, 14.239593305729896], [79.0808346141494, 14.239607505369005]]], [[[79.22659990121778, 14.293779154298496], [79.22626021230748, 14.292054409975925], [79.22450238429175, 14.291007972336695], [79.22237786160693, 14.291680993231902], [79.22272293129534, 14.292716896514193], [79.22448346486397, 14.29341892585952], [79.22659990121778, 14.293779154298496]]], [[[79.23749783512291, 14.30040458135575], [79.23645971510882, 14.297641333650695], [79.23575331918171, 14.297636094779266], [79.2367914301707, 14.300399344577043], [79.23749783512291, 14.30040458135575]]], [[[79.26794142927953, 14.337828708519757], [79.26865589581733, 14.336800579551163], [79.26795201043232, 14.336450993806316], [79.26794142927953, 14.337828708519757]]], [[[79.18356268383458, 14.41848384582531], [79.1853407220664, 14.41711979438899], [79.18817329481409, 14.41645268913313], [79.18925010742566, 14.41439435399974], [79.19815082743855, 14.406196025871001], [79.203111675668, 14.404511640082369], [79.2042020661053, 14.400731137518054], [79.20847254456649, 14.396974752673684], [79.2102694809088, 14.393199559751274], [79.21453697528034, 14.389787451884118], [79.21526827460981, 14.386693030429491], [79.21669527504073, 14.384981603489946], [79.21846739168946, 14.384306081008965], [79.22132129146229, 14.380883167391389], [79.2277055978012, 14.377831117544975], [79.22982824218175, 14.377502565651174], [79.23198066744338, 14.373385363814453], [79.2369378937633, 14.37204457275578], [79.23944613571054, 14.367585488369272], [79.24371809216586, 14.363483893584071], [79.24515009769577, 14.361083402632792], [79.24728598069512, 14.359032551791108], [79.25153623771367, 14.357686178925146], [79.25403600548819, 14.354260160619061], [79.25900070619387, 14.35188556306197], [79.26220420325704, 14.34880905194324], [79.26256810875879, 14.347433931906762], [79.26045108350353, 14.347073961800822], [79.25903264268523, 14.347752442975581], [79.25902732064338, 14.348441296428028], [79.25440264113554, 14.35254063461646], [79.24447840978651, 14.356600658510429], [79.23953233131537, 14.356563961674935], [79.23354530746575, 14.354108310018532], [79.23142559380467, 14.354092500336353], [79.22892822149461, 14.357173820140718], [79.22819182909606, 14.360957165107358], [79.22712380559535, 14.361982496264448], [79.22571061839055, 14.361971914627915], [79.22395228778072, 14.360925416261122], [79.22325657091271, 14.359542438496076], [79.22434089233825, 14.356450605199125], [79.22576489733021, 14.35508350970407], [79.22578388815242, 14.352672566988995], [79.22262880757121, 14.349548964705916], [79.21381329674387, 14.347416070235836], [79.21382694572014, 14.34569397846888], [79.21560965104749, 14.343640765580153], [79.21527547249723, 14.341227175898325], [79.21316681946868, 14.339833543252759], [79.21175378191104, 14.339822894454588], [79.20890582054278, 14.3425569123019], [79.20713402802512, 14.343232400186816], [79.20356845265265, 14.347338663874158], [79.20143784140038, 14.348700257438626], [79.20174987534315, 14.353869176452163], [79.2006735285233, 14.355927625706585], [79.20065701668594, 14.357994119078588], [79.1992301023259, 14.359705458681335], [79.19742781078587, 14.364169416918624], [79.19351392759567, 14.367583945130326], [79.19065152829836, 14.372039737001097], [79.18674573493199, 14.374420885742456], [79.18673185015152, 14.376142947616337], [79.18884617151701, 14.376848006767604], [79.19311083610906, 14.373780696520894], [79.19700275989295, 14.373121505490817], [79.20693386165384, 14.368374826818298], [79.20940698498548, 14.368393543295236], [79.21081198342802, 14.369437478254623], [79.21112694426262, 14.374261987637716], [79.20933844023061, 14.377003962183602], [79.20859338613667, 14.381820443753261], [79.20645145367358, 14.384559707897889], [79.2060816289965, 14.386623522902319], [79.20141938595927, 14.39519900365392], [79.19429711712125, 14.402033386079212], [79.1907163801588, 14.407861361952712], [79.181818141799, 14.415714958858237], [79.18108904442, 14.418464794770742], [79.18356268383458, 14.41848384582531]], [[79.2327170634146, 14.36960200819253], [79.22992038903176, 14.365792263907458], [79.23103984426294, 14.358222919264161], [79.23211053604868, 14.356853144560832], [79.23739641215559, 14.358614737602679], [79.24198923536859, 14.358648862809062], [79.24339704010568, 14.35934819202995], [79.24303299307536, 14.360723265854777], [79.2405491413508, 14.362082601800955], [79.23663046897103, 14.36618676749647], [79.2348369245588, 14.369617823015881], [79.2327170634146, 14.36960200819253]]]]}}, {"type": "Feature", "properties": {"depth_class": 4, "depth_lo_m": 3.0, "t_s": 45900.6317029622}, "geometry": {"type": "Polygon", "coordinates": [[[79.2327170634146, 14.36960200819253], [79.22992038903176, 14.365792263907458], [79.23139854643323, 14.357536714196826], [79.23317040593709, 14.356861050193084], [79.23739641215559, 14.358614737602679], [79.24304643182639, 14.359001148691702], [79.24303299307536, 14.360723265854777], [79.2405491413508, 14.362082601800955], [79.23663046897103, 14.36618676749647], [79.23554894762509, 14.368934246877618], [79.2348369245588, 14.369617823015881], [79.2327170634146, 14.36960200819253]]]}}]}