{"type": "FeatureCollection", "features": [{"type": "Feature", "properties": {"depth_class": 1, "depth_lo_m": 0.3, "t_s": 28800.563486876792}, "geometry": {"type": "MultiPolygon", "coordinates": [[[[79.11680598822896, 14.245060370735448], [79.11928619638952, 14.244046654323691], [79.12038253035311, 14.239577757017946], [79.11934608875642, 14.236814188690584], [79.11688309375461, 14.235761499593597], [79.11509770070275, 14.238158386857577], [79.11435722443237, 14.242285636229639], [79.11680598822896, 14.245060370735448]]], [[[79.08311124692521, 14.262701866715389], [79.08382329409305, 14.26201875442241], [79.08384366507974, 14.25960798643374], [79.08279307445079, 14.258566284081496], [79.07961220288733, 14.258885102773775], [79.07641380029911, 14.261270241517305], [79.0764079571375, 14.261959029316117], [79.07817642938427, 14.26162887622098], [79.08028342932344, 14.263023526604991], [79.08311124692521, 14.262701866715389]]], [[[79.09608390371599, 14.273827306191706], [79.09609548026918, 14.27244971601915], [79.09468874945868, 14.271749627605095], [79.09291440660928, 14.272768690055216], [79.09360907633973, 14.274151931530394], [79.09608390371599, 14.273827306191706]]], [[[79.10450435754795, 14.280438483608764], [79.10522217447112, 14.279066508812338], [79.1045303004245, 14.277338892001142], [79.10206120656878, 14.27697480458272], [79.1013462672194, 14.278002370069425], [79.1016791995121, 14.28041597495347], [79.10450435754795, 14.280438483608764]]], [[[79.17532003943045, 14.43254191035027], [79.1792382167145, 14.428783457187121], [79.17960280374783, 14.427408547151686], [79.18173712364144, 14.42570285185216], [79.18317301626642, 14.422958460695352], [79.18566622402837, 14.420566619999972], [79.1870881050176, 14.419544250213356], [79.19133144529272, 14.419232375969312], [79.19171538127958, 14.415446550835949], [79.19919432462659, 14.40827059337836], [79.2009694320131, 14.407250816672493], [79.20238288473061, 14.407261578943032], [79.20484265088088, 14.409002466935389], [79.2066094845181, 14.409015891083484], [79.20732172268386, 14.408332426402694], [79.20768884521054, 14.406613031331451], [79.20559896018426, 14.40280836688587], [79.20987220834371, 14.398707543186212], [79.21238405595884, 14.393904434658308], [79.2162927282811, 14.391178456301311], [79.21738281198371, 14.387397855712232], [79.21880707302697, 14.386030832915196], [79.22057919390274, 14.385355294880455], [79.22343035771878, 14.382276773019914], [79.2283959585809, 14.379902930103409], [79.23158130772146, 14.379237878454017], [79.23373372323205, 14.375120659464887], [79.23727231417062, 14.374458157836823], [79.23940570632293, 14.372751825308484], [79.2422672217472, 14.368295333504486], [79.24689513470493, 14.363851875225611], [79.24832979138085, 14.361106937172208], [79.25258008504893, 14.359760549524854], [79.25543315848955, 14.356337122986204], [79.26040055637306, 14.35361807323313], [79.26325077810907, 14.350538956028371], [79.26573173436635, 14.34952377873026], [79.26751139985409, 14.347814553808215], [79.26860035337896, 14.344033582419529], [79.27109706554683, 14.340951763153667], [79.2711366758059, 14.335785324824545], [79.269752680645, 14.331986304004294], [79.27263147767493, 14.325118295820495], [79.27688360244564, 14.323426945018014], [79.27760323334795, 14.321709916493452], [79.27690200386733, 14.321015929825014], [79.26842156990473, 14.321298696803323], [79.26776264324073, 14.31509381911203], [79.26498440567202, 14.30887347875817], [79.2586556296435, 14.305038273715764], [79.25264568035266, 14.305683067982555], [79.2508662858347, 14.307392212012823], [79.24945342238996, 14.307381810792354], [79.24805390863959, 14.305649271659878], [79.24771404539707, 14.303924538814686], [79.24419799832991, 14.301831927610337], [79.24209750676366, 14.2994052943525], [79.24036097484294, 14.295603561403635], [79.23754882938394, 14.293860521112297], [79.23580166822038, 14.29143646325967], [79.2319354395617, 14.288996661372238], [79.23194082105455, 14.288307814517596], [79.2340599179762, 14.288323548759363], [79.24004796865648, 14.290434576267675], [79.24641069273596, 14.289792660630173], [79.24924685450362, 14.288435759290657], [79.25351432576029, 14.28467819872736], [79.26589681038804, 14.282013134560437], [79.2669695284693, 14.28029869899356], [79.26874331227553, 14.27927825383253], [79.26700642337849, 14.275476675974186], [79.26065996588315, 14.274052620760344], [79.25786112316194, 14.270587686491005], [79.25575276856058, 14.269194469434069], [79.25469329686918, 14.269186711393164], [79.25361790075804, 14.271245516543981], [79.25185210100095, 14.271232566225253], [79.24764082028776, 14.267757163164616], [79.24304182038433, 14.268756636333185], [79.24126001284407, 14.270810164126706], [79.24230612622792, 14.272540111989187], [79.24476490670511, 14.274280470700134], [79.24508338126805, 14.27876061378327], [79.24683323516288, 14.280840179678108], [79.24398113493268, 14.284263617243166], [79.2429189262571, 14.284600224402359], [79.23869418194488, 14.282846778640483], [79.23410559434576, 14.282468342095651], [79.2323504807873, 14.28107754232145], [79.22917194102583, 14.281053922787075], [79.22602847876766, 14.276552767022961], [79.22213557847654, 14.277557064590154], [79.21683812721281, 14.277517457495046], [79.21366509679889, 14.276804796083796], [79.21050297420369, 14.274714415525194], [79.2055505947556, 14.27571047493644], [79.20414888509572, 14.274322153182101], [79.20418710030798, 14.269500291578366], [79.20209007060579, 14.266728964840159], [79.19679293069083, 14.266688941693998], [79.19399523352519, 14.263223378431515], [79.18976860337986, 14.261813568289766], [79.18871745728353, 14.26077227287374], [79.18803320817423, 14.258011578045034], [79.18313908676484, 14.251774484819107], [79.18067555856277, 14.250722400411314], [79.17857345967046, 14.248639746058727], [79.17329621252654, 14.246188356232585], [79.1711803548137, 14.245827714921852], [79.16836941317227, 14.24408398562347], [79.16449087125105, 14.243365319949206], [79.16133528829779, 14.240585567499936], [79.16038475661524, 14.227145362421219], [79.1589864084177, 14.22541242693552], [79.15686798690155, 14.225396095067225], [79.15543614648841, 14.227796071131706], [79.15260876214182, 14.228118655644048], [79.15189701514774, 14.228802013680765], [79.15256116792784, 14.233973624666612], [79.15467127260291, 14.23502323511254], [79.15606963455383, 14.23675619772288], [79.15602769291604, 14.241922353405805], [79.15919997187203, 14.242635705001614], [79.16024531109235, 14.244365927998349], [79.1595223584931, 14.246426948049395], [79.15562703414916, 14.247774597695344], [79.15313568674887, 14.250166344688234], [79.15207636376574, 14.25015814123202], [79.15210440351314, 14.246714047775757], [79.15033889345818, 14.24670036835138], [79.14714411219093, 14.24874216292335], [79.14535326035117, 14.251828116704454], [79.14181653548177, 14.252489449751451], [79.13933347633993, 14.253847807586855], [79.11567808760867, 14.253317660716018], [79.11039872769042, 14.251209349974673], [79.10477788518335, 14.247720529284969], [79.09384935434299, 14.24556694309144], [79.08713778338328, 14.245857655281306], [79.08397743690988, 14.243765783985268], [79.08291818604802, 14.243757277277567], [79.08293272458654, 14.242035298481827], [79.08686593495774, 14.236211719666242], [79.08620040168589, 14.231384507022753], [79.08550007449838, 14.230690054556188], [79.08302863024467, 14.23067023184836], [79.07841843012413, 14.233044116661254], [79.07592363863549, 14.235779374174793], [79.0727518579971, 14.235064959010105], [79.0702540547874, 14.238144538771458], [79.06672333725412, 14.238115972889508], [79.06565532461487, 14.239140570073069], [79.06563185741773, 14.241895708586044], [79.06667935972969, 14.243281860762561], [79.06843596801666, 14.244329333987551], [79.07302895551835, 14.244022048669288], [79.07372927546771, 14.24471653738797], [79.07336450149946, 14.246091261990896], [79.06804478332641, 14.24880358008652], [79.06346345778749, 14.247733189643844], [79.06170979371635, 14.246341288302167], [79.057093188801, 14.249403470467378], [79.05214111243048, 14.250396327917814], [79.04827788720128, 14.24795386181822], [79.04475596309132, 14.246891788096999], [79.04548880918922, 14.243798081567522], [79.0448152761682, 14.240004029150148], [79.04305289622472, 14.239645175144714], [79.04056358827168, 14.241691223859608], [79.0370447856138, 14.240284666308979], [79.03456734719688, 14.240953100836652], [79.02885546372758, 14.24813859432922], [79.02919957145302, 14.249174664958373], [79.03130610668553, 14.250569696753228], [79.03196148999164, 14.256430068927038], [79.03018406541491, 14.257793029281848], [79.0284185952044, 14.257778436996752], [79.02772438574227, 14.256395060362115], [79.02596791976973, 14.255347300214279], [79.023496294977, 14.255326827106435], [79.02171583402625, 14.257034101759933], [79.02170381892509, 14.258411632740119], [79.02345127789235, 14.260492573724974], [79.02273006898824, 14.262208631635295], [79.01954014377404, 14.263559777402595], [79.01424967128587, 14.262826945558189], [79.01316924887273, 14.26522878338829], [79.01104459391166, 14.265899871516392], [79.01034745670546, 14.264860835794925], [79.0071786329268, 14.263801144606964], [79.00719074097915, 14.262423626426715], [79.01149131618337, 14.25522702245362], [79.01258074253687, 14.251792043499023], [79.0119047503307, 14.248342349361659], [79.00733895976313, 14.245549015012418], [78.99780305381799, 14.245813593677951], [78.9960498712953, 14.244421263056168], [78.99607114764753, 14.242010618658526], [78.99928511894484, 14.237904734967055], [79.01276157699061, 14.231129164230879], [79.01561303376309, 14.228053207548138], [79.01777934697716, 14.22256066891458], [79.02096866992005, 14.221209469120577], [79.02168672354301, 14.21983777971867], [79.02137862153631, 14.214669099825917], [79.01716933073648, 14.211534556449934], [79.01363913874474, 14.211505259444257], [79.01222104809472, 14.2121822902303], [79.01114392998348, 14.214239775182309], [79.01144577628317, 14.220097201510507], [79.00964143385498, 14.22455946474122], [79.00431261467138, 14.228303473527928], [78.9968714154314, 14.231340824747647], [78.99152702683564, 14.23680638316677], [78.9897251844069, 14.24092404487242], [78.99002336585906, 14.247125794751211], [78.99282051012811, 14.250248965827824], [78.99703917084926, 14.252350845828232], [79.00127308682146, 14.252730768176948], [79.0044568690848, 14.252068618780706], [79.00515697343542, 14.252763284743247], [79.00478874974014, 14.254482227879606], [79.00265508858652, 14.256186388122645], [78.99835423223128, 14.26338279311323], [78.99831774061907, 14.267515324456962], [79.00005590200148, 14.270629550296372], [79.00251247847864, 14.272372179613129], [79.01168734719896, 14.273137751294758], [79.01381509084207, 14.272122285696032], [79.01911480646716, 14.271822009227211], [79.02195174424733, 14.270467953763196], [79.0268923243889, 14.270853332397303], [79.03152767980929, 14.265725541377519], [79.03612105955709, 14.265419029452612], [79.03718932760546, 14.264394599482827], [79.03756628069705, 14.261642420212727], [79.04291036703077, 14.256175772569064], [79.04467287154608, 14.256534643549106], [79.04427819966182, 14.261353171445535], [79.04567576957686, 14.263086693205343], [79.04920683124946, 14.263115619782484], [79.05169337543558, 14.261413893171708], [79.0559306343773, 14.26144848788895], [79.05839057780852, 14.262846194241646], [79.06544687794242, 14.263592400861803], [79.06757434963585, 14.2625764118242], [79.06936042429413, 14.26017997170505], [79.07574849005579, 14.25644302792121], [79.08988422169548, 14.255179000474334], [79.09658162816761, 14.256610235840105], [79.10044849689822, 14.25870760236566], [79.10324457666187, 14.262174085604613], [79.10535176455167, 14.263568534020168], [79.1049900095297, 14.264598925542302], [79.1014559243272, 14.264915221078036], [79.10144727122739, 14.265948417602655], [79.10533161630913, 14.265979331496057], [79.10813360350723, 14.268756975613211], [79.11131175503799, 14.268782189217884], [79.1137578547743, 14.271901380979862], [79.11587952183535, 14.271573746830917], [79.1166058259362, 14.26916851958206], [79.11449564316018, 14.268118557770823], [79.11310033433007, 14.26604096960662], [79.12299069890997, 14.265774649217596], [79.12369124957817, 14.266469017246687], [79.12226162226628, 14.268524309146345], [79.11942515233487, 14.2698796385981], [79.11798402108207, 14.273312504681224], [79.11550633650198, 14.273981763711902], [79.110872473422, 14.27911140444507], [79.10767690994174, 14.281152565119816], [79.10730936844254, 14.282871755621326], [79.1090607333375, 14.284607787258205], [79.11576777791814, 14.285005399112784], [79.12320402527, 14.282653174159067], [79.12855255022198, 14.276495609298749], [79.12825346754936, 14.26994915898439], [79.13145722757615, 14.266874463875785], [79.13253363973904, 14.26481633833702], [79.1360677394677, 14.264499576134988], [79.14135617668971, 14.265574162730239], [79.14242120941785, 14.264893608564373], [79.1466615729366, 14.264582191156434], [79.15124382908947, 14.26565107105712], [79.15370453062022, 14.267047870705992], [79.15758901091796, 14.267077935386771], [79.16004418211907, 14.269163496500555], [79.16393708296896, 14.268160229022445], [79.16568326032993, 14.27058470757345], [79.1737805644351, 14.27374682077389], [79.17657803266128, 14.27721259741874], [79.18044336799503, 14.279653207852409], [79.1828906089253, 14.282771815514756], [79.18566071443612, 14.28968165933646], [79.18561928577701, 14.294847877852819], [79.1834835887017, 14.29689818950536], [79.18346422401106, 14.29930908739319], [79.18628698693391, 14.299675068263648], [79.18771079398994, 14.298308180079424], [79.1894739857821, 14.298666045677319], [79.19192153599802, 14.30178459468356], [79.19260590008166, 14.304545289913207], [79.19434989165048, 14.307314036489425], [79.1964691229996, 14.307330126254707], [79.1968470567119, 14.304233059212672], [79.19827083984285, 14.30286610411868], [79.20145237214565, 14.30254575466756], [79.20178913363088, 14.304614930115882], [79.20105257524564, 14.308398173844889], [79.2024544491606, 14.309786532569428], [79.20457371316799, 14.309802552804364], [79.20813040368444, 14.306729445794295], [79.20922276651562, 14.302604406972268], [79.21065192354394, 14.300548529447198], [79.21844128246161, 14.29819592912065], [79.2198621975444, 14.297173245265148], [79.22268504627606, 14.297538797684533], [79.22231831460344, 14.299258264813062], [79.22089468471233, 14.300625383969649], [79.21665086053554, 14.301282475957299], [79.21522718625101, 14.30264955548954], [79.21413765075027, 14.306430215060637], [79.21481685944278, 14.30987971785212], [79.21656661412865, 14.311959497025459], [79.21832998184188, 14.312317165859776], [79.22010963645228, 14.310608298958929], [79.22222892866674, 14.310624162693575], [79.22468790817838, 14.312364753587179], [79.22501677086126, 14.315467185014205], [79.22252252186794, 14.318204065193362], [79.21862343882395, 14.319897057268008], [79.21855548666517, 14.328507554737303], [79.2153245380452, 14.33502763612194], [79.21071313534868, 14.337403976371204], [79.20715046280706, 14.341165896879039], [79.20573468046362, 14.341499628257704], [79.20181309906806, 14.345947608948922], [79.19968524483936, 14.346964771517063], [79.1989649451409, 14.34868148294275], [79.19963295367373, 14.353508667265896], [79.1989208891224, 14.354192129259507], [79.19854281529881, 14.357289180779066], [79.19675984674684, 14.359342232320492], [79.1953163288263, 14.36312003017791], [79.19211733316916, 14.365506676992203], [79.19103806598868, 14.367909477153567], [79.18890163770553, 14.36995975001223], [79.18075342775886, 14.372652736731224], [79.1786336010479, 14.372636434434668], [79.1743743866135, 14.3750146432716], [79.16483512134788, 14.374940864776407], [79.16234791541298, 14.376643712640252], [79.1601942537847, 14.380760127017199], [79.1615737037169, 14.384904001140162], [79.16507597169615, 14.388719925113577], [79.16609658784787, 14.393549859524708], [79.1731240672921, 14.398426306885696], [79.17559467610185, 14.398789824954328], [79.17915605717252, 14.395372975816969], [79.18024119376122, 14.392281444315087], [79.1855773960159, 14.387844830538407], [79.18665684052527, 14.3854420771858], [79.18843457618767, 14.384077965982074], [79.1895139686683, 14.381675193156703], [79.19415140430718, 14.376199682469908], [79.19804612956374, 14.375196064446936], [79.20585198015667, 14.37112212698994], [79.20867843993581, 14.371143532054777], [79.20865375409913, 14.374243281653573], [79.20722403071005, 14.376299078587724], [79.2064789362838, 14.381115548786953], [79.2046958172876, 14.383168642665304], [79.2039643936524, 14.386263016755823], [79.20146626923305, 14.38934395401355], [79.19966371017803, 14.3938078961852], [79.19218531900579, 14.40098393473785], [79.19146196574472, 14.403045001475892], [79.18789226829858, 14.407495276833739], [79.18114212341698, 14.411921002173722], [79.17615018189876, 14.417393387676697], [79.1708327178394, 14.419418817283818], [79.16939952436925, 14.421818711293398], [79.16762136310702, 14.423182626240902], [79.16582626555638, 14.426612966399654], [79.16686388092357, 14.429376463542946], [79.17037529032967, 14.432159165546617], [79.17249004852914, 14.432864424021167], [79.17532003943045, 14.43254191035027]], [[79.18322326103426, 14.416759073485386], [79.18324558436404, 14.414003789182763], [79.19000687778772, 14.408200358803283], [79.19466155093022, 14.400658433942777], [79.20071545730134, 14.394849210632357], [79.20323294493004, 14.389357385475748], [79.20537496598627, 14.386618161406608], [79.2057475466777, 14.384209932528655], [79.20788948309158, 14.381470675293071], [79.20863454993035, 14.37665419741931], [79.21042579898555, 14.373567811867037], [79.21044497966224, 14.371156893104109], [79.20904819844586, 14.369079704711906], [79.2072816763792, 14.36906633513224], [79.1973505478415, 14.373813025443066], [79.19452130740571, 14.374135895156023], [79.19096882072347, 14.3765198091341], [79.18669296297263, 14.380964719462684], [79.1845758322915, 14.380604049353146], [79.18282316293613, 14.378868429138569], [79.18178549874663, 14.376104995309705], [79.18321265232859, 14.374393790869375], [79.18995045977574, 14.371345508587494], [79.19244572995522, 14.368609097288756], [79.19281009538183, 14.367234139315816], [79.19708003386083, 14.36347789825793], [79.20104331686206, 14.353863813980903], [79.20109006950234, 14.348008745161813], [79.20321792937531, 14.346991570472856], [79.20678624400189, 14.342540894914382], [79.20855803155271, 14.341865409081201], [79.21211523409369, 14.338792302719694], [79.21423205393882, 14.339152687064022], [79.21633798406106, 14.3408907293321], [79.21666944928563, 14.343648737819581], [79.21488402454314, 14.346046378363747], [79.21558238258984, 14.34708495280668], [79.21840855580459, 14.347106206913264], [79.22157713346121, 14.348507756673106], [79.22614259449685, 14.35198637040076], [79.22683017831514, 14.354402601636385], [79.22504746794864, 14.356455899164125], [79.22396315580488, 14.359547736808945], [79.22536546706668, 14.360936007630382], [79.22713465505112, 14.360604814558352], [79.22822977146197, 14.356135275187343], [79.23108312754198, 14.352712177973888], [79.2336020156147, 14.346875449200878], [79.23475083499521, 14.3355174028016], [79.23759034851797, 14.333816296164212], [79.23832106454806, 14.330721732350867], [79.24189918475801, 14.324892716303996], [79.24233017817042, 14.314907022660087], [79.23885698283233, 14.307303534266323], [79.23675382389172, 14.305221279451375], [79.23428673685537, 14.304514080986184], [79.23148532066715, 14.301393270900599], [79.22901559949202, 14.301030446749058], [79.22410864493011, 14.296171663966224], [79.2212885169716, 14.295461708890063], [79.21598521639798, 14.296110874817785], [79.21459147884435, 14.293689334566796], [79.21036957825092, 14.291590973378906], [79.20756593717574, 14.288814353867823], [79.1980657832679, 14.284264915336353], [79.19738412321813, 14.28115981361529], [79.1931708824661, 14.278027941758914], [79.18931917374975, 14.273865445889959], [79.18615459651883, 14.272119187912695], [79.18051529211274, 14.270698442007065], [79.17627201170502, 14.27135486731989], [79.16430974553373, 14.265752071534116], [79.15478075448908, 14.26498962026481], [79.14914472367659, 14.26322376703502], [79.13184157661082, 14.26308877873293], [79.13112965181224, 14.263772051965153], [79.12724244178959, 14.264085967054088], [79.11912631910545, 14.263333206746461], [79.1131204000784, 14.26363016128796], [79.1096150390279, 14.260502575118002], [79.10431832185226, 14.26046051510522], [79.10187246773944, 14.257341254875396], [79.09906203240276, 14.255596757562433], [79.08954851940454, 14.25310979131721], [79.08530261281439, 14.254109001200572], [79.08283382422957, 14.253744749115258], [79.07540999746286, 14.254718208882279], [79.07008715133601, 14.257774941101054], [79.06655025731258, 14.258435118212294], [79.06582349112112, 14.260840132900947], [79.06475829358338, 14.261520318655956], [79.05840532285235, 14.261124243173763], [79.05664865094695, 14.260076686808], [79.05276747541083, 14.259700603415531], [79.05031056642804, 14.257958458728778], [79.04786555125307, 14.254838740340686], [79.04610898327914, 14.253791118140512], [79.04434352728576, 14.25377664770203], [79.04150690979593, 14.255131015676179], [79.04007371132298, 14.257530118294037], [79.03437343978094, 14.263338162372902], [79.03154263192332, 14.264003618446402], [79.03011525294242, 14.265713870202118], [79.02514476336296, 14.268772403981453], [79.02054832070834, 14.269423075592574], [79.01806450257578, 14.270780053019035], [79.01382716592558, 14.270744762899588], [79.01169943610948, 14.271760230400972], [79.00252462247116, 14.27099466635229], [78.99973015137763, 14.267527185484077], [78.99976357890321, 14.263739028532246], [79.0029930143455, 14.25791123963215], [79.005841946595, 14.255179846756993], [79.0065692982664, 14.252775093292277], [79.0048220609893, 14.250694055058938], [78.99810752205529, 14.251326604945831], [78.99353579351532, 14.249221775488495], [78.99108866885827, 14.24644596244921], [78.9907752213792, 14.241966093433525], [78.99258010025842, 14.237504045523446], [78.99828056639676, 14.231697043485813], [79.00430051936341, 14.229680993212499], [79.01033846893031, 14.22559848929283], [79.0125018621119, 14.220450392887356], [79.01288798868177, 14.216665126175885], [79.012199989193, 14.214592964451], [79.01327409385694, 14.212879856043], [79.0164542866189, 14.212561850093463], [79.01961049818424, 14.214998869272375], [79.0206545941689, 14.21672955816184], [79.02027459039152, 14.219826087145787], [79.01708528512148, 14.221177279800303], [79.0145569074921, 14.22770002491843], [79.01241756368805, 14.230093081673335], [78.99858810882779, 14.236865680807098], [78.99645155470283, 14.238914181464107], [78.9946558574809, 14.24234313424182], [78.99498459045475, 14.245101120829935], [78.99743783276648, 14.247188142643946], [79.00627067537145, 14.246573306724748], [79.00838306355816, 14.247279759537118], [79.01118652796832, 14.249713986885457], [79.01116540013655, 14.252124652031192], [79.00971379968455, 14.25658981554656], [79.00793323773168, 14.258296972301727], [79.00542222983073, 14.262753238452184], [79.0054040507179, 14.264819513368815], [79.00680433835754, 14.266208847811226], [79.00892295377808, 14.266226559202666], [79.01032327334943, 14.267615876733409], [79.01314811814869, 14.267639448318315], [79.01528183283845, 14.265935199376186], [79.018815884071, 14.265620199886602], [79.02377736085505, 14.26359494861887], [79.02733534979173, 14.260524746398177], [79.02910383335109, 14.260194965241816], [79.03336490289276, 14.257474877327475], [79.03622841684951, 14.253021143825038], [79.0397890515295, 14.249606323399496], [79.03945084254875, 14.24788148838237], [79.03698225734487, 14.247516779172535], [79.03591109805095, 14.248885605612541], [79.03588725314727, 14.251640692914146], [79.0337657550944, 14.251967624058311], [79.03273038168872, 14.24920380770431], [79.03167711120774, 14.248506300206678], [79.03169204338047, 14.24678437464062], [79.03632673710511, 14.241656403339006], [79.03808911491151, 14.242015307624984], [79.03948950702818, 14.243404460171066], [79.04197290496084, 14.242047201423153], [79.04373826724843, 14.242061677742806], [79.04407057315834, 14.244475286091037], [79.04333770487602, 14.247568985345193], [79.04403793179299, 14.248263550925971], [79.05002258951285, 14.25037901942264], [79.0524735096488, 14.252809935929715], [79.05565133377036, 14.252835863314376], [79.05633686490503, 14.255252349365445], [79.05844659850986, 14.256302778783713], [79.06021208902075, 14.256317147351988], [79.06340173713072, 14.2549654122061], [79.06589103263289, 14.25291911950629], [79.06625586685182, 14.251544414176951], [79.07121672716492, 14.249518079411995], [79.07618918515931, 14.246114052800978], [79.08114112657374, 14.245120670417755], [79.08818254397087, 14.247588128055588], [79.09348180361305, 14.247286111243696], [79.10476350627478, 14.249442529242993], [79.10932794755672, 14.252578559441652], [79.11250014470056, 14.253292531998497], [79.11531067776815, 14.255036880399352], [79.13296615850311, 14.255175757914943], [79.13684473257814, 14.255894948101341], [79.14215836459704, 14.253869829449098], [79.14852562228438, 14.25254162242524], [79.15876585959165, 14.252620891046272], [79.1587434995716, 14.25537617491228], [79.15590736704772, 14.25673198665497], [79.15730305402113, 14.258809366365073], [79.1678995312433, 14.258546593826765], [79.17458671853737, 14.261353361480772], [79.17635513643586, 14.261022461450796], [79.1792161173912, 14.256566669725734], [79.17922717468647, 14.255189012183537], [79.17817887525904, 14.253803264865592], [79.17676916982794, 14.25344805743238], [79.17115260622425, 14.249271845657153], [79.16726840108278, 14.249242038433966], [79.16233603409786, 14.247826365283736], [79.16271422705553, 14.24472938142711], [79.16765487189036, 14.245111801963338], [79.17046026701183, 14.247544366303783], [79.17292647431003, 14.248252133384723], [79.17502851197044, 14.250334830984809], [79.17714442122573, 14.250695443763545], [79.18241906043676, 14.253491180040692], [79.18556958679837, 14.25695953401548], [79.18729942636342, 14.261450368248415], [79.18939896867903, 14.263877383213522], [79.19572253838743, 14.268058591805024], [79.19852305318119, 14.271179725949143], [79.1995797653303, 14.271532152593123], [79.2002942719961, 14.270504235394679], [79.20205728398304, 14.270861985382377], [79.20238037593221, 14.274653251792504], [79.20412977213854, 14.27673308321585], [79.20976943954393, 14.27815330410754], [79.21151893341367, 14.280233091733635], [79.21854704106502, 14.284763516881428], [79.22559974651541, 14.286193965022935], [79.22980556204874, 14.29035859949574], [79.23929602642463, 14.296284569954725], [79.24103254334956, 14.30008630902499], [79.24873097693035, 14.309443162903177], [79.24904415723871, 14.314612154433561], [79.25008515956206, 14.317030943912913], [79.25075159993082, 14.322202537562417], [79.25319762333916, 14.325665002655107], [79.2524377861176, 14.33254832488005], [79.2545413309055, 14.334630481677687], [79.25522653384782, 14.337391088905644], [79.25697687983458, 14.339470632593239], [79.25940720444937, 14.344999622226483], [79.26081499533032, 14.34569884515546], [79.26364387362653, 14.34537513063183], [79.26650717959478, 14.340573814197892], [79.26694249254773, 14.329899110988434], [79.26837665396376, 14.327153992096438], [79.27015082559095, 14.326133580977036], [79.26941527386899, 14.329917153473021], [79.26798903561028, 14.331628990991684], [79.26797581391396, 14.33335113508931], [79.26972626172862, 14.335430595058055], [79.27005310462357, 14.338877461613977], [79.26932541690799, 14.341627738730729], [79.26718989498548, 14.343678832450854], [79.26645685209762, 14.347117950304966], [79.2636173356431, 14.348819406628573], [79.2593460093094, 14.352921437819019], [79.25473457892834, 14.355298642511858], [79.25152553981066, 14.359063879112973], [79.24763123491168, 14.36006843817433], [79.24441663791339, 14.36452240299767], [79.24121536910147, 14.367254193834608], [79.23763912622357, 14.372738678882996], [79.23268188651663, 14.37407948329147], [79.23052946515439, 14.378196691989144], [79.22734412973863, 14.378861730858493], [79.22237854477021, 14.381235553248922], [79.21952738301587, 14.384314062543426], [79.21775526852632, 14.384989593330436], [79.2156134027879, 14.387728949215786], [79.21488483989421, 14.39047895436614], [79.21097616651475, 14.393204909017623], [79.20882039785931, 14.397666262815141], [79.20419379988246, 14.401764382357689], [79.20381012383523, 14.405550259157435], [79.1992109102368, 14.406204110434373], [79.19422505277876, 14.41098812159322], [79.19102808080085, 14.413030251414442], [79.18817329481409, 14.41645268913313], [79.18498455847347, 14.41746148812581], [79.18322326103426, 14.416759073485386]], [[79.22896342984464, 14.352696347781135], [79.22510717158079, 14.348878652732068], [79.2208896181978, 14.346091517610173], [79.21914503543066, 14.343322901870698], [79.21916952168819, 14.340223126398852], [79.22455791557273, 14.328896968061292], [79.22353884681347, 14.323722727592681], [79.22496262524061, 14.322355610081623], [79.22708744265269, 14.321682600138384], [79.22922845568887, 14.318943037589445], [79.23028814581559, 14.318950935663622], [79.23169027818477, 14.320339149028793], [79.23131006321472, 14.323780742168829], [79.23235359403188, 14.325855168330827], [79.23161472440702, 14.329982973955143], [79.23231042619526, 14.331365925863798], [79.23191398145136, 14.336874048272524], [79.23259080337262, 14.340667955761987], [79.2321997247896, 14.345487229801059], [79.2300313967933, 14.35167100154677], [79.22896342984464, 14.352696347781135]], [[79.26153483398744, 14.343981890193907], [79.2566502392639, 14.336023770613478], [79.25599963138049, 14.328785619113143], [79.25461593067237, 14.324986541450588], [79.25182465189044, 14.320488210513659], [79.25151674756648, 14.314630364314905], [79.25046773546948, 14.313244858681056], [79.25047840423183, 14.311867153967594], [79.2515434040468, 14.311186100681331], [79.25295362967488, 14.311540918854593], [79.25505700704349, 14.313623052912693], [79.26071129239253, 14.31332006390321], [79.25998892014988, 14.31538145878278], [79.26031031296601, 14.319517179856302], [79.26274851882768, 14.32401284485084], [79.26591184340046, 14.3261026563691], [79.2651682776062, 14.330919492842177], [79.2654579658236, 14.339188353673839], [79.26330386486163, 14.34365040532882], [79.26153483398744, 14.343981890193907]], [[79.23549237242294, 14.331045161875304], [79.23518222015775, 14.325531769156127], [79.2341332743775, 14.324146198210437], [79.23452421999164, 14.319326903767115], [79.23313285189356, 14.316561014458074], [79.23423830016354, 14.31071370062339], [79.2376898660249, 14.321072631523757], [79.23691344741218, 14.330022393582574], [79.2361988726998, 14.331050413493928], [79.23549237242294, 14.331045161875304]], [[79.22717395392475, 14.310661104664119], [79.22153605138817, 14.308896772534661], [79.21693613870097, 14.309895627981069], [79.21623786821928, 14.308857067049153], [79.21662640906273, 14.304382257303487], [79.2198106792645, 14.30371724084663], [79.2254457350124, 14.30582601988645], [79.22684506023195, 14.307558672421795], [79.22717395392475, 14.310661104664119]], [[79.2564911775553, 14.31087800689966], [79.25615921866591, 14.308119996612675], [79.25758005802297, 14.307097075616442], [79.25899292583233, 14.307107428344525], [79.26145219938932, 14.308847667100661], [79.26144159985765, 14.31022538024562], [79.26037662947931, 14.310906481867667], [79.2564911775553, 14.31087800689966]], [[79.20318003963159, 14.307380952679216], [79.20284874067949, 14.304622942725437], [79.20465030925233, 14.300158853969826], [79.19793685669815, 14.300452510800433], [79.19616538747745, 14.301127953837655], [79.19546174493485, 14.300778177857246], [79.1954699906152, 14.29974492921572], [79.20324847271756, 14.298770512541116], [79.20429984850692, 14.299811769213555], [79.20747314798881, 14.300524588445837], [79.20707897988477, 14.305688200828053], [79.20423418706567, 14.30807779593493], [79.20318003963159, 14.307380952679216]], [[79.19760836714359, 14.297350083993958], [79.1958506595266, 14.296303445611473], [79.19586439451903, 14.29458136347323], [79.19835589384618, 14.292189182237923], [79.19801916888727, 14.290120005726283], [79.19661468800615, 14.289076052909031], [79.19062445758564, 14.287308398657887], [79.18888063903327, 14.284539643874549], [79.18889441524517, 14.282817566688992], [79.19138583428636, 14.280425449652006], [79.19279848471629, 14.280436176120718], [79.19383874227013, 14.28285513057927], [79.1962889584934, 14.285629208744213], [79.20649275315864, 14.290528463991512], [79.20859275339417, 14.292955359862036], [79.211755089534, 14.295045790428231], [79.21139373023374, 14.296076393164931], [79.2074977180105, 14.297424821646455], [79.20432446073185, 14.296712007638341], [79.19760836714359, 14.297350083993958]], [[79.18880345831754, 14.2941832712773], [79.1884668217326, 14.292114091501166], [79.19058590377632, 14.29213021693224], [79.18986300889442, 14.294191335992116], [79.18880345831754, 14.2941832712773]], [[79.22279054798, 14.284106353614508], [79.21821284103665, 14.282349926440824], [79.21787051349084, 14.280969598979114], [79.22175537088395, 14.280998645721027], [79.22386358107539, 14.282392151186825], [79.22455912140767, 14.283775108695927], [79.22279054798, 14.284106353614508]], [[79.11543469238022, 14.282591795471824], [79.11403069662161, 14.281547405883613], [79.1140450388468, 14.279825401303427], [79.11582509700429, 14.27811737429738], [79.11936511755991, 14.277112084558382], [79.12365988610014, 14.270257452286609], [79.12614321067146, 14.26889929295704], [79.12714851816304, 14.27545129382454], [79.12464801111119, 14.278875873526882], [79.12251199976107, 14.280925591910178], [79.1193222149931, 14.282278114551888], [79.11543469238022, 14.282591795471824]], [[79.25038626401482, 14.278110741787053], [79.24721839621762, 14.27670966134409], [79.2472317212065, 14.274987528154211], [79.2486523684798, 14.273964638693956], [79.25076337225542, 14.275013490867938], [79.25110324225837, 14.276738221038869], [79.25038626401482, 14.278110741787053]], [[79.18894399440796, 14.276618086654853], [79.18083248846011, 14.27517852341772], [79.17978410110996, 14.273792773212318], [79.1801455503188, 14.272762229408498], [79.18684435632714, 14.274191056754484], [79.18895225528887, 14.275584839652934], [79.18894399440796, 14.276618086654853]], [[79.11169070629451, 14.26568538061274], [79.11098158937418, 14.266024184294208], [79.11098445935343, 14.265679783559138], [79.11169070629451, 14.26568538061274]], [[79.02486966558975, 14.259815513522662], [79.02346928688883, 14.2584262753623], [79.0238343829765, 14.25705166957327], [79.02524974876765, 14.256718987499807], [79.02665612323273, 14.25741944787845], [79.0266351478633, 14.259830134118847], [79.02486966558975, 14.259815513522662]], [[79.17285159436248, 14.25755129118452], [79.16792178526775, 14.255791296488235], [79.16758257486559, 14.254066522521164], [79.1661812430417, 14.252678018373137], [79.16619237630343, 14.251300370441443], [79.16901727578524, 14.251322070487552], [79.17077173494289, 14.252713267528325], [79.17111374574846, 14.254093626930455], [79.17464215309211, 14.254465092675346], [79.17639944242447, 14.255511841138421], [79.17639113649282, 14.256545082650876], [79.17532622900512, 14.257225806095892], [79.17285159436248, 14.25755129118452]], [[79.07798377042418, 14.242684332988171], [79.07658895016357, 14.240606588001429], [79.07733591786736, 14.235790750551539], [79.08301700982062, 14.232047816291391], [79.0847794348132, 14.232406375842183], [79.08545364519381, 14.236200399309654], [79.08258836759002, 14.240999275036945], [79.08045533800878, 14.242704224289232], [79.07798377042418, 14.242684332988171]], [[79.07411156974005, 14.241275447603545], [79.07200187570234, 14.240225164061574], [79.07237541171699, 14.237817259513598], [79.07414661281966, 14.237142718633281], [79.0748439992662, 14.238181596465697], [79.0748235646808, 14.240592355998619], [79.07411156974005, 14.241275447603545]], [[79.15890271052439, 14.235744762761133], [79.156100381072, 14.232967682060588], [79.1561087649173, 14.231934450296858], [79.1575210856344, 14.23194534967712], [79.15857195433291, 14.232986751943363], [79.15890271052439, 14.235744762761133]]], [[[79.2304847322683, 14.338930043648427], [79.23084880237361, 14.337554991432343], [79.22978902458603, 14.33754708582744], [79.22942224374073, 14.339266557175161], [79.2304847322683, 14.338930043648427]]], [[[79.23954848484325, 14.354497424224022], [79.24519841184932, 14.35488377274268], [79.24804348062298, 14.352493713277038], [79.25228559056417, 14.352180587744996], [79.2558344568684, 14.35014005613992], [79.25797546342993, 14.34740023127856], [79.25799409917967, 14.34498924515434], [79.25274301463611, 14.338750592808275], [79.25135665970477, 14.335295924158826], [79.25068486175431, 14.330813183063958], [79.24928254165297, 14.329425062315554], [79.24822279150575, 14.329417243371308], [79.24537268748374, 14.332496192094835], [79.24462329124432, 14.338001758357624], [79.24319145672204, 14.340402266631548], [79.2406460068132, 14.34968337039228], [79.2392113514892, 14.352428262034204], [79.23954848484325, 14.354497424224022]], [[79.25196971449763, 14.347356027147336], [79.25375745859935, 14.344613637618673], [79.2548172832803, 14.344621439941669], [79.2558664473653, 14.346006942436375], [79.2554945063724, 14.348415326227], [79.25336147171767, 14.350121847116926], [79.25195101110273, 14.349767005022317], [79.25196971449763, 14.347356027147336]], [[79.24811042499833, 14.343883095675823], [79.24638960562652, 14.338014821730535], [79.24641638578609, 14.334570574341614], [79.24749221408852, 14.332511853989725], [79.24889988618035, 14.333211135349613], [79.25096600186706, 14.340115278044285], [79.25094729758241, 14.34252625609079], [79.24952351585975, 14.343893530843816], [79.24811042499833, 14.343883095675823]]]]}}, {"type": "Feature", "properties": {"depth_class": 2, "depth_lo_m": 1.0, "t_s": 28800.563486876792}, "geometry": {"type": "MultiPolygon", "coordinates": [[[[79.15890271052439, 14.235744762761133], [79.1575210856344, 14.23194534967712], [79.1561087649173, 14.231934450296858], [79.156100381072, 14.232967682060588], [79.15890271052439, 14.235744762761133]]], [[[79.08045533800878, 14.242704224289232], [79.08258836759002, 14.240999275036945], [79.08545364519381, 14.236200399309654], [79.08547396045759, 14.233789623810503], [79.08407620616055, 14.23205631572074], [79.08088989348697, 14.233063990296925], [79.07733591786736, 14.235790750551539], [79.07693327826831, 14.24164261662639], [79.07798377042418, 14.242684332988171], [79.08045533800878, 14.242704224289232]], [[79.0783572517087, 14.240276412062595], [79.07874819834545, 14.235802118586868], [79.08229634669512, 14.233764127002988], [79.0837086187022, 14.23377546413013], [79.08404426122186, 14.235844674428089], [79.08224982925806, 14.239274459972162], [79.08046989409638, 14.240982247835861], [79.0783572517087, 14.240276412062595]]], [[[79.07447048781818, 14.2405895080335], [79.0748439992662, 14.238181596465697], [79.07414661281966, 14.237142718633281], [79.07308739897071, 14.237134172196004], [79.07200187570234, 14.240225164061574], [79.07340541426635, 14.241269748778844], [79.07447048781818, 14.2405895080335]]], [[[79.02699124074388, 14.259488672881039], [79.02630602706196, 14.257072141600647], [79.0245435658937, 14.256713137974119], [79.02347829030573, 14.257393126038586], [79.02416647370927, 14.25946527842651], [79.02699124074388, 14.259488672881039]]], [[[79.11543469238022, 14.282591795471824], [79.12251199976107, 14.280925591910178], [79.12643083991121, 14.276823352878795], [79.12716560133528, 14.273384871625279], [79.12614321067146, 14.26889929295704], [79.12365988610014, 14.270257452286609], [79.11936511755991, 14.277112084558382], [79.11582509700429, 14.27811737429738], [79.1140450388468, 14.279825401303427], [79.11403069662161, 14.281547405883613], [79.11543469238022, 14.282591795471824]]], [[[79.18498455847347, 14.41746148812581], [79.18817329481409, 14.41645268913313], [79.19102808080085, 14.413030251414442], [79.19422505277876, 14.41098812159322], [79.1992109102368, 14.406204110434373], [79.20381012383523, 14.405550259157435], [79.20419379988246, 14.401764382357689], [79.20882039785931, 14.397666262815141], [79.21097616651475, 14.393204909017623], [79.21488483989421, 14.39047895436614], [79.2156134027879, 14.387728949215786], [79.21775526852632, 14.384989593330436], [79.21952738301587, 14.384314062543426], [79.22237854477021, 14.381235553248922], [79.22734412973863, 14.378861730858493], [79.23052946515439, 14.378196691989144], [79.23268188651663, 14.37407948329147], [79.23763912622357, 14.372738678882996], [79.24121536910147, 14.367254193834608], [79.24441663791339, 14.36452240299767], [79.24763123491168, 14.36006843817433], [79.25152553981066, 14.359063879112973], [79.25473457892834, 14.355298642511858], [79.2593460093094, 14.352921437819019], [79.2636173356431, 14.348819406628573], [79.26645685209762, 14.347117950304966], [79.26718989498548, 14.343678832450854], [79.26932541690799, 14.341627738730729], [79.27005310462357, 14.338877461613977], [79.26972626172862, 14.335430595058055], [79.26797581391396, 14.33335113508931], [79.26798903561028, 14.331628990991684], [79.26941527386899, 14.329917153473021], [79.27015082559095, 14.326133580977036], [79.26837665396376, 14.327153992096438], [79.26694249254773, 14.329899110988434], [79.26650717959478, 14.340573814197892], [79.26364387362653, 14.34537513063183], [79.26081499533032, 14.34569884515546], [79.25940720444937, 14.344999622226483], [79.25697687983458, 14.339470632593239], [79.25522653384782, 14.337391088905644], [79.2545413309055, 14.334630481677687], [79.2524377861176, 14.33254832488005], [79.25319762333916, 14.325665002655107], [79.25075159993082, 14.322202537562417], [79.25008515956206, 14.317030943912913], [79.24904415723871, 14.314612154433561], [79.24873097693035, 14.309443162903177], [79.24103254334956, 14.30008630902499], [79.23929602642463, 14.296284569954725], [79.22980556204874, 14.29035859949574], [79.22559974651541, 14.286193965022935], [79.21854704106502, 14.284763516881428], [79.21151893341367, 14.280233091733635], [79.20976943954393, 14.27815330410754], [79.20412977213854, 14.27673308321585], [79.20238037593221, 14.274653251792504], [79.20205728398304, 14.270861985382377], [79.2002942719961, 14.270504235394679], [79.1995797653303, 14.271532152593123], [79.19852305318119, 14.271179725949143], [79.19572253838743, 14.268058591805024], [79.18939896867903, 14.263877383213522], [79.18729942636342, 14.261450368248415], [79.18556958679837, 14.25695953401548], [79.18241906043676, 14.253491180040692], [79.17714442122573, 14.250695443763545], [79.17502851197044, 14.250334830984809], [79.17292647431003, 14.248252133384723], [79.17046026701183, 14.247544366303783], [79.16765487189036, 14.245111801963338], [79.16271422705553, 14.24472938142711], [79.16233603409786, 14.247826365283736], [79.16726840108278, 14.249242038433966], [79.17115260622425, 14.249271845657153], [79.17676916982794, 14.25344805743238], [79.17817887525904, 14.253803264865592], [79.17922717468647, 14.255189012183537], [79.1792161173912, 14.256566669725734], [79.17635513643586, 14.261022461450796], [79.17458671853737, 14.261353361480772], [79.1678995312433, 14.258546593826765], [79.15730305402113, 14.258809366365073], [79.15590736704772, 14.25673198665497], [79.1587434995716, 14.25537617491228], [79.15876585959165, 14.252620891046272], [79.14852562228438, 14.25254162242524], [79.14215836459704, 14.253869829449098], [79.13684473257814, 14.255894948101341], [79.13296615850311, 14.255175757914943], [79.11531067776815, 14.255036880399352], [79.11250014470056, 14.253292531998497], [79.10932794755672, 14.252578559441652], [79.10476350627478, 14.249442529242993], [79.09348180361305, 14.247286111243696], [79.08818254397087, 14.247588128055588], [79.08114112657374, 14.245120670417755], [79.07618918515931, 14.246114052800978], [79.07121672716492, 14.249518079411995], [79.06625586685182, 14.251544414176951], [79.06589103263289, 14.25291911950629], [79.06340173713072, 14.2549654122061], [79.06021208902075, 14.256317147351988], [79.05844659850986, 14.256302778783713], [79.05633686490503, 14.255252349365445], [79.05565133377036, 14.252835863314376], [79.0524735096488, 14.252809935929715], [79.05002258951285, 14.25037901942264], [79.04403793179299, 14.248263550925971], [79.04333770487602, 14.247568985345193], [79.04407057315834, 14.244475286091037], [79.04373826724843, 14.242061677742806], [79.04197290496084, 14.242047201423153], [79.03948950702818, 14.243404460171066], [79.03808911491151, 14.242015307624984], [79.03632673710511, 14.241656403339006], [79.03169204338047, 14.24678437464062], [79.03167711120774, 14.248506300206678], [79.03273038168872, 14.24920380770431], [79.0337657550944, 14.251967624058311], [79.03588725314727, 14.251640692914146], [79.03591109805095, 14.248885605612541], [79.03698225734487, 14.247516779172535], [79.03945084254875, 14.24788148838237], [79.0397890515295, 14.249606323399496], [79.03622841684951, 14.253021143825038], [79.03336490289276, 14.257474877327475], [79.02910383335109, 14.260194965241816], [79.02733534979173, 14.260524746398177], [79.02377736085505, 14.26359494861887], [79.018815884071, 14.265620199886602], [79.01528183283845, 14.265935199376186], [79.01314811814869, 14.267639448318315], [79.01032327334943, 14.267615876733409], [79.00892295377808, 14.266226559202666], [79.00680433835754, 14.266208847811226], [79.0054040507179, 14.264819513368815], [79.00542222983073, 14.262753238452184], [79.00793323773168, 14.258296972301727], [79.00971379968455, 14.25658981554656], [79.01116540013655, 14.252124652031192], [79.01118652796832, 14.249713986885457], [79.00838306355816, 14.247279759537118], [79.00627067537145, 14.246573306724748], [78.99743783276648, 14.247188142643946], [78.99498459045475, 14.245101120829935], [78.9946558574809, 14.24234313424182], [78.99645155470283, 14.238914181464107], [78.99858810882779, 14.236865680807098], [79.01241756368805, 14.230093081673335], [79.0145569074921, 14.22770002491843], [79.01708528512148, 14.221177279800303], [79.02027459039152, 14.219826087145787], [79.0206545941689, 14.21672955816184], [79.01961049818424, 14.214998869272375], [79.0164542866189, 14.212561850093463], [79.01327409385694, 14.212879856043], [79.012199989193, 14.214592964451], [79.01288798868177, 14.216665126175885], [79.0125018621119, 14.220450392887356], [79.01033846893031, 14.22559848929283], [79.00430051936341, 14.229680993212499], [78.99828056639676, 14.231697043485813], [78.99258010025842, 14.237504045523446], [78.9907752213792, 14.241966093433525], [78.99108866885827, 14.24644596244921], [78.99353579351532, 14.249221775488495], [78.99810752205529, 14.251326604945831], [79.0048220609893, 14.250694055058938], [79.0065692982664, 14.252775093292277], [79.005841946595, 14.255179846756993], [79.0029930143455, 14.25791123963215], [78.99976357890321, 14.263739028532246], [78.99973015137763, 14.267527185484077], [79.00252462247116, 14.27099466635229], [79.01169943610948, 14.271760230400972], [79.01382716592558, 14.270744762899588], [79.01806450257578, 14.270780053019035], [79.02054832070834, 14.269423075592574], [79.02514476336296, 14.268772403981453], [79.03011525294242, 14.265713870202118], [79.03154263192332, 14.264003618446402], [79.03437343978094, 14.263338162372902], [79.04007371132298, 14.257530118294037], [79.04150690979593, 14.255131015676179], [79.04434352728576, 14.25377664770203], [79.04610898327914, 14.253791118140512], [79.04786555125307, 14.254838740340686], [79.05031056642804, 14.257958458728778], [79.05276747541083, 14.259700603415531], [79.05664865094695, 14.260076686808], [79.05840532285235, 14.261124243173763], [79.06475829358338, 14.261520318655956], [79.06582349112112, 14.260840132900947], [79.06655025731258, 14.258435118212294], [79.07008715133601, 14.257774941101054], [79.07540999746286, 14.254718208882279], [79.08283382422957, 14.253744749115258], [79.08530261281439, 14.254109001200572], [79.08954851940454, 14.25310979131721], [79.09906203240276, 14.255596757562433], [79.10187246773944, 14.257341254875396], [79.10431832185226, 14.26046051510522], [79.1096150390279, 14.260502575118002], [79.1131204000784, 14.26363016128796], [79.11912631910545, 14.263333206746461], [79.12724244178959, 14.264085967054088], [79.13112965181224, 14.263772051965153], [79.13184157661082, 14.26308877873293], [79.14914472367659, 14.26322376703502], [79.15478075448908, 14.26498962026481], [79.16430974553373, 14.265752071534116], [79.17627201170502, 14.27135486731989], [79.18051529211274, 14.270698442007065], [79.18615459651883, 14.272119187912695], [79.18931917374975, 14.273865445889959], [79.1931708824661, 14.278027941758914], [79.19738412321813, 14.28115981361529], [79.1980657832679, 14.284264915336353], [79.20756593717574, 14.288814353867823], [79.21036957825092, 14.291590973378906], [79.21459147884435, 14.293689334566796], [79.21598521639798, 14.296110874817785], [79.2209353252841, 14.29545906758752], [79.22410864493011, 14.296171663966224], [79.22901559949202, 14.301030446749058], [79.23148532066715, 14.301393270900599], [79.23428673685537, 14.304514080986184], [79.23675382389172, 14.305221279451375], [79.23885698283233, 14.307303534266323], [79.24233017817042, 14.314907022660087], [79.24189918475801, 14.324892716303996], [79.23832106454806, 14.330721732350867], [79.23759034851797, 14.333816296164212], [79.23475083499521, 14.3355174028016], [79.2336020156147, 14.346875449200878], [79.23108312754198, 14.352712177973888], [79.22822977146197, 14.356135275187343], [79.22713465505112, 14.360604814558352], [79.22536546706668, 14.360936007630382], [79.22396315580488, 14.359547736808945], [79.22504746794864, 14.356455899164125], [79.22683017831514, 14.354402601636385], [79.22614259449685, 14.35198637040076], [79.22157713346121, 14.348507756673106], [79.21840855580459, 14.347106206913264], [79.21558238258984, 14.34708495280668], [79.21488402454314, 14.346046378363747], [79.21666944928563, 14.343648737819581], [79.21633798406106, 14.3408907293321], [79.21423205393882, 14.339152687064022], [79.21211523409369, 14.338792302719694], [79.20855803155271, 14.341865409081201], [79.20678624400189, 14.342540894914382], [79.20321792937531, 14.346991570472856], [79.20109006950234, 14.348008745161813], [79.20104331686206, 14.353863813980903], [79.19708003386083, 14.36347789825793], [79.19281009538183, 14.367234139315816], [79.19244572995522, 14.368609097288756], [79.18995045977574, 14.371345508587494], [79.18321265232859, 14.374393790869375], [79.18178549874663, 14.376104995309705], [79.18282316293613, 14.378868429138569], [79.1845758322915, 14.380604049353146], [79.18669296297263, 14.380964719462684], [79.19096882072347, 14.3765198091341], [79.19452130740571, 14.374135895156023], [79.1973505478415, 14.373813025443066], [79.2072816763792, 14.36906633513224], [79.20904819844586, 14.369079704711906], [79.21044497966224, 14.371156893104109], [79.21042579898555, 14.373567811867037], [79.20863454993035, 14.37665419741931], [79.20788948309158, 14.381470675293071], [79.2057475466777, 14.384209932528655], [79.20537496598627, 14.386618161406608], [79.20323294493004, 14.389357385475748], [79.20071545730134, 14.394849210632357], [79.19466155093022, 14.400658433942777], [79.19000687778772, 14.408200358803283], [79.18324558436404, 14.414003789182763], [79.18322047028583, 14.41710348397571], [79.18498455847347, 14.41746148812581]], [[79.20960945988256, 14.38733913151777], [79.20891651945239, 14.385611698959776], [79.21035452529517, 14.38252264847519], [79.21074348725215, 14.3780479030231], [79.21253472272936, 14.374961499777683], [79.21257851182963, 14.369450821838642], [79.20977398940698, 14.3666741300718], [79.20341458391562, 14.366625965351497], [79.20131405611235, 14.364198964468825], [79.2013415767324, 14.360754809190066], [79.20351077867808, 14.354571405789333], [79.20390250480956, 14.349752255374222], [79.20567984308434, 14.348387965592297], [79.20853887146033, 14.344276331292598], [79.21173739091398, 14.341889403216934], [79.21315044140667, 14.341900053613253], [79.21349278620887, 14.343280388528546], [79.21099259518718, 14.346705925309651], [79.21132946216134, 14.348775097784351], [79.21695731081145, 14.35191744814125], [79.22084882653061, 14.351257811889434], [79.22366148093592, 14.353001109481578], [79.22400661636514, 14.354037017320783], [79.2207916908967, 14.358490619913653], [79.22077808247947, 14.360212716379955], [79.22182708009271, 14.361598352287475], [79.22499316165573, 14.363344300603721], [79.22675965591921, 14.363357532918716], [79.22818098583049, 14.362334847563819], [79.22928151127886, 14.357176460678755], [79.23177887923543, 14.354095136598456], [79.23530634045899, 14.354810314591813], [79.23776587811132, 14.356550830671004], [79.2444757248369, 14.356945082299134], [79.24908727555808, 14.354568093759328], [79.25369072640392, 14.353224280760571], [79.25760087695751, 14.350153046807847], [79.259741864067, 14.347413203574709], [79.26221217186406, 14.347775770030696], [79.25971260198203, 14.351201898586627], [79.25403867529977, 14.353915734985462], [79.25082697268638, 14.358025388420801], [79.24693268456436, 14.359029937760424], [79.2387395196625, 14.367580233347532], [79.23658727915405, 14.371697519083385], [79.23127674440104, 14.37303566358181], [79.22948305595729, 14.376466661041865], [79.21991344443653, 14.380183700457353], [79.21279768140415, 14.386329934925165], [79.21207731412414, 14.388046677833351], [79.20960945988256, 14.38733913151777]], [[79.2391978898411, 14.354150376589457], [79.2421074875564, 14.34349422865387], [79.24462329124432, 14.338001758357624], [79.24537268748374, 14.332496192094835], [79.24822279150575, 14.329417243371308], [79.24928254165297, 14.329425062315554], [79.25068486175431, 14.330813183063958], [79.25135665970477, 14.335295924158826], [79.25274301463611, 14.338750592808275], [79.25799409917967, 14.34498924515434], [79.25797546342993, 14.34740023127856], [79.2558344568684, 14.35014005613992], [79.25370407638732, 14.351502152655915], [79.25122305800414, 14.352517195249282], [79.24804348062298, 14.352493713277038], [79.24519841184932, 14.35488377274268], [79.24025236915318, 14.35484709522166], [79.2391978898411, 14.354150376589457]], [[79.23752574426966, 14.342082449346872], [79.23896033787416, 14.339337560456212], [79.2400228176542, 14.339001002591715], [79.23965342006753, 14.34106492159438], [79.23858554780597, 14.342090322835196], [79.23752574426966, 14.342082449346872]], [[79.24580090652805, 14.322854907367011], [79.24617554973437, 14.320102115652817], [79.24795508723459, 14.318393023948756], [79.24900410272575, 14.319778541080545], [79.24898540514955, 14.322189520710669], [79.24685794975566, 14.323207158821928], [79.24577681678934, 14.325954732090581], [79.2450703288117, 14.32594951079134], [79.24508907330998, 14.323538536994587], [79.24580090652805, 14.322854907367011]], [[79.2455011902229, 14.315963796455929], [79.24238108643294, 14.308362953318769], [79.23712583498525, 14.3028129313813], [79.23466415005066, 14.301416892413744], [79.23362068259871, 14.2993424828852], [79.2276351845903, 14.296886852394316], [79.22447265217829, 14.294796613356898], [79.21847654753893, 14.293718460141172], [79.21110861716501, 14.2874632515655], [79.20618324862251, 14.285015103927615], [79.2040888037881, 14.281899360134801], [79.1949421684251, 14.27735249957365], [79.18652703899012, 14.269710969078695], [79.18726362874787, 14.26592777243141], [79.18410744950499, 14.263148255733116], [79.18057887573131, 14.262776912479207], [79.17917464201824, 14.26173288401928], [79.17990301774284, 14.258982962517432], [79.18203282211668, 14.257621468049619], [79.18344256481733, 14.257976648293893], [79.18484404375779, 14.259365066851597], [79.18587863224336, 14.262472869620215], [79.18797266005265, 14.265588727819784], [79.19360093050773, 14.268386955381487], [79.19744716567197, 14.273238216845602], [79.20096501897363, 14.274987004376088], [79.20306209770571, 14.277758346552062], [79.20834316655564, 14.279864776324672], [79.2122007911784, 14.283338175544426], [79.21358901488118, 14.286448561526676], [79.21816675411524, 14.288205082564481], [79.21993265400936, 14.288218297825653], [79.22170938009792, 14.28685381382537], [79.22382845163365, 14.286869637569557], [79.22487448186081, 14.28859965304407], [79.23048769080573, 14.293463660991348], [79.23788055793509, 14.296618532240062], [79.24031541660163, 14.30145878141061], [79.24731008779324, 14.310466024543363], [79.24726198739529, 14.316665684622711], [79.2455011902229, 14.315963796455929]], [[79.002892906859, 14.269275734681296], [79.00184876994727, 14.267544961351115], [79.00221401492708, 14.266170408611979], [79.00643003241227, 14.268616548936519], [79.00642094391834, 14.269649686571919], [79.00535859020378, 14.26998519899681], [79.002892906859, 14.269275734681296]], [[79.02730838390038, 14.263624200509094], [79.02907988604684, 14.262950038625945], [79.02836170228716, 14.264321733795366], [79.0269462895597, 14.264654428630672], [79.02730838390038, 14.263624200509094]], [[79.1551535031012, 14.262581487560281], [79.15304596062684, 14.261187443319317], [79.15341030338352, 14.259812541943594], [79.15552904175344, 14.259828943175961], [79.15763659070649, 14.261222965918497], [79.16081751993633, 14.26090309608964], [79.1625775695736, 14.261605533303142], [79.16079796513945, 14.263313970628957], [79.1551535031012, 14.262581487560281]], [[79.03192562905164, 14.260562687181782], [79.03334399872108, 14.259885573323606], [79.0333380253833, 14.260574343513346], [79.03191965111172, 14.261251456743322], [79.03192562905164, 14.260562687181782]], [[79.13327391885825, 14.260689008341968], [79.1272822632026, 14.25926430982163], [79.12658740900335, 14.257881145229453], [79.13224292156522, 14.257236659261277], [79.13540679941104, 14.258983560730881], [79.13468923295676, 14.260355658924833], [79.13327391885825, 14.260689008341968]], [[79.14106234160845, 14.258338865784529], [79.14107363198822, 14.256961238090607], [79.142850491024, 14.255597366485883], [79.14567259149406, 14.255963757223753], [79.1467150544569, 14.25803844068847], [79.14635349150497, 14.25906891954465], [79.14106234160845, 14.258338865784529]], [[79.04964286170132, 14.253475631213593], [79.04647690050017, 14.25207207055362], [79.04082154263816, 14.25271450713916], [79.04155744212017, 14.24927643628221], [79.04261966287983, 14.248940742459084], [79.04860135806553, 14.251400635551832], [79.04965174272427, 14.252442465186109], [79.04964286170132, 14.253475631213593]], [[79.00833470612247, 14.2527898422358], [79.00554032313829, 14.249322442229678], [79.00413104923284, 14.248966251085012], [79.00413710610373, 14.248277492444824], [79.00731477402, 14.24830405534118], [79.00942114095953, 14.249699262151765], [79.00939697314448, 14.252454305027138], [79.00833470612247, 14.2527898422358]], [[79.08534329601375, 14.249287457330833], [79.08675566705709, 14.249298788519079], [79.08674986038264, 14.249987581196637], [79.08533457946547, 14.250320645476238], [79.08534329601375, 14.249287457330833]], [[78.99426019970284, 14.247161450288692], [78.99215701177653, 14.245421747636973], [78.99254052810274, 14.241980948212], [78.99426019970284, 14.247161450288692]], [[79.03736808848222, 14.243731434130206], [79.03770925607647, 14.245111883411223], [79.03665002807836, 14.245103170612778], [79.03630886713958, 14.24372272064394], [79.03736808848222, 14.243731434130206]], [[78.99576671060375, 14.23649760887541], [78.99611672643577, 14.23684495035118], [78.99576367213292, 14.236841986772351], [78.99576671060375, 14.23649760887541]], [[78.99611976437222, 14.236500572379628], [78.997912348164, 14.23341597650742], [79.00357930325471, 14.231396991259357], [79.01103852308543, 14.226293131145622], [79.01392602140754, 14.219084603043003], [79.01326206643897, 14.214257385035822], [79.0143301516362, 14.213233035542341], [79.01644528081957, 14.213594998880744], [79.0188894531461, 14.216714936651558], [79.01887445693548, 14.21843685319609], [79.01675327166302, 14.21876367082675], [79.01565211141576, 14.223576236452418], [79.01314172145568, 14.228032665701871], [79.01065232780843, 14.230078385866546], [79.00639764327698, 14.232109344605092], [79.00144284627739, 14.233445550113789], [78.99859721117222, 14.235832545295079], [78.9968258721527, 14.23650649782426], [78.99611976437222, 14.236500572379628]]], [[[79.25074209432634, 14.277768909063646], [79.25076337225542, 14.275013490867938], [79.2486523684798, 14.273964638693956], [79.24759021441747, 14.274301273299715], [79.24721839621762, 14.27670966134409], [79.2489735837193, 14.278100358539058], [79.25074209432634, 14.277768909063646]]], [[[79.20352777096033, 14.308072457574227], [79.20707897988477, 14.305688200828053], [79.20747314798881, 14.300524588445837], [79.20429984850692, 14.299811769213555], [79.20324847271756, 14.298770512541116], [79.1954699906152, 14.29974492921572], [79.19546174493485, 14.300778177857246], [79.19616538747745, 14.301127953837655], [79.19793685669815, 14.300452510800433], [79.20465030925233, 14.300158853969826], [79.20321563052073, 14.302903524624138], [79.20282683283627, 14.30737828232213], [79.20352777096033, 14.308072457574227]]], [[[79.22684506023195, 14.307558672421795], [79.2254457350124, 14.30582601988645], [79.2198106792645, 14.30371724084663], [79.21769145459079, 14.303701363050731], [79.21626776881426, 14.30506844751592], [79.21623786821928, 14.308857067049153], [79.21693613870097, 14.309895627981069], [79.22153605138817, 14.308896772534661], [79.22717395392475, 14.310661104664119], [79.22684506023195, 14.307558672421795]]], [[[79.26108572686918, 14.310567224132338], [79.26145219938932, 14.308847667100661], [79.25899292583233, 14.307107428344525], [79.25687096812875, 14.30743632361799], [79.25580068401216, 14.308806259387598], [79.2564911775553, 14.31087800689966], [79.26108572686918, 14.310567224132338]]], [[[79.2361988726998, 14.331050413493928], [79.2376898660249, 14.321072631523757], [79.23423830016354, 14.31071370062339], [79.23313285189356, 14.316561014458074], [79.23452421999164, 14.319326903767115], [79.2341332743775, 14.324146198210437], [79.23518222015775, 14.325531769156127], [79.23479934514639, 14.329317794359586], [79.23549237242294, 14.331045161875304], [79.2361988726998, 14.331050413493928]]], [[[79.22177537692517, 14.36814231944436], [79.22319947823864, 14.366775250966262], [79.22285977364234, 14.365050502174112], [79.22109599214568, 14.364692820061125], [79.21932131764102, 14.365712800858828], [79.21930769083795, 14.367434894896173], [79.22000884991061, 14.368129045643695], [79.22177537692517, 14.36814231944436]]]]}}, {"type": "Feature", "properties": {"depth_class": 3, "depth_lo_m": 2.0, "t_s": 28800.563486876792}, "geometry": {"type": "MultiPolygon", "coordinates": [[[[78.99611672643577, 14.23684495035118], [78.99576671060375, 14.23649760887541], [78.99576367213292, 14.236841986772351], [78.99611672643577, 14.23684495035118]]], [[[78.99611976437222, 14.236500572379628], [78.99930635083486, 14.235494084469847], [79.00215197491485, 14.233107079237833], [79.00462635002712, 14.232783362062682], [79.01065232780843, 14.230078385866546], [79.01314172145568, 14.228032665701871], [79.01565211141576, 14.223576236452418], [79.01675327166302, 14.21876367082675], [79.01887445693548, 14.21843685319609], [79.0188894531461, 14.216714936651558], [79.01644528081957, 14.213594998880744], [79.0143301516362, 14.213233035542341], [79.01326206643897, 14.214257385035822], [79.01392602140754, 14.219084603043003], [79.01103852308543, 14.226293131145622], [79.00357930325471, 14.231396991259357], [78.997912348164, 14.23341597650742], [78.99611976437222, 14.236500572379628]], [[79.01353087643547, 14.223903018495553], [79.01460803216784, 14.22184552748649], [79.01459600492306, 14.223223056567745], [79.01353087643547, 14.223903018495553]], [[79.01573322929738, 14.214277906184874], [79.01607123814165, 14.21600274965643], [79.01465913360582, 14.215991027012329], [79.01432113575302, 14.214266182936639], [79.01573322929738, 14.214277906184874]]], [[[79.08046989409638, 14.240982247835861], [79.08368247433025, 14.2368750293254], [79.0837086187022, 14.23377546413013], [79.08229634669512, 14.233764127002988], [79.07838930182695, 14.236488067429772], [79.0783572517087, 14.240276412062595], [79.07905757998914, 14.240970885937665], [79.08046989409638, 14.240982247835861]]], [[[79.03736808848222, 14.243731434130206], [79.03630886713958, 14.24372272064394], [79.03665002807836, 14.245103170612778], [79.03770925607647, 14.245111883411223], [79.03736808848222, 14.243731434130206]]], [[[78.99426019970284, 14.247161450288692], [78.99289358969148, 14.241983917603283], [78.99254052810274, 14.241980948212], [78.99215701177653, 14.245421747636973], [78.99426019970284, 14.247161450288692]]], [[[79.00939697314448, 14.252454305027138], [79.00942114095953, 14.249699262151765], [79.00731477402, 14.24830405534118], [79.00413710610373, 14.248277492444824], [79.00413104923284, 14.248966251085012], [79.00554032313829, 14.249322442229678], [79.00833470612247, 14.2527898422358], [79.00939697314448, 14.252454305027138]]], [[[79.04930161343454, 14.252095189028521], [79.04261966287983, 14.248940742459084], [79.04155744212017, 14.24927643628221], [79.04083641004017, 14.250992572699955], [79.04082154263816, 14.25271450713916], [79.04647690050017, 14.25207207055362], [79.04964286170132, 14.253475631213593], [79.04930161343454, 14.252095189028521]]], [[[79.03191965111172, 14.261251456743322], [79.03334399872108, 14.259885573323606], [79.03228171632989, 14.260221217178156], [79.03191965111172, 14.261251456743322]]], [[[79.0269462895597, 14.264654428630672], [79.02907988604684, 14.262950038625945], [79.02730838390038, 14.263624200509094], [79.0269462895597, 14.264654428630672]]], [[[79.00643003241227, 14.268616548936519], [79.0029202176419, 14.266176328081428], [79.00185787787663, 14.266511826423857], [79.00219276627458, 14.268581057222372], [79.00394615926238, 14.269973369326673], [79.00642094391834, 14.269649686571919], [79.00643003241227, 14.268616548936519]]], [[[79.08675566705709, 14.249298788519079], [79.08534620137466, 14.248943061261357], [79.0849843914222, 14.249973415193958], [79.08639386244688, 14.250329145291662], [79.08675566705709, 14.249298788519079]]], [[[79.1467150544569, 14.25803844068847], [79.14496917734122, 14.255613856762432], [79.142850491024, 14.255597366485883], [79.14107363198822, 14.256961238090607], [79.14106234160845, 14.258338865784529], [79.14317541215043, 14.259044189661195], [79.14635349150497, 14.25906891954465], [79.1467150544569, 14.25803844068847]]], [[[79.13327391885825, 14.260689008341968], [79.13540679941104, 14.258983560730881], [79.13224292156522, 14.257236659261277], [79.12658740900335, 14.257881145229453], [79.1272822632026, 14.25926430982163], [79.1304574777202, 14.259633656643846], [79.13115803752318, 14.260328003526634], [79.13327391885825, 14.260689008341968]]], [[[79.16079796513945, 14.263313970628957], [79.1625747787838, 14.261949944304364], [79.16222723340564, 14.261258400231881], [79.15763659070649, 14.261222965918497], [79.15552904175344, 14.259828943175961], [79.1530543757068, 14.260154215778032], [79.15304596062684, 14.261187443319317], [79.1551535031012, 14.262581487560281], [79.15761980030425, 14.263289426076353], [79.16079796513945, 14.263313970628957]]], [[[79.24765529444085, 14.31150190647887], [79.24415787036583, 14.306998306342976], [79.24276911252856, 14.303888040938315], [79.23891869287857, 14.299381775418638], [79.23788055793509, 14.296618532240062], [79.23048769080573, 14.293463660991348], [79.22487448186081, 14.28859965304407], [79.22382845163365, 14.286869637569557], [79.22170938009792, 14.28685381382537], [79.21993265400936, 14.288218297825653], [79.21816675411524, 14.288205082564481], [79.21358901488118, 14.286448561526676], [79.2122007911784, 14.283338175544426], [79.20834316655564, 14.279864776324672], [79.20306209770571, 14.277758346552062], [79.20096501897363, 14.274987004376088], [79.19744716567197, 14.273238216845602], [79.19360093050773, 14.268386955381487], [79.18797266005265, 14.265588727819784], [79.18587863224336, 14.262472869620215], [79.18484404375779, 14.259365066851597], [79.18344256481733, 14.257976648293893], [79.18203282211668, 14.257621468049619], [79.17990301774284, 14.258982962517432], [79.17917464201824, 14.26173288401928], [79.18057887573131, 14.262776912479207], [79.18410744950499, 14.263148255733116], [79.18726362874787, 14.26592777243141], [79.18652703899012, 14.269710969078695], [79.1949421684251, 14.27735249957365], [79.2040888037881, 14.281899360134801], [79.20618324862251, 14.285015103927615], [79.21110861716501, 14.2874632515655], [79.21847654753893, 14.293718460141172], [79.22447265217829, 14.294796613356898], [79.2276351845903, 14.296886852394316], [79.23362068259871, 14.2993424828852], [79.23466415005066, 14.301416892413744], [79.23712583498525, 14.3028129313813], [79.24238108643294, 14.308362953318769], [79.24412307983438, 14.311475832675884], [79.24480276280458, 14.314925302762765], [79.24620229827472, 14.316657863476161], [79.24726198739529, 14.316665684622711], [79.24765529444085, 14.31150190647887]], [[79.22343471571554, 14.292033328842464], [79.22449427639758, 14.292041238194901], [79.22449157362217, 14.292385660126737], [79.22343471571554, 14.292033328842464]]], [[[79.24577681678934, 14.325954732090581], [79.24721386395801, 14.322865341314392], [79.24898540514955, 14.322189520710669], [79.24900410272575, 14.319778541080545], [79.24795508723459, 14.318393023948756], [79.24617554973437, 14.320102115652817], [79.2450703288117, 14.32594951079134], [79.24577681678934, 14.325954732090581]]], [[[79.23752574426966, 14.342082449346872], [79.2400120639393, 14.340378696416396], [79.2400228176542, 14.339001002591715], [79.23860438364886, 14.339679360735197], [79.23752574426966, 14.342082449346872]]], [[[79.21207731412414, 14.388046677833351], [79.21493409197342, 14.384279441628374], [79.21777438650174, 14.382578667215414], [79.21991344443653, 14.380183700457353], [79.22948305595729, 14.376466661041865], [79.23127674440104, 14.37303566358181], [79.23658727915405, 14.371697519083385], [79.2387395196625, 14.367580233347532], [79.24693268456436, 14.359029937760424], [79.25082697268638, 14.358025388420801], [79.25403867529977, 14.353915734985462], [79.25971260198203, 14.351201898586627], [79.26221217186406, 14.347775770030696], [79.259741864067, 14.347413203574709], [79.25760087695751, 14.350153046807847], [79.25369072640392, 14.353224280760571], [79.24908727555808, 14.354568093759328], [79.2444757248369, 14.356945082299134], [79.23776587811132, 14.356550830671004], [79.23530634045899, 14.354810314591813], [79.23177887923543, 14.354095136598456], [79.22928151127886, 14.357176460678755], [79.22818098583049, 14.362334847563819], [79.22675965591921, 14.363357532918716], [79.22499316165573, 14.363344300603721], [79.22182708009271, 14.361598352287475], [79.22077808247947, 14.360212716379955], [79.2207916908967, 14.358490619913653], [79.22400661636514, 14.354037017320783], [79.22366148093592, 14.353001109481578], [79.22084882653061, 14.351257811889434], [79.21695731081145, 14.35191744814125], [79.21132946216134, 14.348775097784351], [79.21099259518718, 14.346705925309651], [79.21349278620887, 14.343280388528546], [79.21315044140667, 14.341900053613253], [79.21173739091398, 14.341889403216934], [79.20853887146033, 14.344276331292598], [79.20567984308434, 14.348387965592297], [79.20390250480956, 14.349752255374222], [79.20351077867808, 14.354571405789333], [79.2013415767324, 14.360754809190066], [79.20131405611235, 14.364198964468825], [79.20341458391562, 14.366625965351497], [79.20977398940698, 14.3666741300718], [79.21257851182963, 14.369450821838642], [79.21253472272936, 14.374961499777683], [79.21074348725215, 14.3780479030231], [79.21035452529517, 14.38252264847519], [79.20891102919076, 14.386300531527446], [79.21066397479262, 14.388035987519286], [79.21207731412414, 14.388046677833351]], [[79.21932131764102, 14.365712800858828], [79.22180259236752, 14.364698126676492], [79.22285977364234, 14.365050502174112], [79.22319947823864, 14.366775250966262], [79.22177537692517, 14.36814231944436], [79.22000884991061, 14.368129045643695], [79.21930769083795, 14.367434894896173], [79.21932131764102, 14.365712800858828]]]]}}, {"type": "Feature", "properties": {"depth_class": 4, "depth_lo_m": 3.0, "t_s": 28800.563486876792}, "geometry": {"type": "MultiPolygon", "coordinates": [[[[79.01607123814165, 14.21600274965643], [79.01573322929738, 14.214277906184874], [79.01432113575302, 14.214266182936639], [79.01430911344968, 14.215643712648397], [79.01607123814165, 14.21600274965643]]], [[[79.01353087643547, 14.223903018495553], [79.01459600492306, 14.223223056567745], [79.01460803216784, 14.22184552748649], [79.01353990227665, 14.222869872428966], [79.01353087643547, 14.223903018495553]]], [[[79.22449427639758, 14.292041238194901], [79.22414379267187, 14.291694180391591], [79.22343742002975, 14.291688907098624], [79.22378519868822, 14.292380387616483], [79.22449427639758, 14.292041238194901]]]]}}]}