{"type": "FeatureCollection", "features": [{"type": "Feature", "properties": {"depth_class": 1, "depth_lo_m": 0.3, "t_s": 29700.327068147024}, "geometry": {"type": "MultiPolygon", "coordinates": [[[[79.11680598822896, 14.245060370735448], [79.11928619638952, 14.244046654323691], [79.12038538053808, 14.239233353651114], [79.11899586030789, 14.236467004110674], [79.11688309375461, 14.235761499593597], [79.11509770070275, 14.238158386857577], [79.11435436447108, 14.242630038310502], [79.11680598822896, 14.245060370735448]]], [[[79.08311124692521, 14.262701866715389], [79.08384075517176, 14.259952381892225], [79.08279307445079, 14.258566284081496], [79.08067443677503, 14.258549238154322], [79.07641380029911, 14.261270241517305], [79.07852953974337, 14.26163172281381], [79.08028342932344, 14.263023526604991], [79.08311124692521, 14.262701866715389]]], [[[79.09608390371599, 14.273827306191706], [79.0953921136762, 14.272099672721017], [79.09327043568146, 14.272427119990859], [79.09325884197615, 14.273804707892984], [79.09396220940016, 14.27415475769574], [79.09608390371599, 14.273827306191706]]], [[[79.10415121252436, 14.280435671857603], [79.10486326719736, 14.279752496634247], [79.10487767722526, 14.278030500943775], [79.10241434576854, 14.276977618765585], [79.10134338000523, 14.278346768522157], [79.1016791995121, 14.28041597495347], [79.10415121252436, 14.280435671857603]]], [[[79.17566221470801, 14.433922279011963], [79.17710104538473, 14.430833532678552], [79.17887922428814, 14.429469547420277], [79.18424154038622, 14.42193339015823], [79.1874414847361, 14.41954696459715], [79.19097528597004, 14.419574079368797], [79.19168760353101, 14.418890671896007], [79.19207153227771, 14.415104845309559], [79.20025994341304, 14.407589846389053], [79.20238288473061, 14.407261578943032], [79.20484265088088, 14.409002466935389], [79.20731897061992, 14.408676841729644], [79.20769159629576, 14.406268615874474], [79.20594130446563, 14.40418871136191], [79.2059550701537, 14.402466635273264], [79.21022830531861, 14.398365803511298], [79.21202522773405, 14.39459059552828], [79.2162927282811, 14.391178456301311], [79.21845100938874, 14.386372589620276], [79.22093252632878, 14.38535795295498], [79.22343035771878, 14.382276773019914], [79.23158130772146, 14.379237878454017], [79.23337769888039, 14.375462443532797], [79.23727231417062, 14.374458157836823], [79.23940570632293, 14.372751825308484], [79.24084051874279, 14.370006951462203], [79.24689513470493, 14.363851875225611], [79.24797381132018, 14.361448748634414], [79.25258008504893, 14.359760549524854], [79.25507719635468, 14.356678947334357], [79.2589794095457, 14.354640975615085], [79.26325077810907, 14.350538956028371], [79.26573173436635, 14.34952377873026], [79.26751139985409, 14.347814553808215], [79.26823913795937, 14.345064288356136], [79.27109706554683, 14.340951763153667], [79.27113931592851, 14.335440895518953], [79.26974739742347, 14.332675162298687], [79.27011122056578, 14.331300020797956], [79.27262884181054, 14.325462725697143], [79.27688097339146, 14.323771375718096], [79.27795384970295, 14.322056909217249], [79.27760848839452, 14.321021054700827], [79.26912805214496, 14.321303846998926], [79.26842685279814, 14.320609838335018], [79.26811323367421, 14.315440823702504], [79.26603349735959, 14.310258928538817], [79.25971261966498, 14.305390461255518], [79.25264568035266, 14.305683067982555], [79.2508662858347, 14.307392212012823], [79.24874965987216, 14.307032181022185], [79.24771137564541, 14.304268964727315], [79.24454853025644, 14.302178960906849], [79.24174698282572, 14.299058258285964], [79.24036097484294, 14.295603561403635], [79.23754882938394, 14.293860521112297], [79.23580166822038, 14.29143646325967], [79.23333741959433, 14.290384848124557], [79.23194082105455, 14.288307814517596], [79.2344131010472, 14.288326169300674], [79.2386379002094, 14.290079698263895], [79.24499527145119, 14.290126671296447], [79.24960270443897, 14.288093930601065], [79.25209628340045, 14.285356683915769], [79.2549323603832, 14.283999704082042], [79.26553835437754, 14.282699421485463], [79.26837960231101, 14.280653407461058], [79.27191138152219, 14.2806790666574], [79.27227507072814, 14.27930390521966], [79.26840593646749, 14.277209103036204], [79.26665852482019, 14.27478524558286], [79.26101313174945, 14.274055199315693], [79.25821428310205, 14.27059026858162], [79.25645643366431, 14.269544067376048], [79.25506766632195, 14.266433871402999], [79.25436136064883, 14.266428698847259], [79.25397902216048, 14.27021482094234], [79.25291158064272, 14.271240337985157], [79.24974378420653, 14.269839299562719], [79.24799397388576, 14.267759759896203], [79.24340031339754, 14.268070387770129], [79.24127337735742, 14.26908803560847], [79.24090418212138, 14.271151982480262], [79.24441441249341, 14.273933441854219], [79.24508338126805, 14.27876061378327], [79.24683590169207, 14.280495753251436], [79.24682790189124, 14.281529032500147], [79.24327210520961, 14.284602831135722], [79.24080253047305, 14.284240147811104], [79.23834100660278, 14.282844165431142], [79.23480925711289, 14.282818004555459], [79.2330541361497, 14.281427209200542], [79.2298755902687, 14.281403598491691], [79.22777004040744, 14.27966572006466], [79.22637894509113, 14.276899820091305], [79.21824806988863, 14.277872452073412], [79.21331193568307, 14.276802146851347], [79.21155972736018, 14.27506679300622], [79.20519743691821, 14.275707813874297], [79.20414615489169, 14.274666571789707], [79.20418710030798, 14.269500291578366], [79.20244048256852, 14.267076047371562], [79.20103337466186, 14.266376551373268], [79.19643978861406, 14.266686269303005], [79.194342883909, 14.263914887926731], [79.18906508777408, 14.261463787860675], [79.18733521156231, 14.256972962299054], [79.18313908676484, 14.251774484819107], [79.17329621252654, 14.246188356232585], [79.1711803548137, 14.245827714921852], [79.16836941317227, 14.24408398562347], [79.16484118711483, 14.243712447286207], [79.16133528829779, 14.240585567499936], [79.16038754362526, 14.22680095084326], [79.15828305745589, 14.225062573844587], [79.15651212432292, 14.225737782131059], [79.15543614648841, 14.227796071131706], [79.15367078007725, 14.227782434087485], [79.15189701514774, 14.228802013680765], [79.15187180994066, 14.23190170211306], [79.15256116792784, 14.233973624666612], [79.15467127260291, 14.23502323511254], [79.15606963455383, 14.23675619772288], [79.15603048954819, 14.241577943100134], [79.15990337559613, 14.24298556162863], [79.1602369384353, 14.245399161102045], [79.15916646243448, 14.246768635012229], [79.1549152259569, 14.248457957328132], [79.15313288396767, 14.25051075418268], [79.15207355937916, 14.250502550520098], [79.15209879616269, 14.247402866550711], [79.14998298482429, 14.247042039880608], [79.14714411219093, 14.24874216292335], [79.14606229188391, 14.251489198647976], [79.13791820739927, 14.254181190535295], [79.1230904627371, 14.253720533440047], [79.12203684252538, 14.253023387994736], [79.11567808760867, 14.253317660716018], [79.1096953951646, 14.250859353747787], [79.10477788518335, 14.247720529284969], [79.09349626580236, 14.245564122295356], [79.08713778338328, 14.245857655281306], [79.08256801098055, 14.24341004499827], [79.08686883523316, 14.235867322912815], [79.08620040168589, 14.231384507022753], [79.08302863024467, 14.23067023184836], [79.07841843012413, 14.233044116661254], [79.07592363863549, 14.235779374174793], [79.0727518579971, 14.235064959010105], [79.0702540547874, 14.238144538771458], [79.06672333725412, 14.238115972889508], [79.06565532461487, 14.239140570073069], [79.06563479109167, 14.241551316308703], [79.06668229211293, 14.24293746831125], [79.06914213092725, 14.244335048709626], [79.07232571594143, 14.243671951986832], [79.07408235859086, 14.244719387256685], [79.07336450149946, 14.246091261990896], [79.06839787161762, 14.248806439165078], [79.06064466018366, 14.247021463503978], [79.05638406579547, 14.24974210826132], [79.05214111243048, 14.250396327917814], [79.04827788720128, 14.24795386181822], [79.04475596309132, 14.246891788096999], [79.04550066721013, 14.242420529153776], [79.04446220652206, 14.240001136930715], [79.04269685947993, 14.239986668011673], [79.04056358827168, 14.241691223859608], [79.03810101625675, 14.240637761125031], [79.03527646482269, 14.240614528338375], [79.03385524588012, 14.241636056688], [79.03241909262334, 14.244379501772565], [79.02921751324327, 14.247108357453843], [79.02919957145302, 14.249174664958373], [79.03130610668553, 14.250569696753228], [79.03196148999164, 14.256430068927038], [79.03018406541491, 14.257793029281848], [79.0284185952044, 14.257778436996752], [79.02772438574227, 14.256395060362115], [79.02596791976973, 14.255347300214279], [79.023496294977, 14.255326827106435], [79.02171583402625, 14.257034101759933], [79.02170381892509, 14.258411632740119], [79.02345127789235, 14.260492573724974], [79.0234392702927, 14.26187010575581], [79.01954014377404, 14.263559777402595], [79.01460276999174, 14.262829887052678], [79.01281010872191, 14.265914600600135], [79.01104459391166, 14.265899871516392], [79.00964427850927, 14.264510558842915], [79.00752870494742, 14.26414847636265], [79.00719074097915, 14.262423626426715], [79.01112917180937, 14.256257219649763], [79.01258074253687, 14.251792043499023], [79.0119047503307, 14.248342349361659], [79.00733895976313, 14.245549015012418], [78.99780305381799, 14.245813593677951], [78.9960498712953, 14.244421263056168], [78.99607114764753, 14.242010618658526], [78.99893206230873, 14.237901775856288], [79.01276458844276, 14.230784782588312], [79.0152599889065, 14.228050274561575], [79.01741429937597, 14.22393527159527], [79.0174263101813, 14.22255774023469], [79.02096866992005, 14.221209469120577], [79.02168672354301, 14.21983777971867], [79.02172266370303, 14.215705172999746], [79.02102859153148, 14.214321794202176], [79.01681631117576, 14.211531629090894], [79.01293009436576, 14.211843776031177], [79.01150598121049, 14.21320956584005], [79.01144276519125, 14.220441583183506], [79.01070958792074, 14.223535140694665], [79.00927934943788, 14.225589666882799], [78.99615925015954, 14.232023657789648], [78.99188312451207, 14.23646497592556], [78.9897251844069, 14.24092404487242], [78.99002336585906, 14.247125794751211], [78.99282051012811, 14.250248965827824], [78.9988015277136, 14.25271004293733], [79.00269147102394, 14.252053841876082], [79.0044568690848, 14.252068618780706], [79.00515697343542, 14.252763284743247], [79.00478874974014, 14.254482227879606], [79.00193981644463, 14.257213607800448], [78.99835423223128, 14.26338279311323], [78.99831774061907, 14.267515324456962], [79.00005590200148, 14.270629550296372], [79.00180929383087, 14.272021878270303], [79.01133423306676, 14.273134803400747], [79.01381509084207, 14.272122285696032], [79.01911480646716, 14.271822009227211], [79.02195174424733, 14.270467953763196], [79.02724843651158, 14.270511873252133], [79.02832575505586, 14.268454340338062], [79.03152767980929, 14.265725541377519], [79.03647714997774, 14.265077553475178], [79.03756628069705, 14.261642420212727], [79.04291036703077, 14.256175772569064], [79.0446758401709, 14.256190255996538], [79.04462536277244, 14.262044842957664], [79.04567576957686, 14.263086693205343], [79.04885372472619, 14.26311272947532], [79.05134027103665, 14.261411006883746], [79.054168063715, 14.261089693197336], [79.05733420470122, 14.26249317273799], [79.06544687794242, 14.263592400861803], [79.07007249856129, 14.259496904588099], [79.0746862620488, 14.256778870958806], [79.0905904272709, 14.255184655961369], [79.09658162816761, 14.256610235840105], [79.10009827152658, 14.258360390025922], [79.10605512559275, 14.263918546759738], [79.10568473905035, 14.265982138714879], [79.10743310027823, 14.268062566936546], [79.10848673114855, 14.268759779215376], [79.11166488336882, 14.268784988116339], [79.11376072176752, 14.271556979860955], [79.11517325484041, 14.271568159931917], [79.11624983329231, 14.269510129614183], [79.11344485961078, 14.267076968948276], [79.11027247054064, 14.266362985593682], [79.10993083245911, 14.264982582980391], [79.11134332144312, 14.264993780704895], [79.11274720997947, 14.266038173360881], [79.12369410034711, 14.266124613998283], [79.12332671642413, 14.267843849216485], [79.11977542652963, 14.270226828049445], [79.11833429742514, 14.273659696538928], [79.11514746844585, 14.274667772151764], [79.11336169904612, 14.277064599054585], [79.10838608084975, 14.280813778139278], [79.10766251791186, 14.282874563158156], [79.11012019117274, 14.284616201507609], [79.11753641530714, 14.284674969396542], [79.12356003198519, 14.282311555327842], [79.12855539569023, 14.276151205377722], [79.12825346754936, 14.26994915898439], [79.13145722757615, 14.266874463875785], [79.13253363973904, 14.26481633833702], [79.13712711976125, 14.26450785879867], [79.14100304733738, 14.26557140842726], [79.14418967239916, 14.264562956380189], [79.1473678309093, 14.264587682104146], [79.15335420233478, 14.26670072535678], [79.15688554158038, 14.266728064037064], [79.15969663664282, 14.268471948730543], [79.16393987295585, 14.267815817936052], [79.1656971987263, 14.268862650694684], [79.16674268683418, 14.270592862043896], [79.17061891498474, 14.271655958382341], [79.17448408658991, 14.274096647740409], [79.17763195438029, 14.277909534050872], [79.18149454833306, 14.280694544103891], [79.18532410874776, 14.287612478555278], [79.18561928577701, 14.294847877852819], [79.1834835887017, 14.29689818950536], [79.18346699061645, 14.298964673440654], [79.18416783929072, 14.299658896210737], [79.18628698693391, 14.299675068263648], [79.1873576043867, 14.298305488412645], [79.1891235531377, 14.298318941508041], [79.19157384959448, 14.301093077755393], [79.19330128952157, 14.305928322063975], [79.19470309669231, 14.307316719427476], [79.1964691229996, 14.307330126254707], [79.1968470567119, 14.304233059212672], [79.19827083984285, 14.30286610411868], [79.20145237214565, 14.30254575466756], [79.20104983353048, 14.30874259088106], [79.20210123874783, 14.309783860695205], [79.20457371316799, 14.309802552804364], [79.20777173459824, 14.30741561961776], [79.20886137983184, 14.303635002484615], [79.21100512119091, 14.300551186938666], [79.2198621975444, 14.297173245265148], [79.22268504627606, 14.297538797684533], [79.22267421938994, 14.2989164833568], [79.22089468471233, 14.300625383969649], [79.21700406048866, 14.30128512467419], [79.21522718625101, 14.30264955548954], [79.21414037206662, 14.306085795481003], [79.21481685944278, 14.30987971785212], [79.21656661412865, 14.311959497025459], [79.21832998184188, 14.312317165859776], [79.22010963645228, 14.310608298958929], [79.22328586747028, 14.310976508650691], [79.22503571502342, 14.313056235251361], [79.22501677086126, 14.315467185014205], [79.22252252186794, 14.318204065193362], [79.21862343882395, 14.319897057268008], [79.21855276763914, 14.328851974499864], [79.2153245380452, 14.33502763612194], [79.2142566002833, 14.336052918829784], [79.21106912278788, 14.337062222364834], [79.2075064616355, 14.340824149643367], [79.20431340801589, 14.342522184049361], [79.20216911345624, 14.345605871683565], [79.1993292247393, 14.34730650432321], [79.19895668606306, 14.349714729332002], [79.1996549742221, 14.35075334320229], [79.19963570649807, 14.353164251794718], [79.19818401949087, 14.357975324544272], [79.19675984674684, 14.359342232320492], [79.1953163288263, 14.36312003017791], [79.19176127018301, 14.365848393141947], [79.19103806598868, 14.367909477153567], [79.1892577117866, 14.36961803954903], [79.18429481841046, 14.37164662910213], [79.17828029685485, 14.372633715541875], [79.17366777251478, 14.375009191366804], [79.16871867762264, 14.375315377948603], [79.1648379317308, 14.374596456604806], [79.16235354441478, 14.375954897349768], [79.15913431411876, 14.38075188166305], [79.15910892806626, 14.383851543258695], [79.16015196466272, 14.385926232287323], [79.16155397975072, 14.38731485159401], [79.16366829492972, 14.38802013837277], [79.16471701796594, 14.3894059984621], [79.1653758510249, 14.395266414544402], [79.17205281951539, 14.399795745053087], [79.17487678672148, 14.400162005461759], [79.1780792704589, 14.397431267891358], [79.1802384033835, 14.392625854944813], [79.18486238980357, 14.38887264225316], [79.19379532510133, 14.376541399770156], [79.20123695952343, 14.37384259365556], [79.20691464723592, 14.370785741498326], [79.20867843993581, 14.371143532054777], [79.20865649726083, 14.373898865073542], [79.20722677646991, 14.375954662337863], [79.2064789362838, 14.381115548786953], [79.2046958172876, 14.383168642665304], [79.20396714639128, 14.385918601412806], [79.20182511743572, 14.388657811657106], [79.19930760713767, 14.394149619031687], [79.1936125825614, 14.399272680137676], [79.19039079410747, 14.404414532877595], [79.18611432678735, 14.408859359297507], [79.18185444011277, 14.411237624633202], [79.17650635719602, 14.417051708844182], [79.17012315403272, 14.419757746204017], [79.16940233730027, 14.421474303601274], [79.1651223129392, 14.426263063035664], [79.16474917830497, 14.428671160362564], [79.16754812252172, 14.432137212553322], [79.17141860648321, 14.434233835673558], [79.17566221470801, 14.433922279011963]], [[79.1764381946443, 14.250690046169716], [79.17959963916805, 14.252780806370788], [79.18206594172067, 14.253488488793659], [79.18661519401275, 14.258689671297592], [79.1876470530527, 14.262141884878503], [79.19150405046328, 14.265615551623752], [79.19431819408226, 14.267014640941147], [79.1985203150554, 14.271524143579057], [79.20028333036005, 14.271881907276368], [79.20135098484968, 14.270856654150188], [79.20205181852555, 14.271550821993124], [79.20237764297434, 14.27499767005509], [79.20342618561475, 14.276383337572032], [79.21011988019316, 14.278500378464937], [79.21186937989079, 14.280580164145533], [79.21609110465049, 14.282678478258488], [79.21854704106502, 14.284763516881428], [79.22559974651541, 14.286193965022935], [79.23261490603461, 14.292446143440136], [79.23929602642463, 14.296284569954725], [79.2399836579463, 14.298700770528646], [79.24873097693035, 14.309443162903177], [79.24904415723871, 14.314612154433561], [79.25008515956206, 14.317030943912913], [79.25075159993082, 14.322202537562417], [79.25319762333916, 14.325665002655107], [79.25243511800615, 14.332892750837456], [79.2545413309055, 14.334630481677687], [79.25592240620502, 14.338773989827294], [79.25732482316899, 14.340162081494148], [79.25905924865445, 14.344308175085182], [79.26081499533032, 14.34569884515546], [79.263999804378, 14.345033289619785], [79.26508349493925, 14.341941194687253], [79.26650982770683, 14.340229385877105], [79.26619098348044, 14.335749235533585], [79.26691074235015, 14.334032254687452], [79.26694778326272, 14.329210253558895], [79.27051990892103, 14.324069577641863], [79.27049615643722, 14.327169442960797], [79.26798374714262, 14.332317848662099], [79.27007159974558, 14.336466458266914], [79.2700478196711, 14.339566319619015], [79.26896685459275, 14.342314018067027], [79.26718724724815, 14.344023260796149], [79.26645685209762, 14.347117950304966], [79.2636173356431, 14.348819406628573], [79.2589900584352, 14.353263269422321], [79.25437861768734, 14.355640465904207], [79.25152553981066, 14.359063879112973], [79.24763123491168, 14.36006843817433], [79.24298997708796, 14.366234039014538], [79.24014467069453, 14.368624009255056], [79.23728311131195, 14.373080470002492], [79.23268188651663, 14.37407948329147], [79.23052946515439, 14.378196691989144], [79.22202249439927, 14.381577316964034], [79.21988071360266, 14.384316722000577], [79.21846466148689, 14.384650499137145], [79.21597220719468, 14.387042779988935], [79.21488210297878, 14.3908233716405], [79.2109734230666, 14.393549325475336], [79.20917649439781, 14.397324524691667], [79.20454990988296, 14.401422652891677], [79.20382942007609, 14.403139355663942], [79.20416072842477, 14.405897360767844], [79.19956427131591, 14.40620680423287], [79.18995685155673, 14.414399773873269], [79.18852388733085, 14.416799812838786], [79.18320372424482, 14.419169946695856], [79.18143962742921, 14.418811928034117], [79.18074125725994, 14.41777325111951], [79.18146756238755, 14.415367826570316], [79.18965351543896, 14.408197650344786], [79.19251093443543, 14.404430764923575], [79.19359318203006, 14.401683570817891], [79.20035935382226, 14.395190935029845], [79.20287685455332, 14.389699115274908], [79.2043012095687, 14.388332192047839], [79.20538871849955, 14.384896083301076], [79.20789222886228, 14.38112625906744], [79.20827574491696, 14.377340355409318], [79.21006700518498, 14.374253973948004], [79.21009989239215, 14.370120971091488], [79.207634980647, 14.369069010101319], [79.1977038576287, 14.373815716096104], [79.19345584560972, 14.374816634557407], [79.18526300464433, 14.383020354092569], [79.1827953224976, 14.382312543814642], [79.17966006224276, 14.376777520394972], [79.18215272898551, 14.374385652135835], [79.18959715538405, 14.371342806818346], [79.19208966191475, 14.368950813331471], [79.19316892481703, 14.366548007844425], [79.19636792723291, 14.364161347441968], [79.19817023872837, 14.359697399717486], [79.19959440645907, 14.35833048275907], [79.1999724695257, 14.355233428335], [79.20104606760157, 14.35351939825205], [79.20109281900046, 14.347664329254389], [79.20286466059329, 14.346988892943026], [79.20607697821377, 14.342879968582535], [79.20891402973955, 14.341523659630953], [79.2117619764298, 14.33878963993178], [79.2152891041701, 14.339505081856858], [79.21668579718117, 14.34158222378392], [79.21666672438305, 14.34399315678881], [79.21524002167274, 14.345704619178736], [79.21558510976153, 14.346740534131245], [79.2191178216112, 14.346767095842933], [79.21981620252906, 14.34780566026156], [79.22333807669509, 14.349209841222653], [79.2257947384663, 14.3512948852067], [79.22684102359537, 14.353024919271002], [79.22682746681514, 14.354747022201504], [79.22432731307073, 14.35817270529126], [79.22431373200101, 14.35989480512099], [79.22501488763189, 14.360588940531748], [79.2271373672351, 14.360260394105586], [79.22787106295827, 14.356821474679963], [79.22966187476788, 14.353734890021313], [79.23108312754198, 14.352712177973888], [79.2336020156147, 14.346875449200878], [79.23475083499521, 14.3355174028016], [79.23758765749683, 14.334160719333948], [79.23831837524776, 14.33106615574612], [79.24189650205628, 14.325237140532769], [79.24233285819437, 14.314562598052014], [79.23955536144345, 14.308342040259557], [79.23640330116434, 14.30487423557054], [79.23393621932324, 14.304167034006971], [79.23183852364525, 14.301395897609241], [79.22866509575336, 14.300683393451152], [79.22691799387268, 14.298259276523005], [79.22340496350417, 14.295821967334813], [79.22022894212559, 14.295453783411103], [79.21598521639798, 14.296110874817785], [79.21529513722167, 14.294039054994887], [79.21107322243655, 14.291940704840288], [79.20826956789584, 14.289164092189408], [79.19912255302808, 14.284617350732203], [79.19668602214763, 14.280121213725312], [79.19282047152464, 14.277680845564625], [79.18896877506826, 14.273518345366664], [79.18615459651883, 14.272119187912695], [79.18086843731659, 14.270701138729967], [79.17556849411541, 14.271005046245767], [79.17240686029066, 14.26891420973545], [79.16466287982759, 14.265754791347803], [79.15760300721371, 14.26535588585729], [79.14985097841455, 14.263229250116186], [79.13148845304775, 14.263086010808351], [79.12653619349672, 14.264080416680569], [79.12089192706539, 14.26334713292101], [79.1134735207557, 14.263632956519366], [79.10961790992414, 14.260158174496443], [79.10502167187691, 14.260810529591852], [79.10046868631903, 14.256296810269117], [79.09025471840265, 14.25311544699495], [79.07611911611565, 14.25437951299343], [79.0697340487397, 14.257772082763138], [79.06690629556998, 14.258093589333017], [79.06583817758563, 14.259118173940726], [79.06582642857079, 14.260495741129944], [79.06369897188604, 14.261511716199788], [79.05875842829226, 14.261127118943648], [79.05664865094695, 14.260076686808], [79.05206422966754, 14.259350445192391], [79.04751542184198, 14.254491461501589], [79.04399043632476, 14.253773752048378], [79.04079477631302, 14.255813988466205], [79.03472952879018, 14.262996688870915], [79.03154263192332, 14.264003618446402], [79.02514476336296, 14.268772403981453], [79.02161065839664, 14.269087492113453], [79.01806450257578, 14.270780053019035], [79.01382716592558, 14.270744762899588], [79.01169943610948, 14.271760230400972], [79.0035809151377, 14.27134792488269], [79.00147137098917, 14.270297025425258], [79.0000771765555, 14.26821890525573], [78.99976357890321, 14.263739028532246], [79.00334913462319, 14.257569817907102], [79.00619805830956, 14.254838419582489], [79.0065723238866, 14.252430713573675], [79.0048220609893, 14.250694055058938], [78.9984605993825, 14.251329568005676], [78.99353579351532, 14.249221775488495], [78.99108866885827, 14.24644596244921], [78.99076912678944, 14.242654846787286], [78.99222095750112, 14.23818983080873], [78.99756840351866, 14.232379881122826], [79.00358837927428, 14.230363852115689], [79.01104756182882, 14.225259986854159], [79.01212474663019, 14.223202511029344], [79.01251089034285, 14.219417247170686], [79.01358502062192, 14.217704140674877], [79.0125409792143, 14.215973427430944], [79.01255902867392, 14.213907135081932], [79.01398314130499, 14.212541338816678], [79.01610126561869, 14.2125589214722], [79.02030755945819, 14.21603786761961], [79.02027459039152, 14.219826087145787], [79.0192094927494, 14.220506078856653], [79.01780336046372, 14.219805605097806], [79.01674126012112, 14.220141202059862], [79.01600214445426, 14.223923550486735], [79.01277663344636, 14.22940725591269], [79.00532640355188, 14.23347802088713], [79.00249594203068, 14.234143170837006], [79.0007155324805, 14.235850292586722], [78.99823505395702, 14.236862720877244], [78.99573936144346, 14.239597009568113], [78.9946588988546, 14.241998756737608], [78.99498459045475, 14.245101120829935], [78.99708476210134, 14.24718517891339], [79.00627067537145, 14.246573306724748], [79.00943624322267, 14.247977360011808], [79.01118652796832, 14.249713986885457], [79.0100759509353, 14.255559621433111], [79.00542222983073, 14.262753238452184], [79.0054040507179, 14.264819513368815], [79.0064512360701, 14.266205894084207], [79.00856985100617, 14.266223608610128], [79.01032327334943, 14.267615876733409], [79.01314811814869, 14.267639448318315], [79.01563493660555, 14.265938139968831], [79.02023130841458, 14.265287555718164], [79.0244865656379, 14.263256420015733], [79.02768844771707, 14.260527668053333], [79.03372098281307, 14.257133404188123], [79.03444209164324, 14.255417299533566], [79.0397890515295, 14.249606323399496], [79.03910073699606, 14.247534200012767], [79.0366291776813, 14.247513873873078], [79.03589619558304, 14.250607535255043], [79.03447192713645, 14.251973444386309], [79.0316800978018, 14.248161915114533], [79.03204810651981, 14.246442901879686], [79.0338254235845, 14.245079913531265], [79.0345494621469, 14.243019416073594], [79.03667980759845, 14.24165930791739], [79.03948950702818, 14.243404460171066], [79.04338519463235, 14.242058783521946], [79.04407354007971, 14.244130898315621], [79.04299056218213, 14.24687731450225], [79.04403793179299, 14.248263550925971], [79.04931937608266, 14.250028857061938], [79.0524735096488, 14.252809935929715], [79.05564838252633, 14.253180253222837], [79.05598672029849, 14.254905081252343], [79.05809350064368, 14.25629990350376], [79.06233656371583, 14.255645590020206], [79.06589103263289, 14.25291911950629], [79.06696498501798, 14.251205745911275], [79.07015160031727, 14.250198298634727], [79.07654227096772, 14.246116899304456], [79.07831353182048, 14.245442334514216], [79.08255055942837, 14.245476418841328], [79.08782945345855, 14.247585298484742], [79.09312871247518, 14.247283289570914], [79.10476350627478, 14.249442529242993], [79.11003128436268, 14.252928557293489], [79.11707335877256, 14.255395229144328], [79.13261304702871, 14.2551729931569], [79.13401982768121, 14.255872860254795], [79.13755095955771, 14.255900464841247], [79.14215836459704, 14.253869829449098], [79.14711036829941, 14.25287506261629], [79.15099178483143, 14.253249614435575], [79.15841274691375, 14.252618164954516], [79.15910220598849, 14.254690079989574], [79.15590736704772, 14.25673198665497], [79.1558989670634, 14.25776521615968], [79.15730305402113, 14.258809366365073], [79.16719328388858, 14.258541165949364], [79.17001271726645, 14.259251689971745], [79.17282384734963, 14.260995421768593], [79.17599923690625, 14.261364173446157], [79.17921335288291, 14.25691108408515], [79.17922993882581, 14.254844597771857], [79.17606847193255, 14.252753829991171], [79.17396917514543, 14.250326724618606], [79.1764381946443, 14.250690046169716]], [[79.17396917514543, 14.250326724618606], [79.17115538141668, 14.248927432630659], [79.16762151027004, 14.249244750791314], [79.16268914010382, 14.247829084674725], [79.16235276261231, 14.245759896956619], [79.16271143991425, 14.245073792940893], [79.16835829899046, 14.245461636071202], [79.17116093157922, 14.248238606546307], [79.17292370194119, 14.24859654677246], [79.17397471733862, 14.249637897529103], [79.17396917514543, 14.250326724618606]], [[79.22896342984464, 14.352696347781135], [79.22475660911999, 14.348531587120588], [79.22089233706456, 14.345747097907623], [79.21914775641505, 14.342978482415782], [79.21916952168819, 14.340223126398852], [79.22455791557273, 14.328896968061292], [79.22457146421284, 14.327174863512685], [79.22352258286212, 14.325789252457312], [79.22389750283094, 14.323036528292263], [79.22708744265269, 14.321682600138384], [79.22922845568887, 14.318943037589445], [79.23028814581559, 14.318950935663622], [79.23203811705346, 14.321030623877038], [79.23165520664088, 14.324816640193992], [79.23235629141199, 14.325510745896015], [79.23258810337514, 14.341012377801741], [79.2321997247896, 14.345487229801059], [79.2300313967933, 14.35167100154677], [79.22896342984464, 14.352696347781135]], [[79.26153483398744, 14.343981890193907], [79.2566502392639, 14.336023770613478], [79.25599963138049, 14.328785619113143], [79.251479416577, 14.319452331645904], [79.25151408152833, 14.31497479062078], [79.25046506810146, 14.313589284833292], [79.25047840423183, 14.311867153967594], [79.2515434040468, 14.311186100681331], [79.25541023361188, 14.31362564678572], [79.26071129239253, 14.31332006390321], [79.25963038228828, 14.316067726952804], [79.25996238428257, 14.318825736755544], [79.26239527463291, 14.324010260051075], [79.26555330158507, 14.326788933006968], [79.26509674698364, 14.340219054480023], [79.26259466009962, 14.343989657432527], [79.26153483398744, 14.343981890193907]], [[79.23514451061523, 14.330353689659583], [79.23518222015775, 14.325531769156127], [79.23413596870758, 14.323801775394216], [79.23487206685945, 14.320018375335788], [79.23347530285102, 14.317941332996842], [79.23350762751937, 14.31380825782994], [79.23422753330264, 14.312091393415956], [79.23527912310813, 14.313132535584407], [79.23595328950513, 14.317270862359281], [79.2376871776497, 14.321417055080822], [79.23691613865215, 14.329677970418508], [79.23620156523157, 14.330705990492651], [79.23514451061523, 14.330353689659583]], [[79.26348944647704, 14.319540444927396], [79.26279886925643, 14.317468708943276], [79.26386386692396, 14.316787599486743], [79.26490504304847, 14.319206342680198], [79.26348944647704, 14.319540444927396]], [[79.22576108812528, 14.31065056030263], [79.2218892641771, 14.308899415372718], [79.21693613870097, 14.309895627981069], [79.21623786821928, 14.308857067049153], [79.21626776881426, 14.30506844751592], [79.21769145459079, 14.303701363050731], [79.2194574749716, 14.30371459585754], [79.2254457350124, 14.30582601988645], [79.22649725395009, 14.306867193440995], [79.22717665621529, 14.310316682757872], [79.22576108812528, 14.31065056030263]], [[79.25615921866591, 14.308119996612675], [79.25758005802297, 14.307097075616442], [79.25899292583233, 14.307107428344525], [79.261101629393, 14.308500654803487], [79.26144159985765, 14.31022538024562], [79.260023406224, 14.310903895856253], [79.2564911775553, 14.31087800689966], [79.25615921866591, 14.308119996612675]], [[79.20285421691133, 14.303934107721538], [79.20394118205688, 14.300497937557378], [79.19581493998551, 14.300780857945782], [79.19546724212827, 14.300089345440036], [79.20042292787218, 14.298749148401585], [79.20360166615131, 14.298773180701083], [79.20782907473803, 14.300182832094778], [79.20743764756101, 14.305002027881466], [79.20529654688822, 14.307741381683943], [79.20282409402782, 14.307722699724584], [79.20285421691133, 14.303934107721538]], [[79.19760836714359, 14.297350083993958], [79.1958506595266, 14.296303445611473], [79.19586439451903, 14.29458136347323], [79.19835589384618, 14.292189182237923], [79.19801916888727, 14.290120005726283], [79.19661468800615, 14.289076052909031], [79.18992086600804, 14.286958611961161], [79.18887788357058, 14.284884059280262], [79.18889441524517, 14.282817566688992], [79.19138858503952, 14.280081033638426], [79.19315164750701, 14.280438856429962], [79.19418916198838, 14.28320222625812], [79.1959385318727, 14.285282115404662], [79.20649275315864, 14.290528463991512], [79.21140462355919, 14.294698715658058], [79.21104053949769, 14.296073737063544], [79.20820683096454, 14.297085725616101], [79.20149893992023, 14.296690659284796], [79.19760836714359, 14.297350083993958]], [[79.18880070079844, 14.29452768638986], [79.18775218535102, 14.29314195705603], [79.18846957927445, 14.291769676382762], [79.19093908437385, 14.29213290267143], [79.19021619256688, 14.294194023182994], [79.18880070079844, 14.29452768638986]], [[79.2242032457401, 14.284116896472433], [79.218563301867, 14.282696990510438], [79.21787051349084, 14.280969598979114], [79.22210854017077, 14.281001283194575], [79.22456722411819, 14.282741842085425], [79.2242032457401, 14.284116896472433]], [[79.11720044661337, 14.282605767408288], [79.11438671346215, 14.281205802233979], [79.11475419826081, 14.279486593621328], [79.1165313846766, 14.27812296177113], [79.11971826051229, 14.27711487311667], [79.12330104852019, 14.27094347697329], [79.1250809672935, 14.26923536242311], [79.12614036304518, 14.26924369661028], [79.12715990724823, 14.27407367906701], [79.12643083991121, 14.276823352878795], [79.12109368670963, 14.281603252801261], [79.11720044661337, 14.282605767408288]], [[79.24862041382286, 14.278097761419192], [79.24721573100666, 14.277054087950779], [79.2475928785237, 14.27395684654433], [79.24971185907492, 14.27397242613669], [79.2511165377506, 14.27501608426265], [79.25109792356513, 14.277427075676373], [79.25038626401482, 14.278110741787053], [79.24862041382286, 14.278097761419192]], [[79.18858808408716, 14.276959816388485], [79.18047933628695, 14.275175825814031], [79.17978963514122, 14.273103945236803], [79.18261759029205, 14.272781101994244], [79.18895225528887, 14.275584839652934], [79.18858808408716, 14.276959816388485]], [[79.02416947409795, 14.259120895213629], [79.02347829030573, 14.257393126038586], [79.0245435658937, 14.256713137974119], [79.0270032246879, 14.258111137613732], [79.02699124074388, 14.259488672881039], [79.0262820512486, 14.259827211043996], [79.02416947409795, 14.259120895213629]], [[79.17426408768807, 14.257562110605775], [79.16756866583673, 14.255788583356528], [79.16757979320833, 14.254410934709153], [79.16617845954049, 14.253022430329917], [79.16654827107318, 14.250958672696978], [79.16937038855451, 14.251324780644158], [79.17077451141168, 14.25236885467448], [79.17146686324463, 14.254096334499597], [79.17464215309211, 14.254465092675346], [79.17674979513745, 14.255858955062775], [79.17603247548479, 14.257231209403281], [79.17426408768807, 14.257562110605775]], [[79.0783368512742, 14.24268717616742], [79.07693619475478, 14.241298222040573], [79.07697118651535, 14.237165486191657], [79.07769190196328, 14.235449198434882], [79.08301700982062, 14.232047816291391], [79.0847794348132, 14.232406375842183], [79.08545654760702, 14.235856002841258], [79.08223238009145, 14.241340834142813], [79.08010225669183, 14.242701384239606], [79.0783368512742, 14.24268717616742]], [[79.07305525893628, 14.240922504776268], [79.07237248906085, 14.238161653272522], [79.07379354145864, 14.237139870342242], [79.07484108027369, 14.238525990716191], [79.07482940352375, 14.239903567613155], [79.07411449042581, 14.240931053580459], [79.07305525893628, 14.240922504776268]], [[79.15890271052439, 14.235744762761133], [79.156100381072, 14.232967682060588], [79.1561087649173, 14.231934450296858], [79.1575210856344, 14.23194534967712], [79.15857195433291, 14.232986751943363], [79.15890271052439, 14.235744762761133]]], [[[79.22906357172789, 14.339952762902298], [79.2308406960197, 14.338588256815036], [79.23049824555248, 14.33720793500682], [79.22872113139155, 14.338572439689703], [79.22906357172789, 14.339952762902298]]], [[[79.24590767288176, 14.354544579858308], [79.24804348062298, 14.352493713277038], [79.25122305800414, 14.352517195249282], [79.25370407638732, 14.351502152655915], [79.25654635499168, 14.349456401545744], [79.25797812589202, 14.347055804720794], [79.25764614798086, 14.344297796429265], [79.25204716295455, 14.337367684770278], [79.25068486175431, 14.330813183063958], [79.24928254165297, 14.329425062315554], [79.24751361675031, 14.3297564532552], [79.24501407438079, 14.333182429105106], [79.24462329124432, 14.338001758357624], [79.24283282190969, 14.341088497718495], [79.24064869619917, 14.34933894710363], [79.23921404360439, 14.352083839091703], [79.23954848484325, 14.354497424224022], [79.24590767288176, 14.354544579858308]], [[79.25196971449763, 14.347356027147336], [79.25340418384742, 14.344611035792957], [79.2548172832803, 14.344621439941669], [79.2558664473653, 14.346006942436375], [79.2554945063724, 14.348415326227], [79.2530081884082, 14.350119243724325], [79.25195101110273, 14.349767005022317], [79.25196971449763, 14.347356027147336]], [[79.24881429444348, 14.34423273927139], [79.24638960562652, 14.338014821730535], [79.24641638578609, 14.334570574341614], [79.24749221408852, 14.332511853989725], [79.24855197835122, 14.332519677846697], [79.24889988618035, 14.333211135349613], [79.25096867362377, 14.339770852567193], [79.25094729758241, 14.34252625609079], [79.24881429444348, 14.34423273927139]]]]}}, {"type": "Feature", "properties": {"depth_class": 2, "depth_lo_m": 1.0, "t_s": 29700.327068147024}, "geometry": {"type": "MultiPolygon", "coordinates": [[[[79.15890271052439, 14.235744762761133], [79.1575210856344, 14.23194534967712], [79.1561087649173, 14.231934450296858], [79.156100381072, 14.232967682060588], [79.15890271052439, 14.235744762761133]]], [[[79.08010225669183, 14.242701384239606], [79.08223238009145, 14.241340834142813], [79.08545654760702, 14.235856002841258], [79.08547396045759, 14.233789623810503], [79.08407620616055, 14.23205631572074], [79.07911582765878, 14.234082983219013], [79.07697118651535, 14.237165486191657], [79.07728344125088, 14.241989855802565], [79.0783368512742, 14.24268717616742], [79.08010225669183, 14.242701384239606]], [[79.0783572517087, 14.240276412062595], [79.07838930182695, 14.236488067429772], [79.07981323121673, 14.235121848455426], [79.0837086187022, 14.23377546413013], [79.08404426122186, 14.235844674428089], [79.08224982925806, 14.239274459972162], [79.08011681545288, 14.240979408143621], [79.0783572517087, 14.240276412062595]]], [[[79.07411449042581, 14.240931053580459], [79.07449384559466, 14.237834354813065], [79.07379354145864, 14.237139870342242], [79.07273140587836, 14.23747571619251], [79.07235495148397, 14.240228015605526], [79.07411449042581, 14.240931053580459]]], [[[79.02699124074388, 14.259488672881039], [79.0270032246879, 14.258111137613732], [79.0259529348097, 14.257069218591568], [79.0245435658937, 14.256713137974119], [79.02347829030573, 14.257393126038586], [79.02416647370927, 14.25946527842651], [79.02699124074388, 14.259488672881039]]], [[[79.11720044661337, 14.282605767408288], [79.1228680043344, 14.280583973863022], [79.12643083991121, 14.276823352878795], [79.12715990724823, 14.27407367906701], [79.12614036304518, 14.26924369661028], [79.1250809672935, 14.26923536242311], [79.12330104852019, 14.27094347697329], [79.11971826051229, 14.27711487311667], [79.1165313846766, 14.27812296177113], [79.11475419826081, 14.279486593621328], [79.11438671346215, 14.281205802233979], [79.11508440898086, 14.282244598440883], [79.11720044661337, 14.282605767408288]]], [[[79.2045873952276, 14.308080464328917], [79.20743764756101, 14.305002027881466], [79.20747860850253, 14.299835751452571], [79.20360166615131, 14.298773180701083], [79.20042292787218, 14.298749148401585], [79.19546724212827, 14.300089345440036], [79.19581493998551, 14.300780857945782], [79.20394118205688, 14.300497937557378], [79.20285421691133, 14.303934107721538], [79.20282409402782, 14.307722699724584], [79.2045873952276, 14.308080464328917]]], [[[79.17396917514543, 14.250326724618606], [79.17922993882581, 14.254844597771857], [79.17921335288291, 14.25691108408515], [79.17599923690625, 14.261364173446157], [79.17282384734963, 14.260995421768593], [79.17001271726645, 14.259251689971745], [79.16719328388858, 14.258541165949364], [79.15730305402113, 14.258809366365073], [79.1558989670634, 14.25776521615968], [79.15590736704772, 14.25673198665497], [79.15910220598849, 14.254690079989574], [79.15841274691375, 14.252618164954516], [79.15099178483143, 14.253249614435575], [79.14711036829941, 14.25287506261629], [79.14215836459704, 14.253869829449098], [79.13755095955771, 14.255900464841247], [79.13401982768121, 14.255872860254795], [79.13261304702871, 14.2551729931569], [79.11707335877256, 14.255395229144328], [79.11003128436268, 14.252928557293489], [79.10476350627478, 14.249442529242993], [79.09312871247518, 14.247283289570914], [79.08782945345855, 14.247585298484742], [79.08255055942837, 14.245476418841328], [79.07831353182048, 14.245442334514216], [79.07654227096772, 14.246116899304456], [79.07015160031727, 14.250198298634727], [79.06696498501798, 14.251205745911275], [79.06589103263289, 14.25291911950629], [79.06233656371583, 14.255645590020206], [79.05809350064368, 14.25629990350376], [79.05598672029849, 14.254905081252343], [79.05564838252633, 14.253180253222837], [79.0524735096488, 14.252809935929715], [79.04931937608266, 14.250028857061938], [79.04403793179299, 14.248263550925971], [79.04299056218213, 14.24687731450225], [79.04407354007971, 14.244130898315621], [79.04338519463235, 14.242058783521946], [79.03948950702818, 14.243404460171066], [79.03667980759845, 14.24165930791739], [79.0345494621469, 14.243019416073594], [79.0338254235845, 14.245079913531265], [79.03204810651981, 14.246442901879686], [79.0316800978018, 14.248161915114533], [79.03447192713645, 14.251973444386309], [79.03589619558304, 14.250607535255043], [79.0366291776813, 14.247513873873078], [79.03910073699606, 14.247534200012767], [79.0397890515295, 14.249606323399496], [79.03444209164324, 14.255417299533566], [79.03372098281307, 14.257133404188123], [79.02768844771707, 14.260527668053333], [79.0244865656379, 14.263256420015733], [79.02023130841458, 14.265287555718164], [79.01563493660555, 14.265938139968831], [79.01314811814869, 14.267639448318315], [79.01032327334943, 14.267615876733409], [79.00856985100617, 14.266223608610128], [79.0064512360701, 14.266205894084207], [79.0054040507179, 14.264819513368815], [79.00542222983073, 14.262753238452184], [79.0100759509353, 14.255559621433111], [79.01118652796832, 14.249713986885457], [79.00943624322267, 14.247977360011808], [79.00627067537145, 14.246573306724748], [78.99708476210134, 14.24718517891339], [78.99498459045475, 14.245101120829935], [78.9946588988546, 14.241998756737608], [78.99573936144346, 14.239597009568113], [78.99823505395702, 14.236862720877244], [79.0007155324805, 14.235850292586722], [79.00249594203068, 14.234143170837006], [79.00532640355188, 14.23347802088713], [79.01277663344636, 14.22940725591269], [79.01600214445426, 14.223923550486735], [79.01674126012112, 14.220141202059862], [79.01780336046372, 14.219805605097806], [79.0192094927494, 14.220506078856653], [79.02027459039152, 14.219826087145787], [79.02030755945819, 14.21603786761961], [79.01610126561869, 14.2125589214722], [79.01398314130499, 14.212541338816678], [79.01255902867392, 14.213907135081932], [79.0125409792143, 14.215973427430944], [79.01358502062192, 14.217704140674877], [79.01251089034285, 14.219417247170686], [79.01212474663019, 14.223202511029344], [79.01104756182882, 14.225259986854159], [79.00358837927428, 14.230363852115689], [78.99756840351866, 14.232379881122826], [78.99222095750112, 14.23818983080873], [78.99076912678944, 14.242654846787286], [78.99108866885827, 14.24644596244921], [78.99353579351532, 14.249221775488495], [78.9984605993825, 14.251329568005676], [79.0048220609893, 14.250694055058938], [79.0065723238866, 14.252430713573675], [79.00619805830956, 14.254838419582489], [79.00334913462319, 14.257569817907102], [78.99976357890321, 14.263739028532246], [79.0000771765555, 14.26821890525573], [79.00147137098917, 14.270297025425258], [79.0035809151377, 14.27134792488269], [79.01169943610948, 14.271760230400972], [79.01382716592558, 14.270744762899588], [79.01806450257578, 14.270780053019035], [79.02161065839664, 14.269087492113453], [79.02514476336296, 14.268772403981453], [79.03154263192332, 14.264003618446402], [79.03472952879018, 14.262996688870915], [79.04079477631302, 14.255813988466205], [79.04399043632476, 14.253773752048378], [79.04751542184198, 14.254491461501589], [79.05206422966754, 14.259350445192391], [79.05664865094695, 14.260076686808], [79.05875842829226, 14.261127118943648], [79.06369897188604, 14.261511716199788], [79.06582642857079, 14.260495741129944], [79.06583817758563, 14.259118173940726], [79.06690629556998, 14.258093589333017], [79.0697340487397, 14.257772082763138], [79.07611911611565, 14.25437951299343], [79.09025471840265, 14.25311544699495], [79.10046868631903, 14.256296810269117], [79.10502167187691, 14.260810529591852], [79.10961790992414, 14.260158174496443], [79.1134735207557, 14.263632956519366], [79.12089192706539, 14.26334713292101], [79.12653619349672, 14.264080416680569], [79.13148845304775, 14.263086010808351], [79.14985097841455, 14.263229250116186], [79.15760300721371, 14.26535588585729], [79.16466287982759, 14.265754791347803], [79.17240686029066, 14.26891420973545], [79.17556849411541, 14.271005046245767], [79.18086843731659, 14.270701138729967], [79.18615459651883, 14.272119187912695], [79.18896877506826, 14.273518345366664], [79.19282047152464, 14.277680845564625], [79.19668602214763, 14.280121213725312], [79.19912255302808, 14.284617350732203], [79.20826956789584, 14.289164092189408], [79.21107322243655, 14.291940704840288], [79.21529513722167, 14.294039054994887], [79.21598521639798, 14.296110874817785], [79.22022894212559, 14.295453783411103], [79.22340496350417, 14.295821967334813], [79.22691799387268, 14.298259276523005], [79.22866509575336, 14.300683393451152], [79.23183852364525, 14.301395897609241], [79.23393621932324, 14.304167034006971], [79.23640330116434, 14.30487423557054], [79.23955536144345, 14.308342040259557], [79.24233285819437, 14.314562598052014], [79.24189650205628, 14.325237140532769], [79.23831837524776, 14.33106615574612], [79.23758765749683, 14.334160719333948], [79.23475083499521, 14.3355174028016], [79.2336020156147, 14.346875449200878], [79.23108312754198, 14.352712177973888], [79.22966187476788, 14.353734890021313], [79.22787106295827, 14.356821474679963], [79.2271373672351, 14.360260394105586], [79.22501488763189, 14.360588940531748], [79.22431373200101, 14.35989480512099], [79.22432731307073, 14.35817270529126], [79.22682746681514, 14.354747022201504], [79.22684102359537, 14.353024919271002], [79.2257947384663, 14.3512948852067], [79.22333807669509, 14.349209841222653], [79.21981620252906, 14.34780566026156], [79.2191178216112, 14.346767095842933], [79.21558510976153, 14.346740534131245], [79.21524002167274, 14.345704619178736], [79.21666672438305, 14.34399315678881], [79.21668579718117, 14.34158222378392], [79.2152891041701, 14.339505081856858], [79.2117619764298, 14.33878963993178], [79.20891402973955, 14.341523659630953], [79.20607697821377, 14.342879968582535], [79.20286466059329, 14.346988892943026], [79.20109281900046, 14.347664329254389], [79.20104606760157, 14.35351939825205], [79.1999724695257, 14.355233428335], [79.19959440645907, 14.35833048275907], [79.19817023872837, 14.359697399717486], [79.19636792723291, 14.364161347441968], [79.19316892481703, 14.366548007844425], [79.19208966191475, 14.368950813331471], [79.18959715538405, 14.371342806818346], [79.18215272898551, 14.374385652135835], [79.17966006224276, 14.376777520394972], [79.1827953224976, 14.382312543814642], [79.18526300464433, 14.383020354092569], [79.19345584560972, 14.374816634557407], [79.1977038576287, 14.373815716096104], [79.207634980647, 14.369069010101319], [79.21009989239215, 14.370120971091488], [79.21006700518498, 14.374253973948004], [79.20827574491696, 14.377340355409318], [79.20789222886228, 14.38112625906744], [79.20538871849955, 14.384896083301076], [79.2043012095687, 14.388332192047839], [79.20287685455332, 14.389699115274908], [79.20035935382226, 14.395190935029845], [79.19359318203006, 14.401683570817891], [79.19251093443543, 14.404430764923575], [79.18965351543896, 14.408197650344786], [79.18146756238755, 14.415367826570316], [79.18074125725994, 14.41777325111951], [79.18143962742921, 14.418811928034117], [79.18320372424482, 14.419169946695856], [79.18852388733085, 14.416799812838786], [79.18995685155673, 14.414399773873269], [79.19956427131591, 14.40620680423287], [79.20416072842477, 14.405897360767844], [79.20382942007609, 14.403139355663942], [79.20454990988296, 14.401422652891677], [79.20917649439781, 14.397324524691667], [79.2109734230666, 14.393549325475336], [79.21488210297878, 14.3908233716405], [79.21597220719468, 14.387042779988935], [79.21846466148689, 14.384650499137145], [79.21988071360266, 14.384316722000577], [79.22202249439927, 14.381577316964034], [79.23052946515439, 14.378196691989144], [79.23268188651663, 14.37407948329147], [79.23728311131195, 14.373080470002492], [79.24014467069453, 14.368624009255056], [79.24298997708796, 14.366234039014538], [79.24763123491168, 14.36006843817433], [79.25152553981066, 14.359063879112973], [79.25437861768734, 14.355640465904207], [79.2589900584352, 14.353263269422321], [79.2636173356431, 14.348819406628573], [79.26645685209762, 14.347117950304966], [79.26718724724815, 14.344023260796149], [79.26896685459275, 14.342314018067027], [79.2700478196711, 14.339566319619015], [79.27007159974558, 14.336466458266914], [79.26798374714262, 14.332317848662099], [79.27049615643722, 14.327169442960797], [79.27051990892103, 14.324069577641863], [79.26694778326272, 14.329210253558895], [79.26691074235015, 14.334032254687452], [79.26619098348044, 14.335749235533585], [79.26650982770683, 14.340229385877105], [79.26508349493925, 14.341941194687253], [79.263999804378, 14.345033289619785], [79.26081499533032, 14.34569884515546], [79.25905924865445, 14.344308175085182], [79.25732482316899, 14.340162081494148], [79.25592240620502, 14.338773989827294], [79.2545413309055, 14.334630481677687], [79.25243511800615, 14.332892750837456], [79.25319762333916, 14.325665002655107], [79.25075159993082, 14.322202537562417], [79.25008515956206, 14.317030943912913], [79.24904415723871, 14.314612154433561], [79.24873097693035, 14.309443162903177], [79.2399836579463, 14.298700770528646], [79.23929602642463, 14.296284569954725], [79.23261490603461, 14.292446143440136], [79.22559974651541, 14.286193965022935], [79.21854704106502, 14.284763516881428], [79.21609110465049, 14.282678478258488], [79.21186937989079, 14.280580164145533], [79.21011988019316, 14.278500378464937], [79.20342618561475, 14.276383337572032], [79.20203268712838, 14.273961749801545], [79.20205181852555, 14.271550821993124], [79.20135098484968, 14.270856654150188], [79.20028333036005, 14.271881907276368], [79.1985203150554, 14.271524143579057], [79.19431819408226, 14.267014640941147], [79.19009974242964, 14.264571579760837], [79.1876470530527, 14.262141884878503], [79.1852192174721, 14.25661243128179], [79.18206594172067, 14.253488488793659], [79.17959963916805, 14.252780806370788], [79.1764381946443, 14.250690046169716], [79.17396917514543, 14.250326724618606]], [[79.20639371648049, 14.391792438605005], [79.20748396554981, 14.38801190346564], [79.2075004506251, 14.385945407554306], [79.21000942738631, 14.38148672530319], [79.2107544496919, 14.376670235501777], [79.21218414616312, 14.37461441382271], [79.21222246918953, 14.36979257155845], [79.2090646465381, 14.36701320372742], [79.20552889006221, 14.367330871600272], [79.20268872752703, 14.369031512616356], [79.19950348848272, 14.369696182555423], [79.19738918648663, 14.368991222211678], [79.19740298252599, 14.367269149129367], [79.19990638399766, 14.363499396839028], [79.20028170696158, 14.36074675909468], [79.20171137243058, 14.358690997428903], [79.20208940799316, 14.355593936390422], [79.20316574068381, 14.35353547895213], [79.20319870502593, 14.349402484564227], [79.20568807054835, 14.347354715259815], [79.20747633593062, 14.344612739602367], [79.21174285486997, 14.341200567004787], [79.21315590105074, 14.34121121686839], [79.2142075017239, 14.342252454448642], [79.21384059288397, 14.343971886439578], [79.21169913509296, 14.346711255526719], [79.2127398235748, 14.349130173691496], [79.2148567402305, 14.349490563525968], [79.21731604095501, 14.351231267839598], [79.22191138194405, 14.35092134510527], [79.22402019400508, 14.352314916929762], [79.22435446980364, 14.35472850484461], [79.2222130101798, 14.35746796957284], [79.22148466852032, 14.360218022325059], [79.22499587765498, 14.36299988063147], [79.22711566774777, 14.363015757433796], [79.22818369675478, 14.36199042696545], [79.22928151127886, 14.357176460678755], [79.23177887923543, 14.354095136598456], [79.23530634045899, 14.354810314591813], [79.2381191686091, 14.356553457924049], [79.24553828556331, 14.356608508701587], [79.24802472823283, 14.354904685031842], [79.25227222908157, 14.353902714443192], [79.25475592850465, 14.352543236360633], [79.259741864067, 14.347413203574709], [79.26221482792532, 14.347431342705574], [79.26184826345407, 14.349150889175753], [79.25935665462741, 14.351543731157362], [79.25368271556317, 14.354257557497645], [79.25082697268638, 14.358025388420801], [79.24693268456436, 14.359029937760424], [79.23909552291146, 14.367238438640697], [79.23765531611706, 14.370672146359535], [79.236231264672, 14.372039308654188], [79.23198608193748, 14.372696521828475], [79.2302059590823, 14.374405423333664], [79.22912702353314, 14.376808437691125], [79.21991071726467, 14.380528118977121], [79.21812498364164, 14.382925747090795], [79.21421648569702, 14.385651776685991], [79.2124169474405, 14.38977143339897], [79.20958201284623, 14.390783294743342], [79.20815766873132, 14.392150251457082], [79.20639371648049, 14.391792438605005]], [[79.23955117684774, 14.354153001278839], [79.23921404360439, 14.352083839091703], [79.24064869619917, 14.34933894710363], [79.24283282190969, 14.341088497718495], [79.24462329124432, 14.338001758357624], [79.24501407438079, 14.333182429105106], [79.24751361675031, 14.3297564532552], [79.24928254165297, 14.329425062315554], [79.25068486175431, 14.330813183063958], [79.25135665970477, 14.335295924158826], [79.25274301463611, 14.338750592808275], [79.25799409917967, 14.34498924515434], [79.2576168572997, 14.348086488196238], [79.25370407638732, 14.351502152655915], [79.25122305800414, 14.352517195249282], [79.24804348062298, 14.352493713277038], [79.24519841184932, 14.35488377274268], [79.23955117684774, 14.354153001278839]], [[79.2382430458128, 14.340710006561446], [79.24001744093961, 14.339689849525007], [79.23823497147721, 14.341743275804577], [79.2382430458128, 14.340710006561446]], [[79.24542892761518, 14.325263271968813], [79.24653413395181, 14.319415873397187], [79.24830564825484, 14.318740054829595], [79.248988076445, 14.321845095080596], [79.24650470982432, 14.323204550532198], [79.24613808982339, 14.324924066943032], [79.24542892761518, 14.325263271968813]], [[79.24585174371083, 14.316310830168236], [79.24273162417474, 14.308709989953579], [79.23396581322358, 14.30037837650291], [79.2332701732704, 14.29899543581948], [79.2290425721652, 14.297586220987746], [79.22376897407975, 14.294446918194268], [79.21812607184377, 14.293371394282644], [79.21111133932865, 14.287118832009629], [79.20653642116196, 14.285017765224291], [79.20444197106183, 14.281902023969742], [79.19564574157286, 14.277702269085637], [79.18723057377336, 14.270060759339797], [79.18761126049161, 14.266619289667183], [79.18973285356157, 14.266290978475626], [79.19395133016995, 14.2687340491303], [79.19814799243173, 14.273932395509103], [79.20026144358592, 14.274637250538063], [79.20341252631921, 14.278105429523022], [79.20763956285039, 14.279515041324826], [79.21009537994551, 14.281600154644224], [79.21219807142239, 14.283682595415113], [79.21358629661957, 14.286792981569514], [79.21570264307381, 14.287153297980636], [79.21816133075173, 14.288893924262805], [79.21957405481695, 14.288904498049432], [79.22170938009792, 14.28685381382537], [79.22347527286422, 14.28686700158749], [79.22487988468204, 14.287910808807801], [79.22557274386456, 14.289638187630743], [79.2273332660372, 14.290340194301752], [79.23048769080573, 14.293463660991348], [79.23788055793509, 14.296618532240062], [79.23926653061947, 14.300073239675394], [79.24276911252856, 14.303888040938315], [79.24345947237876, 14.305959811824232], [79.24730741615329, 14.310810450192179], [79.24726466024403, 14.31632125915161], [79.24585174371083, 14.316310830168236]], [[79.00359608567484, 14.269626032006357], [79.00220794428834, 14.266859165410631], [79.00362035432667, 14.26687100285479], [79.00572685098841, 14.268266259791403], [79.00606783635494, 14.269646731580117], [79.00359608567484, 14.269626032006357]], [[79.18691875341939, 14.264891839304168], [79.18411020784201, 14.262803840613891], [79.17952500791604, 14.262079995340885], [79.1795443619238, 14.259669095228567], [79.18203006167077, 14.257965882919683], [79.18414330214551, 14.25867085836784], [79.18691875341939, 14.264891839304168]], [[79.16044483541494, 14.263311245546378], [79.15445285470099, 14.261887201611504], [79.15376062245228, 14.260159686127075], [79.15552624062522, 14.260173352858445], [79.15657721341304, 14.261214776231588], [79.16187131481033, 14.261600088524713], [79.16044483541494, 14.263311245546378]], [[79.13081343423895, 14.259292020586757], [79.1279913395496, 14.258925451846883], [79.12764675263735, 14.257889466239938], [79.13224008562283, 14.257581064455353], [79.13434744595882, 14.258975273563468], [79.13398582713519, 14.260005726566094], [79.13151399434493, 14.259986366445883], [79.13081343423895, 14.259292020586757]], [[79.14565006701964, 14.25871901988553], [79.14141828188575, 14.257997211656956], [79.14142674795134, 14.25696399066316], [79.14249455686192, 14.255939023536728], [79.1449663610494, 14.255958264504153], [79.14601726232098, 14.256999726584112], [79.14565006701964, 14.25871901988553]], [[79.04928977008827, 14.253472743462394], [79.04682998934007, 14.252074962189715], [79.04117463127994, 14.252717407271822], [79.04083343671854, 14.251336959608858], [79.04191052557051, 14.249279334641862], [79.04367594401202, 14.249293818612943], [79.04824826990017, 14.251397746670685], [79.04929865271654, 14.252439577652783], [79.04928977008827, 14.253472743462394]], [[79.00904389170479, 14.25245135792207], [79.00659350096625, 14.250020055248005], [79.00448412419223, 14.248969204753458], [79.00449017999337, 14.248280445964664], [79.00696169948394, 14.248301105995164], [79.00871800840427, 14.249348988347139], [79.00975911659535, 14.251424110388847], [79.00904389170479, 14.25245135792207]], [[78.99320403479418, 14.246808166389153], [78.99250703323592, 14.245769095247649], [78.99252225939533, 14.244047210389779], [78.9935723233893, 14.245089249963046], [78.99391017334929, 14.246814104655986], [78.99320403479418, 14.246808166389153]], [[79.037359157238, 14.244764593298385], [79.03665300638832, 14.244758784390614], [79.0366589627696, 14.244070011914706], [79.03736511148033, 14.244075820530128], [79.037359157238, 14.244764593298385]], [[78.99754412264255, 14.235134907998894], [78.99932757875368, 14.233083433455908], [79.00038672670671, 14.2330923045327], [79.00002155182894, 14.23446686355239], [78.9989563312766, 14.235146747270381], [78.99754412264255, 14.235134907998894]], [[79.00570061190537, 14.231070308821849], [79.01209764699009, 14.226301946186773], [79.01317181977129, 14.224588847114543], [79.01391399246626, 14.2204621318697], [79.01462306441464, 14.220123615898077], [79.01494904214381, 14.223225989561525], [79.01243864421077, 14.227682410250866], [79.00711280234111, 14.23108209657809], [79.00570061190537, 14.231070308821849]], [[79.01430310181554, 14.21633247744114], [79.013974124304, 14.213574486052321], [79.01609225821912, 14.213592070037937], [79.0167923002994, 14.214286693156389], [79.01606823495209, 14.216347132416987], [79.01430310181554, 14.21633247744114]]], [[[79.1736243778026, 14.249290781006605], [79.17116093157922, 14.248238606546307], [79.16941205546074, 14.246158590199933], [79.16730176912328, 14.245109090424831], [79.16271143991425, 14.245073792940893], [79.16235276261231, 14.245759896956619], [79.16268914010382, 14.247829084674725], [79.16585874829539, 14.248886771781512], [79.17115538141668, 14.248927432630659], [79.17396917514543, 14.250326724618606], [79.1736243778026, 14.249290781006605]]], [[[79.25038626401482, 14.278110741787053], [79.2511165377506, 14.27501608426265], [79.24971185907492, 14.27397242613669], [79.2475928785237, 14.27395684654433], [79.24721573100666, 14.277054087950779], [79.24862041382286, 14.278097761419192], [79.25038626401482, 14.278110741787053]]], [[[79.22718746465836, 14.308938995028264], [79.2254457350124, 14.30582601988645], [79.22262819225656, 14.30477164559711], [79.21769145459079, 14.303701363050731], [79.21626776881426, 14.30506844751592], [79.21623786821928, 14.308857067049153], [79.21693613870097, 14.309895627981069], [79.2218892641771, 14.308899415372718], [79.22682073736698, 14.310658469360291], [79.22718746465836, 14.308938995028264]]], [[[79.26108837746618, 14.310222795936971], [79.261101629393, 14.308500654803487], [79.25899292583233, 14.307107428344525], [79.25758005802297, 14.307097075616442], [79.25615921866591, 14.308119996612675], [79.2564911775553, 14.31087800689966], [79.260023406224, 14.310903895856253], [79.26108837746618, 14.310222795936971]]], [[[79.26491298216169, 14.31817305671103], [79.26386386692396, 14.316787599486743], [79.26279886925643, 14.317468708943276], [79.26348944647704, 14.319540444927396], [79.26454915891608, 14.319548190505737], [79.26491298216169, 14.31817305671103]]], [[[79.23620156523157, 14.330705990492651], [79.2376871776497, 14.321417055080822], [79.23595328950513, 14.317270862359281], [79.23527912310813, 14.313132535584407], [79.23422753330264, 14.312091393415956], [79.23350762751937, 14.31380825782994], [79.23347530285102, 14.317941332996842], [79.23487206685945, 14.320018375335788], [79.23413596870758, 14.323801775394216], [79.23518222015775, 14.325531769156127], [79.23514451061523, 14.330353689659583], [79.23620156523157, 14.330705990492651]]], [[[79.22213684631531, 14.367111714706029], [79.22215045115584, 14.365389617964624], [79.2200251962443, 14.366062532097487], [79.2200142989776, 14.367440207836976], [79.22071818398915, 14.367789937712903], [79.22213684631531, 14.367111714706029]]]]}}, {"type": "Feature", "properties": {"depth_class": 3, "depth_lo_m": 2.0, "t_s": 29700.327068147024}, "geometry": {"type": "MultiPolygon", "coordinates": [[[[79.01606823495209, 14.216347132416987], [79.0167923002994, 14.214286693156389], [79.01609225821912, 14.213592070037937], [79.01361809590493, 14.213915935883495], [79.01360306289197, 14.215637847310152], [79.01430310181554, 14.21633247744114], [79.01606823495209, 14.216347132416987]]], [[[79.00570061190537, 14.231070308821849], [79.01243864421077, 14.227682410250866], [79.01494904214381, 14.223225989561525], [79.01462306441464, 14.220123615898077], [79.01391399246626, 14.2204621318697], [79.01317181977129, 14.224588847114543], [79.01209764699009, 14.226301946186773], [79.0103173693617, 14.22800915804824], [79.00712790152625, 14.229360194186969], [79.00570061190537, 14.231070308821849]]], [[[78.9989563312766, 14.235146747270381], [79.00002155182894, 14.23446686355239], [79.00038672670671, 14.2330923045327], [78.99861844713834, 14.233421895397925], [78.99754412264255, 14.235134907998894], [78.9989563312766, 14.235146747270381]]], [[[79.08082879363903, 14.240296296208783], [79.08368247433025, 14.2368750293254], [79.0837086187022, 14.23377546413013], [79.07981323121673, 14.235121848455426], [79.07838930182695, 14.236488067429772], [79.0783572517087, 14.240276412062595], [79.07941065839924, 14.240973727194524], [79.08082879363903, 14.240296296208783]]], [[[79.03665300638832, 14.244758784390614], [79.037359157238, 14.244764593298385], [79.03736511148033, 14.244075820530128], [79.0366589627696, 14.244070011914706], [79.03665300638832, 14.244758784390614]]], [[[78.9935723233893, 14.245089249963046], [78.99252225939533, 14.244047210389779], [78.99320403479418, 14.246808166389153], [78.99391017334929, 14.246814104655986], [78.9935723233893, 14.245089249963046]]], [[[79.00939999440367, 14.252109924704643], [79.00976515747915, 14.250735349521788], [79.00836795407868, 14.249001660670569], [79.00449017999337, 14.248280445964664], [79.00448412419223, 14.248969204753458], [79.00659350096625, 14.250020055248005], [79.00833772906743, 14.252445462146259], [79.00939999440367, 14.252109924704643]]], [[[79.04894852404094, 14.252092301045897], [79.04367594401202, 14.249293818612943], [79.04191052557051, 14.249279334641862], [79.04083343671854, 14.251336959608858], [79.04117463127994, 14.252717407271822], [79.04682998934007, 14.252074962189715], [79.04928977008827, 14.253472743462394], [79.04894852404094, 14.252092301045897]]], [[[79.00572685098841, 14.268266259791403], [79.00362035432667, 14.26687100285479], [79.00220794428834, 14.266859165410631], [79.00219580203928, 14.268236678881154], [79.00359608567484, 14.269626032006357], [79.00606783635494, 14.269646731580117], [79.00572685098841, 14.268266259791403]]], [[[79.14601726232098, 14.256999726584112], [79.1449663610494, 14.255958264504153], [79.14249455686192, 14.255939023536728], [79.14142674795134, 14.25696399066316], [79.14141828188575, 14.257997211656956], [79.14565006701964, 14.25871901988553], [79.14601726232098, 14.256999726584112]]], [[[79.13434744595882, 14.258975273563468], [79.13224008562283, 14.257581064455353], [79.12764675263735, 14.257889466239938], [79.1279913395496, 14.258925451846883], [79.13011003895886, 14.258942077887957], [79.13151399434493, 14.259986366445883], [79.13398582713519, 14.260005726566094], [79.13434744595882, 14.258975273563468]]], [[[79.1865793901125, 14.263167074812223], [79.18552825491582, 14.262125766427463], [79.18449367241614, 14.25901796280851], [79.18273631309674, 14.257971266651397], [79.18061203430632, 14.258643938355572], [79.17918570374123, 14.260355227104347], [79.17952500791604, 14.262079995340885], [79.18411020784201, 14.262803840613891], [79.18621247880228, 14.264886465406661], [79.18691875341939, 14.264891839304168], [79.1865793901125, 14.263167074812223]]], [[[79.16044483541494, 14.263311245546378], [79.16186573101379, 14.262288910242946], [79.1611678532028, 14.261250230918716], [79.15657721341304, 14.261214776231588], [79.15552624062522, 14.260173352858445], [79.15376062245228, 14.260159686127075], [79.15375221058567, 14.261192914080944], [79.15515630528836, 14.262237078019783], [79.15832605863416, 14.26329488407875], [79.16044483541494, 14.263311245546378]]], [[[79.24765262312538, 14.311846332161608], [79.24345947237876, 14.305959811824232], [79.24276911252856, 14.303888040938315], [79.23926653061947, 14.300073239675394], [79.23788055793509, 14.296618532240062], [79.23048769080573, 14.293463660991348], [79.2273332660372, 14.290340194301752], [79.22557274386456, 14.289638187630743], [79.22487988468204, 14.287910808807801], [79.22347527286422, 14.28686700158749], [79.22100031643329, 14.28719295648304], [79.21957405481695, 14.288904498049432], [79.21358629661957, 14.286792981569514], [79.21219807142239, 14.283682595415113], [79.21009537994551, 14.281600154644224], [79.20763956285039, 14.279515041324826], [79.20341252631921, 14.278105429523022], [79.20026144358592, 14.274637250538063], [79.19814799243173, 14.273932395509103], [79.19395133016995, 14.2687340491303], [79.18973285356157, 14.266290978475626], [79.18761126049161, 14.266619289667183], [79.18723057377336, 14.270060759339797], [79.19564574157286, 14.277702269085637], [79.20444197106183, 14.281902023969742], [79.20653642116196, 14.285017765224291], [79.21111133932865, 14.287118832009629], [79.21812607184377, 14.293371394282644], [79.22376897407975, 14.294446918194268], [79.2290425721652, 14.297586220987746], [79.2332701732704, 14.29899543581948], [79.23396581322358, 14.30037837650291], [79.24273162417474, 14.308709989953579], [79.24585174371083, 14.316310830168236], [79.24726466024403, 14.31632125915161], [79.24765262312538, 14.311846332161608]]], [[[79.24614611812133, 14.323890791839156], [79.248988076445, 14.321845095080596], [79.24830564825484, 14.318740054829595], [79.24653413395181, 14.319415873397187], [79.24542892761518, 14.325263271968813], [79.24613808982339, 14.324924066943032], [79.24614611812133, 14.323890791839156]]], [[[79.23823497147721, 14.341743275804577], [79.24001475247518, 14.340034272975943], [79.24001744093961, 14.339689849525007], [79.23860169302861, 14.340023783923767], [79.23823497147721, 14.341743275804577]]], [[[79.20922318272326, 14.391469451116329], [79.21312910182998, 14.389087941046563], [79.21421648569702, 14.385651776685991], [79.21812498364164, 14.382925747090795], [79.21991071726467, 14.380528118977121], [79.22912702353314, 14.376808437691125], [79.2302059590823, 14.374405423333664], [79.23198608193748, 14.372696521828475], [79.236231264672, 14.372039308654188], [79.23765531611706, 14.370672146359535], [79.23909552291146, 14.367238438640697], [79.24693268456436, 14.359029937760424], [79.25082697268638, 14.358025388420801], [79.25368271556317, 14.354257557497645], [79.25935665462741, 14.351543731157362], [79.26184826345407, 14.349150889175753], [79.26221482792532, 14.347431342705574], [79.259741864067, 14.347413203574709], [79.25475592850465, 14.352543236360633], [79.25227222908157, 14.353902714443192], [79.24802472823283, 14.354904685031842], [79.24553828556331, 14.356608508701587], [79.2381191686091, 14.356553457924049], [79.23530634045899, 14.354810314591813], [79.23177887923543, 14.354095136598456], [79.22928151127886, 14.357176460678755], [79.22818369675478, 14.36199042696545], [79.22711566774777, 14.363015757433796], [79.22499587765498, 14.36299988063147], [79.22148466852032, 14.360218022325059], [79.2222130101798, 14.35746796957284], [79.22435446980364, 14.35472850484461], [79.22402019400508, 14.352314916929762], [79.22191138194405, 14.35092134510527], [79.21731604095501, 14.351231267839598], [79.21203874160993, 14.34843600979186], [79.21206060241074, 14.345680665753603], [79.21419931634766, 14.34328571005468], [79.2142075017239, 14.342252454448642], [79.21315590105074, 14.34121121686839], [79.21174285486997, 14.341200567004787], [79.20818834381238, 14.343929244822096], [79.20319870502593, 14.349402484564227], [79.20316574068381, 14.35353547895213], [79.20208940799316, 14.355593936390422], [79.20171137243058, 14.358690997428903], [79.20028170696158, 14.36074675909468], [79.19990638399766, 14.363499396839028], [79.19740298252599, 14.367269149129367], [79.19738918648663, 14.368991222211678], [79.19844357769145, 14.369688119332832], [79.20127276148929, 14.369365195415657], [79.20694483971947, 14.366997161055563], [79.21012181138254, 14.367365635012806], [79.21187463753326, 14.369101068657484], [79.21218414616312, 14.37461441382271], [79.2107544496919, 14.376670235501777], [79.21000942738631, 14.38148672530319], [79.2075004506251, 14.385945407554306], [79.20748396554981, 14.38801190346564], [79.20640746634528, 14.390070360286293], [79.20674430663179, 14.392139534736053], [79.20922318272326, 14.391469451116329]], [[79.22038122185832, 14.365720768485426], [79.22215045115584, 14.365389617964624], [79.2224901503868, 14.36711436716126], [79.22142479378702, 14.367795246574062], [79.2200142989776, 14.367440207836976], [79.22038122185832, 14.365720768485426]]]]}}]}