{"type": "FeatureCollection", "features": [{"type": "Feature", "properties": {"depth_class": 1, "depth_lo_m": 0.3, "t_s": 42300.29097123646}, "geometry": {"type": "MultiPolygon", "coordinates": [[[[79.00463542220933, 14.231750222376737], [79.00994623402053, 14.230072503896546], [79.01279168788982, 14.227685347331175], [79.01637621234055, 14.221515803103932], [79.0195505306757, 14.221886537873932], [79.02132769791919, 14.220523624848338], [79.02171966913033, 14.216049556950844], [79.02067556682104, 14.2143188719775], [79.01891644127093, 14.213615486208635], [79.01751935036573, 14.211881866481264], [79.0139921575822, 14.211508191486345], [79.01186201109948, 14.212868119406187], [79.01148190310485, 14.215964620613429], [79.01216989820551, 14.218036783871788], [79.0114397540188, 14.220785964845978], [79.01248380347675, 14.222516684036457], [79.01246875240055, 14.224238593037844], [79.00961128214381, 14.228003275925209], [79.00535663226347, 14.230034220290435], [79.0046414699267, 14.231061462533408], [79.00463542220933, 14.231750222376737]], [[79.01815339219868, 14.220152915754356], [79.01641525626744, 14.217038827487833], [79.01324101536012, 14.216668060368143], [79.01254398765876, 14.215629045399083], [79.01327409385694, 14.212879856043], [79.01610126561869, 14.2125589214722], [79.01819839683871, 14.214987168333762], [79.01995752948092, 14.215690560402804], [79.02064860126119, 14.217418325548406], [79.01991855910141, 14.220167546157368], [79.01815339219868, 14.220152915754356]]], [[[78.99495721339869, 14.248200517804884], [78.9939193036038, 14.245780972971355], [78.99286010070593, 14.245772065461002], [78.99319794541226, 14.247496920493976], [78.99425107007745, 14.248194582070692], [78.99495721339869, 14.248200517804884]]], [[[79.00941207863382, 14.250732403309154], [79.00660862502863, 14.24829815612742], [79.00484022663859, 14.24862777843674], [79.00833772906743, 14.252445462146259], [79.00939999440367, 14.252109924704643], [79.00941207863382, 14.250732403309154]]], [[[79.080286345286, 14.262679131955288], [79.08347309294126, 14.26167152026909], [79.08349346713261, 14.259260752706338], [79.08279307445079, 14.258566284081496], [79.08067443677503, 14.258549238154322], [79.07818810437425, 14.260251299107352], [79.0781793482486, 14.261284481958343], [79.080286345286, 14.262679131955288]]], [[[79.09502740084648, 14.273474438436134], [79.0939737991265, 14.272777169267746], [79.09396800441786, 14.273465963502773], [79.09502740084648, 14.273474438436134]]], [[[79.1030917779148, 14.28042723346568], [79.10452165349058, 14.278372089298285], [79.10240857494219, 14.277666416147708], [79.10203523060076, 14.280074391835095], [79.1030917779148, 14.28042723346568]]], [[[79.11892739814174, 14.244732677313422], [79.12036827828598, 14.241299773694987], [79.12038538053808, 14.239233353651114], [79.11899586030789, 14.236467004110674], [79.11688309375461, 14.235761499593597], [79.11545935402852, 14.237127966968828], [79.11400699720363, 14.241938444375828], [79.11680598822896, 14.245060370735448], [79.11892739814174, 14.244732677313422]]], [[[79.18325759070879, 14.281052438903503], [79.1885522713731, 14.281437217962505], [79.18926410679656, 14.280753759852535], [79.18928338357036, 14.27834285044164], [79.18858257524668, 14.27764864751496], [79.18435297200064, 14.276583129870268], [79.18011234902332, 14.276895197572632], [79.18045166947661, 14.278619966000551], [79.18325759070879, 14.281052438903503]]], [[[79.18675611260582, 14.285212341635125], [79.1871065233675, 14.285559446830922], [79.18710928166021, 14.285215031783563], [79.18675611260582, 14.285212341635125]]], [[[79.27607870734151, 14.290009443587417], [79.2757360107635, 14.288629158642548], [79.2743258720006, 14.288274487106134], [79.2750191268468, 14.290001764958285], [79.27607870734151, 14.290009443587417]]], [[[79.18452103038055, 14.299661592862634], [79.1870016537706, 14.298647210871419], [79.18702097983122, 14.296236308105613], [79.18525781265642, 14.295878426936495], [79.18383677534699, 14.296900886663858], [79.18346975714817, 14.298620259477635], [79.18452103038055, 14.299661592862634]]], [[[79.19209401201731, 14.45609254082014], [79.19528885964114, 14.454394885721891], [79.19530275739316, 14.452672827062521], [79.19497434008777, 14.449570412729528], [79.1939307385804, 14.4474958156157], [79.19395853930716, 14.444051698609027], [79.19679422488976, 14.443040115598398], [79.19681087440867, 14.440973641468593], [79.19505213032126, 14.439926878570903], [79.1901071348469, 14.439544525102129], [79.18764440744961, 14.43814787271806], [79.18413545980452, 14.435020983059262], [79.1827469998936, 14.431910401904283], [79.17992541320051, 14.431199778695163], [79.1799394057601, 14.429477731352897], [79.1842331694779, 14.422966621731392], [79.18672636740071, 14.420574768515937], [79.19132032967286, 14.420610023786008], [79.19238603128129, 14.41992932264157], [79.19277550400834, 14.415454669366092], [79.19990105335842, 14.408275981252423], [79.2020267614704, 14.407603303522547], [79.20554387420697, 14.409696668111792], [79.20766958557495, 14.409023939235194], [79.20840107195914, 14.405929561999042], [79.20629741642416, 14.403846979464118], [79.20630567421236, 14.402813733610408], [79.21058165620387, 14.398368479408418], [79.21237857302863, 14.394593268054164], [79.21664606903484, 14.391181121831993], [79.21773341506832, 14.387744936830806], [79.21880161290763, 14.386719669188603], [79.22128313273407, 14.385705029129523], [79.22378368585565, 14.382279426281071], [79.23193463264809, 14.379240518998927], [79.23444036104637, 14.375125932124783], [79.23833496767783, 14.374121627697619], [79.2404818192009, 14.370693171170162], [79.24582180192087, 14.365566146277338], [79.24868309103499, 14.361109549489473], [79.25222411305715, 14.360102368387542], [79.25578645200648, 14.356339723867253], [79.26004460568515, 14.35395990645842], [79.26325077810907, 14.350538956028371], [79.26679688763366, 14.348842673907674], [79.26786732971566, 14.347472706827512], [79.26823913795937, 14.345064288356136], [79.2703773087423, 14.342668756855096], [79.27145825959273, 14.3399210503151], [79.27183000812752, 14.33751261904669], [79.2700927328154, 14.333711025242874], [79.27011122056578, 14.331300020797956], [79.27225977360507, 14.327526733992055], [79.27227032047813, 14.326149014930953], [79.27334060815905, 14.324779004819998], [79.2758159726585, 14.32445254391089], [79.27829921368193, 14.323092763499716], [79.28079816210447, 14.319666364645437], [79.28328394142262, 14.317962090326239], [79.28436720414362, 14.314869856407505], [79.28478318858483, 14.306606026927426], [79.28621435329234, 14.304205187243554], [79.28625612246353, 14.298694258645417], [79.2883936238809, 14.29629848544121], [79.28629004681272, 14.294216627194716], [79.28633960742567, 14.287672393445503], [79.28354541476179, 14.283518835621413], [79.2810888111851, 14.281434401063054], [79.27861916307323, 14.281072107219304], [79.27369565207289, 14.27828085688367], [79.2691149129762, 14.276869807143289], [79.26701432763876, 14.274443385061513], [79.26136894080871, 14.27371334804691], [79.25927376334602, 14.270598011716237], [79.25751590802426, 14.269551817769477], [79.25613772338032, 14.26506391202339], [79.25580047056135, 14.262994756472654], [79.25723953167301, 14.259560799498816], [79.2565623669697, 14.255766918100475], [79.25374788081027, 14.254368534409984], [79.25270439338358, 14.25229420556215], [79.25022451409482, 14.253309369119696], [79.24950496456668, 14.255026325311059], [79.24984215571361, 14.25709548317967], [79.25265399067587, 14.258838341939194], [79.25085906677285, 14.262614100731694], [79.25083780926614, 14.265369521929108], [79.25293813170855, 14.26779605924938], [79.25291158064272, 14.271240337985157], [79.25079262199702, 14.27122478975936], [79.24798864923167, 14.268448613902356], [79.2430364802956, 14.269445488447266], [79.24196899917114, 14.27047095125097], [79.24231146974329, 14.271851260324578], [79.24477024342606, 14.273591618224003], [79.24543921977491, 14.2784187900373], [79.24825125961596, 14.280161724184241], [79.24858844894071, 14.282230882642635], [79.24325606764756, 14.28666938486625], [79.2418433393843, 14.286658953221572], [79.23903664160254, 14.28422709091971], [79.23656440018321, 14.284208789290258], [79.23443728040178, 14.285226353792154], [79.23443190771303, 14.285915201756037], [79.23865666428759, 14.287668725567672], [79.24748892573072, 14.287389482275755], [79.25033569919945, 14.284654855890773], [79.2521361670037, 14.280190273785403], [79.2535621429882, 14.278478501228706], [79.25780550349836, 14.277820687984027], [79.26026712065611, 14.279216477033623], [79.26130548641417, 14.281979648397686], [79.26837696850922, 14.280997837846236], [79.27576749502148, 14.28449597986577], [79.27859035780214, 14.284860861281302], [79.28245188737053, 14.287988820138008], [79.28378627454414, 14.298331996954046], [79.28162514779261, 14.303827610362026], [79.28155443510641, 14.313127274162916], [79.27976992230518, 14.315525514732734], [79.27728414977501, 14.317229752625138], [79.2762007786924, 14.320321941529034], [79.27442931022514, 14.320997976228044], [79.26806832889, 14.321296120918293], [79.26740412817888, 14.31578010175441], [79.26530589569354, 14.313009204512305], [79.2639194509506, 14.30955459826578], [79.26111487955636, 14.306778513408931], [79.25935675285612, 14.305732303250112], [79.25723746404411, 14.305716775714986], [79.25227115978178, 14.308435884780332], [79.24944541885381, 14.308415089164], [79.24595066871068, 14.303567090055125], [79.24174430493548, 14.299402683233424], [79.23895623701551, 14.294559832544081], [79.23613874593238, 14.293505626384837], [79.23228055210996, 14.290032555587507], [79.23016682852557, 14.289327957530775], [79.22596102242548, 14.285163330547809], [79.21961198223677, 14.284082601568434], [79.21153525295003, 14.278166572524801], [79.20484154973086, 14.276049570988675], [79.20343984308938, 14.27466124535972], [79.20346988312427, 14.270872641572923], [79.20241862969061, 14.269831395018898], [79.19852852921366, 14.27049089065795], [79.19537762082314, 14.267022666155578], [79.19256346901658, 14.265623588574128], [79.18835882298953, 14.261458421583106], [79.18662896143623, 14.25696759255244], [79.18207421996397, 14.252455243744539], [79.16836663473815, 14.24442839825108], [79.16343157320291, 14.24335717070534], [79.16098219382235, 14.240582847459278], [79.16104074396662, 14.233350207808082], [79.16141054658739, 14.231286456682], [79.16388767401897, 14.23061664514664], [79.16425466223365, 14.228897297796511], [79.16320934656169, 14.227167095131888], [79.16074340297509, 14.226459257530584], [79.15898919719153, 14.225068015579426], [79.15722384841197, 14.225054407334662], [79.15543614648841, 14.227796071131706], [79.15260876214182, 14.228118655644048], [79.15189701514774, 14.228802013680765], [79.15187180994066, 14.23190170211306], [79.15291145065518, 14.234320765836308], [79.15572493499282, 14.235720239400475], [79.15708697985015, 14.24193053469446], [79.16060957166137, 14.242991005277085], [79.16057887780282, 14.246779527410768], [79.15880777175832, 14.24745473199289], [79.15701987678013, 14.250196383835542], [79.15453971629437, 14.251210504599094], [79.15136173222278, 14.251185897071242], [79.15103387583494, 14.248083478368773], [79.14927116434656, 14.247725380928758], [79.14785313149116, 14.248403237965706], [79.14676569614875, 14.251839094652448], [79.14216682473966, 14.252836607663083], [79.13791255393024, 14.254870003323783], [79.13473171700967, 14.255189573872991], [79.13226844164058, 14.254137012042971], [79.12343787281274, 14.254412119117879], [79.12167803435769, 14.253709413914674], [79.11637857951767, 14.254012043455269], [79.10933655633517, 14.251545357032665], [79.10371572576756, 14.248056512383387], [79.09243121279079, 14.246244451961509], [79.08713197932904, 14.246546448311346], [79.08431889701365, 14.245146202500454], [79.08114403742157, 14.244776275078674], [79.0804436917388, 14.244081805262912], [79.08328871239583, 14.24169373835383], [79.08651286240047, 14.236208890359142], [79.08584153494576, 14.232070471012241], [79.08443798078574, 14.231025958648765], [79.08302572525515, 14.23101462797486], [79.0784155176447, 14.233388511785341], [79.07591780487103, 14.236468163242238], [79.07239002382639, 14.236095290561424], [79.07024235055262, 14.239522111978705], [79.06671161163742, 14.23949354322016], [79.0667028166025, 14.240526720857822], [79.06915970300297, 14.242268691011922], [79.07234033468893, 14.241949983927496], [79.07374680630211, 14.24265017415243], [79.07692452834145, 14.242675800320827], [79.07938152823805, 14.244417677694024], [79.07406775009011, 14.246441356689289], [79.0687392374971, 14.250186868475925], [79.06555555438597, 14.250849904107437], [79.06554087465149, 14.252571863969807], [79.06198640821695, 14.255298329491845], [79.05774335159781, 14.25595263745382], [79.05563657676234, 14.25455781275145], [79.05600442573355, 14.25283874152509], [79.05848196537083, 14.252170093379119], [79.05884389523347, 14.251139795464818], [79.05530119358629, 14.25248859473512], [79.05247646562997, 14.252465546662828], [79.04932233624737, 14.249684468364002], [79.04474409667348, 14.248269339381212], [79.04369375421783, 14.247227493123697], [79.04371156157009, 14.245161167255505], [79.04442364967582, 14.24447817977854], [79.0444414468071, 14.242411852531284], [79.04374123414973, 14.241717289966555], [79.04197587453537, 14.241702814011242], [79.03949248066287, 14.24306007331189], [79.0377419954663, 14.241323631976782], [79.0359766452751, 14.241309112057891], [79.03455542414873, 14.24233064437006], [79.03383437110959, 14.24404675658885], [79.02992366823341, 14.247114189297], [79.02990872228995, 14.248836112977422], [79.03131506926887, 14.249536541854706], [79.03235341196645, 14.251955977139495], [79.03375978649267, 14.252656394879267], [79.03589023403876, 14.251296307038315], [79.03733533708798, 14.247519683950252], [79.03910073699606, 14.247534200012767], [79.03978607692049, 14.24995071013162], [79.03870598930467, 14.252352708953602], [79.03549540151413, 14.256114799648216], [79.02981601289571, 14.259512033915973], [79.0291098193784, 14.25950619679034], [79.02842158876946, 14.257434052849279], [79.02702119820533, 14.256044834396468], [79.02526174085733, 14.255341453364995], [79.02314020492764, 14.255668283396787], [79.02171283037121, 14.257378484520803], [79.0220509053966, 14.259103327882938], [79.02380137369316, 14.260839884221653], [79.02627006142228, 14.261204745512584], [79.02661416857529, 14.262240819842532], [79.02057539043648, 14.266323635677788], [79.0131390609162, 14.268672590272802], [79.00643003241227, 14.268616548936519], [79.00467359924141, 14.26756863324953], [79.0039764897203, 14.266529582143933], [79.00436900251697, 14.262055613719259], [79.00794231180417, 14.257263832730507], [79.00831656675786, 14.254856122551441], [79.00619200478728, 14.255527178712933], [79.00405531105257, 14.257575730525545], [79.00118507586353, 14.262717743094806], [79.00045762294164, 14.265122466635333], [79.00043635724339, 14.267533112862914], [79.00113345156106, 14.268572172537606], [79.00323690971477, 14.27031182986778], [79.00535252742756, 14.270673956900954], [79.0177113907461, 14.270777115050038], [79.02054832070834, 14.269423075592574], [79.0237293198009, 14.269105075387667], [79.02940604611206, 14.266052415594451], [79.0333230906441, 14.262296268803219], [79.03864643721087, 14.259240435529234], [79.04186000234245, 14.255133915275369], [79.04434352728576, 14.25377664770203], [79.04716232909797, 14.254488570400406], [79.04925719436453, 14.257261017287], [79.04607635369894, 14.257579384652683], [79.04536422346763, 14.25826237174392], [79.04463130247854, 14.261356068179074], [79.04673508724764, 14.263095376663088], [79.049565863039, 14.26242973281585], [79.05100492610839, 14.259341787634424], [79.06016495841185, 14.261827397981733], [79.06369603098825, 14.26185610750686], [79.0658176159866, 14.261528916411386], [79.06725646331583, 14.258440844052844], [79.07079335676323, 14.257780656210377], [79.07646345458272, 14.25541554352923], [79.0807006637167, 14.255449684055243], [79.08777721809534, 14.253784435861446], [79.09482766721909, 14.255218545027617], [79.10081025878083, 14.257677218652479], [79.10395656913481, 14.261490905343694], [79.11065429736074, 14.262921778552855], [79.11311180093084, 14.264663364916078], [79.12652765518712, 14.26511362825874], [79.12616029483405, 14.266832870817261], [79.12438325452786, 14.268196593740969], [79.11972683735856, 14.276081666624322], [79.11405077520166, 14.2791365993978], [79.11367467870829, 14.28188900885915], [79.11542895878762, 14.283280597728966], [79.11860732743727, 14.283305739059754], [79.12250343258633, 14.281958799640723], [79.12713143225757, 14.277517715645953], [79.12785195574048, 14.27580125051279], [79.12755004621876, 14.269599205464209], [79.13039499892186, 14.267210559223175], [79.13218618833467, 14.264124761151239], [79.15054880510193, 14.264267956920706], [79.15371575138131, 14.265670234125341], [79.16395103215915, 14.266438173485788], [79.17380277169525, 14.270991517854709], [79.17590500311849, 14.273074230054673], [79.18156367237464, 14.272084188164598], [79.18825696432775, 14.274201805568058], [79.19105192934904, 14.278011854883696], [79.1938689608617, 14.279066549477163], [79.19667505088157, 14.281498881752343], [79.19770987157679, 14.284606658711677], [79.20650367190488, 14.289150789550728], [79.21282009963736, 14.294364914091014], [79.21245602470593, 14.295739938765523], [79.2074977180105, 14.297424821646455], [79.19583967021565, 14.2976811111336], [79.19373428258805, 14.295942946462059], [79.19374253325044, 14.294909698389322], [79.19693218638861, 14.29355614695446], [79.19800271171108, 14.292186507494812], [79.19801368345416, 14.29080883969099], [79.19661194339815, 14.289420469659456], [79.19131704162407, 14.289035846590565], [79.19130603054448, 14.290413509493671], [79.19270498846157, 14.292146323513093], [79.19269398333259, 14.29352398711669], [79.19055284620754, 14.29626320239113], [79.19123993942203, 14.298679483394155], [79.19299488634525, 14.300070571091242], [79.19473610504811, 14.303183728297483], [79.19933866590628, 14.301840880776464], [79.20180557112494, 14.302548426183733], [79.20105257524564, 14.308398173844889], [79.20210123874783, 14.309783860695205], [79.20457371316799, 14.309802552804364], [79.20634796990011, 14.308782634525244], [79.20848907040244, 14.306043271137785], [79.20994007518534, 14.30123205077784], [79.21419750297753, 14.298852981891223], [79.22057400524186, 14.29648968902705], [79.2223399720965, 14.296502893914507], [79.22620079369678, 14.299631697332224], [79.22653238180922, 14.302389708065135], [79.22581516327926, 14.303762125474723], [79.21805551739006, 14.302326329020538], [79.21521087128608, 14.304716074635243], [79.21483318414913, 14.307813200047317], [79.2158683402547, 14.310920934635384], [79.21833541395888, 14.311628325451391], [79.22046827658284, 14.309922102916653], [79.22399230029345, 14.310981789353555], [79.22539164046883, 14.312714452137088], [79.22536458239874, 14.31615866669275], [79.22358220466487, 14.318211992777119], [79.21968584284262, 14.31956058292612], [79.218971234813, 14.320588546594593], [79.21889785516132, 14.329887884804233], [79.21567234101603, 14.335719130978054], [79.2146071276013, 14.336399996208769], [79.21178109443348, 14.33637871234476], [79.21000662498503, 14.337398646599935], [79.20715320168271, 14.340821479624346], [79.20467215588783, 14.34183602510649], [79.20324264114501, 14.343891823027922], [79.20004951611261, 14.345589790764064], [79.19897870880858, 14.346959405417248], [79.19860066013179, 14.350056460331688], [79.19928518202894, 14.352817152385722], [79.19855383584857, 14.35591152009875], [79.1946069813338, 14.363459059366232], [79.19140797406538, 14.36584569508399], [79.18926048371017, 14.369273626522752], [79.18500698376026, 14.370963223732296], [79.17828587544649, 14.37194489386351], [79.173320060333, 14.374317644996314], [79.16449587013935, 14.373216084243476], [79.16130207390971, 14.37491344195888], [79.15702290720714, 14.379702157240208], [79.15419076577992, 14.380368934700014], [79.15027316751782, 14.384127037142026], [79.1488343676304, 14.38721562320088], [79.14563742459758, 14.389257133604682], [79.14420136829726, 14.392001274957993], [79.14135194703982, 14.394734293278075], [79.14097580513958, 14.397486737795175], [79.13990153105509, 14.39920041001399], [79.14056541139729, 14.404372011699138], [79.13912917687767, 14.407116099852518], [79.13909775161557, 14.410904523591869], [79.14223516916067, 14.416095605533231], [79.14286771128577, 14.425055633456463], [79.14459467920989, 14.429891174044352], [79.14741893359569, 14.430257801933138], [79.15485713390314, 14.428249554353], [79.15697462395782, 14.428610537069526], [79.15767573525916, 14.42930486926676], [79.15730251284582, 14.431712944132974], [79.15373451344884, 14.435818154213782], [79.15476916246514, 14.438926094284536], [79.15617710473379, 14.43962596590529], [79.1685463335915, 14.439722405462375], [79.17067522566006, 14.438705650587046], [79.17420929599626, 14.438733051874342], [79.17737594409152, 14.440479711326025], [79.17984702068698, 14.440843238927451], [79.18370939935681, 14.443972919147395], [79.18508116255477, 14.449149961562116], [79.18754119246412, 14.45089106210645], [79.18928324238965, 14.454004349735383], [79.19209401201731, 14.45609254082014]], [[79.22752590634343, 14.355785570169152], [79.23215649152336, 14.350997977777512], [79.23431935840813, 14.34550302329803], [79.23434363993589, 14.342403222827778], [79.23579713501745, 14.337247398996416], [79.23829147831269, 14.334510389122762], [79.24295891006228, 14.324900561050262], [79.24303930951487, 14.314567823430302], [79.24061232635054, 14.30869431105771], [79.23606084197597, 14.303493920031569], [79.23535442792333, 14.303488677878155], [79.23185198974663, 14.299673782275148], [79.22727389078365, 14.29791748716676], [79.22411405306721, 14.295482820454344], [79.21811522049217, 14.294749077010186], [79.21039136908243, 14.288835618709216], [79.20581915660706, 14.28639011651592], [79.20267340146955, 14.282233117672611], [79.19493667874492, 14.278041333103513], [79.18792309423904, 14.271788210235695], [79.18334321683601, 14.270375586398275], [79.1762830988465, 14.269977213748044], [79.1632642950415, 14.264021853738372], [79.15725827343499, 14.264319926023177], [79.15232848552793, 14.262559606492909], [79.14527441390796, 14.261471534673358], [79.13149980549268, 14.261708391196537], [79.12621437664407, 14.260289198216704], [79.12233008210772, 14.260258636509954], [79.12129355370641, 14.257495066653908], [79.12907341530395, 14.256178530718824], [79.13789276441156, 14.257280847753481], [79.14179679087516, 14.254900300027876], [79.14603696512143, 14.254588870941879], [79.14883376821999, 14.258054899398333], [79.15483400338027, 14.25844583990284], [79.1572946591176, 14.259842596505107], [79.16647868392057, 14.259568971493064], [79.17069396371805, 14.262356823190384], [79.17597984281925, 14.263775068442396], [79.17737576384134, 14.26585235659709], [79.17878277828476, 14.266551983380864], [79.18161065040563, 14.266229142390616], [79.1826645434946, 14.266926053123292], [79.18513652329665, 14.266944892040069], [79.18514755301182, 14.265567231149252], [79.18409641542084, 14.264525916105454], [79.18056782051318, 14.26415457018583], [79.17810694764079, 14.262758031696958], [79.1784849788536, 14.259661003728212], [79.18133209486896, 14.256927252863477], [79.18345083950848, 14.256943402840285], [79.18555581134267, 14.258681611747427], [79.18659040802018, 14.261789412380471], [79.18868719298816, 14.264560848957947], [79.19360642037745, 14.267698121804086], [79.19850662333107, 14.273246231571862], [79.20062006985358, 14.273951082834467], [79.20307029489196, 14.276725091582213], [79.20835134091544, 14.278831518535918], [79.21080443743097, 14.281261044200209], [79.21291800743917, 14.281965799034381], [79.2178325576066, 14.285791492132956], [79.2241870347234, 14.286183428951924], [79.22663499354574, 14.289301663758035], [79.22944968178976, 14.290700394661672], [79.2308489609745, 14.29243301845895], [79.23788860740576, 14.295585259279088], [79.24032881822542, 14.299736658192575], [79.24837508834923, 14.309784985723407], [79.25039836083256, 14.322199935241725], [79.25284437836135, 14.325662403357496], [79.25282571378894, 14.328073386759899], [79.25211121311118, 14.329101463731968], [79.25104879331899, 14.329438083387197], [79.24999705540918, 14.328396995470076], [79.24752164157508, 14.328723177807085], [79.24466349922294, 14.332835391783483], [79.24391676599005, 14.33799652933047], [79.2417676484717, 14.341769491203229], [79.23887422210711, 14.350359099728148], [79.23849939648268, 14.353111857324548], [79.23954848484325, 14.354497424224022], [79.24449183346552, 14.354878539409656], [79.24804080192347, 14.352838137844879], [79.25122305800414, 14.352517195249282], [79.25512522191451, 14.350479282135332], [79.25726091262362, 14.348428317900499], [79.25870065167317, 14.34499443474183], [79.26222810717354, 14.345709205922958], [79.2643583862425, 14.344347020134698], [79.26508349493925, 14.341941194687253], [79.26650982770683, 14.340229385877105], [79.26659188428569, 14.329552102745087], [79.26944960948693, 14.325439573563068], [79.26981605739736, 14.32372000121055], [79.27158755795537, 14.323044005039671], [79.27012970487637, 14.328889015840835], [79.26833964911776, 14.331975997717002], [79.26832907377486, 14.333353713232254], [79.27007424162501, 14.336122029175506], [79.27004253443779, 14.34025517758222], [79.26718724724815, 14.344023260796149], [79.26609827084094, 14.347804223035661], [79.26326139771548, 14.349161246223433], [79.2589900584352, 14.353263269422321], [79.25508787068472, 14.35530124425014], [79.25116956763394, 14.359405696352727], [79.2479845328041, 14.360071051348381], [79.24334328377294, 14.366236660208232], [79.2404979805891, 14.368626635119679], [79.23834845546259, 14.372399516841138], [79.23621776103528, 14.373761417592933], [79.23338852065822, 14.374084758717359], [79.23232044846424, 14.375110107823112], [79.2312361114052, 14.378201975318424], [79.22272914800506, 14.381582626911078], [79.2198752574515, 14.385005558777234], [79.21845920086473, 14.385339335361952], [79.2166788756464, 14.387048109982699], [79.21559151873022, 14.39048428885348], [79.21168011004552, 14.393554672764987], [79.20952709695543, 14.397671618036327], [79.20525386528547, 14.401772437384958], [79.20488122725283, 14.404180658097316], [79.20628365198635, 14.405569055676231], [79.20662324989108, 14.407293815064158], [79.20520428340609, 14.407971908043441], [79.20344849042542, 14.40658081582408], [79.19955874415518, 14.406895632057228], [79.19385504468632, 14.413051894942988], [79.1913675629356, 14.414755019398697], [79.19063024493235, 14.418538134732563], [79.18674029698568, 14.41885271310505], [79.18318139205562, 14.421925229731322], [79.18210168845839, 14.424327935226714], [79.17960840045116, 14.426719728149626], [79.17709543930816, 14.431522350476573], [79.1788484203071, 14.43325804898556], [79.18131662581037, 14.433965961924931], [79.18235446372344, 14.436729415711143], [79.18481155147926, 14.438814938217368], [79.18480037999888, 14.440192578763742], [79.18303332193547, 14.440178962761593], [79.18127745892019, 14.438787695690008], [79.17739276973344, 14.438413259047186], [79.17493014965923, 14.437016484356635], [79.15689809362163, 14.437909470363966], [79.15585207051186, 14.436179155085451], [79.15978475446522, 14.43069904509766], [79.15876420841781, 14.425869093842264], [79.16406215547688, 14.426254814316334], [79.16583472352448, 14.425579745784015], [79.17118328438038, 14.419765964073454], [79.17792265134865, 14.416718215249698], [79.18148990503367, 14.412612544639018], [79.18539367187911, 14.410575985554761], [79.19037968462864, 14.405792181700216], [79.19324537369579, 14.400992043197602], [79.20000877051169, 14.394843830101061], [79.20754165184698, 14.380779166118492], [79.20792517243375, 14.376993263539292], [79.20971369230445, 14.374251301664556], [79.20974384525371, 14.370462716504193], [79.20904271516669, 14.369768538289305], [79.2069228824233, 14.369752492412829], [79.19805440811749, 14.37416282079432], [79.1934503123048, 14.375505461879857], [79.18380518139116, 14.388520091474565], [79.17989343999713, 14.391589903035433], [79.17629297229152, 14.399828508932407], [79.1734353733136, 14.403595174386039], [79.16703566491648, 14.408367618313621], [79.16492396854974, 14.407317931619874], [79.1607260437671, 14.402118849523434], [79.16073451022575, 14.401085629736505], [79.16286585855069, 14.399724495962642], [79.16393997335477, 14.3980106987353], [79.16503095638724, 14.394230448768859], [79.16471420437814, 14.389750406180221], [79.16295882821393, 14.388359057080567], [79.16047990946834, 14.389028643352331], [79.15830629796102, 14.395555862802171], [79.15618910984689, 14.395194927935764], [79.15092028048203, 14.391365069274292], [79.15202275893299, 14.386207278357459], [79.15380916685362, 14.383810236075842], [79.15523374208911, 14.382443638670907], [79.15842204506461, 14.381435195612843], [79.16270403674454, 14.376302048345982], [79.1644790052707, 14.3752825329577], [79.16624834241053, 14.374951819154502], [79.16906637596567, 14.376006929536715], [79.17295276440085, 14.376036966513682], [79.17827192841258, 14.37366694798043], [79.18074507066214, 14.373685970594082], [79.18960269881255, 14.3706539807256], [79.19246232990803, 14.366542615144233], [79.19566133856375, 14.364155965158995], [79.197460905911, 14.360036439312728], [79.19924387499302, 14.357983382501533], [79.20033675867307, 14.353858449405706], [79.20038903073191, 14.347314551308367], [79.20251688605585, 14.346297382463227], [79.20572645671378, 14.342532879125573], [79.20820750716902, 14.34151832300443], [79.21176743907941, 14.338100803530798], [79.2149412980158, 14.338813586107756], [79.21669669433062, 14.340204547550353], [79.21808523729034, 14.34331494086823], [79.22054178614407, 14.345400027283024], [79.22158528812574, 14.347474497356707], [79.22369678325136, 14.348523648370344], [79.2265012984675, 14.351300172980288], [79.22754487928984, 14.353374625288707], [79.22752590634343, 14.355785570169152]], [[79.16195879318452, 14.424171865728404], [79.16126898375703, 14.422099921983362], [79.16269379155389, 14.420733307253446], [79.16517588793232, 14.4197193332595], [79.16695684766158, 14.418011027564253], [79.16768892512032, 14.414916847916839], [79.17091699275453, 14.40908657152208], [79.17483197464188, 14.405672554092375], [79.17876639967263, 14.399847586102595], [79.18165453601972, 14.392292319537537], [79.1862812749241, 14.38819466354165], [79.18700460916587, 14.386133610179813], [79.18842624746577, 14.385111203266227], [79.19272154435801, 14.378255374523762], [79.19556741998196, 14.375866048728838], [79.19804336989947, 14.375540478976761], [79.20584923325512, 14.371466543119757], [79.2079718245543, 14.371138183948473], [79.2083004415095, 14.374240607263038], [79.20687071516922, 14.376296401689311], [79.20648717964647, 14.380082300848489], [79.20398366129267, 14.383852109133668], [79.20289613865953, 14.387288209795356], [79.20111293431275, 14.389341266139091], [79.19895426508114, 14.394146927053823], [79.19219086641952, 14.40029510937843], [79.18896903019436, 14.405436936778882], [79.1839857880367, 14.409876297537277], [79.18186002336057, 14.41054880382484], [79.1772271037631, 14.415335121047002], [79.17013439918769, 14.418380114572823], [79.16514205422642, 14.423852215667488], [79.16195879318452, 14.424171865728404]], [[79.2275611390092, 14.351308100696308], [79.22370764305074, 14.347145967671734], [79.22267226919055, 14.344038244585246], [79.21916408080357, 14.340911965466015], [79.21918312263492, 14.338501028547434], [79.22204992117128, 14.333355924255475], [79.22277812952382, 14.330605853044956], [79.22420467099958, 14.328894325581645], [79.22421822233191, 14.32717222136375], [79.22281339192423, 14.32612838565574], [79.22283508580556, 14.323373020228544], [79.22461480775866, 14.321664127197431], [79.22673961906912, 14.320991119700151], [79.22816336118807, 14.319623978467979], [79.22888873170363, 14.317218293818508], [79.23030703852673, 14.316539979701629], [79.23099460625912, 14.318956198422987], [79.23274997627591, 14.320347036874754], [79.23237517106455, 14.323099788559155], [79.23342140546919, 14.324829788259608], [79.23293326972345, 14.342048276237826], [79.23255299688006, 14.345489863364804], [79.2296754088893, 14.352012784293246], [79.2275611390092, 14.351308100696308]], [[79.2445240430261, 14.350745452498588], [79.24558389128683, 14.350753299355322], [79.24521987739753, 14.352128380590138], [79.24416270736864, 14.351776107500894], [79.2445240430261, 14.350745452498588]], [[79.25089651127472, 14.349070336773272], [79.25091522500146, 14.346659360119613], [79.25234168942319, 14.344947652752722], [79.25235504168334, 14.343225524692848], [79.25412140430569, 14.343238535148387], [79.25587177812363, 14.345318090005852], [79.25585311923055, 14.34772907332945], [79.2530081884082, 14.350119243724325], [79.25159505587962, 14.350108824894937], [79.25089651127472, 14.349070336773272]], [[79.24774108662898, 14.345947033999483], [79.24600151075364, 14.34248972929769], [79.24568040017488, 14.338354022508287], [79.24642441844622, 14.33353729992079], [79.24749488967016, 14.33216742893454], [79.24855465231691, 14.33217525259572], [79.25235771192256, 14.34288109904946], [79.24987144022974, 14.344584988623021], [79.24950211574924, 14.346648931276205], [79.24774108662898, 14.345947033999483]], [[79.26048032440183, 14.343285263980947], [79.25874587717037, 14.339139178384393], [79.25629964024301, 14.335676748038571], [79.25564371850528, 14.329127450088361], [79.25391743514294, 14.32394806738402], [79.2518193184076, 14.321177062889767], [79.25115818694077, 14.315316616947934], [79.25010917454856, 14.313931109693808], [79.2501278488959, 14.311520126938046], [79.25155139960775, 14.310152821387481], [79.25367072356221, 14.310168404323138], [79.25612466303514, 14.312597551347173], [79.2596622241599, 14.311934593034941], [79.26212950048553, 14.3126415457978], [79.26034215039742, 14.315384045636675], [79.25997299947663, 14.317448025691826], [79.26275116948462, 14.323668416739237], [79.26556124211433, 14.325755647339765], [79.26554271322742, 14.328166647083563], [79.26446706543952, 14.330225471018725], [79.26509939718127, 14.339874626407191], [79.26259466009962, 14.343989657432527], [79.26048032440183, 14.343285263980947]], [[79.2531096205701, 14.337031064925917], [79.2527696992273, 14.335306333891438], [79.25382947961378, 14.335314135674894], [79.25451734061548, 14.337730317865839], [79.2531096205701, 14.337031064925917]], [[79.23906519251351, 14.3259050449659], [79.23840977135669, 14.319355754435115], [79.23701835276215, 14.3165898824278], [79.23603127645968, 14.307282580839585], [79.23709091581318, 14.307290442306465], [79.23814250066212, 14.308331571146981], [79.2405640484278, 14.314893949707578], [79.24015177309902, 14.322468663627303], [79.23906519251351, 14.3259050449659]], [[79.22330211605394, 14.308909981482016], [79.21942491723043, 14.30784764295685], [79.21765343192163, 14.308523246542045], [79.2173165209272, 14.306454076632166], [79.21873749676634, 14.305431406784923], [79.22050353166718, 14.30544463338819], [79.22472849683618, 14.307198431617955], [79.22507088767833, 14.308578755759902], [79.22330211605394, 14.308909981482016]], [[79.22860841998038, 14.30791626298065], [79.22897242827416, 14.306541205792357], [79.2303825741931, 14.306896150726594], [79.23001317820079, 14.308960055942476], [79.22860841998038, 14.30791626298065]], [[79.20282409402782, 14.307722699724584], [79.20321563052073, 14.302903524624138], [79.20500077107224, 14.300505938325427], [79.20747314798881, 14.300524588445837], [79.20744037879939, 14.304657609526155], [79.20529654688822, 14.307741381683943], [79.20282409402782, 14.307722699724584]], [[79.12326681506293, 14.275076312659966], [79.12398735619621, 14.273359861525295], [79.12540560797525, 14.272682175567608], [79.12537995943454, 14.275781805773791], [79.12431197787889, 14.276806673721737], [79.12325254788908, 14.276798327083283], [79.12326681506293, 14.275076312659966]], [[79.258177214294, 14.2754122709959], [79.25748942311247, 14.272996104431618], [79.25644053391528, 14.271610638329916], [79.25784788321009, 14.272309830120475], [79.26064409923276, 14.276119195571095], [79.258177214294, 14.2754122709959]], [[79.25260887184469, 14.264693618668874], [79.25261683547875, 14.263660334758853], [79.25367893296796, 14.26332367090165], [79.25401616618421, 14.265392827250984], [79.25260887184469, 14.264693618668874]], [[79.02381937995807, 14.258773585480736], [79.02418747474859, 14.257054595714866], [79.02665312699128, 14.257763831658707], [79.02664114122585, 14.259141366674312], [79.02593195250584, 14.259479903876935], [79.02381937995807, 14.258773585480736]], [[79.17460057995035, 14.259631294671557], [79.17143632571182, 14.257884876240022], [79.16650374064551, 14.256469264679572], [79.16582534476342, 14.25301971513354], [79.16477714300086, 14.251633919614953], [79.16513860961953, 14.25060340069184], [79.17008494582109, 14.250296961081656], [79.17288210752369, 14.253762746334223], [79.1757042789746, 14.254128784601846], [79.17781192585811, 14.255522638039247], [79.17780085970121, 14.256900294454374], [79.17636898408983, 14.259300392890722], [79.17460057995035, 14.259631294671557]], [[79.1103499640945, 14.25706416614492], [79.10966383384499, 14.254647763124268], [79.1107260200341, 14.254311756424334], [79.11319203287609, 14.255020127380629], [79.11459301302739, 14.256408905137796], [79.11422845053085, 14.257783719489078], [79.11140355885998, 14.257761360925773], [79.1103499640945, 14.25706416614492]], [[79.15872393063654, 14.257787047745683], [79.16050908549164, 14.255389800281128], [79.16262500160626, 14.255750544681296], [79.16261384306412, 14.257128189334964], [79.16154889898557, 14.257808845906315], [79.15942737748661, 14.258136910919491], [79.15872393063654, 14.257787047745683]], [[79.10436725318947, 14.254605721086081], [79.10402278266932, 14.253569715059154], [79.10156835160807, 14.251483657657776], [79.10545244932695, 14.251514538924452], [79.10826002562418, 14.253603361813747], [79.10825141064954, 14.254636563400107], [79.10718634714652, 14.255316958707349], [79.10436725318947, 14.254605721086081]], [[79.1530964410014, 14.254988076658208], [79.15310485203935, 14.253954848551611], [79.15628847536335, 14.253290617509226], [79.15805124665108, 14.253648669457462], [79.15804285831986, 14.254681900480067], [79.156975117502, 14.25570694658213], [79.1530964410014, 14.254988076658208]], [[79.08499310934275, 14.248940227230937], [79.08711456530615, 14.248612827149453], [79.0892273193671, 14.249318598006713], [79.0895717155768, 14.250354616555107], [79.08533167379422, 14.250665041503698], [79.08462839119909, 14.250314976323113], [79.08499310934275, 14.248940227230937]], [[79.03238924256269, 14.247823354844101], [79.03346339853468, 14.246110160676693], [79.03522282175553, 14.24681347573549], [79.0348518535964, 14.248876882575576], [79.03308644776479, 14.24886233374492], [79.03238924256269, 14.247823354844101]], [[79.16551399083056, 14.24785082101433], [79.16482448374722, 14.245778918861687], [79.16694588563394, 14.245450790687869], [79.1687030677044, 14.246497584043153], [79.16869195358451, 14.247875234471014], [79.1676270712826, 14.24855592609119], [79.16551399083056, 14.24785082101433]], [[79.07799543042124, 14.241306753848937], [79.07729802062036, 14.240267882462993], [79.07768898787008, 14.23579359334238], [79.08230506650045, 14.23273093927216], [79.08442346535888, 14.23274794055078], [79.08510347589437, 14.23585317151999], [79.082594183065, 14.240310483524928], [79.08046116067713, 14.242015433739383], [79.07799543042124, 14.241306753848937]], [[79.15890271052439, 14.235744762761133], [79.156100381072, 14.232967682060588], [79.1561087649173, 14.231934450296858], [79.1582244551067, 14.232295207249601], [79.15890271052439, 14.235744762761133]]], [[[79.22752590634343, 14.355785570169152], [79.22538718468928, 14.35818064644158], [79.22608291221144, 14.359563619118095], [79.22750692987121, 14.358196514535447], [79.22752590634343, 14.355785570169152]]]]}}, {"type": "Feature", "properties": {"depth_class": 2, "depth_lo_m": 1.0, "t_s": 42300.29097123646}, "geometry": {"type": "MultiPolygon", "coordinates": [[[[79.01991855910141, 14.220167546157368], [79.02064860126119, 14.217418325548406], [79.01995752948092, 14.215690560402804], [79.01819839683871, 14.214987168333762], [79.01680430638004, 14.212909161207792], [79.01433616182298, 14.212544270560205], [79.01291806577964, 14.213221304854397], [79.01254398765876, 14.215629045399083], [79.01324101536012, 14.216668060368143], [79.01641525626744, 14.217038827487833], [79.01815339219868, 14.220152915754356], [79.01991855910141, 14.220167546157368]], [[79.01360606965545, 14.215293465045868], [79.013974124304, 14.213574486052321], [79.01644227872582, 14.213939381788796], [79.0164272670522, 14.215661296171254], [79.01430610767282, 14.21598809505003], [79.01360606965545, 14.215293465045868]]], [[[79.0790488401538, 14.242004070983231], [79.082594183065, 14.240310483524928], [79.08510347589437, 14.23585317151999], [79.08442346535888, 14.23274794055078], [79.08230506650045, 14.23273093927216], [79.07768898787008, 14.23579359334238], [79.0776452671271, 14.240959515694868], [79.0790488401538, 14.242004070983231]], [[79.07909253232627, 14.23683814481039], [79.07980740952131, 14.235810639139295], [79.0829937652451, 14.234802984673802], [79.08261744185769, 14.237555317056964], [79.08118769080991, 14.239610343732366], [79.07906631912404, 14.23993770079759], [79.07909253232627, 14.23683814481039]]], [[[79.03522282175553, 14.24681347573549], [79.03346339853468, 14.246110160676693], [79.03239521321258, 14.247134584314054], [79.03273635190656, 14.248515037112027], [79.0348518535964, 14.248876882575576], [79.03522282175553, 14.24681347573549]]], [[[79.08957751384571, 14.249665822759574], [79.08711456530615, 14.248612827149453], [79.08464001738841, 14.248937392678668], [79.08462839119909, 14.250314976323113], [79.08533167379422, 14.250665041503698], [79.0895717155768, 14.250354616555107], [79.08957751384571, 14.249665822759574]]], [[[79.10718634714652, 14.255316958707349], [79.10826002562418, 14.253603361813747], [79.10685910420064, 14.25221455344712], [79.10545244932695, 14.251514538924452], [79.10156835160807, 14.251483657657776], [79.10542081567537, 14.255302938768557], [79.10718634714652, 14.255316958707349]]], [[[79.156975117502, 14.25570694658213], [79.15804285831986, 14.254681900480067], [79.15770092901307, 14.25330153182258], [79.15310485203935, 14.253954848551611], [79.1530964410014, 14.254988076658208], [79.15450329921562, 14.255687830377324], [79.156975117502, 14.25570694658213]]], [[[79.11459301302739, 14.256408905137796], [79.11248868391198, 14.25467013751199], [79.10966383384499, 14.254647763124268], [79.1103499640945, 14.25706416614492], [79.11140355885998, 14.257761360925773], [79.11422845053085, 14.257783719489078], [79.11459301302739, 14.256408905137796]]], [[[79.02665312699128, 14.257763831658707], [79.02418747474859, 14.257054595714866], [79.02381937995807, 14.258773585480736], [79.02593195250584, 14.259479903876935], [79.02664114122585, 14.259141366674312], [79.02665312699128, 14.257763831658707]]], [[[79.12431197787889, 14.276806673721737], [79.1257416501252, 14.274751374978736], [79.12540560797525, 14.272682175567608], [79.12398735619621, 14.273359861525295], [79.12326681506293, 14.275076312659966], [79.12325254788908, 14.276798327083283], [79.12431197787889, 14.276806673721737]]], [[[79.15890271052439, 14.235744762761133], [79.1578741660003, 14.231948073218977], [79.1561087649173, 14.231934450296858], [79.156100381072, 14.232967682060588], [79.15890271052439, 14.235744762761133]]], [[[79.1676270712826, 14.24855592609119], [79.1687030677044, 14.246497584043153], [79.168002416274, 14.245803338025683], [79.16482448374722, 14.245778918861687], [79.16481334668158, 14.247156566369597], [79.16586431451017, 14.248197947743119], [79.1676270712826, 14.24855592609119]]], [[[79.25367893296796, 14.26332367090165], [79.25261683547875, 14.263660334758853], [79.25330986415108, 14.26538765194922], [79.25401616618421, 14.265392827250984], [79.25367893296796, 14.26332367090165]]], [[[79.26064409923276, 14.276119195571095], [79.25784788321009, 14.272309830120475], [79.25644053391528, 14.271610638329916], [79.25852773404611, 14.27575928220231], [79.26064409923276, 14.276119195571095]]], [[[79.20423418706567, 14.30807779593493], [79.2067203098404, 14.30637437294149], [79.20744037879939, 14.304657609526155], [79.20747314798881, 14.300524588445837], [79.20500077107224, 14.300505938325427], [79.20321563052073, 14.302903524624138], [79.20282409402782, 14.307722699724584], [79.20423418706567, 14.30807779593493]]], [[[79.225076297776, 14.307889912604265], [79.22050353166718, 14.30544463338819], [79.21873749676634, 14.305431406784923], [79.2173165209272, 14.306454076632166], [79.21765343192163, 14.308523246542045], [79.22154418277137, 14.307863509802209], [79.22471496908393, 14.308920539202616], [79.225076297776, 14.307889912604265]]], [[[79.25451734061548, 14.337730317865839], [79.25382947961378, 14.335314135674894], [79.2527696992273, 14.335306333891438], [79.25275902624175, 14.336684037583769], [79.25451734061548, 14.337730317865839]]], [[[79.22684915679973, 14.351991657386801], [79.22369678325136, 14.348523648370344], [79.22158528812574, 14.347474497356707], [79.22054178614407, 14.345400027283024], [79.21808523729034, 14.34331494086823], [79.21599562317579, 14.339510396664663], [79.21176743907941, 14.338100803530798], [79.20820750716902, 14.34151832300443], [79.20572645671378, 14.342532879125573], [79.20251688605585, 14.346297382463227], [79.20038903073191, 14.347314551308367], [79.20033675867307, 14.353858449405706], [79.19924387499302, 14.357983382501533], [79.197460905911, 14.360036439312728], [79.19566133856375, 14.364155965158995], [79.19246232990803, 14.366542615144233], [79.18960269881255, 14.3706539807256], [79.18074507066214, 14.373685970594082], [79.17827192841258, 14.37366694798043], [79.17295276440085, 14.376036966513682], [79.16906637596567, 14.376006929536715], [79.16624834241053, 14.374951819154502], [79.1644790052707, 14.3752825329577], [79.16270403674454, 14.376302048345982], [79.15842204506461, 14.381435195612843], [79.15523374208911, 14.382443638670907], [79.15380916685362, 14.383810236075842], [79.15202275893299, 14.386207278357459], [79.15092028048203, 14.391365069274292], [79.15618910984689, 14.395194927935764], [79.15830629796102, 14.395555862802171], [79.16047990946834, 14.389028643352331], [79.16295882821393, 14.388359057080567], [79.16471420437814, 14.389750406180221], [79.16503095638724, 14.394230448768859], [79.16393997335477, 14.3980106987353], [79.16286585855069, 14.399724495962642], [79.16073451022575, 14.401085629736505], [79.1607260437671, 14.402118849523434], [79.16492396854974, 14.407317931619874], [79.16703566491648, 14.408367618313621], [79.1734353733136, 14.403595174386039], [79.17629297229152, 14.399828508932407], [79.17989343999713, 14.391589903035433], [79.18380518139116, 14.388520091474565], [79.1934503123048, 14.375505461879857], [79.19805440811749, 14.37416282079432], [79.2069228824233, 14.369752492412829], [79.20904271516669, 14.369768538289305], [79.20974384525371, 14.370462716504193], [79.20971369230445, 14.374251301664556], [79.20792517243375, 14.376993263539292], [79.20754165184698, 14.380779166118492], [79.20000877051169, 14.394843830101061], [79.19324537369579, 14.400992043197602], [79.19037968462864, 14.405792181700216], [79.18539367187911, 14.410575985554761], [79.18148990503367, 14.412612544639018], [79.17792265134865, 14.416718215249698], [79.17118328438038, 14.419765964073454], [79.16583472352448, 14.425579745784015], [79.16406215547688, 14.426254814316334], [79.15876420841781, 14.425869093842264], [79.15978475446522, 14.43069904509766], [79.15585207051186, 14.436179155085451], [79.15689809362163, 14.437909470363966], [79.17493014965923, 14.437016484356635], [79.17739276973344, 14.438413259047186], [79.18127745892019, 14.438787695690008], [79.18303332193547, 14.440178962761593], [79.18480037999888, 14.440192578763742], [79.18481155147926, 14.438814938217368], [79.18235446372344, 14.436729415711143], [79.18131662581037, 14.433965961924931], [79.1788484203071, 14.43325804898556], [79.17709543930816, 14.431522350476573], [79.17960840045116, 14.426719728149626], [79.18210168845839, 14.424327935226714], [79.18318139205562, 14.421925229731322], [79.18674029698568, 14.41885271310505], [79.19063024493235, 14.418538134732563], [79.1913675629356, 14.414755019398697], [79.19385504468632, 14.413051894942988], [79.19955874415518, 14.406895632057228], [79.20344849042542, 14.40658081582408], [79.20520428340609, 14.407971908043441], [79.20662324989108, 14.407293815064158], [79.20628365198635, 14.405569055676231], [79.20488122725283, 14.404180658097316], [79.20525386528547, 14.401772437384958], [79.20952709695543, 14.397671618036327], [79.21168011004552, 14.393554672764987], [79.21559151873022, 14.39048428885348], [79.2166788756464, 14.387048109982699], [79.21845920086473, 14.385339335361952], [79.2198752574515, 14.385005558777234], [79.22272914800506, 14.381582626911078], [79.2312361114052, 14.378201975318424], [79.23232044846424, 14.375110107823112], [79.23338852065822, 14.374084758717359], [79.23621776103528, 14.373761417592933], [79.23834845546259, 14.372399516841138], [79.2404979805891, 14.368626635119679], [79.24334328377294, 14.366236660208232], [79.2479845328041, 14.360071051348381], [79.25116956763394, 14.359405696352727], [79.25508787068472, 14.35530124425014], [79.2589900584352, 14.353263269422321], [79.26326139771548, 14.349161246223433], [79.26609827084094, 14.347804223035661], [79.26718724724815, 14.344023260796149], [79.27004253443779, 14.34025517758222], [79.27007424162501, 14.336122029175506], [79.26832907377486, 14.333353713232254], [79.26833964911776, 14.331975997717002], [79.27012970487637, 14.328889015840835], [79.27158755795537, 14.323044005039671], [79.26981605739736, 14.32372000121055], [79.26944960948693, 14.325439573563068], [79.26659188428569, 14.329552102745087], [79.26650982770683, 14.340229385877105], [79.26508349493925, 14.341941194687253], [79.2643583862425, 14.344347020134698], [79.26222810717354, 14.345709205922958], [79.25870065167317, 14.34499443474183], [79.25726091262362, 14.348428317900499], [79.25512522191451, 14.350479282135332], [79.25122305800414, 14.352517195249282], [79.24804080192347, 14.352838137844879], [79.24449183346552, 14.354878539409656], [79.23954848484325, 14.354497424224022], [79.23849939648268, 14.353111857324548], [79.23887422210711, 14.350359099728148], [79.2417676484717, 14.341769491203229], [79.24391676599005, 14.33799652933047], [79.24466349922294, 14.332835391783483], [79.24752164157508, 14.328723177807085], [79.24999705540918, 14.328396995470076], [79.25104879331899, 14.329438083387197], [79.25211121311118, 14.329101463731968], [79.25282571378894, 14.328073386759899], [79.25284437836135, 14.325662403357496], [79.25039836083256, 14.322199935241725], [79.24837508834923, 14.309784985723407], [79.24032881822542, 14.299736658192575], [79.23788860740576, 14.295585259279088], [79.2308489609745, 14.29243301845895], [79.22944968178976, 14.290700394661672], [79.22663499354574, 14.289301663758035], [79.2241870347234, 14.286183428951924], [79.2178325576066, 14.285791492132956], [79.21291800743917, 14.281965799034381], [79.21080443743097, 14.281261044200209], [79.20835134091544, 14.278831518535918], [79.20307029489196, 14.276725091582213], [79.20062006985358, 14.273951082834467], [79.19850662333107, 14.273246231571862], [79.19360642037745, 14.267698121804086], [79.18868719298816, 14.264560848957947], [79.18659040802018, 14.261789412380471], [79.18555581134267, 14.258681611747427], [79.18345083950848, 14.256943402840285], [79.18133209486896, 14.256927252863477], [79.1784849788536, 14.259661003728212], [79.17810694764079, 14.262758031696958], [79.18056782051318, 14.26415457018583], [79.18409641542084, 14.264525916105454], [79.18514755301182, 14.265567231149252], [79.18513652329665, 14.266944892040069], [79.1826645434946, 14.266926053123292], [79.18161065040563, 14.266229142390616], [79.17878277828476, 14.266551983380864], [79.17737576384134, 14.26585235659709], [79.17597984281925, 14.263775068442396], [79.17069396371805, 14.262356823190384], [79.16647868392057, 14.259568971493064], [79.1572946591176, 14.259842596505107], [79.15483400338027, 14.25844583990284], [79.14883376821999, 14.258054899398333], [79.14603696512143, 14.254588870941879], [79.14179679087516, 14.254900300027876], [79.13789276441156, 14.257280847753481], [79.12907341530395, 14.256178530718824], [79.12129355370641, 14.257495066653908], [79.12233008210772, 14.260258636509954], [79.12621437664407, 14.260289198216704], [79.13149980549268, 14.261708391196537], [79.14527441390796, 14.261471534673358], [79.15232848552793, 14.262559606492909], [79.15725827343499, 14.264319926023177], [79.1632642950415, 14.264021853738372], [79.1762830988465, 14.269977213748044], [79.18087396680373, 14.270012310159526], [79.18616286740169, 14.271085942122765], [79.18862663774564, 14.27213799733154], [79.19493667874492, 14.278041333103513], [79.20267340146955, 14.282233117672611], [79.20581915660706, 14.28639011651592], [79.21039136908243, 14.288835618709216], [79.21811522049217, 14.294749077010186], [79.22411405306721, 14.295482820454344], [79.22727389078365, 14.29791748716676], [79.23185198974663, 14.299673782275148], [79.23921556296648, 14.306617302578408], [79.24130803654592, 14.31007723774823], [79.24303930951487, 14.314567823430302], [79.24295891006228, 14.324900561050262], [79.23829147831269, 14.334510389122762], [79.23579713501745, 14.337247398996416], [79.23395529014884, 14.346878080925013], [79.23143911479804, 14.352370393012741], [79.22752590634343, 14.355785570169152], [79.22684915679973, 14.351991657386801]], [[79.22750692987121, 14.358196514535447], [79.22643620519801, 14.359566264327817], [79.22538175571592, 14.35886948680176], [79.22717261907734, 14.355782927264572], [79.22750692987121, 14.358196514535447]], [[79.18395232490582, 14.414009226882397], [79.19035746214185, 14.408547478839182], [79.193214875539, 14.40478058414281], [79.19429711712125, 14.402033386079212], [79.20141938595927, 14.39519900365392], [79.2060816289965, 14.386623522902319], [79.20645145367358, 14.384559707897889], [79.20859338613667, 14.381820443753261], [79.20933844023061, 14.377003962183602], [79.21112694426262, 14.374261987637716], [79.21081198342802, 14.369437478254623], [79.20940698498548, 14.368393543295236], [79.20693386165384, 14.368374826818298], [79.19700275989295, 14.373121505490817], [79.19382021978012, 14.37344167616609], [79.18955834315094, 14.376164588288727], [79.18779178447444, 14.376151066819643], [79.18709349098694, 14.375112417248868], [79.18816729353688, 14.373398470881614], [79.19136367807738, 14.371356310397683], [79.19351392759567, 14.367583945130326], [79.19742781078587, 14.364169416918624], [79.1992301023259, 14.359705458681335], [79.20065701668594, 14.357994119078588], [79.2006735285233, 14.355927625706585], [79.20174987534315, 14.353869176452163], [79.20143784140038, 14.348700257438626], [79.20356845265265, 14.347338663874158], [79.20713402802512, 14.343232400186816], [79.20890582054278, 14.3425569123019], [79.21175378191104, 14.339822894454588], [79.21316681946868, 14.339833543252759], [79.21527547249723, 14.341227175898325], [79.21560965104749, 14.343640765580153], [79.21382694572014, 14.34569397846888], [79.21381329674387, 14.347416070235836], [79.2219249725205, 14.349199246228123], [79.22578388815242, 14.352672566988995], [79.22576489733021, 14.35508350970407], [79.22434089233825, 14.356450605199125], [79.22325928881799, 14.359198018739141], [79.22395228778072, 14.360925416261122], [79.22571061839055, 14.361971914627915], [79.22783582234216, 14.361298942828576], [79.22892822149461, 14.357173820140718], [79.23107230844569, 14.354089863548229], [79.23389859332701, 14.354110943124459], [79.23812186320096, 14.35620903530423], [79.24554096882271, 14.356264084706256], [79.25546783798305, 14.351859586368407], [79.25938858379824, 14.34741061016708], [79.26256810875879, 14.347433931906762], [79.26220420325704, 14.34880905194324], [79.25900070619387, 14.35188556306197], [79.25368004514114, 14.354601983055714], [79.25118026797989, 14.358027996467412], [79.24728598069512, 14.359032551791108], [79.23944613571054, 14.367585488369272], [79.2369378937633, 14.37204457275578], [79.23198066744338, 14.373385363814453], [79.22982824218175, 14.377502565651174], [79.2277055978012, 14.377831117544975], [79.22132129146229, 14.380883167391389], [79.21846739168946, 14.384306081008965], [79.21598314474083, 14.385665109567505], [79.21453697528034, 14.389787451884118], [79.2102694809088, 14.393199559751274], [79.20811644770501, 14.397316489685634], [79.20348708997854, 14.401759009700418], [79.20275555826257, 14.404853366471919], [79.19850695339372, 14.40585430752676], [79.18889673547048, 14.41439164327055], [79.18782270338147, 14.416105565023592], [79.18322326103426, 14.416759073485386], [79.18395232490582, 14.414009226882397]], [[79.26794407467317, 14.337484279857081], [79.26830263049831, 14.336798001288468], [79.26829734099965, 14.33748685877422], [79.26794407467317, 14.337484279857081]], [[79.24758581713385, 14.320456970832431], [79.24829228888296, 14.320462182693602], [79.2482869446367, 14.321151033766004], [79.24758047073493, 14.321145821643777], [79.24758581713385, 14.320456970832431]], [[79.24658493716973, 14.312871791729085], [79.24587848980357, 14.312866577494718], [79.24588918624812, 14.311488876132584], [79.24659295638301, 14.311838515331214], [79.24658493716973, 14.312871791729085]], [[79.24029933229775, 14.303525328927417], [79.2420546594194, 14.304916093138607], [79.24204930221791, 14.305604942798771], [79.24029128918227, 14.304558602544738], [79.24029933229775, 14.303525328927417]], [[79.24029933229775, 14.303525328927417], [79.23994880581122, 14.303178289907546], [79.2403020131935, 14.303180904367407], [79.24029933229775, 14.303525328927417]], [[79.23959559850032, 14.303175674923594], [79.23573182327878, 14.300391485479109], [79.2336368230071, 14.297275942101939], [79.2297651390793, 14.295524943016447], [79.23259068898112, 14.29554595401377], [79.23399539845688, 14.296589717734149], [79.23681828321679, 14.296955104126987], [79.23995416846341, 14.302489440887275], [79.23959559850032, 14.303175674923594]], [[79.22906144876283, 14.295175262332869], [79.22166336847246, 14.29270897890973], [79.22167419661223, 14.291331293279285], [79.22274457353512, 14.289961523496931], [79.22731977471672, 14.292062306760696], [79.22906144876283, 14.295175262332869]], [[79.19252501742018, 14.270445420789713], [79.1939321165587, 14.271144966719602], [79.19392113574155, 14.272522633683494], [79.19251402861211, 14.271823086760673], [79.19252501742018, 14.270445420789713]]]]}}, {"type": "Feature", "properties": {"depth_class": 3, "depth_lo_m": 2.0, "t_s": 42300.29097123646}, "geometry": {"type": "MultiPolygon", "coordinates": [[[[79.0164272670522, 14.215661296171254], [79.01609225821912, 14.213592070037937], [79.01361809590493, 14.213915935883495], [79.01430610767282, 14.21598809505003], [79.0164272670522, 14.215661296171254]]], [[[79.08118769080991, 14.239610343732366], [79.08261744185769, 14.237555317056964], [79.0829937652451, 14.234802984673802], [79.08122550959813, 14.23513320132147], [79.07873946040877, 14.236835303890329], [79.07906631912404, 14.23993770079759], [79.08118769080991, 14.239610343732366]]], [[[79.19357896809984, 14.271142289272959], [79.19252501742018, 14.270445420789713], [79.19251402861211, 14.271823086760673], [79.19392113574155, 14.272522633683494], [79.19357896809984, 14.271142289272959]]], [[[79.22906144876283, 14.295175262332869], [79.2283685498663, 14.293447889403673], [79.22591512643265, 14.291018510015597], [79.22380412412072, 14.289969434800142], [79.22203279456339, 14.290645089729146], [79.22201384932973, 14.293056040082597], [79.22764867825752, 14.295164740336862], [79.22906144876283, 14.295175262332869]]], [[[79.24029933229775, 14.303525328927417], [79.24134287928648, 14.305599717679025], [79.24204930221791, 14.305604942798771], [79.24029933229775, 14.303525328927417]]], [[[79.24029933229775, 14.303525328927417], [79.23994880581122, 14.303178289907546], [79.23994612437804, 14.303522714402005], [79.24029933229775, 14.303525328927417]]], [[[79.23994880581122, 14.303178289907546], [79.23681828321679, 14.296955104126987], [79.23399539845688, 14.296589717734149], [79.23259068898112, 14.29554595401377], [79.2297651390793, 14.295524943016447], [79.2336368230071, 14.297275942101939], [79.2371338915396, 14.301779659378475], [79.23994880581122, 14.303178289907546]]], [[[79.24658493716973, 14.312871791729085], [79.24588918624812, 14.311488876132584], [79.24587848980357, 14.312866577494718], [79.24658493716973, 14.312871791729085]]], [[[79.24758581713385, 14.320456970832431], [79.24758047073493, 14.321145821643777], [79.2482869446367, 14.321151033766004], [79.24829228888296, 14.320462182693602], [79.24758581713385, 14.320456970832431]]], [[[79.26794936524956, 14.336795422500364], [79.26829734099965, 14.33748685877422], [79.26830263049831, 14.336798001288468], [79.26794936524956, 14.336795422500364]]], [[[79.18322326103426, 14.416759073485386], [79.18782270338147, 14.416105565023592], [79.18889673547048, 14.41439164327055], [79.19850695339372, 14.40585430752676], [79.203111675668, 14.404511640082369], [79.2042020661053, 14.400731137518054], [79.20811644770501, 14.397316489685634], [79.2102694809088, 14.393199559751274], [79.21453697528034, 14.389787451884118], [79.21490946887027, 14.387379198423366], [79.21669527504073, 14.384981603489946], [79.21846739168946, 14.384306081008965], [79.22132129146229, 14.380883167391389], [79.2277055978012, 14.377831117544975], [79.22982824218175, 14.377502565651174], [79.23198066744338, 14.373385363814453], [79.2369378937633, 14.37204457275578], [79.23944613571054, 14.367585488369272], [79.24443006978889, 14.362800285102807], [79.24621804405362, 14.360057980215398], [79.24728598069512, 14.359032551791108], [79.25118026797989, 14.358027996467412], [79.25368004514114, 14.354601983055714], [79.25900070619387, 14.35188556306197], [79.26220420325704, 14.34880905194324], [79.26256810875879, 14.347433931906762], [79.25938858379824, 14.34741061016708], [79.25546783798305, 14.351859586368407], [79.24554096882271, 14.356264084706256], [79.23812186320096, 14.35620903530423], [79.23389859332701, 14.354110943124459], [79.23107230844569, 14.354089863548229], [79.22892822149461, 14.357173820140718], [79.22783582234216, 14.361298942828576], [79.22571061839055, 14.361971914627915], [79.22395228778072, 14.360925416261122], [79.22325657091271, 14.359542438496076], [79.22434089233825, 14.356450605199125], [79.22576489733021, 14.35508350970407], [79.22578388815242, 14.352672566988995], [79.2219249725205, 14.349199246228123], [79.21381329674387, 14.347416070235836], [79.21382694572014, 14.34569397846888], [79.21560965104749, 14.343640765580153], [79.21527547249723, 14.341227175898325], [79.21316681946868, 14.339833543252759], [79.21175378191104, 14.339822894454588], [79.20890582054278, 14.3425569123019], [79.20713402802512, 14.343232400186816], [79.20356845265265, 14.347338663874158], [79.20143784140038, 14.348700257438626], [79.20174987534315, 14.353869176452163], [79.2006735285233, 14.355927625706585], [79.20065701668594, 14.357994119078588], [79.1992301023259, 14.359705458681335], [79.19742781078587, 14.364169416918624], [79.19351392759567, 14.367583945130326], [79.19136367807738, 14.371356310397683], [79.18816729353688, 14.373398470881614], [79.18709349098694, 14.375112417248868], [79.18779178447444, 14.376151066819643], [79.18955834315094, 14.376164588288727], [79.19382021978012, 14.37344167616609], [79.19700275989295, 14.373121505490817], [79.20693386165384, 14.368374826818298], [79.20940698498548, 14.368393543295236], [79.21081198342802, 14.369437478254623], [79.21112694426262, 14.374261987637716], [79.20933844023061, 14.377003962183602], [79.20859338613667, 14.381820443753261], [79.20645145367358, 14.384559707897889], [79.2060816289965, 14.386623522902319], [79.20141938595927, 14.39519900365392], [79.19429711712125, 14.402033386079212], [79.193214875539, 14.40478058414281], [79.19035746214185, 14.408547478839182], [79.18323721366905, 14.415037020875431], [79.18322326103426, 14.416759073485386]], [[79.23059178733045, 14.370275016058665], [79.22850988687097, 14.365437275651159], [79.23029806557349, 14.362695116134566], [79.23068655250036, 14.358220281159111], [79.23175724622939, 14.356850508297812], [79.24375302259187, 14.359006387803898], [79.24338629112138, 14.360725886001239], [79.23947846763978, 14.363452417117799], [79.23662507124634, 14.366875611591789], [79.23518753329712, 14.369964878661637], [79.23059178733045, 14.370275016058665]]]]}}, {"type": "Feature", "properties": {"depth_class": 4, "depth_lo_m": 3.0, "t_s": 42300.29097123646}, "geometry": {"type": "Polygon", "coordinates": [[[79.23059178733045, 14.370275016058665], [79.22884421408335, 14.367850862456335], [79.22850988687097, 14.365437275651159], [79.23029806557349, 14.362695116134566], [79.23068655250036, 14.358220281159111], [79.23175724622939, 14.356850508297812], [79.24375302259187, 14.359006387803898], [79.24338629112138, 14.360725886001239], [79.23947846763978, 14.363452417117799], [79.23662507124634, 14.366875611591789], [79.23518753329712, 14.369964878661637], [79.23059178733045, 14.370275016058665]]]}}]}