{"type": "FeatureCollection", "features": [{"type": "Feature", "properties": {"depth_class": 1, "depth_lo_m": 0.3, "t_s": 900.3474557199435}, "geometry": {"type": "MultiPolygon", "coordinates": [[[[79.20956279559367, 14.393194208374938], [79.21346326563602, 14.39150153005574], [79.21488757673714, 14.390134537081256], [79.21561613796895, 14.387384531713733], [79.21846466148689, 14.384650499137145], [79.2202367716881, 14.383974962460144], [79.22166644294697, 14.381919080009075], [79.23052675463228, 14.378541112555718], [79.23303249767433, 14.374426542421599], [79.23728041213398, 14.373424891976827], [79.23977788782473, 14.370343495609813], [79.24015005833265, 14.367935163952056], [79.24727257433146, 14.360754672876846], [79.25187616275191, 14.359410911388478], [79.25473457892834, 14.355298642511858], [79.26076182460737, 14.352587385534203], [79.26396796526923, 14.349166421592038], [79.26680748425716, 14.34746496130796], [79.26754052367538, 14.344025841990518], [79.27003724892361, 14.340944035503593], [79.27007424162501, 14.336122029175506], [79.26832642976346, 14.333698142084929], [79.26726664877548, 14.333690405886692], [79.26619098348044, 14.335749235533585], [79.26615655742046, 14.340226803816138], [79.2647302222393, 14.341938610200957], [79.2643583862425, 14.344347020134698], [79.26293731807804, 14.345369955634887], [79.2604696923364, 14.344662972425633], [79.25838728938783, 14.339825438672731], [79.25593838871121, 14.336707431091153], [79.2552505138019, 14.33429125145314], [79.25349755336214, 14.332556126677575], [79.25390411350742, 14.325670199675441], [79.25146341332508, 14.32151888844619], [79.24908419576894, 14.309445765434564], [79.24069005881158, 14.298705997220182], [79.23860036155311, 14.294901642121193], [79.23190852779545, 14.292440895018686], [79.22945507151597, 14.290011548834052], [79.22664039128671, 14.288612818902761], [79.22489879228895, 14.285499853651745], [79.21890021560456, 14.284766159793742], [79.21503973816404, 14.28163727525273], [79.211165767369, 14.280230438696712], [79.20906311468946, 14.278147993078894], [79.20343164882311, 14.275694500718465], [79.20203268712838, 14.273961749801545], [79.19816442637493, 14.271865890414393], [79.19431819408226, 14.267014640941147], [79.19255797681058, 14.266312421873215], [79.18905133432163, 14.263185868288438], [79.18627032866361, 14.257653738290067], [79.18134866153773, 14.254860764110713], [79.17959963916805, 14.252780806370788], [79.17608231339389, 14.25103176051613], [79.17293201882562, 14.247563306577891], [79.1704658187216, 14.246855540408271], [79.16766043112094, 14.244422977012334], [79.16271980111476, 14.244040558368194], [79.16200802474756, 14.244723943354925], [79.16198850570575, 14.24713482277384], [79.16127671652681, 14.247818203979397], [79.15951118873208, 14.247804591367622], [79.15879100890615, 14.24952119589667], [79.15984754047345, 14.249873780008507], [79.16303388413209, 14.248865037976705], [79.16549450455281, 14.250261704560797], [79.16761316819431, 14.250277987763093], [79.17115260622425, 14.249271845657153], [79.17255395373319, 14.250660322079266], [79.17324077066927, 14.253076624616202], [79.17711952038147, 14.253795170557812], [79.17957753181166, 14.255536122415624], [79.17671103489427, 14.26068074878674], [79.1738860067263, 14.260659125943171], [79.16509404612337, 14.256113988470577], [79.16225235131213, 14.25815870127163], [79.15871833884063, 14.258475868461039], [79.15802048615211, 14.257437182746576], [79.16015876128078, 14.25504266553094], [79.1647492854631, 14.255078036293353], [79.16510797426082, 14.25439193007735], [79.16441845867911, 14.252320025886231], [79.16088732868086, 14.252292825691747], [79.15913573601422, 14.250557152865706], [79.1418108945421, 14.25317826416851], [79.13897189037411, 14.254878272326925], [79.13472888526864, 14.255533979616468], [79.13261871670754, 14.254484182472467], [79.11567236700132, 14.254006464757767], [79.11321208149525, 14.252609316711524], [79.11074322635515, 14.252245350137677], [79.10406594351173, 14.248403718404212], [79.09313739162525, 14.24625009644638], [79.08748506808163, 14.246549278712138], [79.08220329193121, 14.244784790253933], [79.07477976341383, 14.245758267550357], [79.06838907826256, 14.24983961703069], [79.06133317894384, 14.24909354963944], [79.05283546700387, 14.25177965078831], [79.05038159366687, 14.249693127655481], [79.04404980248988, 14.246886000224263], [79.04477672627256, 14.244481072944408], [79.04409727259785, 14.241375795733445], [79.0426879549158, 14.241019830810998], [79.04055764476615, 14.24237999808948], [79.03914535549544, 14.242368399009699], [79.03774497129747, 14.240979245419581], [79.03597962377928, 14.240964725866148], [79.02992366823341, 14.247114189297], [79.02991171163829, 14.248491728262412], [79.03166516403404, 14.249883840469908], [79.03200032638377, 14.25195306410504], [79.03339774441557, 14.253686639718746], [79.03302375413695, 14.256094424178862], [79.02378636627002, 14.262561799549031], [79.02024033109788, 14.264254409016086], [79.01493777641797, 14.264899114944043], [79.01351329715114, 14.266264869365592], [79.01138863265365, 14.266935959380636], [79.00963823117316, 14.265199318865623], [79.00681947872567, 14.264486950800165], [79.00684067184835, 14.262076294541147], [79.01077306399392, 14.256598654831757], [79.01222766144183, 14.251789101239005], [79.01189871699447, 14.24903111126513], [79.0073359368278, 14.245893395090432], [78.99744694722143, 14.246155008752277], [78.99569984548992, 14.244073920171033], [78.99643332566394, 14.240980449139704], [78.99857293663223, 14.238587573116192], [79.01417979242568, 14.230452146413525], [79.01560702061093, 14.228741972174156], [79.01812938234004, 14.222907980077235], [79.02133668612258, 14.219490473594716], [79.02137562667045, 14.215013483734918], [79.01928445244141, 14.211896493238465], [79.01540723686763, 14.211175531691218], [79.01328611998771, 14.21150232688183], [79.01150899061135, 14.21286518394602], [79.01109274467105, 14.220094263975241], [79.0089353576386, 14.224553582016597], [79.00360652913007, 14.22829757354379], [78.99758357643012, 14.230657988982585], [78.9911678825102, 14.237492166631315], [78.98971603832173, 14.24195717430881], [78.9900294647044, 14.246437041971214], [78.99317358463225, 14.250251936490958], [78.99809840715906, 14.25235973880977], [79.00445989775349, 14.251724239486554], [79.00551005452195, 14.252766237663353], [79.00514183342125, 14.25448518169301], [79.00157762623428, 14.258243784253796], [78.99870428838649, 14.263730136004016], [78.99867084318706, 14.26751829049742], [79.00040900979633, 14.270632514394705], [79.0025155145982, 14.27202780131377], [79.01133725595118, 14.272790423267189], [79.01381810973369, 14.271777905012762], [79.01805546567368, 14.271813197791813], [79.02089240795766, 14.270459155755322], [79.02513576005187, 14.269805553364264], [79.03081548266964, 14.266408475640048], [79.03224286201565, 14.264698219663943], [79.03507666272205, 14.263688370803433], [79.03793130201197, 14.260267782843856], [79.04077395361416, 14.258224695575132], [79.04185108409828, 14.256167076247685], [79.04433758999588, 14.254465422798447], [79.04715640005404, 14.255177346618932], [79.0499515456376, 14.258644348248227], [79.05240845809624, 14.260386497138095], [79.05699290187968, 14.261112734871412], [79.05910269023353, 14.262163165297265], [79.06510258446998, 14.262556359851265], [79.06723298241947, 14.261195980735076], [79.06795973586523, 14.258790960070648], [79.07008129046075, 14.258463726527424], [79.07540123222978, 14.255751390519249], [79.08635610353923, 14.25480629560897], [79.08989582011804, 14.253801413144846], [79.10081025878083, 14.257677218652479], [79.10465992145294, 14.26184092119642], [79.10995093034657, 14.262571778871566], [79.1134649232151, 14.264666160358253], [79.12299925374666, 14.264741439797268], [79.12830750126832, 14.263405480227268], [79.15019848599927, 14.263920807954607], [79.1568939425726, 14.26569483473111], [79.16290000017572, 14.265396776099056], [79.17626923973482, 14.271699280686693], [79.18191958341107, 14.271742469148661], [79.18650223182767, 14.27281070715048], [79.19001997432966, 14.27455964574096], [79.19563202182118, 14.27942435345167], [79.20196159638188, 14.282916620033967], [79.20510734524095, 14.287073627645169], [79.20792184319473, 14.288472594891404], [79.21177959109288, 14.291946014920496], [79.21740884063746, 14.294743784718877], [79.22305177084698, 14.29581932910877], [79.22761898981756, 14.298953386518303], [79.23184660352122, 14.300362628440144], [79.23429480738123, 14.303480810717287], [79.23850645365442, 14.3069564928057], [79.24059623627906, 14.310760857650749], [79.24198231313166, 14.314215560023023], [79.24225510854686, 14.324550907439628], [79.2379489841094, 14.333130073108165], [79.23545195969675, 14.336211503666126], [79.23328113808194, 14.342739752340448], [79.23290086804533, 14.34618134031007], [79.23037926702897, 14.352362482058878], [79.22824060954848, 14.354757591975279], [79.2271373672351, 14.360260394105586], [79.22642535228772, 14.360943945631375], [79.22501217213708, 14.36093336057749], [79.22325657091271, 14.359542438496076], [79.22362888336691, 14.357134148933367], [79.22577846256333, 14.35336140781719], [79.22438161932827, 14.35128430334856], [79.22227009594461, 14.350235155321963], [79.21802259749168, 14.351236580856797], [79.2130767078176, 14.35119934556075], [79.20703262231267, 14.355975828900071], [79.20381460875282, 14.360773574327267], [79.20308878303737, 14.36317912664042], [79.20340358453912, 14.368003628481576], [79.20869763595766, 14.36873261511138], [79.2100971521913, 14.370465388054019], [79.21006700518498, 14.374253973948004], [79.20826751140974, 14.378373604602091], [79.2078867372481, 14.381815091508184], [79.20610362349032, 14.383868196737547], [79.20500787755046, 14.38833755737591], [79.20498861463228, 14.390748465444979], [79.20744549018092, 14.392833725785058], [79.20956279559367, 14.393194208374938]], [[79.22595800933486, 14.37540694092617], [79.22386258255732, 14.372291265330993], [79.2235364671911, 14.368844419170905], [79.2253328819868, 14.365069048153838], [79.2281755637661, 14.36302368872907], [79.22928151127886, 14.357176460678755], [79.23142559380467, 14.354092500336353], [79.23495305323193, 14.354807683458512], [79.23811647394571, 14.356897880533381], [79.24270388842638, 14.357620834688895], [79.24588352904485, 14.35764439649887], [79.24978850178512, 14.355262162935777], [79.25190824742924, 14.355277809666088], [79.25154158623926, 14.356997328768342], [79.25047367746389, 14.358022779847989], [79.24693536616337, 14.358685513577129], [79.24372884127274, 14.362106199686641], [79.24053298810692, 14.364149139047633], [79.23803560078153, 14.367230553935483], [79.23766341009771, 14.369638879956087], [79.23588065128652, 14.371692254059782], [79.23127945269283, 14.372691242715335], [79.22878455399415, 14.375428112171962], [79.22595800933486, 14.37540694092617]], [[79.24519572833522, 14.355228196714581], [79.24025236915318, 14.35484709522166], [79.2395538687808, 14.353808578323163], [79.24174615689084, 14.344524880635793], [79.24390603684408, 14.339374226162445], [79.24461524772516, 14.339035031389749], [79.24571790648822, 14.333532077846701], [79.24785884327555, 14.330792336760295], [79.24892127274396, 14.330455732694313], [79.2513379661484, 14.337706903687298], [79.25728222066583, 14.345672906435075], [79.25726357637649, 14.348083891503972], [79.25512522191451, 14.350479282135332], [79.2483833752032, 14.35421844754973], [79.24519572833522, 14.355228196714581]], [[79.25724226437279, 14.35083930238299], [79.25973920423066, 14.347757630446326], [79.26185623389073, 14.348117607488856], [79.26113638061192, 14.3498345616432], [79.25900336795685, 14.3515411364457], [79.25723427120413, 14.35187258128982], [79.25724226437279, 14.35083930238299]], [[79.23610189388395, 14.343449634563875], [79.24003625819064, 14.337278885075179], [79.24149763389417, 14.331089733676373], [79.24400255810923, 14.326974948644077], [79.24619694913589, 14.317346713995152], [79.24479473360157, 14.315958577898169], [79.24342734813035, 14.310092911923647], [79.23853060975883, 14.303856675280976], [79.23502004220136, 14.301075090768125], [79.2336260630214, 14.29865363599925], [79.22904526903747, 14.297241798354124], [79.22588271674326, 14.295151576056936], [79.22130205753601, 14.293739602575249], [79.21849010777899, 14.291996356216963], [79.21849553136929, 14.291307514574099], [79.21955508580058, 14.291315445521729], [79.22133184043005, 14.289950967762671], [79.22241573698822, 14.286859090500574], [79.22347527286422, 14.28686700158749], [79.22486367535456, 14.289977341391207], [79.22767835800023, 14.291376092890715], [79.2294281200129, 14.293455777554211], [79.23717953319274, 14.295924449585913], [79.2480085162927, 14.311504510974869], [79.24797646226959, 14.315637619261016], [79.2500584694992, 14.320475203163186], [79.24932796022455, 14.323569827807255], [79.24755373447414, 14.324590075072944], [79.24467957792658, 14.330768844494287], [79.24217998300746, 14.33419478401554], [79.2421558236358, 14.337294599743306], [79.24107454781016, 14.340042134247327], [79.23643360439364, 14.34620764309222], [79.23610189388395, 14.343449634563875]], [[79.25142339402132, 14.326685278799868], [79.2493119324847, 14.32563638150834], [79.24932261792873, 14.324258679082792], [79.25073558681429, 14.324269093079009], [79.25178464385333, 14.325654602314865], [79.25142339402132, 14.326685278799868]], [[79.21673503743244, 14.290605444834869], [79.2121599872265, 14.28850447250705], [79.20444470225839, 14.281557605514784], [79.20197800631266, 14.280850112146128], [79.19952228159988, 14.278764924632032], [79.19529807102185, 14.277010759291045], [79.19004748754121, 14.271115486051492], [79.18758647375326, 14.269719030408933], [79.18830652974819, 14.268002323255185], [79.18901831854856, 14.267318860248906], [79.19184070598031, 14.267684730093789], [79.19499979239441, 14.270119744984765], [79.19744442549958, 14.27358263421147], [79.2013127055127, 14.275678507672325], [79.20341525832399, 14.27776101115373], [79.20728912507292, 14.27916796360372], [79.21219807142239, 14.283682595415113], [79.21288266267796, 14.286443258812323], [79.21639814169792, 14.288536274738272], [79.21673503743244, 14.290605444834869]], [[79.01170548008118, 14.271071469890694], [79.00253069398164, 14.270305909658461], [79.00113041410829, 14.268916550645034], [79.00010148546811, 14.265463881718102], [79.00369919168357, 14.257917153443435], [79.00654811666344, 14.255185751026993], [79.00727546116661, 14.252780994435389], [79.00588129461886, 14.250702912482465], [79.00447503988413, 14.250002342857512], [78.99952286784723, 14.250994075780415], [78.99318881072958, 14.248530051572034], [78.99109781170284, 14.245412832526704], [78.9911343757562, 14.241280311886582], [78.99365143129407, 14.236135439443983], [78.9979275196211, 14.23169408415263], [79.00501567789833, 14.228653751513727], [79.00963540415765, 14.22524822706228], [79.01215183974902, 14.220103075019047], [79.01220600642452, 14.213904200440556], [79.01469218686076, 14.212202819202595], [79.01821339437264, 14.213265252000868], [79.02030755945819, 14.21603786761961], [79.02028358291722, 14.218792936492168], [79.0177883526367, 14.221527520062223], [79.01490694413032, 14.22804734105404], [79.01170243017243, 14.23112034920703], [79.003199018565, 14.234493456009684], [78.99751983657507, 14.237889934199991], [78.99502412347519, 14.240624212579057], [78.99429975296158, 14.242684544802229], [78.99532549279509, 14.246481597413448], [78.99707868432272, 14.247873934639268], [79.00697077134765, 14.247267966173588], [79.01048037292296, 14.249708098557344], [79.01081835682506, 14.251432946340286], [79.0097440129746, 14.253146012371873], [79.00936675611631, 14.255898107671765], [79.00471906733398, 14.262402948740876], [79.00468875729392, 14.265846738677377], [79.00573594172675, 14.267233122474702], [79.00960798965254, 14.26864311834556], [79.01243284601877, 14.268666700067453], [79.0163321028183, 14.266977163695614], [79.02128460780703, 14.265985118402629], [79.02944795310671, 14.261231037030756], [79.03087530377042, 14.25952078568803], [79.03655766101163, 14.255779138276184], [79.03940918886498, 14.252702901389114], [79.04121327544226, 14.248240376234103], [79.04053683999611, 14.244790707562487], [79.04196102586951, 14.243424750965545], [79.04266717482408, 14.243430543641121], [79.04265232952238, 14.245152481061199], [79.04194023440544, 14.245835462259516], [79.04192538097969, 14.247557398582284], [79.04262560298315, 14.248251967754213], [79.04896036826271, 14.250714746734158], [79.05105818722323, 14.253142788042933], [79.05352096535407, 14.25419614092115], [79.0556188657526, 14.256624151728639], [79.05737845684436, 14.257327321841135], [79.06055635350842, 14.257353191914302], [79.0637460155786, 14.256001453855525], [79.06835682993383, 14.253627935061708], [79.0715610378507, 14.250554113680561], [79.07297340531241, 14.250565527426314], [79.07331480114141, 14.251945953836707], [79.07472133442246, 14.252646145941913], [79.0747125673823, 14.253679327338054], [79.07223503612352, 14.25434814809089], [79.06974870223567, 14.256050119372487], [79.06656787111898, 14.256368766122533], [79.06442576286369, 14.259106711239502], [79.06229537270298, 14.26046706582714], [79.0538326925173, 14.259020474654692], [79.04682109571195, 14.253108126504667], [79.04435243262623, 14.252743484978422], [79.04151880181792, 14.253753467857301], [79.04008263854837, 14.256496958542272], [79.03687796561505, 14.25957029029078], [79.0315516022344, 14.262970464561192], [79.02976813286621, 14.265022182694695], [79.02444454695515, 14.268077783293894], [79.02055433676507, 14.268734311240948], [79.01736129220839, 14.270429795094024], [79.0127708537504, 14.270391548107732], [79.01170548008118, 14.271071469890694]], [[79.18299835590358, 14.269339649281136], [79.17876340644399, 14.268962881079705], [79.17876894162477, 14.268274053218052], [79.18230311789758, 14.267956603693879], [79.18299835590358, 14.269339649281136]], [[79.17629418480514, 14.268599560008775], [79.17031303863713, 14.26579823729533], [79.1678438753907, 14.265434834243777], [79.16398171382846, 14.26264965038396], [79.15832326104379, 14.263639294205602], [79.1526928357597, 14.261184707154912], [79.14951190479415, 14.261504466638646], [79.14528849795204, 14.259749496352551], [79.14105669596654, 14.25902767956863], [79.13964422001722, 14.259016662394275], [79.13822043595026, 14.260383262088856], [79.13291796311319, 14.261030648222132], [79.13010152013047, 14.259975292028903], [79.12657033990124, 14.259947569423991], [79.12304771822163, 14.258886584632101], [79.1230534184792, 14.258197777942808], [79.12624282974275, 14.256845158485305], [79.12942368762874, 14.256525705575948], [79.13189547975857, 14.256545082761134], [79.13576557908524, 14.25829751037096], [79.13929675221486, 14.258325093703391], [79.14072616190906, 14.256269671224478], [79.1425001968651, 14.25525020901052], [79.14567822186116, 14.255274941453585], [79.14846940276725, 14.259429790956982], [79.15164188311421, 14.260143268811683], [79.15588216507682, 14.259831674886483], [79.15693313831301, 14.260873096723916], [79.16682067290668, 14.260949334416082], [79.16821927151179, 14.262682252553073], [79.17314645154995, 14.264786671270425], [79.17665286737117, 14.267913435529419], [79.17629418480514, 14.268599560008775]], [[79.18094582329596, 14.261057534936592], [79.18130171575116, 14.260715814599545], [79.1812989535709, 14.261060229240103], [79.18094582329596, 14.261057534936592]], [[79.11387533880436, 14.257780926496427], [79.1103499640945, 14.25706416614492], [79.10931072793117, 14.25464496397637], [79.11248868391198, 14.25467013751199], [79.11459015046859, 14.256753306858956], [79.11387533880436, 14.257780926496427]], [[79.05986488174291, 14.255625493308859], [79.05739910178262, 14.254916590612146], [79.05776399058554, 14.25354190542389], [79.06095655066302, 14.251845808626868], [79.06342525384241, 14.252210280348335], [79.06341643566408, 14.253243454873884], [79.06163625378854, 14.254951068575222], [79.05986488174291, 14.255625493308859]], [[79.10506770961142, 14.255300133214451], [79.10331657658516, 14.253564099958032], [79.09944398769797, 14.252155584374027], [79.09097540519592, 14.251399115014909], [79.08391057153143, 14.25168688798811], [79.08321019775698, 14.250992422942499], [79.08323346725614, 14.248237257936626], [79.08641418873844, 14.247918371308655], [79.09169607966273, 14.249682779262901], [79.09911108192378, 14.249741979069478], [79.10086791750994, 14.25078923782474], [79.10474912544629, 14.251164528938732], [79.10861025865606, 14.253950562926338], [79.10824853883801, 14.254980963907908], [79.1068303665928, 14.255658555968768], [79.10506770961142, 14.255300133214451]], [[79.15557384963861, 14.254318386832622], [79.15698910683032, 14.25398489601157], [79.15733662691399, 14.254676444862966], [79.15556824969947, 14.25500720652207], [79.15557384963861, 14.254318386832622]], [[79.03695544877823, 14.250616254692561], [79.03732938125526, 14.248208456507921], [79.03874170530185, 14.248220070985806], [79.03872682502707, 14.249942003656685], [79.03695544877823, 14.250616254692561]], [[79.03520493500164, 14.248879790776352], [79.0327333668375, 14.248859422413435], [79.03239819841795, 14.24679019903323], [79.03381945816946, 14.245768684773553], [79.03558484072892, 14.245783225093545], [79.03520493500164, 14.248879790776352]], [[79.16798573911937, 14.24786981291174], [79.16551955766946, 14.247161997049817], [79.16588101137076, 14.246131475377023], [79.1679968575194, 14.246492163029512], [79.16798573911937, 14.24786981291174]], [[79.03594089701826, 14.245441745537658], [79.035958772579, 14.243375428987287], [79.03737404224744, 14.243042661298785], [79.03841540847276, 14.245117689335293], [79.03699714820921, 14.245794847959493], [79.03594089701826, 14.245441745537658]]], [[[79.22541328174158, 14.309959079739055], [79.22612511965026, 14.309275510284424], [79.22614134026612, 14.307208979627866], [79.22509252634109, 14.305823382886274], [79.21979982998947, 14.305094923645736], [79.21696059575186, 14.306795847544091], [79.21694700922465, 14.308517947891525], [79.217647998955, 14.309212086873355], [79.22083233763523, 14.308547064517834], [79.22329399208644, 14.309943245113443], [79.22541328174158, 14.309959079739055]]]]}}, {"type": "Feature", "properties": {"depth_class": 2, "depth_lo_m": 1.0, "t_s": 900.3474557199435}, "geometry": {"type": "MultiPolygon", "coordinates": [[[[79.0042901677688, 14.271009463699784], [79.01170548008118, 14.271071469890694], [79.0127708537504, 14.270391548107732], [79.01736129220839, 14.270429795094024], [79.02055433676507, 14.268734311240948], [79.02515376595366, 14.267739254503677], [79.03687796561505, 14.25957029029078], [79.04008263854837, 14.256496958542272], [79.04151880181792, 14.253753467857301], [79.04435243262623, 14.252743484978422], [79.04682109571195, 14.253108126504667], [79.0538326925173, 14.259020474654692], [79.06229537270298, 14.26046706582714], [79.06442576286369, 14.259106711239502], [79.06656787111898, 14.256368766122533], [79.06974870223567, 14.256050119372487], [79.07223503612352, 14.25434814809089], [79.0747125673823, 14.253679327338054], [79.07472133442246, 14.252646145941913], [79.07331480114141, 14.251945953836707], [79.07297340531241, 14.250565527426314], [79.0715610378507, 14.250554113680561], [79.06835682993383, 14.253627935061708], [79.0637460155786, 14.256001453855525], [79.06055635350842, 14.257353191914302], [79.05737845684436, 14.257327321841135], [79.0556188657526, 14.256624151728639], [79.05352096535407, 14.25419614092115], [79.05105818722323, 14.253142788042933], [79.04896036826271, 14.250714746734158], [79.04262560298315, 14.248251967754213], [79.04192538097969, 14.247557398582284], [79.04266717482408, 14.243430543641121], [79.04196102586951, 14.243424750965545], [79.04053683999611, 14.244790707562487], [79.04121327544226, 14.248240376234103], [79.03940918886498, 14.252702901389114], [79.03655766101163, 14.255779138276184], [79.03087530377042, 14.25952078568803], [79.02944795310671, 14.261231037030756], [79.02128460780703, 14.265985118402629], [79.0163321028183, 14.266977163695614], [79.01243284601877, 14.268666700067453], [79.00960798965254, 14.26864311834556], [79.00573594172675, 14.267233122474702], [79.00468875729392, 14.265846738677377], [79.00471906733398, 14.262402948740876], [79.00936675611631, 14.255898107671765], [79.0097440129746, 14.253146012371873], [79.01081835682506, 14.251432946340286], [79.01048037292296, 14.249708098557344], [79.00697077134765, 14.247267966173588], [78.99707868432272, 14.247873934639268], [78.99532549279509, 14.246481597413448], [78.99429975296158, 14.242684544802229], [78.99502412347519, 14.240624212579057], [78.99751983657507, 14.237889934199991], [79.003199018565, 14.234493456009684], [79.01170243017243, 14.23112034920703], [79.01490694413032, 14.22804734105404], [79.0177883526367, 14.221527520062223], [79.02028358291722, 14.218792936492168], [79.02030755945819, 14.21603786761961], [79.01821339437264, 14.213265252000868], [79.01469218686076, 14.212202819202595], [79.01220600642452, 14.213904200440556], [79.01215183974902, 14.220103075019047], [79.00963540415765, 14.22524822706228], [79.00501567789833, 14.228653751513727], [78.9979275196211, 14.23169408415263], [78.99365143129407, 14.236135439443983], [78.9911343757562, 14.241280311886582], [78.99109781170284, 14.245412832526704], [78.99318881072958, 14.248530051572034], [78.99952286784723, 14.250994075780415], [79.00447503988413, 14.250002342857512], [79.00692842976565, 14.2520892845286], [79.00726638703183, 14.253814133973124], [79.00369919168357, 14.257917153443435], [79.00046673559675, 14.264089332379319], [79.0000923702338, 14.266497015623962], [79.00253069398164, 14.270305909658461], [79.0042901677688, 14.271009463699784]], [[78.99505756377081, 14.236836058050859], [78.99862754705063, 14.232388759569544], [79.00429749533434, 14.230025373107294], [79.01033846893031, 14.22559848929283], [79.01285489457979, 14.220453328413956], [79.01290904349517, 14.214254451361333], [79.01397713005143, 14.21323010365096], [79.01644828283301, 14.213250615962167], [79.01750134860936, 14.213948165416166], [79.01924547965814, 14.216373478580488], [79.0192244886985, 14.218784162259048], [79.01708528512148, 14.221177279800303], [79.01384480107811, 14.228382919354365], [79.01135540849101, 14.230428647119988], [79.00462030150152, 14.233472121800606], [79.00320809837079, 14.233460317373616], [78.99469234860358, 14.23821060349482], [78.99505756377081, 14.236836058050859]]], [[[79.03806233223487, 14.245114786634081], [79.03807423644159, 14.243737240513086], [79.03631482411299, 14.243033948251075], [79.03558782080233, 14.2454388391118], [79.03699714820921, 14.245794847959493], [79.03806233223487, 14.245114786634081]]], [[[79.16764653248764, 14.246145039311449], [79.16588101137076, 14.246131475377023], [79.16551955766946, 14.247161997049817], [79.1662202042559, 14.247856249880241], [79.16798573911937, 14.24786981291174], [79.16764653248764, 14.246145039311449]]], [[[79.03484887165719, 14.249221268305698], [79.03558484072892, 14.245783225093545], [79.03381945816946, 14.245768684773553], [79.03239819841795, 14.24679019903323], [79.03238625711815, 14.248167740093324], [79.03343654469286, 14.249209629991963], [79.03484887165719, 14.249221268305698]]], [[[79.1068303665928, 14.255658555968768], [79.10824853883801, 14.254980963907908], [79.10861025865606, 14.253950562926338], [79.10474912544629, 14.251164528938732], [79.10086791750994, 14.25078923782474], [79.09911108192378, 14.249741979069478], [79.09169607966273, 14.249682779262901], [79.08641418873844, 14.247918371308655], [79.08323346725614, 14.248237257936626], [79.08321019775698, 14.250992422942499], [79.08391057153143, 14.25168688798811], [79.0969751780607, 14.251791478530293], [79.10190992753928, 14.252864064921301], [79.10506483282897, 14.255644533066759], [79.1068303665928, 14.255658555968768]]], [[[79.15733942416966, 14.254332034669766], [79.15592976371755, 14.253976707515228], [79.15556824969947, 14.25500720652207], [79.15698071345741, 14.2550181263853], [79.15733942416966, 14.254332034669766]]], [[[79.11387533880436, 14.257780926496427], [79.11424276638363, 14.256061711286776], [79.11248868391198, 14.25467013751199], [79.10931072793117, 14.25464496397637], [79.11070020538457, 14.25741136514615], [79.11387533880436, 14.257780926496427]]], [[[79.17665286737117, 14.267913435529419], [79.17314645154995, 14.264786671270425], [79.16821927151179, 14.262682252553073], [79.16682067290668, 14.260949334416082], [79.15693313831301, 14.260873096723916], [79.15588216507682, 14.259831674886483], [79.15164188311421, 14.260143268811683], [79.14846940276725, 14.259429790956982], [79.14567822186116, 14.255274941453585], [79.1425001968651, 14.25525020901052], [79.14072616190906, 14.256269671224478], [79.13929675221486, 14.258325093703391], [79.13400282876944, 14.257939293599083], [79.13189547975857, 14.256545082761134], [79.12624282974275, 14.256845158485305], [79.1230534184792, 14.258197777942808], [79.12304771822163, 14.258886584632101], [79.12657033990124, 14.259947569423991], [79.13010152013047, 14.259975292028903], [79.13291796311319, 14.261030648222132], [79.13822043595026, 14.260383262088856], [79.13964422001722, 14.259016662394275], [79.14105669596654, 14.25902767956863], [79.14528849795204, 14.259749496352551], [79.14951190479415, 14.261504466638646], [79.1526928357597, 14.261184707154912], [79.15832326104379, 14.263639294205602], [79.16398171382846, 14.26264965038396], [79.1678438753907, 14.265434834243777], [79.17031303863713, 14.26579823729533], [79.17453125438831, 14.268241626102602], [79.17629418480514, 14.268599560008775], [79.17665286737117, 14.267913435529419]]], [[[79.1809485860118, 14.26071312036377], [79.1812989535709, 14.261060229240103], [79.18130171575116, 14.260715814599545], [79.1809485860118, 14.26071312036377]]], [[[79.18265349759763, 14.268303711953118], [79.1794779902729, 14.26793503633747], [79.17876340644399, 14.268962881079705], [79.18299835590358, 14.269339649281136], [79.18265349759763, 14.268303711953118]]], [[[79.21639814169792, 14.288536274738272], [79.21288266267796, 14.286443258812323], [79.21219807142239, 14.283682595415113], [79.20728912507292, 14.27916796360372], [79.20341525832399, 14.27776101115373], [79.2013127055127, 14.275678507672325], [79.19744442549958, 14.27358263421147], [79.19359818546305, 14.268731372154512], [79.1911371693107, 14.2673349534177], [79.18901831854856, 14.267318860248906], [79.18830652974819, 14.268002323255185], [79.18758647375326, 14.269719030408933], [79.19004748754121, 14.271115486051492], [79.19529807102185, 14.277010759291045], [79.19952228159988, 14.278764924632032], [79.20197800631266, 14.280850112146128], [79.20444470225839, 14.281557605514784], [79.2072454940178, 14.284678667352148], [79.20900590602518, 14.285380798865445], [79.21321408632807, 14.289201269948853], [79.21673503743244, 14.290605444834869], [79.21639814169792, 14.288536274738272]]], [[[79.23608033043645, 14.346205015179788], [79.24071590763982, 14.340728361481675], [79.2421558236358, 14.337294599743306], [79.24217998300746, 14.33419478401554], [79.24467957792658, 14.330768844494287], [79.24755373447414, 14.324590075072944], [79.24932796022455, 14.323569827807255], [79.25005046109585, 14.321508480734371], [79.24797646226959, 14.315637619261016], [79.2480085162927, 14.311504510974869], [79.23717953319274, 14.295924449585913], [79.2294281200129, 14.293455777554211], [79.22767835800023, 14.291376092890715], [79.22486367535456, 14.289977341391207], [79.22347527286422, 14.28686700158749], [79.22241573698822, 14.286859090500574], [79.22133184043005, 14.289950967762671], [79.21955508580058, 14.291315445521729], [79.21849553136929, 14.291307514574099], [79.21849010777899, 14.291996356216963], [79.22130205753601, 14.293739602575249], [79.22588271674326, 14.295151576056936], [79.22904526903747, 14.297241798354124], [79.2336260630214, 14.29865363599925], [79.23502004220136, 14.301075090768125], [79.23853060975883, 14.303856675280976], [79.24342734813035, 14.310092911923647], [79.24479473360157, 14.315958577898169], [79.24619694913589, 14.317346713995152], [79.24400255810923, 14.326974948644077], [79.24149763389417, 14.331089733676373], [79.24003625819064, 14.337278885075179], [79.23646324702221, 14.342418993849668], [79.23608033043645, 14.346205015179788]]], [[[79.25178464385333, 14.325654602314865], [79.25073558681429, 14.324269093079009], [79.24932261792873, 14.324258679082792], [79.2493119324847, 14.32563638150834], [79.25036365551908, 14.326677470871276], [79.25142339402132, 14.326685278799868], [79.25178464385333, 14.325654602314865]]], [[[79.25723427120413, 14.35187258128982], [79.26113638061192, 14.3498345616432], [79.26150560933017, 14.347770589921394], [79.25938326297634, 14.348099463770167], [79.25724226437279, 14.35083930238299], [79.25723427120413, 14.35187258128982]]], [[[79.22878726657159, 14.375083691840628], [79.23127945269283, 14.372691242715335], [79.23588065128652, 14.371692254059782], [79.23766341009771, 14.369638879956087], [79.23803560078153, 14.367230553935483], [79.24053298810692, 14.364149139047633], [79.24372884127274, 14.362106199686641], [79.24693536616337, 14.358685513577129], [79.25047367746389, 14.358022779847989], [79.25154158623926, 14.356997328768342], [79.25190824742924, 14.355277809666088], [79.24978850178512, 14.355262162935777], [79.24588352904485, 14.35764439649887], [79.24270388842638, 14.357620834688895], [79.23811647394571, 14.356897880533381], [79.23495305323193, 14.354807683458512], [79.23142559380467, 14.354092500336353], [79.22928151127886, 14.357176460678755], [79.2281755637661, 14.36302368872907], [79.2253328819868, 14.365069048153838], [79.2235364671911, 14.368844419170905], [79.22351742998097, 14.371255355653975], [79.22525409187169, 14.375057223175606], [79.22595529236212, 14.375751360718647], [79.22878726657159, 14.375083691840628]]]]}}, {"type": "Feature", "properties": {"depth_class": 3, "depth_lo_m": 2.0, "t_s": 900.3474557199435}, "geometry": {"type": "Polygon", "coordinates": [[[78.99469234860358, 14.23821060349482], [78.9964910409301, 14.234437266864179], [78.99862754705063, 14.232388759569544], [79.00429749533434, 14.230025373107294], [79.01033846893031, 14.22559848929283], [79.01285489457979, 14.220453328413956], [79.01290904349517, 14.214254451361333], [79.01397713005143, 14.21323010365096], [79.01644828283301, 14.213250615962167], [79.01750134860936, 14.213948165416166], [79.01924547965814, 14.216373478580488], [79.0192244886985, 14.218784162259048], [79.01708528512148, 14.221177279800303], [79.01384480107811, 14.228382919354365], [79.01135540849101, 14.230428647119988], [79.00462030150152, 14.233472121800606], [79.00320809837079, 14.233460317373616], [78.99469234860358, 14.23821060349482]], [[79.00286412847078, 14.232424226456065], [79.0078158790325, 14.231432367924748], [79.01136143526573, 14.22973988437425], [79.01385382845504, 14.2273497734766], [79.01673825703486, 14.220485584841834], [79.01852442623974, 14.218089543749514], [79.01853642518216, 14.216712010787882], [79.0167923002994, 14.214286693156389], [79.01432414112782, 14.213921800482394], [79.01361208294107, 14.214604700485722], [79.01356396764666, 14.22011481578819], [79.01032942674158, 14.226631633108346], [79.00358232867544, 14.231052611555338], [79.00286412847078, 14.232424226456065]]]}}, {"type": "Feature", "properties": {"depth_class": 4, "depth_lo_m": 3.0, "t_s": 900.3474557199435}, "geometry": {"type": "Polygon", "coordinates": [[[79.00286412847078, 14.232424226456065], [79.00358232867544, 14.231052611555338], [79.01032942674158, 14.226631633108346], [79.01356396764666, 14.22011481578819], [79.01361208294107, 14.214604700485722], [79.01432414112782, 14.213921800482394], [79.0167923002994, 14.214286693156389], [79.01853642518216, 14.216712010787882], [79.01852442623974, 14.218089543749514], [79.01673825703486, 14.220485584841834], [79.01385382845504, 14.2273497734766], [79.01136143526573, 14.22973988437425], [79.0078158790325, 14.231432367924748], [79.00286412847078, 14.232424226456065]]]}}]}