{"type": "FeatureCollection", "features": [{"type": "Feature", "properties": {"depth_class": 1, "depth_lo_m": 0.3, "t_s": 19800.604406082497}, "geometry": {"type": "MultiPolygon", "coordinates": [[[[79.11751217338052, 14.245065942654776], [79.11928904916898, 14.243702251303079], [79.12003514704855, 14.238886170008819], [79.11864278075625, 14.236464222249971], [79.11688023898621, 14.236105902364683], [79.11545363952872, 14.237816771855584], [79.1150605410665, 14.242635616551368], [79.1164557530546, 14.244713181564652], [79.11751217338052, 14.245065942654776]]], [[[79.05916163404422, 14.255275356134545], [79.06270142534787, 14.25427089370706], [79.06376952989213, 14.2532463216734], [79.06378128516583, 14.251868755329888], [79.06272788951496, 14.251171371428574], [79.0591910941519, 14.25183144997471], [79.05775809412542, 14.254230686056486], [79.05916163404422, 14.255275356134545]]], [[[79.18000374771509, 14.42155631017563], [79.1835403571644, 14.421239129571308], [79.18709646069989, 14.418511016700787], [79.18957010888992, 14.418530004871648], [79.19065525921216, 14.415438427550875], [79.19955598046509, 14.40724004595359], [79.20203504116495, 14.406570060425583], [79.20520152816448, 14.408316322979898], [79.20661774396048, 14.40798264550351], [79.20663426087788, 14.405916154058986], [79.20488673699616, 14.40349182809468], [79.2052511113564, 14.402116852511108], [79.20916550585407, 14.398702188620074], [79.21167736760702, 14.393899089345467], [79.21522996993527, 14.391514873864544], [79.21739100897884, 14.386364602146157], [79.22094070579678, 14.384324697209028], [79.22237037374117, 14.382268810073878], [79.22769202320922, 14.379553217686112], [79.2308773682089, 14.378888175171744], [79.23338581532138, 14.374429179936971], [79.23621506009306, 14.374105839349179], [79.23905778275501, 14.37206035241931], [79.24050067390374, 14.368282212407864], [79.24762587323237, 14.360757286707756], [79.25152019043323, 14.359752729143999], [79.25473190991246, 14.355643068233615], [79.26004992675128, 14.353271052952037], [79.26254420652216, 14.350533778038558], [79.26680483520681, 14.347809389473591], [79.26789380017294, 14.344028422659202], [79.27039052106116, 14.340946611912514], [79.27042750621753, 14.336124604682285], [79.26868497710846, 14.333011861922287], [79.27014026579522, 14.327511298492542], [79.26943904594542, 14.326817290646554], [79.26837665396376, 14.327153992096438], [79.26659188428569, 14.329552102745087], [79.26580328720446, 14.340224221229635], [79.26437694960977, 14.341936025189062], [79.26400510990962, 14.34434443414455], [79.26329324976695, 14.345028115803675], [79.26152686447314, 14.345015172063377], [79.25664491448339, 14.336712623869067], [79.25564638099003, 14.328783023430525], [79.25356952194993, 14.323256616601912], [79.25216722348489, 14.321868515380293], [79.25011451043132, 14.313242257530135], [79.25048107124498, 14.311522727763098], [79.25367338538099, 14.309823977480432], [79.25405055409279, 14.306726730096196], [79.25228714040954, 14.30636932481573], [79.25086362021082, 14.307736638407867], [79.24945075461558, 14.307726236926685], [79.24839911411324, 14.30668515246356], [79.24770870582266, 14.304613390629497], [79.24209750676366, 14.2994052943525], [79.24036097484294, 14.295603561403635], [79.23158494723775, 14.288649613678345], [79.23194620226064, 14.287618967621171], [79.23477702913844, 14.286951093378322], [79.23514363709724, 14.285231592120816], [79.23234241456659, 14.282110813443175], [79.22916924752872, 14.281398345911725], [79.22602578137709, 14.276897189689267], [79.21895710576905, 14.277533314456582], [79.21437141924781, 14.276810092979515], [79.21085885153838, 14.274372648666299], [79.2048497377808, 14.275016314858716], [79.20454024827694, 14.269502953005821], [79.20209553402259, 14.26604012793685], [79.19750469241258, 14.266005449747752], [79.19541326110789, 14.262545242241366], [79.19224602858593, 14.261143493525303], [79.18945121464914, 14.257333475314066], [79.1852385032545, 14.254201522418041], [79.18349496000445, 14.25143275883265], [79.17997761661314, 14.249683769177285], [79.17892933342902, 14.248298027035187], [79.16907561601656, 14.244089404638748], [79.16554738740389, 14.243717876599996], [79.16310076179212, 14.240599159878956], [79.16099056014036, 14.239549613505563], [79.16033178926588, 14.233689180417858], [79.15823003770038, 14.231606385219042], [79.1554026050069, 14.231928997479027], [79.15539142212188, 14.233306639260418], [79.15643949084512, 14.234692460967315], [79.15641433672464, 14.237792155841689], [79.15534388152115, 14.239161614965662], [79.15251355208413, 14.23982859066825], [79.15037536870312, 14.24222304976879], [79.14999140514246, 14.246008812910349], [79.14679100786984, 14.248739420362433], [79.14642383963208, 14.25045871831144], [79.13756792362938, 14.25383402695472], [79.12415263224054, 14.253384463896005], [79.12274875331603, 14.252340140571778], [79.12136484435317, 14.248884987715162], [79.11996100556385, 14.247840652593972], [79.11854576154927, 14.24817392179091], [79.11815553806753, 14.252648370973866], [79.11603405241218, 14.252976048078724], [79.11181972793872, 14.250187330342861], [79.10478076073468, 14.247376129261893], [79.09526459880956, 14.245233822882538], [79.08784685966762, 14.245518918603107], [79.08363307335924, 14.242729761263544], [79.0872161077741, 14.236558945266134], [79.08726249557063, 14.231048594980626], [79.08621780207653, 14.229318126318493], [79.08268137790489, 14.229978605806652], [79.08125749985075, 14.231344848665294], [79.07842425484944, 14.232355326381601], [79.07628545678543, 14.234749035156186], [79.07240463398355, 14.234373321346716], [79.06990683539938, 14.237452898006705], [79.06602305916329, 14.23742146851574], [79.06459610677595, 14.239131984799814], [79.06386353693466, 14.24222578621444], [79.05852321239026, 14.24734862515903], [79.05426849621422, 14.249380448485425], [79.05179689433962, 14.2493602768552], [79.04864281258358, 14.246579195446415], [79.04581520458761, 14.246900465993184], [79.0451149751748, 14.24620590539994], [79.0462364433589, 14.238982427735012], [79.04519205797651, 14.237251815508658], [79.04342673152229, 14.237237354716758], [79.04056953145968, 14.241002449587638], [79.03880418076247, 14.240987950893782], [79.03810399139434, 14.240293374473723], [79.03386120938336, 14.240947285193], [79.03171294507281, 14.244373678405747], [79.02887041689556, 14.246416671644003], [79.0281403299388, 14.24916591195965], [79.03094704695776, 14.251255552179364], [79.03162931485632, 14.254016460248135], [79.03054314032353, 14.25710717698657], [79.02877468211655, 14.257436972277128], [79.02597091652174, 14.255002916507191], [79.0234992954752, 14.25498244391417], [79.02136274281503, 14.257031171963757], [79.0216978108935, 14.259100398166925], [79.02274808681274, 14.260142334472352], [79.02237997321282, 14.26186131954046], [79.0188369514324, 14.263209526239343], [79.01355252563498, 14.261787918287508], [79.01248417896387, 14.262812230251354], [79.01211598255506, 14.26453118845688], [79.01070055773839, 14.264863783479063], [79.00823792926933, 14.263809999528478], [79.00754081118086, 14.262770957927861], [79.01112313262655, 14.256945980771798], [79.01257169320522, 14.25282518646603], [79.01294890164641, 14.250073079711248], [79.01225782599579, 14.24834529140339], [79.01085759594277, 14.24695599706102], [79.00698891289484, 14.245201686245617], [78.9978060911915, 14.24546921560785], [78.99640293743899, 14.24442422775492], [78.99642421004874, 14.242013582835064], [78.99927905196111, 14.238593492157053], [79.00247777430876, 14.236209446995503], [79.01311462609102, 14.231132101529997], [79.0170432387047, 14.225998638381537], [79.0181323838533, 14.22256359707371], [79.02096866992005, 14.221209469120577], [79.02168672354301, 14.21983777971867], [79.02172266370303, 14.215705172999746], [79.02103158677058, 14.213977410345805], [79.01752235037748, 14.211537483288634], [79.01363913874474, 14.211505259444257], [79.01222104809472, 14.2121822902303], [79.01114392998348, 14.214239775182309], [79.01144878729457, 14.219752819826976], [79.00928839570648, 14.224556523639322], [79.00502474556892, 14.227620611225566], [78.99900182160911, 14.229981066852796], [78.9958062033365, 14.232020695255349], [78.99081482827656, 14.237489195605033], [78.98936602677651, 14.241609823830911], [78.98967334689925, 14.246778443755712], [78.9924674357053, 14.250245994642905], [78.99738921000703, 14.252698188461716], [79.00445384033526, 14.252412998064305], [79.0048008640535, 14.253104710638027], [79.00443566613988, 14.25447927354424], [79.00087144879714, 14.258237864028583], [78.99799809511417, 14.263724205040322], [78.99865867886301, 14.268895800905279], [79.00075300200511, 14.271668611847513], [79.00286255385494, 14.272719518788453], [79.01168432476985, 14.2734821314918], [79.0152275436786, 14.272134058613624], [79.01875868139938, 14.272163454322099], [79.0215956252886, 14.270809403965872], [79.02336118965299, 14.270824059841592], [79.02545886107663, 14.273252311463283], [79.0275775663455, 14.273269865540358], [79.02864890608025, 14.271901100474127], [79.02938808117955, 14.268118720060349], [79.03223389372147, 14.265731373830675], [79.03682130929369, 14.266113619492065], [79.03825162607681, 14.26405893542794], [79.03791044210257, 14.262678484905694], [79.03863154421983, 14.260962366514624], [79.0429044243494, 14.256864546935287], [79.04395777142022, 14.257562013756305], [79.04391915507637, 14.26203904867702], [79.04637307844466, 14.264125645785205], [79.05096644383246, 14.263818840773217], [79.05380609162525, 14.262119978487263], [79.05557162252518, 14.262134387148533], [79.05661618239829, 14.263864975179214], [79.05908500095501, 14.264229507225052], [79.05979711646614, 14.263546476564528], [79.06685932145001, 14.263603861040847], [79.0689955874277, 14.261554681473108], [79.07182631318113, 14.260888762277748], [79.07432731248431, 14.257464806836436], [79.07715797827437, 14.256798815681213], [79.07856455454983, 14.257498990109614], [79.07890890751746, 14.258535018854234], [79.07571342665656, 14.260575754130407], [79.07534570278588, 14.262294872022604], [79.07604607977672, 14.26298936092216], [79.07852078428965, 14.262664905753283], [79.08097507971411, 14.26475118737768], [79.08450333122904, 14.265123989883687], [79.08801707636808, 14.267218722129435], [79.092196544871, 14.274140621640816], [79.09923609574169, 14.27695227229406], [79.10167053763124, 14.281449170271424], [79.10378364681529, 14.282154853846999], [79.10483155837473, 14.283540886228206], [79.10764812396393, 14.284596560933686], [79.10904922538253, 14.28598538641653], [79.1164712213623, 14.285355390663486], [79.12391033008848, 14.282658741483512], [79.12890853901125, 14.276153980129727], [79.12860660114575, 14.269951933004794], [79.13288109305913, 14.265507915236517], [79.14134488091858, 14.266951789653177], [79.14418403368784, 14.265251771032068], [79.14736220184103, 14.2652764979989], [79.15016476032059, 14.268053709563914], [79.15508622817609, 14.270847313390544], [79.16108123995487, 14.271926958925201], [79.1660252525122, 14.271965071840796], [79.17377223549101, 14.27478005919587], [79.17621933162874, 14.277898719499357], [79.17868311313588, 14.278950880370108], [79.18218428016851, 14.28276642308184], [79.18461776393478, 14.287607091555222], [79.1849322612204, 14.29243158832621], [79.18631460743782, 14.296230922963252], [79.18808329793326, 14.295899966965628], [79.1888144876594, 14.292805610722356], [79.1905803949153, 14.29281904794677], [79.1916206681013, 14.295238013633506], [79.1940902195092, 14.295601212147556], [79.19835589384618, 14.292189182237923], [79.19836686344169, 14.290811514165672], [79.19731829856691, 14.28942582173663], [79.18992637452116, 14.286269780860277], [79.18960074679703, 14.282822939238185], [79.19208115990043, 14.281808478421144], [79.19698981495468, 14.286323394224814], [79.20719365796963, 14.291222624576593], [79.20929367201994, 14.293649515752437], [79.21210555658288, 14.2953928647974], [79.21314063768968, 14.298500603379685], [79.21596348212971, 14.298866236248694], [79.22021539170099, 14.297175888470496], [79.22198136356636, 14.297189096639597], [79.22268233966265, 14.297883219118287], [79.21982152738421, 14.302339557880131], [79.21627592200257, 14.304035187423437], [79.21519455371498, 14.306782593404192], [79.21552328557267, 14.309885023325727], [79.21657477004507, 14.3109262373617], [79.2218811337576, 14.309932678209698], [79.2243455168131, 14.310984428918426], [79.22574485996539, 14.312717089934926], [79.22569886610728, 14.318572255180376], [79.22074010245603, 14.320257364752132], [79.22072653142125, 14.321979466706884], [79.22249269756956, 14.321992693482768], [79.22675043858303, 14.31961343353247], [79.22817417094184, 14.318246291076392], [79.22889683438937, 14.316185027674804], [79.22855981552567, 14.314115861763078], [79.22962218187143, 14.313779337951303], [79.22961138446165, 14.315157026942655], [79.23171994463624, 14.316550501276607], [79.23346183119331, 14.319663447205015], [79.23343488250246, 14.323107674836425], [79.23518491315942, 14.325187346184508], [79.23695111826157, 14.325200468332977], [79.23801890783719, 14.32417506476874], [79.23840977135669, 14.319355754435115], [79.23946946868521, 14.319363611780258], [79.239774364141, 14.325565860299255], [79.23904369273062, 14.328660434057081], [79.23724247665349, 14.333124825953254], [79.23440027426076, 14.335170351762898], [79.23290626904225, 14.345492496402851], [79.22895530591923, 14.353729610790715], [79.22789274344801, 14.354066108783952], [79.22720243805915, 14.35199430009091], [79.22439790558329, 14.349217781947317], [79.21769383982351, 14.348134153700263], [79.21593565398834, 14.347087611410107], [79.21594928642655, 14.345365517595662], [79.21701726671043, 14.344340232242319], [79.21669397015182, 14.34054896662448], [79.21388697968457, 14.338116771578022], [79.21176743907941, 14.338100803530798], [79.2082102445005, 14.34117390555993], [79.2064384619164, 14.341849389341613], [79.20215812324811, 14.346983536306205], [79.20038628022836, 14.347658967092235], [79.20033675867307, 14.353858449405706], [79.19889058975251, 14.357980697041922], [79.19710761779805, 14.36003375081947], [79.19637620686119, 14.363128103787002], [79.1921090325636, 14.366539918004447], [79.19102975898085, 14.368942717338514], [79.18889609241045, 14.370648575877235], [79.18677349897064, 14.370976761205101], [79.18464256324229, 14.372338162976906], [79.17720642884179, 14.374347608696693], [79.17400429996235, 14.377078377030065], [79.1739819230569, 14.379833655703262], [79.1767693318989, 14.38467719774831], [79.17992134364025, 14.388145796625501], [79.18203853129143, 14.388506515674466], [79.18523797467802, 14.386120060473111], [79.19166713710297, 14.377558449754053], [79.19415693574395, 14.375510854920389], [79.19805164867275, 14.374507235355713], [79.20656683169099, 14.37009423256252], [79.20868666723874, 14.370110281999258], [79.20938779703489, 14.37080446124636], [79.20936312157765, 14.373904212140848], [79.20756636471803, 14.3776794201207], [79.20718283557545, 14.381465321073328], [79.20540246919063, 14.383174004932425], [79.2043122196737, 14.386954530597611], [79.2021729392928, 14.389349328180453], [79.20001429147014, 14.394155001404851], [79.19324814581508, 14.40064763032114], [79.18930849180256, 14.407161705585645], [79.18539367187911, 14.410575985554761], [79.18291174703519, 14.411590195695426], [79.17898836623954, 14.416037577021672], [79.17825083710606, 14.419820628321643], [79.18000374771509, 14.42155631017563]], [[79.2006795780156, 14.39932659787394], [79.20392033990912, 14.39177366081229], [79.20642121438874, 14.38834828170439], [79.20715536305107, 14.384909481415246], [79.20929729156266, 14.382170210361663], [79.20967804565953, 14.378728718850027], [79.21183357067761, 14.374267327463649], [79.2118664254691, 14.370134320607931], [79.21082019991766, 14.368404226840859], [79.2083553017272, 14.367352274999666], [79.20587944516528, 14.367677965113442], [79.20268322480285, 14.36972034378743], [79.1973698689574, 14.371402124085117], [79.19454342355094, 14.371380583662045], [79.19456277132913, 14.368969685552415], [79.19955584491858, 14.363152296192233], [79.19956961854197, 14.361430220202624], [79.20280971361225, 14.353877216214162], [79.20320145158036, 14.34905806829696], [79.2049760438982, 14.34803820019895], [79.20641105692117, 14.345293559765384], [79.20854708336476, 14.343243078979254], [79.2120988476365, 14.340858812070536], [79.2142102300377, 14.341908035892313], [79.21419658774396, 14.343630128569043], [79.21205240515472, 14.346713919846668], [79.21239201444047, 14.348438673919082], [79.21696276279522, 14.351228610542146], [79.22332178073151, 14.351276361432877], [79.2250691823952, 14.353700537412772], [79.22185428181787, 14.35815415752441], [79.22148466852032, 14.360218022325059], [79.22499587765498, 14.36299988063147], [79.22711566774777, 14.363015757433796], [79.22818369675478, 14.36199042696545], [79.22893093026062, 14.35682939925293], [79.23000703958338, 14.354770792356398], [79.23285224616181, 14.352380933587764], [79.23287385875706, 14.349625559217102], [79.23430856475467, 14.34688071212339], [79.2350582646633, 14.341375214530773], [79.23684614315953, 14.338632969280676], [79.24260566822288, 14.324897946659764], [79.24268072477557, 14.315254060340044], [79.23885698283233, 14.307303534266323], [79.23675382389172, 14.305221279451375], [79.23358301161582, 14.304164409916146], [79.23183583020983, 14.301740320644697], [79.22865969942579, 14.30137223836693], [79.2279667904867, 14.299644863285412], [79.22445913470105, 14.296518722493408], [79.22305177084698, 14.29581932910877], [79.21562930765266, 14.29645264567474], [79.2149392312036, 14.294380825132931], [79.21106777600555, 14.292629543648768], [79.20791366112206, 14.289505851601684], [79.19770712952925, 14.28495107579956], [79.19595499959792, 14.283215614797859], [79.195276115421, 14.279766093780891], [79.19211415474497, 14.277675484453678], [79.1882624727718, 14.273512974367291], [79.18509515138146, 14.272111118890441], [79.17909717689271, 14.271376477738391], [79.17802943130174, 14.2724016188398], [79.17766243303109, 14.2741209855255], [79.17660298355196, 14.274112877636695], [79.17310203646402, 14.270297277276363], [79.16359789694252, 14.26643545249018], [79.15371575138131, 14.265670234125341], [79.14913910056579, 14.26391258370314], [79.14348905633275, 14.263868641609898], [79.14171777554753, 14.264543696000796], [79.13254215050118, 14.263783123175122], [79.13112397376109, 14.264460861527034], [79.13040352091764, 14.266177345533945], [79.12720260549914, 14.268907622230888], [79.12750166010821, 14.275454070528816], [79.12393030514414, 14.280247921488598], [79.1210879707402, 14.28229205736389], [79.1175478705337, 14.283297363324923], [79.11225059632697, 14.28325541401948], [79.11119689001758, 14.28255820946135], [79.11156727413857, 14.28049460878609], [79.11477139951415, 14.277420186872737], [79.11866741355578, 14.276073300010935], [79.12044740813293, 14.274365230021303], [79.12260048712197, 14.270249106494381], [79.12509236377309, 14.26785774858478], [79.12510945621258, 14.265791327512535], [79.12299925374666, 14.264741439797268], [79.1134620572153, 14.265010561616892], [79.1113519288551, 14.263960578162699], [79.1081738448278, 14.26393537342702], [79.10712598605208, 14.262549362287352], [79.10430968460562, 14.261493713734838], [79.10221404975759, 14.258721662387268], [79.09975670304678, 14.25697998110661], [79.09588697894425, 14.255227005546976], [79.09024602177182, 14.254148637784189], [79.07434193079537, 14.255742838726992], [79.07078749802938, 14.258469441924142], [79.06866301079103, 14.25914107427687], [79.06545569354425, 14.262559225985866], [79.06193049371822, 14.261841759273208], [79.0587495831085, 14.262160289832828], [79.05558638820074, 14.260412438869322], [79.05134619007893, 14.260722229301043], [79.04956882551404, 14.262085344424321], [79.04674102100309, 14.262406601074481], [79.04568764319708, 14.261709142858981], [79.04571138663584, 14.258954041660605], [79.04678551407623, 14.257240782816858], [79.04749170804877, 14.257246566704648], [79.04750356557835, 14.25586901418736], [79.0464531782946, 14.254827174601072], [79.04327534377046, 14.254801121148423], [79.04185702967375, 14.255478302276677], [79.037222121868, 14.260606355341048], [79.03577690420762, 14.264382962912599], [79.03224585128754, 14.26435383492061], [79.03082744944359, 14.265030937987094], [79.02762253144314, 14.268104111543083], [79.02690132038339, 14.269820182006926], [79.02054531255963, 14.269767457752558], [79.01806149035542, 14.271124434620518], [79.01453037031774, 14.271095030674966], [79.01063405287596, 14.272440146063243], [79.00322477065635, 14.271689343808072], [79.00041812634142, 14.269599380645886], [78.99903306662063, 14.266488122875035], [78.99905130599996, 14.264421856308951], [79.00228380399535, 14.258249702390598], [79.00584800102597, 14.254491087753927], [79.00586918898902, 14.252080430910741], [79.00481903309814, 14.251038434459035], [78.99810448383766, 14.251670982911035], [78.9945858834618, 14.250263813925606], [78.9910825732216, 14.247134715678087], [78.99042216027863, 14.241963120913422], [78.99187094662877, 14.237842484163682], [78.9979275196211, 14.23169408415263], [79.00465961113905, 14.228995182750491], [79.01034449665323, 14.224909726696495], [79.01250788101302, 14.21976162908677], [79.012202997849, 14.21424858245104], [79.01363012086742, 14.21253840655277], [79.0164542866189, 14.212561850093463], [79.02031055616503, 14.2156934839632], [79.02027459039152, 14.219826087145787], [79.0174353174422, 14.221524591603732], [79.01490995165388, 14.22770295887302], [79.01241455186278, 14.230437463262986], [79.00248988644704, 14.234831929598679], [79.0003533843975, 14.236880472637111], [78.99893813003706, 14.237213018773094], [78.99608634260645, 14.240288729486505], [78.99500587917154, 14.242690478147232], [78.9956876839742, 14.245451430766979], [78.99709083955537, 14.246496423145295], [79.00662677123822, 14.246231876834589], [79.00979233746456, 14.247635925097844], [79.0115426230163, 14.24937254941549], [79.01151546347596, 14.252471976697812], [79.01006688770704, 14.25659276249701], [79.00613145178922, 14.262414767694958], [79.00611025060414, 14.264825422840874], [79.00857892743562, 14.265190469322434], [79.01068242391878, 14.266930064690753], [79.01280105109045, 14.266947742491043], [79.01459070659811, 14.264207411412004], [79.01846880083497, 14.26492850037057], [79.02520476702769, 14.261884739002703], [79.02556986136445, 14.260510130289084], [79.02311319130135, 14.258767730895348], [79.02312819967261, 14.257045815723822], [79.02384038362332, 14.256362903136472], [79.02595892903368, 14.256380451272282], [79.02840662014515, 14.259155973481219], [79.03088427418236, 14.25848763183147], [79.03301778148204, 14.256783194454025], [79.03339774441557, 14.253686639718746], [79.03202123270508, 14.249542368463292], [79.03061787122671, 14.248497558605415], [79.03062982354285, 14.247120019053302], [79.0356235754755, 14.241306206509615], [79.0377419954663, 14.241323631976782], [79.04020159992284, 14.24272148612804], [79.04269389137119, 14.24033105562197], [79.04410617098466, 14.240342632091512], [79.04442068320998, 14.244822567616248], [79.04369375421783, 14.247227493123697], [79.05002850778135, 14.249690241746825], [79.05283546700387, 14.25177965078831], [79.05990905408116, 14.250459631664848], [79.06168332499728, 14.249440809957724], [79.0680330565565, 14.250181150265265], [79.07335280932729, 14.247468836816093], [79.07514160842845, 14.244727933732795], [79.07268172051894, 14.243330410064322], [79.06809753829185, 14.242604512200883], [79.06669695285426, 14.241215505897058], [79.06671161163742, 14.23949354322016], [79.06742361962108, 14.238810475711437], [79.07059835051575, 14.239180572628575], [79.07274309327181, 14.236098140722714], [79.07450844166974, 14.236112383708992], [79.0755501457413, 14.238187289828055], [79.07625629252826, 14.238192981104712], [79.07734174704468, 14.235101960869208], [79.07912165071376, 14.233394192716206], [79.08302282018796, 14.23135902409086], [79.085141207155, 14.231376017402733], [79.08617719682361, 14.234139680707653], [79.08580091352832, 14.236892023228718], [79.08151749219508, 14.24236834582444], [79.08150003241568, 14.244434718571096], [79.08502506907669, 14.245151870557889], [79.08783525583814, 14.24689650523286], [79.0941937690883, 14.24660295719213], [79.1044161623259, 14.248750924033887], [79.11601975337902, 14.254698058507678], [79.13226560637942, 14.25448141733137], [79.13720350209329, 14.255208894284161], [79.14818094372106, 14.25150565575944], [79.1502939834607, 14.252210911871732], [79.15842113229573, 14.251584933537838], [79.16052304768102, 14.253667746230082], [79.15909382180348, 14.255723311535132], [79.15696392469489, 14.257084586850207], [79.15836242051635, 14.258817551476994], [79.16508290227489, 14.257491634996867], [79.17107764801335, 14.258570993420637], [79.1738915533598, 14.259970299480981], [79.17636621470686, 14.259644806623653], [79.17850987172358, 14.256561276090496], [79.17711675325164, 14.254139584593803], [79.1743001198954, 14.253084735746508], [79.17008772284127, 14.249952548290878], [79.16656218293106, 14.249236612153403], [79.1602034410977, 14.24953209257568], [79.15950281062823, 14.24883782374648], [79.16128787558773, 14.246440559291177], [79.16166886631814, 14.242999166836945], [79.16272816164529, 14.24300732370141], [79.16483283576565, 14.244745683120986], [79.16836107764723, 14.24511722347495], [79.18277769598794, 14.25280504047256], [79.18662345468732, 14.257656424081851], [79.18870370188687, 14.262494353068792], [79.19397877196316, 14.26528988025709], [79.19642608592467, 14.268408356013618], [79.2017232649372, 14.26844839202965], [79.20311673322969, 14.270869978309516], [79.2027362639272, 14.274311498497896], [79.20448293136637, 14.276735746047642], [79.21048120717214, 14.277469773623642], [79.21292888028665, 14.280588118747334], [79.21784611490541, 14.284069387670275], [79.22595292464334, 14.28619659773212], [79.2305092396957, 14.29070827651662], [79.23929602642463, 14.296284569954725], [79.24103254334956, 14.30008630902499], [79.24383676638982, 14.30286259491555], [79.2487283076545, 14.309787588844376], [79.24904148743511, 14.314956580283212], [79.2507489312555, 14.322546963507994], [79.25284704444526, 14.325317977115319], [79.2528203804159, 14.328762239066446], [79.25175262593201, 14.32978771406145], [79.24822813916379, 14.328728392801027], [79.24573397635096, 14.331465529506481], [79.24429952192655, 14.334210476235418], [79.24391944809837, 14.337652105096295], [79.23926248945564, 14.345884224334108], [79.23817574001832, 14.349320580705788], [79.23496924669888, 14.352741150815303], [79.23496115028784, 14.353774417184097], [79.23917904053157, 14.356561336526408], [79.24588889484042, 14.356955548429907], [79.25582112448568, 14.35186218640463], [79.25939124410323, 14.347066183349833], [79.26116030099479, 14.346734717654087], [79.26291607962693, 14.348125375480823], [79.25935399340389, 14.351888157838484], [79.25368538591432, 14.353913131929096], [79.25118026797989, 14.358027996467412], [79.24622072694574, 14.359713556194208], [79.23909821810066, 14.366894016149226], [79.23837003219832, 14.369644138924874], [79.23658457918184, 14.37204194096834], [79.23269271146931, 14.372701798834658], [79.23091530241884, 14.374066285507906], [79.22912431113653, 14.377152858035911], [79.22061736675978, 14.380533434851083], [79.21527921619285, 14.385315360497856], [79.21347696103388, 14.389779445014709], [79.209927117774, 14.391819219190857], [79.20741799903692, 14.396277883321199], [79.20563750301754, 14.397986553519855], [79.20208746396335, 14.40002618527527], [79.20102740865302, 14.400018117002164], [79.2006795780156, 14.39932659787394]], [[79.22502031840527, 14.359900100408778], [79.22467517240597, 14.358864192963216], [79.225395327609, 14.357147385822593], [79.22716719650869, 14.356471768432472], [79.22678407302499, 14.360257749816213], [79.22502031840527, 14.359900100408778]], [[79.24131492364596, 14.354510540108114], [79.24061372861087, 14.353816449038382], [79.24062717911168, 14.352094333119295], [79.24314850806208, 14.345913049686951], [79.2435286225693, 14.342471427269452], [79.24567504099097, 14.339042871578133], [79.24642441844622, 14.33353729992079], [79.24713895947652, 14.33250924498696], [79.24855465231691, 14.33217525259572], [79.25166719486258, 14.340809338019248], [79.25657833084668, 14.345323286031755], [79.25690763123184, 14.348425720617477], [79.25228826264784, 14.351836162373923], [79.24590767288176, 14.354544579858308], [79.24131492364596, 14.354510540108114]], [[79.2541694092514, 14.337038866109209], [79.2527616945945, 14.336339611676387], [79.2527696992273, 14.335306333891438], [79.25417740784373, 14.336005587606307], [79.2541694092514, 14.337038866109209]], [[79.22225060519563, 14.307868794556653], [79.22190552306866, 14.30683288941622], [79.22437258021466, 14.307540214776626], [79.22401395589232, 14.308226418652978], [79.22225060519563, 14.307868794556653]], [[79.2242059473242, 14.283772474355949], [79.21926964457914, 14.28270227501569], [79.218574140957, 14.28131930605413], [79.22104632669014, 14.281337790808543], [79.22421405164448, 14.282739207943832], [79.2242059473242, 14.283772474355949]], [[79.18645535760652, 14.278665765640948], [79.18644984159532, 14.279354595852801], [79.18539036245524, 14.279346524142975], [79.1853958816846, 14.278657694336475], [79.18645535760652, 14.278665765640948]], [[79.10664626420419, 14.277700147246861], [79.10418869054129, 14.275958484624352], [79.10172249852701, 14.275249996944428], [79.09646597048896, 14.270386152170747], [79.09293759521572, 14.270013514398501], [79.09224583822403, 14.268285875695948], [79.09437037254601, 14.267614035458841], [79.09612730942347, 14.268661342177428], [79.09859918622537, 14.268681080801871], [79.09966433855351, 14.26800073557592], [79.10461097179392, 14.267695712667184], [79.10847523301126, 14.27013737974372], [79.11094427267615, 14.27050139289464], [79.11164479458473, 14.27119579336446], [79.11197496782827, 14.273953798162708], [79.11267837181452, 14.27430379628984], [79.1126640249836, 14.276025800305312], [79.10982166413746, 14.278069796306903], [79.10664626420419, 14.277700147246861]], [[79.1857711099361, 14.27590506510929], [79.18331007963447, 14.274508562754425], [79.1818974736095, 14.27449778438626], [79.18155261562428, 14.273461845554392], [79.18578765911026, 14.273838574531025], [79.18789830240719, 14.274887950173024], [79.18859359263388, 14.276270985220158], [79.1857711099361, 14.27590506510929]], [[79.119089170549, 14.26781043742605], [79.11944801388248, 14.267124419871708], [79.1208633791813, 14.266791160178471], [79.12050168462208, 14.2678215830513], [79.119089170549, 14.26781043742605]], [[79.081351511296, 14.261998871648348], [79.0810100579445, 14.260618449802848], [79.08277851726781, 14.260288260355942], [79.08311998149321, 14.261668680988857], [79.08240793372045, 14.262351791070692], [79.081351511296, 14.261998871648348]], [[79.10148187947138, 14.261815630937008], [79.08806645269914, 14.26136398711853], [79.08560630057796, 14.259966566063794], [79.08527063677492, 14.25789735565369], [79.0877481876008, 14.257228399600217], [79.08950211219573, 14.258620138824757], [79.09091454475954, 14.258631452643307], [79.09234146152863, 14.256920771955588], [79.09481609753404, 14.25659613616686], [79.09974227629326, 14.258701974701342], [79.10184076083188, 14.261129644989255], [79.10148187947138, 14.261815630937008]], [[79.17074396617771, 14.256157395491737], [79.1711054166137, 14.255126865508128], [79.17463661096825, 14.255153919744101], [79.17533731044907, 14.25584815162381], [79.17462552583282, 14.256531573756142], [79.17074396617771, 14.256157395491737]], [[79.16794959611597, 14.252347173873776], [79.16829993005277, 14.252694298177845], [79.16794681536527, 14.25269158618228], [79.16794959611597, 14.252347173873776]], [[79.15670592439702, 14.245371911974496], [79.15636401033309, 14.243991543050077], [79.15707859431865, 14.24296376616652], [79.1588440820575, 14.242977392243136], [79.1595446944355, 14.243671660911], [79.15917484080083, 14.245735402650737], [79.15670592439702, 14.245371911974496]]], [[[79.2200142989776, 14.367440207836976], [79.2224901503868, 14.36711436716126], [79.22250103224349, 14.365736689524228], [79.22002792038028, 14.365718113136353], [79.2200142989776, 14.367440207836976]]]]}}, {"type": "Feature", "properties": {"depth_class": 2, "depth_lo_m": 1.0, "t_s": 19800.604406082497}, "geometry": {"type": "MultiPolygon", "coordinates": [[[[79.08170170922618, 14.26234610856824], [79.08311998149321, 14.261668680988857], [79.08277851726781, 14.260288260355942], [79.08136608113128, 14.26027689706503], [79.08100131443686, 14.261651634338497], [79.08170170922618, 14.26234610856824]]], [[[79.18645535760652, 14.278665765640948], [79.1853958816846, 14.278657694336475], [79.18539036245524, 14.279346524142975], [79.18644984159532, 14.279354595852801], [79.18645535760652, 14.278665765640948]]], [[[79.20102740865302, 14.400018117002164], [79.20421584168427, 14.399009062574606], [79.20741799903692, 14.396277883321199], [79.209927117774, 14.391819219190857], [79.21347696103388, 14.389779445014709], [79.21527921619285, 14.385315360497856], [79.22061736675978, 14.380533434851083], [79.22912431113653, 14.377152858035911], [79.23091530241884, 14.374066285507906], [79.23269271146931, 14.372701798834658], [79.23658457918184, 14.37204194096834], [79.23837003219832, 14.369644138924874], [79.23909821810066, 14.366894016149226], [79.24622072694574, 14.359713556194208], [79.25118026797989, 14.358027996467412], [79.25368538591432, 14.353913131929096], [79.25935399340389, 14.351888157838484], [79.26291607962693, 14.348125375480823], [79.26116030099479, 14.346734717654087], [79.25939124410323, 14.347066183349833], [79.25582112448568, 14.35186218640463], [79.24588889484042, 14.356955548429907], [79.23917904053157, 14.356561336526408], [79.23496115028784, 14.353774417184097], [79.23496924669888, 14.352741150815303], [79.23817574001832, 14.349320580705788], [79.23926248945564, 14.345884224334108], [79.24391944809837, 14.337652105096295], [79.24429952192655, 14.334210476235418], [79.24573397635096, 14.331465529506481], [79.24822813916379, 14.328728392801027], [79.24964113519407, 14.328738816487977], [79.25069287267789, 14.329779905948994], [79.25175262593201, 14.32978771406145], [79.2528203804159, 14.328762239066446], [79.25284704444526, 14.325317977115319], [79.2507489312555, 14.322546963507994], [79.24904148743511, 14.314956580283212], [79.2487283076545, 14.309787588844376], [79.24383676638982, 14.30286259491555], [79.24103254334956, 14.30008630902499], [79.23824448501654, 14.295243451032878], [79.23648119783822, 14.294885941230945], [79.23331859513742, 14.292795813337374], [79.22595292464334, 14.28619659773212], [79.21784611490541, 14.284069387670275], [79.21292888028665, 14.280588118747334], [79.21048120717214, 14.277469773623642], [79.20448293136637, 14.276735746047642], [79.2027362639272, 14.274311498497896], [79.20311673322969, 14.270869978309516], [79.2017232649372, 14.26844839202965], [79.19642608592467, 14.268408356013618], [79.19397877196316, 14.26528988025709], [79.18870370188687, 14.262494353068792], [79.18662345468732, 14.257656424081851], [79.18277769598794, 14.25280504047256], [79.16836107764723, 14.24511722347495], [79.16483283576565, 14.244745683120986], [79.16272816164529, 14.24300732370141], [79.16166886631814, 14.242999166836945], [79.16128787558773, 14.246440559291177], [79.15950281062823, 14.24883782374648], [79.1602034410977, 14.24953209257568], [79.16656218293106, 14.249236612153403], [79.17008772284127, 14.249952548290878], [79.1743001198954, 14.253084735746508], [79.17711675325164, 14.254139584593803], [79.17850987172358, 14.256561276090496], [79.17636621470686, 14.259644806623653], [79.1738915533598, 14.259970299480981], [79.17107764801335, 14.258570993420637], [79.16508290227489, 14.257491634996867], [79.15836242051635, 14.258817551476994], [79.15696392469489, 14.257084586850207], [79.16052025539224, 14.254012157061217], [79.15842113229573, 14.251584933537838], [79.15241264712012, 14.25222733222371], [79.14818094372106, 14.25150565575944], [79.13720350209329, 14.255208894284161], [79.13226560637942, 14.25448141733137], [79.11601975337902, 14.254698058507678], [79.1044161623259, 14.248750924033887], [79.0941937690883, 14.24660295719213], [79.08783525583814, 14.24689650523286], [79.08502506907669, 14.245151870557889], [79.08150003241568, 14.244434718571096], [79.08151749219508, 14.24236834582444], [79.08580091352832, 14.236892023228718], [79.08617719682361, 14.234139680707653], [79.085141207155, 14.231376017402733], [79.08302282018796, 14.23135902409086], [79.07912165071376, 14.233394192716206], [79.07734174704468, 14.235101960869208], [79.07625629252826, 14.238192981104712], [79.0755501457413, 14.238187289828055], [79.07450844166974, 14.236112383708992], [79.07274309327181, 14.236098140722714], [79.07059835051575, 14.239180572628575], [79.06742361962108, 14.238810475711437], [79.06671161163742, 14.23949354322016], [79.06669695285426, 14.241215505897058], [79.06809753829185, 14.242604512200883], [79.07268172051894, 14.243330410064322], [79.07514160842845, 14.244727933732795], [79.07335280932729, 14.247468836816093], [79.0680330565565, 14.250181150265265], [79.06168332499728, 14.249440809957724], [79.05990905408116, 14.250459631664848], [79.05283546700387, 14.25177965078831], [79.05002850778135, 14.249690241746825], [79.04369375421783, 14.247227493123697], [79.04442068320998, 14.244822567616248], [79.04410617098466, 14.240342632091512], [79.04269389137119, 14.24033105562197], [79.04020159992284, 14.24272148612804], [79.0377419954663, 14.241323631976782], [79.0356235754755, 14.241306206509615], [79.03062982354285, 14.247120019053302], [79.03061787122671, 14.248497558605415], [79.03202123270508, 14.249542368463292], [79.03339774441557, 14.253686639718746], [79.03301778148204, 14.256783194454025], [79.03088427418236, 14.25848763183147], [79.02840662014515, 14.259155973481219], [79.02595892903368, 14.256380451272282], [79.02384038362332, 14.256362903136472], [79.02312819967261, 14.257045815723822], [79.02311319130135, 14.258767730895348], [79.02556986136445, 14.260510130289084], [79.02520476702769, 14.261884739002703], [79.01846880083497, 14.26492850037057], [79.01459070659811, 14.264207411412004], [79.01280105109045, 14.266947742491043], [79.01068242391878, 14.266930064690753], [79.00857892743562, 14.265190469322434], [79.00611025060414, 14.264825422840874], [79.00613145178922, 14.262414767694958], [79.01006688770704, 14.25659276249701], [79.01151546347596, 14.252471976697812], [79.0115426230163, 14.24937254941549], [79.00979233746456, 14.247635925097844], [79.00662677123822, 14.246231876834589], [78.99709083955537, 14.246496423145295], [78.9956876839742, 14.245451430766979], [78.99500587917154, 14.242690478147232], [78.99608634260645, 14.240288729486505], [78.99893813003706, 14.237213018773094], [79.0003533843975, 14.236880472637111], [79.00248988644704, 14.234831929598679], [79.01241455186278, 14.230437463262986], [79.01490995165388, 14.22770295887302], [79.0174353174422, 14.221524591603732], [79.02027459039152, 14.219826087145787], [79.02065759050254, 14.216385174452778], [79.01786037190415, 14.213262325833943], [79.01363012086742, 14.21253840655277], [79.01256203663552, 14.213562752986931], [79.01250788101302, 14.21976162908677], [79.01034449665323, 14.224909726696495], [79.00465961113905, 14.228995182750491], [78.9979275196211, 14.23169408415263], [78.99187094662877, 14.237842484163682], [78.99042216027863, 14.241963120913422], [78.9910825732216, 14.247134715678087], [78.9945858834618, 14.250263813925606], [78.99810448383766, 14.251670982911035], [79.00481903309814, 14.251038434459035], [79.00586918898902, 14.252080430910741], [79.00584800102597, 14.254491087753927], [79.00228380399535, 14.258249702390598], [78.99905130599996, 14.264421856308951], [78.99903306662063, 14.266488122875035], [79.00041812634142, 14.269599380645886], [79.00322477065635, 14.271689343808072], [79.01063405287596, 14.272440146063243], [79.01453037031774, 14.271095030674966], [79.01806149035542, 14.271124434620518], [79.02054531255963, 14.269767457752558], [79.02690132038339, 14.269820182006926], [79.02762253144314, 14.268104111543083], [79.03082744944359, 14.265030937987094], [79.03224585128754, 14.26435383492061], [79.03577690420762, 14.264382962912599], [79.037222121868, 14.260606355341048], [79.04185702967375, 14.255478302276677], [79.04327534377046, 14.254801121148423], [79.0464531782946, 14.254827174601072], [79.04750356557835, 14.25586901418736], [79.04749170804877, 14.257246566704648], [79.04678551407623, 14.257240782816858], [79.04571138663584, 14.258954041660605], [79.04568764319708, 14.261709142858981], [79.04674102100309, 14.262406601074481], [79.04850654668229, 14.262421062330224], [79.05311466423397, 14.260392265622992], [79.05558638820074, 14.260412438869322], [79.0587495831085, 14.262160289832828], [79.06193049371822, 14.261841759273208], [79.06545569354425, 14.262559225985866], [79.06866301079103, 14.25914107427687], [79.07078749802938, 14.258469441924142], [79.07434193079537, 14.255742838726992], [79.09024602177182, 14.254148637784189], [79.09588697894425, 14.255227005546976], [79.09975670304678, 14.25697998110661], [79.10221404975759, 14.258721662387268], [79.10430968460562, 14.261493713734838], [79.10712598605208, 14.262549362287352], [79.1081738448278, 14.26393537342702], [79.1113519288551, 14.263960578162699], [79.1134620572153, 14.265010561616892], [79.12299925374666, 14.264741439797268], [79.12510945621258, 14.265791327512535], [79.12509236377309, 14.26785774858478], [79.12260048712197, 14.270249106494381], [79.12044740813293, 14.274365230021303], [79.11866741355578, 14.276073300010935], [79.11477139951415, 14.277420186872737], [79.11156727413857, 14.28049460878609], [79.11119689001758, 14.28255820946135], [79.11225059632697, 14.28325541401948], [79.1175478705337, 14.283297363324923], [79.1210879707402, 14.28229205736389], [79.12393030514414, 14.280247921488598], [79.12750166010821, 14.275454070528816], [79.12720260549914, 14.268907622230888], [79.13040352091764, 14.266177345533945], [79.13112397376109, 14.264460861527034], [79.13254215050118, 14.263783123175122], [79.13924588238658, 14.264524410018435], [79.14913910056579, 14.26391258370314], [79.15371575138131, 14.265670234125341], [79.16359789694252, 14.26643545249018], [79.17310203646402, 14.270297277276363], [79.17660298355196, 14.274112877636695], [79.17766243303109, 14.2741209855255], [79.17802943130174, 14.2724016188398], [79.17909717689271, 14.271376477738391], [79.18509515138146, 14.272111118890441], [79.1882624727718, 14.273512974367291], [79.19211415474497, 14.277675484453678], [79.195276115421, 14.279766093780891], [79.19595499959792, 14.283215614797859], [79.19770712952925, 14.28495107579956], [79.20791366112206, 14.289505851601684], [79.21106777600555, 14.292629543648768], [79.2149392312036, 14.294380825132931], [79.21562930765266, 14.29645264567474], [79.21951984824105, 14.29579291803977], [79.22305177084698, 14.29581932910877], [79.22445913470105, 14.296518722493408], [79.2279667904867, 14.299644863285412], [79.22865969942579, 14.30137223836693], [79.23113211776077, 14.301390643667942], [79.23358301161582, 14.304164409916146], [79.23675382389172, 14.305221279451375], [79.23955536144345, 14.308342040259557], [79.24268072477557, 14.315254060340044], [79.24260566822288, 14.324897946659764], [79.23684614315953, 14.338632969280676], [79.2350582646633, 14.341375214530773], [79.2346726309288, 14.345505653707566], [79.23287385875706, 14.349625559217102], [79.23285224616181, 14.352380933587764], [79.23000703958338, 14.354770792356398], [79.22893093026062, 14.35682939925293], [79.22818369675478, 14.36199042696545], [79.22711566774777, 14.363015757433796], [79.22499587765498, 14.36299988063147], [79.22148466852032, 14.360218022325059], [79.22185428181787, 14.35815415752441], [79.2250691823952, 14.353700537412772], [79.22332178073151, 14.351276361432877], [79.21696276279522, 14.351228610542146], [79.21239201444047, 14.348438673919082], [79.21205240515472, 14.346713919846668], [79.21419658774396, 14.343630128569043], [79.2142102300377, 14.341908035892313], [79.2120988476365, 14.340858812070536], [79.20854708336476, 14.343243078979254], [79.20641105692117, 14.345293559765384], [79.2049760438982, 14.34803820019895], [79.20320145158036, 14.34905806829696], [79.20280971361225, 14.353877216214162], [79.19956961854197, 14.361430220202624], [79.19955584491858, 14.363152296192233], [79.19456277132913, 14.368969685552415], [79.19454342355094, 14.371380583662045], [79.1973698689574, 14.371402124085117], [79.20268322480285, 14.36972034378743], [79.20587944516528, 14.367677965113442], [79.2083553017272, 14.367352274999666], [79.21082019991766, 14.368404226840859], [79.2118664254691, 14.370134320607931], [79.21183357067761, 14.374267327463649], [79.20967804565953, 14.378728718850027], [79.20929729156266, 14.382170210361663], [79.20715536305107, 14.384909481415246], [79.20642121438874, 14.38834828170439], [79.20463802942331, 14.390401367236418], [79.20068509870974, 14.398637769183441], [79.20102740865302, 14.400018117002164]], [[79.2200142989776, 14.367440207836976], [79.22002792038028, 14.365718113136353], [79.22250103224349, 14.365736689524228], [79.22213412513062, 14.367456134022802], [79.2200142989776, 14.367440207836976]], [[79.24652076041558, 14.321137999524534], [79.2475965090785, 14.319079269084249], [79.24865353908606, 14.319431510954283], [79.2489907476694, 14.321500669440065], [79.24827892773428, 14.322184310296166], [79.2468659737567, 14.322173883169233], [79.24652076041558, 14.321137999524534]], [[79.2455038656192, 14.31561937129052], [79.24308216299184, 14.309057026184536], [79.23747635613489, 14.303159974013933], [79.23466415005066, 14.301416892413744], [79.23291697376658, 14.298992811667585], [79.22939307232411, 14.297933273328109], [79.22411946091624, 14.294793976900651], [79.21777017076185, 14.293713169295554], [79.21004636181469, 14.287799704462625], [79.20582188660337, 14.286045697929522], [79.20302656898845, 14.282235783667447], [79.19564025389165, 14.278391102863425], [79.18933018361683, 14.272487782595345], [79.1851089438591, 14.270389043535118], [79.18052635293596, 14.269320785095347], [79.1766417841476, 14.26929108962403], [79.16361742643336, 14.264024574777844], [79.15690514284965, 14.264317195509898], [79.15197535866812, 14.262556869008472], [79.12796575210007, 14.2620250902245], [79.12407287573909, 14.263027763708765], [79.11773384683825, 14.260911241110485], [79.11525343960396, 14.261924916476298], [79.11313473046148, 14.261908155031177], [79.11139208766875, 14.259138965050054], [79.10893178266598, 14.257741769766536], [79.10503893833125, 14.258744131265242], [79.10223998280077, 14.255622069272933], [79.099429563659, 14.25387757834983], [79.09167291041308, 14.252437957605594], [79.08672953457996, 14.25239835523726], [79.0856644304534, 14.253078647765811], [79.08107706825032, 14.252697365219996], [79.08039709421479, 14.24959212747716], [79.0789905566839, 14.248891968871385], [79.0754596538589, 14.24886351115254], [79.07546549430614, 14.24817472298466], [79.07866078745423, 14.246133967368962], [79.08219165449145, 14.246162372404354], [79.0874705592643, 14.248271261459566], [79.09876375594511, 14.249050367722376], [79.10087368168976, 14.250100439511058], [79.10475487800808, 14.250475729091914], [79.10896623385725, 14.253608962297452], [79.11249154922386, 14.254325736149354], [79.11635570259847, 14.256767260325182], [79.12766380936957, 14.255823040412652], [79.13225426457785, 14.255859038380157], [79.13613001642146, 14.256922647242035], [79.13966681791014, 14.256261409222374], [79.14285894908409, 14.254564144441954], [79.14674319173434, 14.254594359976167], [79.1481359655455, 14.25701619031923], [79.15272369364979, 14.257396206466115], [79.15764498489953, 14.260189735698244], [79.16717936735486, 14.260263225763595], [79.16963457334236, 14.262348690877692], [79.1738610432119, 14.263758844505288], [79.17525417077718, 14.266180556085994], [79.17700877756059, 14.267571723842106], [79.18408262115956, 14.26624799133562], [79.18338462342547, 14.265209363834957], [79.1816189384351, 14.26519589870496], [79.17810694764079, 14.262758031696958], [79.17884640315103, 14.258630458762077], [79.18134313960962, 14.255549593736772], [79.18240250517299, 14.255557670262927], [79.18555581134267, 14.258681611747427], [79.18728565951923, 14.263172446989403], [79.18938796615164, 14.265255047553705], [79.19430996282254, 14.268047891757831], [79.19850662333107, 14.273246231571862], [79.20167133082818, 14.27499233826154], [79.20271440309659, 14.277066844925056], [79.2086990558061, 14.279523014161166], [79.21676760337967, 14.28647239783162], [79.22418163047512, 14.286872273028171], [79.22522766360208, 14.28860228726285], [79.23084088121354, 14.293466287756305], [79.23753004502677, 14.29627149111448], [79.23891869287857, 14.299381775418638], [79.24730741615329, 14.310810450192179], [79.24727267836356, 14.31528798267557], [79.24691410431961, 14.315974227276403], [79.2455038656192, 14.31561937129052]], [[79.12361139716839, 14.276112303941458], [79.124340494241, 14.273362642516604], [79.12504677055864, 14.273368202930738], [79.12502966808695, 14.27543462261781], [79.12361139716839, 14.276112303941458]], [[79.00358698359531, 14.270659167763858], [79.00148048246942, 14.26926389097482], [79.00043939544341, 14.267188734862101], [79.00046673559675, 14.264089332379319], [79.00440839938857, 14.257578686051646], [79.00654509039707, 14.255530130661167], [79.00727848571671, 14.252436614568376], [79.00518119325488, 14.25000824907485], [78.99881975084286, 14.250643774283532], [78.99389495463288, 14.248535990585895], [78.99179480536782, 14.24645190682634], [78.99148438992816, 14.24162766006703], [78.99292706883823, 14.238195768468541], [78.9975623337863, 14.233068637905115], [79.00535965469027, 14.229689840172806], [79.01068849547393, 14.225945810410877], [79.01356998318468, 14.219426051522726], [79.01326507341415, 14.213913002803396], [79.0143301516362, 14.213233035542341], [79.01644528081957, 14.213594998880744], [79.01924248119025, 14.2167178619947], [79.0192244886985, 14.218784162259048], [79.01673825703486, 14.220485584841834], [79.01456593118239, 14.226666878533907], [79.01313570082687, 14.228721429292964], [79.01029325073362, 14.230764207422398], [79.0017898391372, 14.234137263114398], [79.00107464665916, 14.235164490541033], [78.99752894445876, 14.236856799453685], [78.99538934260119, 14.23924966713309], [78.99394668997849, 14.24268157734748], [78.99462543927545, 14.245786908703499], [78.9967256126691, 14.247870970237882], [79.00661769849687, 14.247265016528479], [79.01048037292296, 14.249708098557344], [79.00937280016724, 14.255209347227257], [79.00472209789322, 14.26205856968914], [79.00435081473566, 14.26412188742547], [79.00573897181121, 14.266888743348002], [79.01031722670402, 14.268304636862428], [79.01349518710803, 14.268331153876796], [79.01527278645511, 14.26696834281998], [79.02234993254085, 14.265305146670594], [79.03123139057004, 14.259179317219383], [79.03335594444022, 14.25850803281763], [79.04013618689041, 14.250297998040846], [79.04015700429686, 14.247887290257685], [79.03910371211883, 14.247189813352929], [79.03627907749893, 14.247166581976545], [79.03519897211346, 14.249568562372382], [79.03378664269079, 14.249556925853115], [79.03273933689593, 14.248170651800082], [79.03275426064708, 14.246448725082372], [79.03632078076816, 14.242345175816098], [79.03737999569461, 14.242353888425255], [79.03913048464845, 14.244090332940575], [79.04054278461305, 14.244101933479973], [79.04196696557383, 14.242735976215398], [79.0430261859165, 14.242744664009086], [79.0433644203611, 14.244469497151147], [79.04228737252369, 14.246527134074855], [79.04297868506669, 14.248254864329809], [79.04931345551613, 14.250717634426234], [79.05141127869618, 14.253145673111673], [79.05422715269452, 14.254201903663846], [79.05738140635744, 14.256982931697138], [79.06303687792503, 14.256340109911985], [79.06622945014027, 14.254643942846892], [79.06908060648291, 14.25156729767196], [79.07404437243108, 14.249196507235052], [79.07475055281867, 14.249202207271578], [79.07437992927412, 14.251265720412409], [79.07578062164066, 14.252654694232842], [79.07470964487955, 14.254023721115747], [79.07187608445183, 14.255034079958833], [79.06974284107196, 14.256738904760297], [79.06621183547296, 14.256710294820229], [79.06300158324878, 14.260472805065803], [79.05876432468808, 14.260438338298224], [79.05700765566479, 14.259390784986792], [79.05312649034711, 14.259014708838617], [79.05136986308916, 14.25796711854905], [79.04822457036514, 14.254152853794771], [79.04576182461393, 14.253099449375926], [79.04328722477203, 14.253423571829625], [79.04009156505897, 14.255463798695693], [79.0343823967614, 14.262305006666606], [79.03119550912301, 14.263311932703044], [79.02515076517014, 14.26808363767349], [79.02055734467311, 14.268389929049306], [79.01842664905756, 14.269749845376255], [79.0134800931913, 14.270053057345757], [79.01170548008118, 14.271071469890694], [79.00358698359531, 14.270659167763858]], [[79.05810529299708, 14.254922342159784], [79.05776104239483, 14.253886295745449], [79.0591910941519, 14.25183144997471], [79.0606093460009, 14.251154156004178], [79.06378128516583, 14.251868755329888], [79.06376952989213, 14.2532463216734], [79.06270142534787, 14.25427089370706], [79.06022092376952, 14.25528397505899], [79.05810529299708, 14.254922342159784]], [[79.16798295933377, 14.248214225356163], [79.16516645213835, 14.247159281970644], [79.16552790737029, 14.246128761024632], [79.16764653248764, 14.246145039311449], [79.16869751079287, 14.247186409277989], [79.16798295933377, 14.248214225356163]], [[79.07799251553878, 14.241651148649499], [79.07767733071861, 14.237171172867363], [79.07839804113347, 14.235454882309435], [79.080884075931, 14.233752781535575], [79.0840703986884, 14.232745108307421], [79.08477072646167, 14.233439565102909], [79.08474750077714, 14.236194736003176], [79.08331196512026, 14.238938571079752], [79.08046116067713, 14.242015433739383], [79.07799251553878, 14.241651148649499]]], [[[79.22436987419864, 14.307884636237892], [79.22402207555321, 14.307193154467617], [79.22190552306866, 14.30683288941622], [79.22295431966984, 14.308218498400228], [79.22436987419864, 14.307884636237892]]], [[[79.2541694092514, 14.337038866109209], [79.25347621941407, 14.335311535605744], [79.2527696992273, 14.335306333891438], [79.25346288339298, 14.337033665845748], [79.2541694092514, 14.337038866109209]]]]}}, {"type": "Feature", "properties": {"depth_class": 3, "depth_lo_m": 2.0, "t_s": 19800.604406082497}, "geometry": {"type": "MultiPolygon", "coordinates": [[[[79.08046407189465, 14.241671038448708], [79.08259709068597, 14.239966087753174], [79.08474750077714, 14.236194736003176], [79.08477072646167, 14.233439565102909], [79.0840703986884, 14.232745108307421], [79.08017503105204, 14.234091501134927], [79.07803914431406, 14.236140830580439], [79.07764235178786, 14.241303910434366], [79.07834268035906, 14.241998386475693], [79.08046407189465, 14.241671038448708]], [[79.07906340615689, 14.24028209585478], [79.0790983566263, 14.236149354475526], [79.08334974019819, 14.234461422826612], [79.08369409482744, 14.235497444899112], [79.08154076754819, 14.239613181574239], [79.07976664894066, 14.24063217275063], [79.07906340615689, 14.24028209585478]]], [[[79.0127678335734, 14.270735928611318], [79.0134800931913, 14.270053057345757], [79.01701119474228, 14.270082474752508], [79.02055734467311, 14.268389929049306], [79.02656919976195, 14.26740657322436], [79.03119550912301, 14.263311932703044], [79.0343823967614, 14.262305006666606], [79.04151582893147, 14.254097854827817], [79.04470255422864, 14.253090767549537], [79.04822457036514, 14.254152853794771], [79.05136986308916, 14.25796711854905], [79.05312649034711, 14.259014708838617], [79.05700765566479, 14.259390784986792], [79.05876432468808, 14.260438338298224], [79.06300158324878, 14.260472805065803], [79.06621183547296, 14.256710294820229], [79.06974284107196, 14.256738904760297], [79.07187608445183, 14.255034079958833], [79.07470964487955, 14.254023721115747], [79.07577770097735, 14.252999088257068], [79.07437992927412, 14.251265720412409], [79.07475055281867, 14.249202207271578], [79.06908060648291, 14.25156729767196], [79.06622945014027, 14.254643942846892], [79.06303687792503, 14.256340109911985], [79.05738140635744, 14.256982931697138], [79.05422715269452, 14.254201903663846], [79.05141127869618, 14.253145673111673], [79.04931345551613, 14.250717634426234], [79.04297868506669, 14.248254864329809], [79.0422784618348, 14.247560296055628], [79.0433644203611, 14.244469497151147], [79.0430261859165, 14.242744664009086], [79.04196696557383, 14.242735976215398], [79.04054278461305, 14.244101933479973], [79.03913048464845, 14.244090332940575], [79.03737999569461, 14.242353888425255], [79.03632078076816, 14.242345175816098], [79.03275426064708, 14.246448725082372], [79.03273933689593, 14.248170651800082], [79.03378664269079, 14.249556925853115], [79.03519897211346, 14.249568562372382], [79.03627907749893, 14.247166581976545], [79.03910371211883, 14.247189813352929], [79.04015700429686, 14.247887290257685], [79.04013618689041, 14.250297998040846], [79.03335594444022, 14.25850803281763], [79.03123139057004, 14.259179317219383], [79.02234993254085, 14.265305146670594], [79.01527278645511, 14.26696834281998], [79.01349518710803, 14.268331153876796], [79.01031722670402, 14.268304636862428], [79.00573897181121, 14.266888743348002], [79.00435081473566, 14.26412188742547], [79.00472209789322, 14.26205856968914], [79.00937280016724, 14.255209347227257], [79.01048037292296, 14.249708098557344], [79.00661769849687, 14.247265016528479], [78.9967256126691, 14.247870970237882], [78.99462543927545, 14.245786908703499], [78.99394668997849, 14.24268157734748], [78.99538934260119, 14.23924966713309], [78.99752894445876, 14.236856799453685], [79.00107464665916, 14.235164490541033], [79.0017898391372, 14.234137263114398], [79.01029325073362, 14.230764207422398], [79.01313570082687, 14.228721429292964], [79.01456593118239, 14.226666878533907], [79.01673825703486, 14.220485584841834], [79.0192244886985, 14.218784162259048], [79.01924248119025, 14.2167178619947], [79.01644528081957, 14.213594998880744], [79.0143301516362, 14.213233035542341], [79.01326507341415, 14.213913002803396], [79.01356998318468, 14.219426051522726], [79.01068849547393, 14.225945810410877], [79.00535965469027, 14.229689840172806], [78.9975623337863, 14.233068637905115], [78.99292706883823, 14.238195768468541], [78.99148438992816, 14.24162766006703], [78.99179480536782, 14.24645190682634], [78.99389495463288, 14.248535990585895], [78.99881975084286, 14.250643774283532], [79.00518119325488, 14.25000824907485], [79.00727848571671, 14.252436614568376], [79.00654509039707, 14.255530130661167], [79.00440839938857, 14.257578686051646], [79.00046673559675, 14.264089332379319], [79.00043939544341, 14.267188734862101], [79.00148048246942, 14.26926389097482], [79.00358698359531, 14.270659167763858], [79.0127678335734, 14.270735928611318]], [[79.04190458285147, 14.249968108991991], [79.0440230916387, 14.249985489066255], [79.04542356742563, 14.2513746168332], [79.04153366505979, 14.252031532846724], [79.04190458285147, 14.249968108991991]], [[79.00799371782557, 14.251409373366073], [79.00659652594025, 14.249675675444989], [79.00660257564599, 14.248986915807306], [79.00801185555781, 14.249343092862317], [79.00906202126, 14.250385076273563], [79.00905295684541, 14.251418217145291], [79.00799371782557, 14.251409373366073]], [[78.9982502267974, 14.235140828677071], [78.99897149674713, 14.233424854061447], [79.00038369599268, 14.233436683504003], [79.00002155182894, 14.23446686355239], [78.9982502267974, 14.235140828677071]], [[79.00428237397642, 14.2317472724232], [79.01139156430644, 14.226296070013573], [79.01463508876478, 14.21874608643788], [79.01396510657922, 14.21460763319327], [79.01467716385987, 14.213924732001205], [79.01608625288439, 14.21428083569582], [79.0167832948957, 14.21531984200737], [79.01675327166302, 14.21876367082675], [79.01350379456733, 14.227002456126728], [79.01207656498342, 14.228712617386142], [79.00852801193032, 14.230749495243332], [79.00428237397642, 14.2317472724232]]], [[[79.16869195358451, 14.247875234471014], [79.16764653248764, 14.246145039311449], [79.16517201974989, 14.246470458100939], [79.16516645213835, 14.247159281970644], [79.16692363658771, 14.248206088898261], [79.16869195358451, 14.247875234471014]]], [[[79.12361139716839, 14.276112303941458], [79.12502966808695, 14.27543462261781], [79.12504677055864, 14.273368202930738], [79.124340494241, 14.273362642516604], [79.12362280830646, 14.274734692060294], [79.12361139716839, 14.276112303941458]]], [[[79.24691410431961, 14.315974227276403], [79.24695953980343, 14.310118993600424], [79.24555468462552, 14.309075291161323], [79.24276911252856, 14.303888040938315], [79.24031541660163, 14.30145878141061], [79.23753004502677, 14.29627149111448], [79.23084088121354, 14.293466287756305], [79.22909110487747, 14.291386611983407], [79.22627911092785, 14.289643453847143], [79.22418163047512, 14.286872273028171], [79.21676760337967, 14.28647239783162], [79.2086990558061, 14.279523014161166], [79.20271440309659, 14.277066844925056], [79.20167133082818, 14.27499233826154], [79.19850662333107, 14.273246231571862], [79.19430996282254, 14.268047891757831], [79.18938796615164, 14.265255047553705], [79.18728565951923, 14.263172446989403], [79.18555581134267, 14.258681611747427], [79.18240250517299, 14.255557670262927], [79.18134313960962, 14.255549593736772], [79.17884640315103, 14.258630458762077], [79.17810694764079, 14.262758031696958], [79.1816189384351, 14.26519589870496], [79.18338462342547, 14.265209363834957], [79.18408262115956, 14.26624799133562], [79.17700877756059, 14.267571723842106], [79.17525417077718, 14.266180556085994], [79.1738610432119, 14.263758844505288], [79.16963457334236, 14.262348690877692], [79.16717936735486, 14.260263225763595], [79.15764498489953, 14.260189735698244], [79.15272369364979, 14.257396206466115], [79.1481359655455, 14.25701619031923], [79.14674319173434, 14.254594359976167], [79.14285894908409, 14.254564144441954], [79.13966681791014, 14.256261409222374], [79.13613001642146, 14.256922647242035], [79.13225426457785, 14.255859038380157], [79.11635570259847, 14.256767260325182], [79.11249154922386, 14.254325736149354], [79.10896623385725, 14.253608962297452], [79.10475487800808, 14.250475729091914], [79.10087368168976, 14.250100439511058], [79.09876375594511, 14.249050367722376], [79.0874705592643, 14.248271261459566], [79.08219165449145, 14.246162372404354], [79.07866078745423, 14.246133967368962], [79.07546549430614, 14.24817472298466], [79.0754596538589, 14.24886351115254], [79.0789905566839, 14.248891968871385], [79.08039709421479, 14.24959212747716], [79.08107706825032, 14.252697365219996], [79.0856644304534, 14.253078647765811], [79.08672953457996, 14.25239835523726], [79.09167291041308, 14.252437957605594], [79.099429563659, 14.25387757834983], [79.10223998280077, 14.255622069272933], [79.10503893833125, 14.258744131265242], [79.10893178266598, 14.257741769766536], [79.11139208766875, 14.259138965050054], [79.11313473046148, 14.261908155031177], [79.11525343960396, 14.261924916476298], [79.11773384683825, 14.260911241110485], [79.12407287573909, 14.263027763708765], [79.12796575210007, 14.2620250902245], [79.15197535866812, 14.262556869008472], [79.15690514284965, 14.264317195509898], [79.16361742643336, 14.264024574777844], [79.1766417841476, 14.26929108962403], [79.18052635293596, 14.269320785095347], [79.1851089438591, 14.270389043535118], [79.18933018361683, 14.272487782595345], [79.19564025389165, 14.278391102863425], [79.20302656898845, 14.282235783667447], [79.20582188660337, 14.286045697929522], [79.21004636181469, 14.287799704462625], [79.21777017076185, 14.293713169295554], [79.22411946091624, 14.294793976900651], [79.22939307232411, 14.297933273328109], [79.23291697376658, 14.298992811667585], [79.23466415005066, 14.301416892413744], [79.23747635613489, 14.303159974013933], [79.24308216299184, 14.309057026184536], [79.2455038656192, 14.31561937129052], [79.24691410431961, 14.315974227276403]], [[79.22342660234064, 14.293066594011274], [79.22273645823574, 14.290994788456794], [79.22450238429175, 14.291007972336695], [79.22590702498158, 14.292051776667028], [79.225898922883, 14.293085043224396], [79.22342660234064, 14.293066594011274]], [[79.20023681538338, 14.27773701090777], [79.19600987299766, 14.276327276722107], [79.19426330657382, 14.273902977941946], [79.19180223322147, 14.272506559546152], [79.19041163635328, 14.269740504288134], [79.19077303044502, 14.268709937530039], [79.19323954944838, 14.26941752803612], [79.19533099564325, 14.272877756301366], [79.2002450254409, 14.276703757545295], [79.20023681538338, 14.27773701090777]]], [[[79.24863483824005, 14.321842490200995], [79.24900143185656, 14.320122966773361], [79.2475965090785, 14.319079269084249], [79.24652343526512, 14.320793574319984], [79.2468659737567, 14.322173883169233], [79.24863483824005, 14.321842490200995]]]]}}, {"type": "Feature", "properties": {"depth_class": 4, "depth_lo_m": 3.0, "t_s": 19800.604406082497}, "geometry": {"type": "MultiPolygon", "coordinates": [[[[79.00428237397642, 14.2317472724232], [79.00994623402053, 14.230072503896546], [79.01350379456733, 14.227002456126728], [79.01675327166302, 14.21876367082675], [79.0167832948957, 14.21531984200737], [79.01608625288439, 14.21428083569582], [79.01467716385987, 14.213924732001205], [79.01396510657922, 14.21460763319327], [79.01463508876478, 14.21874608643788], [79.01139156430644, 14.226296070013573], [79.00570967806813, 14.230037168309423], [79.00428237397642, 14.2317472724232]]], [[[78.9982502267974, 14.235140828677071], [79.00002155182894, 14.23446686355239], [79.00038369599268, 14.233436683504003], [78.9982593295286, 14.234107693230413], [78.9982502267974, 14.235140828677071]]], [[[79.08082879363903, 14.240296296208783], [79.08333230717743, 14.236527799163847], [79.08334974019819, 14.234461422826612], [79.07945433905155, 14.235807799476495], [79.07873946040877, 14.236835303890329], [79.07871324239564, 14.239934859233783], [79.07941357098738, 14.240629332086813], [79.08082879363903, 14.240296296208783]]], [[[79.00905295684541, 14.251418217145291], [79.00801185555781, 14.249343092862317], [79.00660257564599, 14.248986915807306], [79.00799371782557, 14.251409373366073], [79.00905295684541, 14.251418217145291]]], [[[79.04506751299205, 14.251716111027768], [79.04542653379188, 14.251030228977104], [79.0440230916387, 14.249985489066255], [79.0422606383153, 14.249626619732929], [79.0415485263177, 14.250309597572876], [79.04153366505979, 14.252031532846724], [79.04506751299205, 14.251716111027768]]], [[[79.19989186708773, 14.276701088436997], [79.19533099564325, 14.272877756301366], [79.19323954944838, 14.26941752803612], [79.19147931875978, 14.26871529932251], [79.1904171364562, 14.269051672006308], [79.19180223322147, 14.272506559546152], [79.19426330657382, 14.273902977941946], [79.19600987299766, 14.276327276722107], [79.20023681538338, 14.27773701090777], [79.19989186708773, 14.276701088436997]]], [[[79.225898922883, 14.293085043224396], [79.22450238429175, 14.291007972336695], [79.22238056745987, 14.29133657167617], [79.22237244968481, 14.292369836312009], [79.22342660234064, 14.293066594011274], [79.225898922883, 14.293085043224396]]]]}}]}