{"type": "FeatureCollection", "features": [{"type": "Feature", "properties": {"depth_class": 1, "depth_lo_m": 0.3, "t_s": 61200.29428482217}, "geometry": {"type": "MultiPolygon", "coordinates": [[[[79.01459600492306, 14.223223056567745], [79.01602618186206, 14.221168489959858], [79.0195505306757, 14.221886537873932], [79.02096866992005, 14.221209469120577], [79.02168672354301, 14.21983777971867], [79.02171966913033, 14.216049556950844], [79.02102559621225, 14.214666178048029], [79.01646329169536, 14.211528701211513], [79.01293009436576, 14.211843776031177], [79.01150297172912, 14.213553947723556], [79.01148190310485, 14.215964620613429], [79.01217892634699, 14.21700363815606], [79.01145480907574, 14.21906405642834], [79.01178676525986, 14.221477665450031], [79.01318385684436, 14.223211319384776], [79.01459600492306, 14.223223056567745]], [[79.01815339219868, 14.220152915754356], [79.01641525626744, 14.217038827487833], [79.01324101536012, 14.216668060368143], [79.01254398765876, 14.215629045399083], [79.01291806577964, 14.213221304854397], [79.01610126561869, 14.2125589214722], [79.01819839683871, 14.214987168333762], [79.02030755945819, 14.21603786761961], [79.02027459039152, 14.219826087145787], [79.01815339219868, 14.220152915754356]]], [[[79.16062073082857, 14.241613360551185], [79.16141054658739, 14.231286456682], [79.16388767401897, 14.23061664514664], [79.16425466223365, 14.228897297796511], [79.16320934656169, 14.227167095131888], [79.16074340297509, 14.226459257530584], [79.15898919719153, 14.225068015579426], [79.15722384841197, 14.225054407334662], [79.15543614648841, 14.227796071131706], [79.15331770701934, 14.227779705115275], [79.15189701514774, 14.228802013680765], [79.15187180994066, 14.23190170211306], [79.15291145065518, 14.234320765836308], [79.15572493499282, 14.235720239400475], [79.15708977487797, 14.241586124182863], [79.15814347395816, 14.242283121995076], [79.15990895746806, 14.242296739560603], [79.16062073082857, 14.241613360551185]], [[79.15890271052439, 14.235744762761133], [79.156100381072, 14.232967682060588], [79.1561087649173, 14.231934450296858], [79.1582244551067, 14.232295207249601], [79.15890271052439, 14.235744762761133]]], [[[79.0818676640541, 14.242715579271671], [79.08472136594644, 14.23929430246317], [79.08615978992073, 14.236206060530675], [79.08618589922843, 14.233106490654498], [79.08443507785556, 14.231370355050153], [79.08231669182003, 14.231353355484158], [79.07805953813532, 14.233730065580076], [79.07591488787189, 14.236812557760208], [79.0730961627953, 14.236100990362662], [79.07131619583222, 14.237808704824829], [79.07129572437343, 14.240219459409161], [79.07234618164124, 14.241261196630225], [79.07410864897625, 14.241619841616131], [79.0762329555112, 14.240948137107504], [79.07763068965205, 14.242681489287325], [79.07939026810347, 14.243384492654442], [79.0818676640541, 14.242715579271671]], [[79.07834850913248, 14.241309596741957], [79.07731259804244, 14.238545908860893], [79.07804497150944, 14.235452040632822], [79.08265813278273, 14.232733774121671], [79.0844205620407, 14.23309233689971], [79.08475040425927, 14.235850339677373], [79.08259709068597, 14.239966087753174], [79.08046407189465, 14.241671038448708], [79.07834850913248, 14.241309596741957]]], [[[79.11892739814174, 14.244732677313422], [79.12036827828598, 14.241299773694987], [79.1203882306469, 14.238888950273804], [79.11899871194554, 14.236122600929617], [79.11653001572947, 14.235758714744671], [79.1143801013723, 14.239530419205416], [79.11400413678402, 14.242282846396957], [79.11680598822896, 14.245060370735448], [79.11892739814174, 14.244732677313422]]], [[[79.16974016695245, 14.24926101397432], [79.17046304290379, 14.247199953361251], [79.16871418063701, 14.245119933448054], [79.16730732942369, 14.244420265610302], [79.16306454171482, 14.245076511262727], [79.16304503338608, 14.247487392045276], [79.16479385395367, 14.249567449105914], [79.16832216969821, 14.249938998871327], [79.16974016695245, 14.24926101397432]]], [[[79.03482799585316, 14.251631968121599], [79.0366291776813, 14.247513873873078], [79.03982176698648, 14.245818068651142], [79.03878930883116, 14.24270988467011], [79.03773901955564, 14.241668018523457], [79.03597366669133, 14.241653498239108], [79.03418744478843, 14.24404966533019], [79.03206004836434, 14.245065360902002], [79.03027674584823, 14.24711710443601], [79.03026180257916, 14.248839028483157], [79.0316681509471, 14.249539455419903], [79.03306256862246, 14.251617416362873], [79.03482799585316, 14.251631968121599]], [[79.03274530663552, 14.247481881144601], [79.034166569858, 14.24646036522745], [79.03485781723595, 14.248188111083739], [79.03344251277102, 14.248520859106744], [79.03274530663552, 14.247481881144601]]], [[[79.1499380650659, 14.252552582131406], [79.15102826467518, 14.248772296647056], [79.15032766775767, 14.248078004482615], [79.14820623550241, 14.248405978891922], [79.14749159442616, 14.24943372182049], [79.14782783489385, 14.251502914212578], [79.14887873286726, 14.25254436313487], [79.1499380650659, 14.252552582131406]]], [[[79.04330801347217, 14.25101286011631], [79.04261669270919, 14.249285129795727], [79.04155447026537, 14.249620823389629], [79.0418926964613, 14.251345657565903], [79.04330801347217, 14.25101286011631]]], [[[79.02804154572235, 14.260530589186269], [79.0287627095181, 14.258814509097384], [79.02702119820533, 14.256044834396468], [79.02455556226504, 14.255335604427632], [79.02207192835726, 14.256692648188968], [79.0220509053966, 14.259103327882938], [79.02345127789235, 14.260492573724974], [79.0252107656334, 14.261195972272752], [79.02804154572235, 14.260530589186269]], [[79.02383138253299, 14.257396052775857], [79.02559984263743, 14.257066295060401], [79.02664413778716, 14.25879698293623], [79.02487266498778, 14.259471130173212], [79.02381937995807, 14.258773585480736], [79.02383138253299, 14.257396052775857]]], [[[79.04850358252169, 14.262765450493285], [79.05028984157772, 14.260369179149508], [79.04924534627528, 14.258638571089168], [79.04783887698481, 14.257938234206215], [79.04607338689839, 14.25792377245424], [79.04536125543804, 14.258606759378878], [79.04532860188453, 14.262395022668189], [79.04850358252169, 14.262765450493285]]], [[[79.08311707004823, 14.262013076241544], [79.08349346713261, 14.259260752706338], [79.08279307445079, 14.258566284081496], [79.08067443677503, 14.258549238154322], [79.0785441306088, 14.259909751037718], [79.0785324580722, 14.261287328479622], [79.07958303760977, 14.26232904852435], [79.08205190822744, 14.262693345098118], [79.08311707004823, 14.262013076241544]]], [[[79.12322686218283, 14.279897952383793], [79.12714282316492, 14.276140101140326], [79.12717983522433, 14.271662852837297], [79.12613181971062, 14.270276907507055], [79.12365418266087, 14.270946258521086], [79.11970110476162, 14.279181285817819], [79.12004281446124, 14.280561682810687], [79.12322686218283, 14.279897952383793]]], [[[79.10415986245036, 14.279402474961445], [79.10346799622013, 14.277674855982553], [79.10204966246354, 14.278352399022232], [79.10238837462667, 14.28007720665401], [79.10415986245036, 14.279402474961445]]], [[[79.16289685746789, 14.395936017612517], [79.16432991571462, 14.393536146779038], [79.16434961879118, 14.391125293821842], [79.16330089151991, 14.389739431609161], [79.16224090765948, 14.389731195144094], [79.16116682836517, 14.391444988943292], [79.16148632694572, 14.395580620652995], [79.16289685746789, 14.395936017612517]]], [[[79.18715891835932, 14.279015559141317], [79.18574904025168, 14.2786603852944], [79.18539036245524, 14.279346524142975], [79.18715064722993, 14.280048804817163], [79.18715891835932, 14.279015559141317]]], [[[79.19622856450327, 14.29320637566061], [79.19765501674055, 14.291494998481333], [79.19660645396279, 14.29010930312891], [79.19413145707574, 14.290434969675527], [79.19411771305107, 14.292157050761265], [79.19481857981049, 14.292851243873615], [79.19622856450327, 14.29320637566061]]], [[[79.2781664176434, 14.294157968874304], [79.27780272863727, 14.295533139025796], [79.27921291920664, 14.295887795428202], [79.27922339946642, 14.294510067645213], [79.2781664176434, 14.294157968874304]]], [[[79.18629527385743, 14.298641824783541], [79.18630908392548, 14.296919752107145], [79.18560547254506, 14.296569950167878], [79.18383124402081, 14.2975897148195], [79.184523795448, 14.299317178717667], [79.18629527385743, 14.298641824783541]]], [[[79.20493239605791, 14.309116385515956], [79.20813859504698, 14.305696190453475], [79.20958960389638, 14.300884972710323], [79.21243152563602, 14.298839714436253], [79.21173602870476, 14.297456726348452], [79.20891048707999, 14.29743546492857], [79.20713633496038, 14.298455415010004], [79.20148798469332, 14.298068329058825], [79.19971105867542, 14.299432636240024], [79.20040648229792, 14.300815651416817], [79.20252018384069, 14.301520515134778], [79.20142222882237, 14.306334344185029], [79.20175899140547, 14.308403519678915], [79.20245992865466, 14.309097698013634], [79.20493239605791, 14.309116385515956]], [[79.20391929410728, 14.303253279765338], [79.20604396456112, 14.302580443503516], [79.20674216863766, 14.303619027209344], [79.20637257014025, 14.30568287179034], [79.20459560358944, 14.307047211117965], [79.20353872174783, 14.306694787408055], [79.20391929410728, 14.303253279765338]]], [[[79.22611700837092, 14.310308775471459], [79.22614134026612, 14.307208979627866], [79.22473931774176, 14.305820745361915], [79.22192177936371, 14.304766363083047], [79.21874292491756, 14.304742565825176], [79.21696874680029, 14.305762587210037], [79.21625146048412, 14.307134967418314], [79.21624058681697, 14.30851264714392], [79.21728935216392, 14.309898277834096], [79.22118283867138, 14.308894129172316], [79.22364449925325, 14.310290306784266], [79.22611700837092, 14.310308775471459]]], [[[79.26108042546358, 14.311256080491736], [79.26214804485217, 14.310230547289763], [79.26215864008213, 14.30885283362684], [79.25970201220284, 14.306768173522379], [79.25687362454231, 14.307091896106826], [79.25508892688053, 14.309489928243392], [79.25578207386516, 14.311217250016881], [79.26108042546358, 14.311256080491736]]], [[[79.26347090385369, 14.321951443272829], [79.26666329784149, 14.320252525379935], [79.26563532317839, 14.316111643243943], [79.26387975124386, 14.314721028179335], [79.26246683215948, 14.314710699117141], [79.26139919044627, 14.315736231154323], [79.26137267539474, 14.31918051161415], [79.26347090385369, 14.321951443272829]]], [[[79.23346991440295, 14.318630178711505], [79.23312746294286, 14.317249860124832], [79.23135862639774, 14.317581139166496], [79.23169836989608, 14.319305881585604], [79.23346991440295, 14.318630178711505]]], [[[79.22320458562989, 14.321309138841869], [79.22427511825734, 14.319939380789107], [79.22180250623236, 14.31992088077705], [79.22073738839345, 14.320601785164031], [79.22072653142125, 14.321979466706884], [79.22320458562989, 14.321309138841869]]], [[[79.23732049662433, 14.323136550773128], [79.2362742365358, 14.321406565500943], [79.23485591099089, 14.322084913556077], [79.23519568445002, 14.32380965419333], [79.23589947033102, 14.324159327246646], [79.23732049662433, 14.323136550773128]]], [[[79.20494708638194, 14.484090052283387], [79.21168815821044, 14.4810415243578], [79.21809757828454, 14.475234779588837], [79.22168991189116, 14.468028796092883], [79.22210914366944, 14.459765471578118], [79.22141046529552, 14.458726882039945], [79.21894181788093, 14.458019344512646], [79.21576080137173, 14.457995257754208], [79.21433876451182, 14.459017784339002], [79.21186463523561, 14.458999004276961], [79.20940706181207, 14.456913712566873], [79.19916279350477, 14.45614671208121], [79.1967192693943, 14.45233924447338], [79.19638805507248, 14.449581241871124], [79.19464314752395, 14.446812410030075], [79.19465982144033, 14.444745939018537], [79.19820790004779, 14.443050929041938], [79.19822453653106, 14.440984453299974], [79.19682197262183, 14.439595991837376], [79.19117015368569, 14.439208252773318], [79.18694595695862, 14.437109205382724], [79.18414104565002, 14.434332162760695], [79.18310319217898, 14.431568715031252], [79.18028440604613, 14.430513686913267], [79.18065458517047, 14.428449955724691], [79.18637019952257, 14.420916463855379], [79.1874359149973, 14.420235787021166], [79.19132032967286, 14.420610023786008], [79.19238603128129, 14.41992932264157], [79.19277550400834, 14.415454669366092], [79.2002571806601, 14.40793426039848], [79.2023801253011, 14.407605993365134], [79.20448652782824, 14.409344195292542], [79.2069600987128, 14.40936298956789], [79.20802845477317, 14.40833778998573], [79.20839832203009, 14.406273977600101], [79.20664527069887, 14.404538492885205], [79.20630842666267, 14.402469318304766], [79.21022555969762, 14.398710219677724], [79.21202248561882, 14.394935012143804], [79.21628999338489, 14.391522873820577], [79.21737734695827, 14.388086691370342], [79.21880434300346, 14.38637525105716], [79.22092979969493, 14.385702371515931], [79.22307430691474, 14.382618538284724], [79.22874928394182, 14.379905575523187], [79.23122527321011, 14.379579658048995], [79.23408704210335, 14.375123296058248], [79.23727231417062, 14.374458157836823], [79.23940570632293, 14.372751825308484], [79.24155521893576, 14.36897893245191], [79.24511250406157, 14.365905334642813], [79.24832979138085, 14.361106937172208], [79.25187081431211, 14.360099761528803], [79.25543582656783, 14.35599269715539], [79.25969131509672, 14.35395731234488], [79.26396265776455, 14.3498552767742], [79.26715546891391, 14.348156400123539], [79.26860035337896, 14.344033582419529], [79.27109970672194, 14.340607334004929], [79.27148202089784, 14.336821186738023], [79.26974211392107, 14.333364020551262], [79.26975532215044, 14.33164187484142], [79.27190388469606, 14.32786859239623], [79.27227559349403, 14.325460155337714], [79.27334324280655, 14.32443457479379], [79.27688097339146, 14.323771375718096], [79.2797200706664, 14.322069710560159], [79.28043967545342, 14.32035267035135], [79.28328394142262, 14.317962090326239], [79.28436458813444, 14.315214288713571], [79.28478580231646, 14.306261594296672], [79.28621696438688, 14.303860754284358], [79.2859107447963, 14.297658413997825], [79.28661976891398, 14.297319070729541], [79.28663281405457, 14.295596904467834], [79.28558103259171, 14.294555970594296], [79.28529046919765, 14.28628702857959], [79.2814367641336, 14.282125816100354], [79.27826336412261, 14.281413985707864], [79.27193240649157, 14.277923618046758], [79.26875910870838, 14.277211670665686], [79.26665852482019, 14.27478524558286], [79.26101313174945, 14.274055199315693], [79.25646438258461, 14.268510781758456], [79.25648027851689, 14.266444210241978], [79.25543672229831, 14.26436988617443], [79.25545262278621, 14.262303315077073], [79.25652530317477, 14.260588922242274], [79.25620393537068, 14.2564531939174], [79.25515247022702, 14.255412158630376], [79.25091750152014, 14.25503668900138], [79.25090422390872, 14.256758828473608], [79.25336292440811, 14.25849908859254], [79.25120690009187, 14.263305547273612], [79.25119361665203, 14.265027685821629], [79.25364178738708, 14.268145664557746], [79.25360462793066, 14.27296765617158], [79.25254248343518, 14.273304314272188], [79.24972782291793, 14.271905863037341], [79.24690254182114, 14.271885089195031], [79.24583239671271, 14.273254996279476], [79.24615089357022, 14.277735140552567], [79.24931610415358, 14.27948066289886], [79.25072879331573, 14.279491045097064], [79.25287705366844, 14.275717898783514], [79.253944518859, 14.274692384684025], [79.25535718166972, 14.274702736035474], [79.25640607572939, 14.276088207442953], [79.26027505781198, 14.278183190150896], [79.26166659716905, 14.280948939986441], [79.26307930481366, 14.280959249970882], [79.26415203678346, 14.279244828809064], [79.26521156084243, 14.27925255012415], [79.26626317510421, 14.280293556818114], [79.26943913533779, 14.280661110714261], [79.27577011825518, 14.284151548233313], [79.27859297681216, 14.284516429145935], [79.28175857757108, 14.286261557999424], [79.28315827078555, 14.2879939169876], [79.28348011169714, 14.292129659069737], [79.28452142550412, 14.294548331888507], [79.2844979158685, 14.297648227805063], [79.2816225297104, 14.304172042490249], [79.28155443510641, 14.313127274162916], [79.27764263938377, 14.316543452030727], [79.2758449077104, 14.320663807984173], [79.27442667789286, 14.321342406551603], [79.27018777603197, 14.321311568356212], [79.2684110032748, 14.322676413614548], [79.26804190482457, 14.324740411987822], [79.26697423261822, 14.325765965784045], [79.264815022149, 14.33091691042421], [79.26545531630575, 14.339532781832215], [79.26402632921759, 14.341589011825004], [79.26365713997525, 14.343652992240967], [79.26258935039563, 14.344678512411113], [79.26082296850318, 14.344665563737463], [79.25628366224392, 14.337743307352863], [79.25559578167503, 14.335327128140626], [79.25279370929675, 14.332206499971493], [79.2538961196759, 14.326703478924797], [79.25321095035808, 14.323942871014248], [79.25145807834024, 14.322207740629302], [79.25079428908374, 14.316691721011116], [79.24940806056796, 14.313237053654827], [79.24942940986422, 14.310481645625169], [79.24523890370504, 14.304250728173038], [79.24033685834327, 14.298703384136376], [79.23930138836997, 14.295595720778792], [79.22979478416957, 14.291736291331143], [79.22593402730053, 14.28860755412985], [79.22489609141819, 14.28584427584824], [79.21783526921088, 14.285447071261316], [79.21362706293816, 14.28162667982941], [79.21010626967016, 14.280222476446834], [79.20800362795237, 14.278140022612641], [79.20342618561475, 14.276383337572032], [79.20133184696768, 14.27326758116733], [79.19780853662232, 14.272207636582221], [79.1932587680001, 14.267006611022744], [79.18974110462027, 14.265257730127987], [79.18485231290619, 14.258331820711971], [79.1827390724717, 14.257626851645968], [79.17955541973359, 14.258291437791513], [79.17777318913936, 14.260344434760366], [79.17704478194436, 14.263094345860033], [79.17527634786465, 14.263425249149796], [79.17034361259893, 14.262009700449063], [79.16648425260183, 14.258880147829965], [79.16295580600398, 14.258508554811065], [79.1604755686331, 14.25952272893634], [79.15729745749346, 14.259498186468896], [79.15554024551876, 14.258451304341342], [79.15519552805758, 14.25741534335343], [79.15802607964194, 14.25674836224274], [79.15944973371586, 14.25538162662636], [79.15982240493736, 14.252973476914583], [79.15841833724303, 14.251929344020526], [79.15524033613583, 14.251904786936885], [79.15452851238554, 14.252588143488454], [79.14993244874664, 14.253241399724368], [79.15132525251882, 14.25566321480231], [79.15413617000536, 14.257407144963803], [79.15307120384564, 14.258087760412756], [79.15024624556271, 14.258065861426177], [79.14848627177389, 14.257363340837227], [79.1474466063285, 14.254944255178257], [79.14603977950668, 14.2542444629511], [79.14286176828693, 14.254219737073033], [79.13754247650294, 14.256933683643082], [79.13365821418759, 14.256903313435037], [79.13225426457785, 14.255859038380157], [79.1269518992135, 14.256506302803462], [79.12412700272225, 14.256484096875186], [79.1216637773821, 14.255431429842503], [79.11671739106473, 14.255736842993924], [79.11460160024531, 14.255375699911363], [79.11249727961815, 14.253636933392606], [79.10896910429173, 14.253264561606825], [79.10686485080159, 14.25152575281688], [79.10052634959473, 14.249408830016115], [79.09310845842076, 14.249694073160766], [79.084651642336, 14.247559808866185], [79.08428111150225, 14.249623349305132], [79.08497857908718, 14.250662207116786], [79.08780333891507, 14.250684867598432], [79.09307951748941, 14.25313804882532], [79.10261325087652, 14.25321408334768], [79.10577104610422, 14.25565014379395], [79.10860164505716, 14.254983764692525], [79.11070020538457, 14.25741136514615], [79.11492894947864, 14.258478107396027], [79.11527633853602, 14.259169702549107], [79.11668879568934, 14.2591808641533], [79.1191720227198, 14.257822766552817], [79.12057591314623, 14.258867112637603], [79.12126787742493, 14.26059469346753], [79.12232437879523, 14.260947442793773], [79.12515786993471, 14.259936465757125], [79.12974556146973, 14.260316926741899], [79.13185292691335, 14.26171115884283], [79.14492410765045, 14.26112437937319], [79.14773784219688, 14.262523978444646], [79.15831206993583, 14.265016934608319], [79.16396776873144, 14.264371706496343], [79.16607263142123, 14.266110076935938], [79.16889215081216, 14.266820624634544], [79.17592441117972, 14.270663337035783], [79.18051529211274, 14.270698442007065], [79.1886238843902, 14.272482413046449], [79.19178574049818, 14.27457305725551], [79.19563750994132, 14.27873551973663], [79.20337973658019, 14.282238449139026], [79.20546871259945, 14.286043035385637], [79.20828320127305, 14.287441997233998], [79.21143729657231, 14.290565682133265], [79.21670789118852, 14.294049649520867], [79.21668616898637, 14.29680501251674], [79.21809894129686, 14.296815600787781], [79.2198757506546, 14.295451140537226], [79.22340766861089, 14.295477545705957], [79.22868128301181, 14.298616858452899], [79.23220519010991, 14.29967640813052], [79.23990857681736, 14.308344656226977], [79.24233553814705, 14.314218173433485], [79.24261103125907, 14.32420909790893], [79.23830492767385, 14.332788272565336], [79.23509870158541, 14.336208876083022], [79.23507983302736, 14.338619834318669], [79.2336452006004, 14.341364694998461], [79.23290086804533, 14.34618134031007], [79.23074066451798, 14.351331855444824], [79.22931671261455, 14.352698987461524], [79.22825686452052, 14.352691066842445], [79.22721327916632, 14.350616617167566], [79.22194943101113, 14.34609946758831], [79.22160703072164, 14.344719138718073], [79.21880265497165, 14.341942571111597], [79.21671303788354, 14.338138032885357], [79.21389516341588, 14.337083515699529], [79.21106912278788, 14.337062222364834], [79.21000389114754, 14.33774306449342], [79.207862459386, 14.34048240173816], [79.20538141979688, 14.34149695547753], [79.20252787352364, 14.344919717488718], [79.20111206344289, 14.345253417608397], [79.19897595622126, 14.347303820943358], [79.19927967537444, 14.353505983204432], [79.1981867754239, 14.3576309094781], [79.19676260513131, 14.358997817564966], [79.19496303629452, 14.363117337922219], [79.1917640375181, 14.365503979528038], [79.19068476677784, 14.367906777638355], [79.18890441024277, 14.369615337063943], [79.1825283003781, 14.371633072520883], [79.17757926944321, 14.371939454769425], [79.17402946830842, 14.373978687716608], [79.16943650400962, 14.373943208480737], [79.16732509747746, 14.372893577349869], [79.16485198252765, 14.372874415588685], [79.16130488969576, 14.374569034471634], [79.15845871911306, 14.376957907190706], [79.15738186376306, 14.379016095993277], [79.15348414288727, 14.380363420545129], [79.14992268601695, 14.383779868770059], [79.14812772536345, 14.38721009047861], [79.14457460918712, 14.38959322205143], [79.14420990453645, 14.390968063958073], [79.14064528413546, 14.394728735366252], [79.13919770933335, 14.39885044361531], [79.13986728235636, 14.403333240430777], [79.13771577522758, 14.407104959271946], [79.13732238970736, 14.411923797942558], [79.13590037180987, 14.412945847198245], [79.13272587782588, 14.412231914020456], [79.1305999939526, 14.412903937457294], [79.12671593768837, 14.412528728513765], [79.12422804059908, 14.41423108527103], [79.12279442373476, 14.416630641398728], [79.11996175246932, 14.417296938123606], [79.11640787357366, 14.41967954649564], [79.11390533424846, 14.423103758387592], [79.11035420696938, 14.42514185937225], [79.10928246337936, 14.426510948295626], [79.10957480062486, 14.433746090190823], [79.10849718601348, 14.435803959682303], [79.10529336593179, 14.438533576653958], [79.10140604536879, 14.43850229654097], [79.09784871231548, 14.44122894904714], [79.09818454826149, 14.4432981595724], [79.10378932557596, 14.449198428029868], [79.10376596692768, 14.4519535795478], [79.10233477596516, 14.454008554371296], [79.10265896685073, 14.457455337940306], [79.11356568706871, 14.463398106927778], [79.12026066848412, 14.465862617847428], [79.12202786661989, 14.465876728811187], [79.12772619834084, 14.460755819922316], [79.13337825771629, 14.461145133006069], [79.13022903935294, 14.45733149682489], [79.12991305881167, 14.452851502626293], [79.12921486044486, 14.451812691619846], [79.12959419996042, 14.448715907048385], [79.13349900213166, 14.446680344194844], [79.13706179863456, 14.443264310739268], [79.14207239621199, 14.435726534525774], [79.15130621380692, 14.43028830641349], [79.15626501351721, 14.428949418107106], [79.15731951296027, 14.429646513623618], [79.15730817985022, 14.43102413400552], [79.15338111475347, 14.435815386324464], [79.15336691157927, 14.437537407041907], [79.15476632347675, 14.439270498629053], [79.15652767357795, 14.43997313498484], [79.16430262034379, 14.44003381967862], [79.17350248133481, 14.438727575850427], [79.18019483197412, 14.441534786491797], [79.18300256440392, 14.443967469669358], [79.18471935145479, 14.450180467664522], [79.18682874991721, 14.451574441938366], [79.18855405128292, 14.4567541964309], [79.19031566979474, 14.457456607641102], [79.19241124632464, 14.460572598005456], [79.19240010411171, 14.461950241826695], [79.19096679712759, 14.464350254069531], [79.19448183008463, 14.466788276844724], [79.19550602755135, 14.471273758372803], [79.19509966804885, 14.477814857224322], [79.19684199440397, 14.480928118711695], [79.19717321370969, 14.483686119738914], [79.19857880433882, 14.484730195031798], [79.20494708638194, 14.484090052283387]], [[79.19454861208239, 14.458522405237945], [79.19068862042174, 14.455048448754896], [79.18860426977277, 14.450554808397754], [79.18614423359895, 14.448813718382238], [79.18442461739083, 14.44294513666581], [79.18091565365135, 14.439818196717594], [79.17738716148251, 14.439102076515779], [79.17422053145204, 14.437355419299838], [79.17068648283407, 14.43732802073674], [79.1689110103996, 14.43834752299307], [79.15618845184972, 14.438248347406262], [79.15513675744889, 14.43720683845121], [79.15514527121023, 14.43617362498902], [79.15907797088384, 14.430693528835793], [79.15908929284224, 14.429315907038905], [79.15768989687447, 14.427582843155074], [79.15450942110849, 14.427557980324076], [79.15025742149166, 14.42890237839308], [79.14209239908637, 14.43331572053791], [79.13995774207886, 14.435021011389855], [79.13852125666699, 14.437765064657201], [79.13281229732443, 14.444263944142836], [79.12642789696699, 14.44696863674109], [79.11903234382731, 14.443809921859755], [79.11165155080892, 14.438929020053699], [79.11240189529279, 14.433768740473116], [79.11242221461863, 14.431357967148172], [79.11138239189835, 14.428938706369438], [79.11175028549285, 14.427219554943637], [79.11387924480442, 14.426203328817984], [79.11958527929255, 14.420049307342532], [79.12419346581713, 14.418363873351137], [79.1263424392879, 14.414936721102476], [79.13588319491642, 14.415012255478898], [79.13836816956986, 14.413654168183024], [79.13908917950177, 14.411937729844059], [79.13912060725892, 14.408149306453833], [79.14163400709016, 14.403347145188032], [79.14096439812205, 14.398864349146125], [79.14241194196258, 14.394742626189732], [79.14705072030603, 14.389268213359411], [79.14989149573914, 14.38756832322825], [79.15061514735584, 14.385507420443252], [79.15382331151207, 14.382088207112847], [79.15772106227752, 14.380740880480031], [79.1630657835373, 14.375271567771009], [79.16448462719171, 14.374593716761789], [79.174724898446, 14.375361778504143], [79.17827471796731, 14.37332253717811], [79.18145446809073, 14.373346989473477], [79.18924662335706, 14.370995691548904], [79.19173912885923, 14.36860370167448], [79.1924595634327, 14.366887028861282], [79.19565857746137, 14.364500379555203], [79.19708830981057, 14.36244465413679], [79.1974581483864, 14.360380854171042], [79.19959991408109, 14.357641652100439], [79.19961643519298, 14.355575159872318], [79.20069278901003, 14.353516716294466], [79.20038352965176, 14.3480033828656], [79.20322342139019, 14.346302737780814], [79.20607971907035, 14.342535551580736], [79.20856076841793, 14.341520991580452], [79.21105546131973, 14.3387843127797], [79.2149358447759, 14.339502423664786], [79.21703633624179, 14.341929298845875], [79.21736508607457, 14.345031726363132], [79.21912870800638, 14.345389418379927], [79.2215798517549, 14.348163336911462], [79.22404462921513, 14.349215135564927], [79.2261480184309, 14.35129752935645], [79.22718075239052, 14.354749665434019], [79.22503932384224, 14.357489159647724], [79.22466974098548, 14.359553033016907], [79.22572147648353, 14.360594233979024], [79.22678136030122, 14.360602170202926], [79.22894447301215, 14.355107294656618], [79.23143641074294, 14.352714814498444], [79.23391209543792, 14.352388833496418], [79.23883383014251, 14.355525442567075], [79.24448646420771, 14.355567387081415], [79.25441064767608, 14.351507357331968], [79.25904062521799, 14.346719162718388], [79.2636385665937, 14.346063985914915], [79.26686309806355, 14.340231967412535], [79.26654954094491, 14.335062959810063], [79.26762255412335, 14.333348556421095], [79.26972361945077, 14.33577502410593], [79.2696892634485, 14.34025260077664], [79.26719254265248, 14.343334404095094], [79.26610357102845, 14.347115366952266], [79.26361998975862, 14.348474979076], [79.26005790782071, 14.352237772613917], [79.25367203344969, 14.355635259667057], [79.25117224282693, 14.359061271397115], [79.2469219574566, 14.360407634388764], [79.24299266612219, 14.365889615770733], [79.24050336714693, 14.36793778968556], [79.23799514005455, 14.372396887094936], [79.2323258625955, 14.374421265810433], [79.23088278824387, 14.378199333917259], [79.22485998939993, 14.38022086637768], [79.22237582116607, 14.381579972201086], [79.21987798556324, 14.384661140394163], [79.21846193121199, 14.384994917254806], [79.21632554138432, 14.38704544524945], [79.21523544290156, 14.390826039214376], [79.21168285241137, 14.39321025617398], [79.20917100027143, 14.398013356676937], [79.2052566191416, 14.401428022248265], [79.20453337915421, 14.403489142751118], [79.20628089888015, 14.405913470887041], [79.20626988572661, 14.407291131624888], [79.20485367416016, 14.407624807478168], [79.20274452431786, 14.406231024660128], [79.19955874415518, 14.406895632057228], [79.1913675629356, 14.414755019398697], [79.1909864028766, 14.418196431695046], [79.1863841321871, 14.419194408835168], [79.18282242455615, 14.42261132904973], [79.1820988944584, 14.424672345281513], [79.17888762381945, 14.428436319498674], [79.17780223265352, 14.43152781306395], [79.18202902044608, 14.433282593217225], [79.18341747602182, 14.436393178088489], [79.1897453669334, 14.440575044233578], [79.19504102095303, 14.44130452681522], [79.19467927100324, 14.442335055690766], [79.19255042476213, 14.443352035957584], [79.19253095084126, 14.445762916235951], [79.19426470266204, 14.449909406627304], [79.19493820363594, 14.454047765056885], [79.19599017491358, 14.455089125834244], [79.19631860525081, 14.458191539946364], [79.19454861208239, 14.458522405237945]], [[79.23992868389522, 14.351055817873506], [79.24211285937342, 14.342805381164743], [79.24497923447005, 14.337659947652696], [79.24536197151768, 14.333873890643147], [79.24750826651156, 14.330445303501621], [79.24892929153285, 14.329422456525913], [79.25064479755281, 14.335979567226097], [79.25658365916512, 14.3446344332995], [79.25656234419301, 14.347389843977231], [79.2540680385493, 14.350127052324428], [79.25016854894966, 14.351820522709216], [79.24733958836092, 14.35214406482739], [79.24485317435533, 14.353847884556759], [79.24026313271193, 14.353469402895374], [79.23992868389522, 14.351055817873506]], [[79.23931091215131, 14.339684606181073], [79.24001744093961, 14.339689849525007], [79.2400120639393, 14.340378696416396], [79.23859362073898, 14.341057053426631], [79.23931091215131, 14.339684606181073]], [[79.26801547373151, 14.328184702012363], [79.26943376375333, 14.3275061491256], [79.2694205570442, 14.3292282951403], [79.26798903561028, 14.331628990991684], [79.26728252148614, 14.331623833775318], [79.26801547373151, 14.328184702012363]], [[79.2450703288117, 14.32594951079134], [79.2468900419188, 14.319074055646348], [79.24760185462424, 14.318390418147413], [79.24901211490703, 14.318745263939347], [79.24970790309783, 14.32012817430601], [79.24933864396377, 14.322192125130675], [79.24685794975566, 14.323207158821928], [79.24613273726892, 14.325612916959969], [79.2450703288117, 14.32594951079134]], [[79.24585976828587, 14.31527755447596], [79.24517204272203, 14.312861361162474], [79.24484557439762, 14.309414500451451], [79.24730207266008, 14.31149930145845], [79.24727000572815, 14.31563240817804], [79.24585976828587, 14.31527755447596]], [[79.244147166869, 14.308376006941241], [79.24449770765533, 14.308723041281684], [79.24414449081672, 14.308720432064682], [79.244147166869, 14.308376006941241]], [[79.244147166869, 14.308376006941241], [79.24379662715796, 14.308028972196857], [79.24414984285005, 14.308031581807352], [79.244147166869, 14.308376006941241]], [[79.24344341153713, 14.308026362062078], [79.24028592674838, 14.305247451570695], [79.23994344287347, 14.303867138886014], [79.23608502550455, 14.300394105702404], [79.23574257180267, 14.29901379021279], [79.23399001996816, 14.297278564877066], [79.23117252680352, 14.296224298857812], [79.23153110722996, 14.295538078818216], [79.23294388304154, 14.295548578031369], [79.23434859441525, 14.296592339853873], [79.23682096812809, 14.296610680024509], [79.23752199351581, 14.297304763815852], [79.23786177333547, 14.299029502116655], [79.24030469401788, 14.302836479796948], [79.24241322575834, 14.304229854948339], [79.24380197998161, 14.307340122028538], [79.24344341153713, 14.308026362062078]], [[79.22765407522125, 14.294475895440712], [79.22201655600799, 14.292711618634891], [79.22238327324071, 14.290992150109986], [79.2241519019608, 14.290660914700434], [79.22626291232618, 14.291709987703166], [79.2276621701278, 14.2934426280181], [79.22765407522125, 14.294475895440712]], [[79.18548690648592, 14.267291996487444], [79.18161341315583, 14.26588472783919], [79.18126856472294, 14.264848789596133], [79.18340118142218, 14.263142874150821], [79.18655735076896, 14.265922399173938], [79.18548690648592, 14.267291996487444]]], [[[79.16584036179718, 14.424890931987376], [79.17012034255806, 14.420102154085399], [79.17756927796141, 14.416715487140435], [79.181846064687, 14.412270855766566], [79.18539367187911, 14.410575985554761], [79.18824006677957, 14.408186811230348], [79.19216312641308, 14.403739235753799], [79.19288647651734, 14.4016781664921], [79.20036487384456, 14.394502106220585], [79.20288236466293, 14.389010285190539], [79.20502438577975, 14.386271064334707], [79.20575304579975, 14.383521101036957], [79.2075361592971, 14.381467998446722], [79.20828123355795, 14.376651522561541], [79.21007248711301, 14.373565140243725], [79.21009441191777, 14.370809805006042], [79.20939602087853, 14.369771210758952], [79.20727893207528, 14.36941075159241], [79.1977010977168, 14.374160130600883], [79.19380639013647, 14.375163744940263], [79.19166990693456, 14.377214036497946], [79.1845146249475, 14.388181106534702], [79.18024398406503, 14.391937033674811], [79.17699407163177, 14.400522781754283], [79.17592843137203, 14.401203419780503], [79.17448982622638, 14.404292186772162], [79.16985972267022, 14.408733950256412], [79.16589672812555, 14.418002791695004], [79.16199268635174, 14.420038990837842], [79.15984981442446, 14.422777714298885], [79.16019188408626, 14.424158093483356], [79.16194749307182, 14.425549490353507], [79.16584036179718, 14.424890931987376]], [[79.16232911990252, 14.422108180925699], [79.1676607794937, 14.418360922958373], [79.17126754526589, 14.40943371658414], [79.17447021325742, 14.406703050767831], [79.17840187339402, 14.401222502546407], [79.18165174780628, 14.392636730438365], [79.18592238303502, 14.38888077686299], [79.18736071444177, 14.385791906356191], [79.18878234902976, 14.384769496829687], [79.19379255865918, 14.376885813451313], [79.19521410739208, 14.375863354511958], [79.19875275382672, 14.375201443656264], [79.20655859466461, 14.371127481416053], [79.20832513220869, 14.371140858264953], [79.2086592403498, 14.373554448483], [79.20686796879612, 14.376640817861853], [79.20648443193176, 14.380426716838498], [79.20398090899145, 14.384196524539837], [79.20325222473888, 14.386946479453831], [79.20182787393081, 14.38831339678954], [79.19931036858951, 14.39380520480194], [79.19254698988189, 14.399953399828537], [79.1893251670939, 14.405095233755631], [79.18540760161633, 14.408853929965106], [79.18186002336057, 14.41054880382484], [79.17758327395964, 14.414993439954696], [79.16942483807019, 14.418719041683719], [79.16514487411203, 14.423507808858307], [79.16231499952741, 14.423830212340333], [79.16232911990252, 14.422108180925699]]]]}}, {"type": "Feature", "properties": {"depth_class": 2, "depth_lo_m": 1.0, "t_s": 61200.29428482217}, "geometry": {"type": "MultiPolygon", "coordinates": [[[[79.02027459039152, 14.219826087145787], [79.02065159775512, 14.21707394186038], [79.01960750057071, 14.215343252802397], [79.01819839683871, 14.214987168333762], [79.01610126561869, 14.2125589214722], [79.01291806577964, 14.213221304854397], [79.01254398765876, 14.215629045399083], [79.01324101536012, 14.216668060368143], [79.01641525626744, 14.217038827487833], [79.01815339219868, 14.220152915754356], [79.02027459039152, 14.219826087145787]], [[79.01430610767282, 14.21598809505003], [79.013974124304, 14.213574486052321], [79.01644227872582, 14.213939381788796], [79.0164272670522, 14.215661296171254], [79.01430610767282, 14.21598809505003]]], [[[79.15890271052439, 14.235744762761133], [79.1578741660003, 14.231948073218977], [79.1561087649173, 14.231934450296858], [79.156100381072, 14.232967682060588], [79.15890271052439, 14.235744762761133]]], [[[79.07940483298951, 14.241662517378431], [79.08259709068597, 14.239966087753174], [79.08475040425927, 14.235850339677373], [79.08476782352267, 14.233783961502166], [79.08371733209553, 14.232742275542826], [79.08194909323745, 14.23307249975079], [79.07768607369903, 14.236137988239372], [79.07731259804244, 14.238545908860893], [79.07799834522582, 14.240962359037873], [79.07940483298951, 14.241662517378431]], [[79.07942522056187, 14.239251751550986], [79.07944851597605, 14.236496589975374], [79.08086662139726, 14.235819154999644], [79.08227599776363, 14.236174898007619], [79.08048444823977, 14.239260271119985], [79.07942522056187, 14.239251751550986]]], [[[79.03485781723595, 14.248188111083739], [79.03486676209809, 14.24715495376699], [79.0334604150932, 14.246454546198297], [79.03274232180557, 14.247826266477611], [79.03344251277102, 14.248520859106744], [79.03485781723595, 14.248188111083739]]], [[[79.02593195250584, 14.259479903876935], [79.02630303036523, 14.257416525317973], [79.02383138253299, 14.257396052775857], [79.02416947409795, 14.259120895213629], [79.02593195250584, 14.259479903876935]]], [[[79.20459560358944, 14.307047211117965], [79.20637257014025, 14.30568287179034], [79.20674216863766, 14.303619027209344], [79.20604396456112, 14.302580443503516], [79.20463116558363, 14.302569779448078], [79.20356335675694, 14.303595028921507], [79.20353872174783, 14.306694787408055], [79.20459560358944, 14.307047211117965]]], [[[79.19631860525081, 14.458191539946364], [79.19599017491358, 14.455089125834244], [79.19493820363594, 14.454047765056885], [79.19426470266204, 14.449909406627304], [79.19253095084126, 14.445762916235951], [79.19255042476213, 14.443352035957584], [79.19467927100324, 14.442335055690766], [79.19504102095303, 14.44130452681522], [79.1897453669334, 14.440575044233578], [79.18341747602182, 14.436393178088489], [79.18202902044608, 14.433282593217225], [79.17780223265352, 14.43152781306395], [79.17888762381945, 14.428436319498674], [79.1820988944584, 14.424672345281513], [79.18282242455615, 14.42261132904973], [79.1863841321871, 14.419194408835168], [79.1909864028766, 14.418196431695046], [79.1913675629356, 14.414755019398697], [79.19955874415518, 14.406895632057228], [79.20274452431786, 14.406231024660128], [79.20485367416016, 14.407624807478168], [79.20626988572661, 14.407291131624888], [79.20628089888015, 14.405913470887041], [79.20453337915421, 14.403489142751118], [79.2052566191416, 14.401428022248265], [79.20917100027143, 14.398013356676937], [79.21168285241137, 14.39321025617398], [79.21523544290156, 14.390826039214376], [79.21632554138432, 14.38704544524945], [79.21846193121199, 14.384994917254806], [79.21987798556324, 14.384661140394163], [79.22237582116607, 14.381579972201086], [79.22485998939993, 14.38022086637768], [79.23088278824387, 14.378199333917259], [79.2323258625955, 14.374421265810433], [79.23799514005455, 14.372396887094936], [79.24050336714693, 14.36793778968556], [79.24299266612219, 14.365889615770733], [79.2469219574566, 14.360407634388764], [79.25117224282693, 14.359061271397115], [79.25367203344969, 14.355635259667057], [79.26005790782071, 14.352237772613917], [79.26361998975862, 14.348474979076], [79.26610357102845, 14.347115366952266], [79.26719254265248, 14.343334404095094], [79.2696892634485, 14.34025260077664], [79.26972361945077, 14.33577502410593], [79.26762255412335, 14.333348556421095], [79.26654954094491, 14.335062959810063], [79.26686309806355, 14.340231967412535], [79.2636385665937, 14.346063985914915], [79.25904062521799, 14.346719162718388], [79.25441064767608, 14.351507357331968], [79.24448646420771, 14.355567387081415], [79.23883383014251, 14.355525442567075], [79.23391209543792, 14.352388833496418], [79.23143641074294, 14.352714814498444], [79.22894447301215, 14.355107294656618], [79.22678136030122, 14.360602170202926], [79.22572147648353, 14.360594233979024], [79.22466974098548, 14.359553033016907], [79.22503932384224, 14.357489159647724], [79.22718075239052, 14.354749665434019], [79.2261480184309, 14.35129752935645], [79.22404462921513, 14.349215135564927], [79.2215798517549, 14.348163336911462], [79.21912870800638, 14.345389418379927], [79.21736508607457, 14.345031726363132], [79.21703633624179, 14.341929298845875], [79.2149358447759, 14.339502423664786], [79.21105546131973, 14.3387843127797], [79.20856076841793, 14.341520991580452], [79.20607971907035, 14.342535551580736], [79.20322342139019, 14.346302737780814], [79.20038352965176, 14.3480033828656], [79.20069278901003, 14.353516716294466], [79.19961643519298, 14.355575159872318], [79.19959991408109, 14.357641652100439], [79.1974581483864, 14.360380854171042], [79.19708830981057, 14.36244465413679], [79.19565857746137, 14.364500379555203], [79.1924595634327, 14.366887028861282], [79.19173912885923, 14.36860370167448], [79.18924662335706, 14.370995691548904], [79.18145446809073, 14.373346989473477], [79.17827471796731, 14.37332253717811], [79.174724898446, 14.375361778504143], [79.16871867762264, 14.375315377948603], [79.16766437072499, 14.374618356386444], [79.16448462719171, 14.374593716761789], [79.1630657835373, 14.375271567771009], [79.15772106227752, 14.380740880480031], [79.15382331151207, 14.382088207112847], [79.15061514735584, 14.385507420443252], [79.14989149573914, 14.38756832322825], [79.14705072030603, 14.389268213359411], [79.14241194196258, 14.394742626189732], [79.14096439812205, 14.398864349146125], [79.14163400709016, 14.403347145188032], [79.13912060725892, 14.408149306453833], [79.13908917950177, 14.411937729844059], [79.13836816956986, 14.413654168183024], [79.13588319491642, 14.415012255478898], [79.1263424392879, 14.414936721102476], [79.12419346581713, 14.418363873351137], [79.11958527929255, 14.420049307342532], [79.11387924480442, 14.426203328817984], [79.11175028549285, 14.427219554943637], [79.11138239189835, 14.428938706369438], [79.11242221461863, 14.431357967148172], [79.11165155080892, 14.438929020053699], [79.11903234382731, 14.443809921859755], [79.1257210754555, 14.446963014352548], [79.13281229732443, 14.444263944142836], [79.13852125666699, 14.437765064657201], [79.13995774207886, 14.435021011389855], [79.14209239908637, 14.43331572053791], [79.15025742149166, 14.42890237839308], [79.15450942110849, 14.427557980324076], [79.15768989687447, 14.427582843155074], [79.15908929284224, 14.429315907038905], [79.15907797088384, 14.430693528835793], [79.15514527121023, 14.43617362498902], [79.15513675744889, 14.43720683845121], [79.15618845184972, 14.438248347406262], [79.1689110103996, 14.43834752299307], [79.17068648283407, 14.43732802073674], [79.17422053145204, 14.437355419299838], [79.17738716148251, 14.439102076515779], [79.18021163288253, 14.439468331145614], [79.18442461739083, 14.44294513666581], [79.18614423359895, 14.448813718382238], [79.18860426977277, 14.450554808397754], [79.19068862042174, 14.455048448754896], [79.19454861208239, 14.458522405237945], [79.19631860525081, 14.458191539946364]], [[79.16194749307182, 14.425549490353507], [79.15984415860721, 14.42346652589484], [79.1605678797502, 14.421405601424306], [79.16589672812555, 14.418002791695004], [79.16985972267022, 14.408733950256412], [79.17448982622638, 14.404292186772162], [79.17592843137203, 14.401203419780503], [79.17699407163177, 14.400522781754283], [79.18024398406503, 14.391937033674811], [79.1845146249475, 14.388181106534702], [79.19166990693456, 14.377214036497946], [79.19380639013647, 14.375163744940263], [79.1977010977168, 14.374160130600883], [79.20727893207528, 14.36941075159241], [79.20939602087853, 14.369771210758952], [79.21009441191777, 14.370809805006042], [79.21007248711301, 14.373565140243725], [79.20828123355795, 14.376651522561541], [79.2075361592971, 14.381467998446722], [79.20539421899464, 14.384207251985185], [79.20394787568722, 14.388329508592847], [79.20288236466293, 14.389010285190539], [79.20036487384456, 14.394502106220585], [79.19288647651734, 14.4016781664921], [79.19216312641308, 14.403739235753799], [79.18930849180256, 14.407161705585645], [79.18539367187911, 14.410575985554761], [79.181846064687, 14.412270855766566], [79.17756927796141, 14.416715487140435], [79.17012034255806, 14.420102154085399], [79.16584036179718, 14.424890931987376], [79.16442118413346, 14.425568751210808], [79.16194749307182, 14.425549490353507]], [[79.18003171027384, 14.418112212268381], [79.18431127212988, 14.413323123352528], [79.1860836908527, 14.412647882733726], [79.19035468400013, 14.40889189093408], [79.19107529578834, 14.407175244226345], [79.19356823320585, 14.404783286647644], [79.19500659393601, 14.401694373135854], [79.20105776450615, 14.396229558177255], [79.2089467106901, 14.38182311908521], [79.20968901516665, 14.377351052213035], [79.21147751852217, 14.37460907491708], [79.21151585667593, 14.369787234518197], [79.20976302891437, 14.368051798012557], [79.20658330377756, 14.368027734571587], [79.1977148965444, 14.372438057971792], [79.19382298548881, 14.373097262379687], [79.18884894552511, 14.376503594029845], [79.18708238488229, 14.376490066954997], [79.18673462725488, 14.375798535262621], [79.18709904359754, 14.374423592332633], [79.18993660261921, 14.373067573972394], [79.19314403361827, 14.369647732131087], [79.19350839737167, 14.368272772894722], [79.1984932083441, 14.363488651759273], [79.20246467964206, 14.352841288797528], [79.20214163574671, 14.349050032925119], [79.20462826127257, 14.347346691932813], [79.2067752844512, 14.343918563393109], [79.20961234663814, 14.342562247226585], [79.21139505824979, 14.340509067104229], [79.21456894839183, 14.341221858323745], [79.2149031192508, 14.343635448125818], [79.21276167690883, 14.346374828755678], [79.21310129155552, 14.348099582428349], [79.21803349411827, 14.349858904735784], [79.22191953650645, 14.34988808581046], [79.22542789280408, 14.353014342402163], [79.22541703889169, 14.3543920237102], [79.22255542420642, 14.358848298818762], [79.2225445481231, 14.36022597729584], [79.22535189121099, 14.362658108032223], [79.22747167849654, 14.362673981279924], [79.22853970426432, 14.361648648804934], [79.2292760946105, 14.357865302554796], [79.23177347141464, 14.354783979586236], [79.23917365437121, 14.3572501821283], [79.24517962575464, 14.357294740325818], [79.25155763011247, 14.354930778046418], [79.25154693448093, 14.35630847856962], [79.2504763534523, 14.357678354980788], [79.24622609251634, 14.359024708120367], [79.24372615410299, 14.36245062317673], [79.24159558792309, 14.363812587881364], [79.2387422154633, 14.367235810932158], [79.23658727915405, 14.371697519083385], [79.23163005952779, 14.37303830346764], [79.22983366488491, 14.376813724708244], [79.22097069161573, 14.380536091997529], [79.2184728518775, 14.383617244721055], [79.21598861307915, 14.384976274293676], [79.21455887116095, 14.387032113674195], [79.21382756065005, 14.39012653159436], [79.20991888321373, 14.39285246805865], [79.2074070005404, 14.397655546040786], [79.20349260303261, 14.401070180085574], [79.20240495753742, 14.40450626318674], [79.19850971841612, 14.405509893789548], [79.18889673547048, 14.41439164327055], [79.18817607782596, 14.416108277675225], [79.18569688457514, 14.416778099977984], [79.18107507182815, 14.420186844820567], [79.17966155437334, 14.42017594552214], [79.18003171027384, 14.418112212268381]], [[79.16148632694572, 14.395580620652995], [79.16152861498942, 14.390414515703524], [79.16330089151991, 14.389739431609161], [79.16434961879118, 14.391125293821842], [79.16432991571462, 14.393536146779038], [79.16289685746789, 14.395936017612517], [79.16148632694572, 14.395580620652995]], [[79.25830212029946, 14.35084709244004], [79.26008716630339, 14.34844907723445], [79.26079107199963, 14.348798688844168], [79.2590086912708, 14.350852283181744], [79.25830212029946, 14.35084709244004]]], [[[79.2273143776853, 14.292751151671126], [79.2241519019608, 14.290660914700434], [79.22238327324071, 14.290992150109986], [79.22202467561016, 14.291678354229056], [79.22236703747433, 14.293058679350297], [79.22659450131934, 14.294467998840265], [79.22765407522125, 14.294475895440712], [79.2273143776853, 14.292751151671126]]], [[[79.24450038316995, 14.30837861609285], [79.24414449081672, 14.308720432064682], [79.24449770765533, 14.308723041281684], [79.24450038316995, 14.30837861609285]]], [[[79.24414984285005, 14.308031581807352], [79.24379395063927, 14.308373397265338], [79.244147166869, 14.308376006941241], [79.24414984285005, 14.308031581807352]]], [[[79.24379662715796, 14.308028972196857], [79.24241322575834, 14.304229854948339], [79.24030469401788, 14.302836479796948], [79.23682096812809, 14.296610680024509], [79.23434859441525, 14.296592339853873], [79.23294388304154, 14.295548578031369], [79.2311752201658, 14.29587987578686], [79.23222672784534, 14.296921022525645], [79.23399001996816, 14.297278564877066], [79.23574257180267, 14.29901379021279], [79.23608502550455, 14.300394105702404], [79.23994344287347, 14.303867138886014], [79.24028592674838, 14.305247451570695], [79.24379662715796, 14.308028972196857]]], [[[79.24764728028119, 14.312535183495722], [79.24695419551914, 14.310807844777923], [79.24484557439762, 14.309414500451451], [79.24621032144934, 14.31562458761925], [79.24727000572815, 14.31563240817804], [79.24764728028119, 14.312535183495722]]], [[[79.24613273726892, 14.325612916959969], [79.24685794975566, 14.323207158821928], [79.24862682252588, 14.322875766864138], [79.24969722321602, 14.321505877494406], [79.24970790309783, 14.32012817430601], [79.248308319916, 14.318395629225423], [79.2468900419188, 14.319074055646348], [79.24617287448899, 14.320446540812963], [79.2450703288117, 14.32594951079134], [79.24613273726892, 14.325612916959969]]], [[[79.26798903561028, 14.331628990991684], [79.2694205570442, 14.3292282951403], [79.26943376375333, 14.3275061491256], [79.26765693388097, 14.32887098206249], [79.26728252148614, 14.331623833775318], [79.26798903561028, 14.331628990991684]]], [[[79.23859362073898, 14.341057053426631], [79.24001744093961, 14.339689849525007], [79.23931091215131, 14.339684606181073], [79.23859362073898, 14.341057053426631]]]]}}, {"type": "Feature", "properties": {"depth_class": 3, "depth_lo_m": 2.0, "t_s": 61200.29428482217}, "geometry": {"type": "MultiPolygon", "coordinates": [[[[79.01430610767282, 14.21598809505003], [79.0164272670522, 14.215661296171254], [79.01644227872582, 14.213939381788796], [79.013974124304, 14.213574486052321], [79.01360606965545, 14.215293465045868], [79.01430610767282, 14.21598809505003]]], [[[79.07942522056187, 14.239251751550986], [79.082270183084, 14.23686368962877], [79.08192583397293, 14.235827666167905], [79.0801575696389, 14.236157873678428], [79.07908962005953, 14.237182539962072], [79.07942522056187, 14.239251751550986]]], [[[79.25830212029946, 14.35084709244004], [79.26078841349879, 14.349143115868339], [79.26044044833132, 14.348451669784902], [79.25830212029946, 14.35084709244004]]], [[[79.17966155437334, 14.42017594552214], [79.18569688457514, 14.416778099977984], [79.18817607782596, 14.416108277675225], [79.18889673547048, 14.41439164327055], [79.19850971841612, 14.405509893789548], [79.20240495753742, 14.40450626318674], [79.20349260303261, 14.401070180085574], [79.2074070005404, 14.397655546040786], [79.20991888321373, 14.39285246805865], [79.21382756065005, 14.39012653159436], [79.21455887116095, 14.387032113674195], [79.21598861307915, 14.384976274293676], [79.2184728518775, 14.383617244721055], [79.22097069161573, 14.380536091997529], [79.22983366488491, 14.376813724708244], [79.23163005952779, 14.37303830346764], [79.23658727915405, 14.371697519083385], [79.2387422154633, 14.367235810932158], [79.24159558792309, 14.363812587881364], [79.24372615410299, 14.36245062317673], [79.24622609251634, 14.359024708120367], [79.2504763534523, 14.357678354980788], [79.25154693448093, 14.35630847856962], [79.25155763011247, 14.354930778046418], [79.24517962575464, 14.357294740325818], [79.23917365437121, 14.3572501821283], [79.23177347141464, 14.354783979586236], [79.2292760946105, 14.357865302554796], [79.22853970426432, 14.361648648804934], [79.22747167849654, 14.362673981279924], [79.22535189121099, 14.362658108032223], [79.2225445481231, 14.36022597729584], [79.22255542420642, 14.358848298818762], [79.22541703889169, 14.3543920237102], [79.22542789280408, 14.353014342402163], [79.22191953650645, 14.34988808581046], [79.21803349411827, 14.349858904735784], [79.21310129155552, 14.348099582428349], [79.21276167690883, 14.346374828755678], [79.2149031192508, 14.343635448125818], [79.21456894839183, 14.341221858323745], [79.21139505824979, 14.340509067104229], [79.20961234663814, 14.342562247226585], [79.2067752844512, 14.343918563393109], [79.20462826127257, 14.347346691932813], [79.20214163574671, 14.349050032925119], [79.20246467964206, 14.352841288797528], [79.1984932083441, 14.363488651759273], [79.19350839737167, 14.368272772894722], [79.19314403361827, 14.369647732131087], [79.18993660261921, 14.373067573972394], [79.18709904359754, 14.374423592332633], [79.18673462725488, 14.375798535262621], [79.18708238488229, 14.376490066954997], [79.18884894552511, 14.376503594029845], [79.19311360297169, 14.373436282879624], [79.1977148965444, 14.372438057971792], [79.20658330377756, 14.368027734571587], [79.20976302891437, 14.368051798012557], [79.21081746116043, 14.368748643989292], [79.21151585667593, 14.369787234518197], [79.21147751852217, 14.37460907491708], [79.20968901516665, 14.377351052213035], [79.2089467106901, 14.38182311908521], [79.20177273015106, 14.395201692140155], [79.19500659393601, 14.401694373135854], [79.19356823320585, 14.404783286647644], [79.19107529578834, 14.407175244226345], [79.19035468400013, 14.40889189093408], [79.181818141799, 14.415714958858237], [79.17967274126977, 14.418798306588279], [79.17966155437334, 14.42017594552214]]]]}}]}