{"type": "FeatureCollection", "features": [{"type": "Feature", "properties": {"depth_class": 1, "depth_lo_m": 0.3, "t_s": 65700.51383125616}, "geometry": {"type": "MultiPolygon", "coordinates": [[[[79.01530809109286, 14.222540157219358], [79.01602618186206, 14.221168489959858], [79.01813838663901, 14.221874831035088], [79.02096866992005, 14.221209469120577], [79.02168672354301, 14.21983777971867], [79.02171966913033, 14.216049556950844], [79.02067556682104, 14.2143188719775], [79.01891644127093, 14.213615486208635], [79.0178693710617, 14.212229176129327], [79.0139921575822, 14.211508191486345], [79.01150297172912, 14.213553947723556], [79.01148190310485, 14.215964620613429], [79.01217892634699, 14.21700363815606], [79.01144276519125, 14.220441583183506], [79.01318385684436, 14.223211319384776], [79.01530809109286, 14.222540157219358]], [[79.01815339219868, 14.220152915754356], [79.01641525626744, 14.217038827487833], [79.01324101536012, 14.216668060368143], [79.01254398765876, 14.215629045399083], [79.01291806577964, 14.213221304854397], [79.01610126561869, 14.2125589214722], [79.01819839683871, 14.214987168333762], [79.02030755945819, 14.21603786761961], [79.02063661448385, 14.2187958601953], [79.01991855910141, 14.220167546157368], [79.01815339219868, 14.220152915754356]]], [[[79.16062073082857, 14.241613360551185], [79.16141054658739, 14.231286456682], [79.16388767401897, 14.23061664514664], [79.16425466223365, 14.228897297796511], [79.16320934656169, 14.227167095131888], [79.16074340297509, 14.226459257530584], [79.15898919719153, 14.225068015579426], [79.15722384841197, 14.225054407334662], [79.15543614648841, 14.227796071131706], [79.15331770701934, 14.227779705115275], [79.15189701514774, 14.228802013680765], [79.15187180994066, 14.23190170211306], [79.15291145065518, 14.234320765836308], [79.15572493499282, 14.235720239400475], [79.15708977487797, 14.241586124182863], [79.15814347395816, 14.242283121995076], [79.15990895746806, 14.242296739560603], [79.16062073082857, 14.241613360551185]], [[79.15890271052439, 14.235744762761133], [79.156100381072, 14.232967682060588], [79.1561087649173, 14.231934450296858], [79.1582244551067, 14.232295207249601], [79.15890271052439, 14.235744762761133]]], [[[79.08115859049458, 14.243054298225754], [79.08615978992073, 14.236206060530675], [79.08618589922843, 14.233106490654498], [79.08513830521576, 14.231720413936236], [79.08231669182003, 14.231353355484158], [79.07805953813532, 14.233730065580076], [79.07591488787189, 14.236812557760208], [79.07344923239685, 14.23610383948126], [79.07167511493171, 14.237122769646927], [79.07129864910195, 14.23987506592863], [79.07199602814937, 14.240913951278323], [79.07481772552586, 14.241281144342073], [79.07588279573659, 14.240600896764864], [79.078333936615, 14.24303157099753], [79.08115859049458, 14.243054298225754]], [[79.08011099218182, 14.241668198613514], [79.07765109757193, 14.240270726184372], [79.07768607369903, 14.236137988239372], [79.08194909323745, 14.23307249975079], [79.0844205620407, 14.23309233689971], [79.08475040425927, 14.235850339677373], [79.08259709068597, 14.239966087753174], [79.08011099218182, 14.241668198613514]]], [[[79.11821835883717, 14.245071512487145], [79.12036827828598, 14.241299773694987], [79.1203882306469, 14.238888950273804], [79.11899871194554, 14.236122600929617], [79.11653001572947, 14.235758714744671], [79.1143801013723, 14.239530419205416], [79.11400413678402, 14.242282846396957], [79.11680598822896, 14.245060370735448], [79.11821835883717, 14.245071512487145]]], [[[79.03554013007644, 14.250949013555928], [79.0366291776813, 14.247513873873078], [79.03946571509104, 14.246159554665503], [79.03948355952048, 14.244093233857837], [79.03773901955564, 14.241668018523457], [79.03597366669133, 14.241653498239108], [79.03418744478843, 14.24404966533019], [79.03170398768316, 14.245406833998175], [79.03027674584823, 14.24711710443601], [79.03026180257916, 14.248839028483157], [79.0316681509471, 14.249539455419903], [79.03306256862246, 14.251617416362873], [79.03554013007644, 14.250949013555928]], [[79.0334604150932, 14.246454546198297], [79.03486676209809, 14.24715495376699], [79.03450175466527, 14.248529588185537], [79.0330924167534, 14.248173562985087], [79.0334604150932, 14.246454546198297]]], [[[79.15029959825975, 14.251522094078199], [79.15101704145654, 14.250149933078053], [79.15067796568138, 14.24842515076216], [79.14820623550241, 14.248405978891922], [79.14749159442616, 14.24943372182049], [79.1478306459271, 14.251158505782573], [79.14888154252006, 14.252199954529422], [79.15029959825975, 14.251522094078199]]], [[[79.08886842569338, 14.250004563177457], [79.09203180097344, 14.251751987766513], [79.09273799677334, 14.251757635567799], [79.09028080411619, 14.25001587406014], [79.08886842569338, 14.250004563177457]]], [[[79.08886842569338, 14.250004563177457], [79.08534910665801, 14.248598665181387], [79.08534039057523, 14.249631853389804], [79.08886842569338, 14.250004563177457]]], [[[79.10825428238442, 14.254292162881812], [79.10650887652056, 14.251867350376598], [79.1026276500636, 14.251492086085024], [79.09981727438898, 14.249747605142769], [79.0966307453062, 14.250755466310995], [79.09909088775825, 14.252152770581018], [79.10297499132865, 14.252183693594668], [79.10577967300956, 14.254616943782256], [79.10825428238442, 14.254292162881812]]], [[[79.15696392469489, 14.257084586850207], [79.15945252790885, 14.25503721604263], [79.15946929150041, 14.252970752320527], [79.15806522571019, 14.251926617543862], [79.15559344707114, 14.251907517589915], [79.15099178483143, 14.253249614435575], [79.15132805909938, 14.255318805808876], [79.15308242110781, 14.256710123293196], [79.15696392469489, 14.257084586850207]]], [[[79.11494612276526, 14.256411696805205], [79.11249441445925, 14.253981334776226], [79.10966957295615, 14.253958961513872], [79.11001120148833, 14.255339363459264], [79.11176527103476, 14.256730954159606], [79.11670881325351, 14.256770049451879], [79.11494612276526, 14.256411696805205]]], [[[79.02804154572235, 14.260530589186269], [79.0287627095181, 14.258814509097384], [79.02702119820533, 14.256044834396468], [79.02455556226504, 14.255335604427632], [79.02207192835726, 14.256692648188968], [79.0220509053966, 14.259103327882938], [79.02345127789235, 14.260492573724974], [79.0252107656334, 14.261195972272752], [79.02804154572235, 14.260530589186269]], [[79.02383138253299, 14.257396052775857], [79.02559984263743, 14.257066295060401], [79.02664413778716, 14.25879698293623], [79.02487266498778, 14.259471130173212], [79.02381937995807, 14.258773585480736], [79.02383138253299, 14.257396052775857]]], [[[79.04850358252169, 14.262765450493285], [79.05028984157772, 14.260369179149508], [79.04924534627528, 14.258638571089168], [79.04783887698481, 14.257938234206215], [79.04607338689839, 14.25792377245424], [79.04536125543804, 14.258606759378878], [79.04532860188453, 14.262395022668189], [79.04850358252169, 14.262765450493285]]], [[[79.08311707004823, 14.262013076241544], [79.08349346713261, 14.259260752706338], [79.08279307445079, 14.258566284081496], [79.08102754285994, 14.25855208044771], [79.0785441306088, 14.259909751037718], [79.0785324580722, 14.261287328479622], [79.07958303760977, 14.26232904852435], [79.08205190822744, 14.262693345098118], [79.08311707004823, 14.262013076241544]]], [[[79.12393886474136, 14.27921471276183], [79.12714567070195, 14.275795697487682], [79.12717414189646, 14.272351660383968], [79.12612897178052, 14.27062131111833], [79.12436330185616, 14.270607416796771], [79.12365133082713, 14.271290661622585], [79.12077483233409, 14.27746763800686], [79.12075482775285, 14.279878454184646], [79.12393886474136, 14.27921471276183]]], [[[79.10415986245036, 14.279402474961445], [79.10381825341616, 14.27802206717275], [79.10204966246354, 14.278352399022232], [79.10238837462667, 14.28007720665401], [79.10415986245036, 14.279402474961445]]], [[[79.16325582934937, 14.395249949285873], [79.16432991571462, 14.393536146779038], [79.16434961879118, 14.391125293821842], [79.16365140433741, 14.390086583545266], [79.16224090765948, 14.389731195144094], [79.16116682836517, 14.391444988943292], [79.16114709068017, 14.393855837514069], [79.16183684461402, 14.395927775868332], [79.16325582934937, 14.395249949285873]]], [[[79.16832216969821, 14.249938998871327], [79.17009883018049, 14.248574897023243], [79.17011271268609, 14.246852832703508], [79.16871418063701, 14.245119933448054], [79.16695422780072, 14.244417553686498], [79.16306454171482, 14.245076511262727], [79.1630478205135, 14.247142980536276], [79.16444353025945, 14.24922032078483], [79.16585039841581, 14.249920007760682], [79.16832216969821, 14.249938998871327]]], [[[79.28560713168815, 14.291111638891897], [79.28563583266404, 14.287322872815997], [79.2817873327811, 14.282472798054336], [79.27791018355379, 14.281411431433595], [79.27157923254667, 14.277921054996767], [79.26910964899253, 14.277558668390359], [79.26630535675504, 14.274782675266525], [79.26277367997187, 14.274756943336147], [79.25995892482634, 14.273358603986185], [79.2592658260202, 14.271631298703442], [79.25645908337509, 14.269199638847269], [79.2561324245126, 14.265752769190676], [79.25508887408802, 14.263678444209651], [79.25616951064895, 14.260930768144757], [79.25620128773923, 14.256797622766584], [79.25514982120119, 14.25575658731592], [79.25161846173216, 14.255730723793551], [79.25161049816559, 14.256764007836386], [79.25336822887628, 14.257810232027746], [79.25334966199877, 14.260221229822283], [79.2515627033726, 14.262963710125113], [79.25154411030753, 14.265374704548174], [79.25398963615427, 14.268837108667483], [79.25395779077529, 14.272970244991829], [79.25816397207966, 14.277134414220269], [79.26062558493201, 14.278530199042798], [79.26131606496638, 14.280601932089462], [79.26272612779684, 14.280956673259677], [79.26415467667167, 14.278900399146638], [79.26486102490107, 14.278905547083966], [79.26591263594398, 14.279946554991268], [79.26908859025058, 14.280314112961898], [79.27612330269777, 14.284154106161091], [79.27894616235027, 14.284518982950557], [79.28281291842306, 14.286958070363182], [79.284529260797, 14.293515033062071], [79.28560713168815, 14.291111638891897]]], [[[79.25144311592295, 14.27846295107738], [79.25288236628978, 14.27502904339074], [79.25253982697788, 14.273648741960837], [79.24937200153309, 14.272247695281331], [79.24689721224556, 14.272573942559386], [79.24582439656393, 14.27428827559746], [79.24615356053243, 14.277390714162635], [79.24931876664334, 14.27913623597373], [79.25144311592295, 14.27846295107738]]], [[[79.18609944038714, 14.279007490772837], [79.18680024387623, 14.279701700534256], [79.18680575896174, 14.27901287020827], [79.18609944038714, 14.279007490772837]]], [[[79.19693767621268, 14.292867313560018], [79.19660645396279, 14.29010930312891], [79.1948405619527, 14.290095913102396], [79.19412870841725, 14.290779385913611], [79.19446814589384, 14.292504147517246], [79.19693767621268, 14.292867313560018]]], [[[79.27816379614163, 14.294502400653771], [79.27815330943618, 14.295880127667404], [79.27885971588002, 14.295885240031797], [79.27922339946642, 14.294510067645213], [79.27816379614163, 14.294502400653771]]], [[[79.18629527385743, 14.298641824783541], [79.18595589676492, 14.2969170586152], [79.1845431488585, 14.296906279409477], [79.18382847824724, 14.297934128881606], [79.18487698607427, 14.299319874778053], [79.18629527385743, 14.298641824783541]]], [[[79.20457918621032, 14.309113717445607], [79.20813859504698, 14.305696190453475], [79.20959233103855, 14.300540553829041], [79.211722411651, 14.299178823120455], [79.21138011194482, 14.29779848981313], [79.20961687205063, 14.297440783426593], [79.20784272242744, 14.298460739146996], [79.2018384382363, 14.298415417188565], [79.20077338051318, 14.299096238015016], [79.20076515944723, 14.300129489739394], [79.20287611892309, 14.301178767287087], [79.20178913363088, 14.304614930115882], [79.20210945949245, 14.30875060904668], [79.20457918621032, 14.309113717445607]], [[79.20354419670437, 14.306005952262131], [79.20462843048256, 14.302914197331662], [79.20639169958618, 14.303271944632371], [79.20637530313648, 14.30533845365633], [79.20495154564892, 14.306705460962316], [79.20389192761384, 14.306697456582903], [79.20354419670437, 14.306005952262131]]], [[[79.22541328174158, 14.309959079739055], [79.22508711710736, 14.306512226167449], [79.22297598355952, 14.305463128618094], [79.21909341717631, 14.30508963261291], [79.21696059575186, 14.306795847544091], [79.21694429170222, 14.308862367929613], [79.21870763676851, 14.309220031315297], [79.22083233763523, 14.308547064517834], [79.22329399208644, 14.309943245113443], [79.22541328174158, 14.309959079739055]]], [[[79.26072720152935, 14.311253495464369], [79.26214804485217, 14.310230547289763], [79.26215864008213, 14.30885283362684], [79.25970201220284, 14.306768173522379], [79.25687362454231, 14.307091896106826], [79.25508892688053, 14.309489928243392], [79.25508094787688, 14.310523209551759], [79.25613529681029, 14.311219842386146], [79.26072720152935, 14.311253495464369]]], [[[79.26595152952704, 14.320936225809948], [79.26632328058956, 14.318527802594977], [79.26528209079773, 14.316109064129593], [79.26387710403328, 14.315065456756686], [79.26246418279715, 14.31505512743571], [79.26139388800026, 14.316425087329876], [79.26207119569946, 14.320218966347888], [79.26347355301125, 14.321607014969116], [79.26595152952704, 14.320936225809948]]], [[[79.23277153982411, 14.317591655236583], [79.23135862639774, 14.317581139166496], [79.23169836989608, 14.319305881585604], [79.23311398931166, 14.318971974108608], [79.23277153982411, 14.317591655236583]]], [[[79.22321000643758, 14.320620297122277], [79.2217997938563, 14.320265301398187], [79.2214384241419, 14.321295917976077], [79.22214488852072, 14.32130120789669], [79.22321000643758, 14.320620297122277]]], [[[79.23662209151291, 14.322098035371836], [79.23520914695212, 14.322087538968848], [79.23590216196969, 14.323814904101699], [79.23696456873827, 14.32347835167518], [79.23662209151291, 14.322098035371836]]], [[[79.19996217594164, 14.488529556466293], [79.21022726845571, 14.486885796740397], [79.21519818613241, 14.48416811958515], [79.22268177488505, 14.476647217702583], [79.2259232665683, 14.469094068389472], [79.22632048153206, 14.463586058135451], [79.22530386848862, 14.458067389243544], [79.22319139454085, 14.457018142748476], [79.22106523954567, 14.457690962022472], [79.2161169957063, 14.45765352063016], [79.2139853172544, 14.459015103063036], [79.21221808205702, 14.459001688733004], [79.20940706181207, 14.456913712566873], [79.19916279350477, 14.45614671208121], [79.1967192693943, 14.45233924447338], [79.19638805507248, 14.449581241871124], [79.19464314752395, 14.446812410030075], [79.19465982144033, 14.444745939018537], [79.19820790004779, 14.443050929041938], [79.19822453653106, 14.440984453299974], [79.19682197262183, 14.439595991837376], [79.19117015368569, 14.439208252773318], [79.18694595695862, 14.437109205382724], [79.18414104565002, 14.434332162760695], [79.18310319217898, 14.431568715031252], [79.18028440604613, 14.430513686913267], [79.18065458517047, 14.428449955724691], [79.18672636740071, 14.420574768515937], [79.1909669475182, 14.42060731501328], [79.19238603128129, 14.41992932264157], [79.19241935333186, 14.41579637600594], [79.2002571806601, 14.40793426039848], [79.2023801253011, 14.407605993365134], [79.20483989487872, 14.409346881773345], [79.2069600987128, 14.40936298956789], [79.20802845477317, 14.40833778998573], [79.20804770959725, 14.405926881466991], [79.20629466368234, 14.40419139472762], [79.20630842666267, 14.402469318304766], [79.20986946210863, 14.399051959275415], [79.21238131453003, 14.3942488513615], [79.2159339166528, 14.39186462513827], [79.21773614700395, 14.387400518930079], [79.21916040617315, 14.386033493758475], [79.22057646672806, 14.385699713375113], [79.22413973510976, 14.381937659753007], [79.23158130772146, 14.379237878454017], [79.23373372323205, 14.375120659464887], [79.23691899573522, 14.374455526116336], [79.23904969375523, 14.373093619389921], [79.2419139120357, 14.36829271033832], [79.24511518978429, 14.365560910995987], [79.24797649179786, 14.36110432432863], [79.25222678677274, 14.359757943257499], [79.25472657166819, 14.356331919645694], [79.26004726625354, 14.353615479710463], [79.26289749228036, 14.35053636729643], [79.26537844966265, 14.349521193873658], [79.26751404782583, 14.347470125513473], [79.26824443055061, 14.344375431330645], [79.27002403390944, 14.342666180123969], [79.27110234782688, 14.340262904845737], [79.27147938103343, 14.33716561606619], [79.26973947206454, 14.333708449661863], [79.26975796358568, 14.331297445668092], [79.27118682613803, 14.329241166230597], [79.27227822989681, 14.325115725525418], [79.27334587738402, 14.324090144757138], [79.27901095652656, 14.322409022724305], [79.28364241527862, 14.317275778804426], [79.28436720414362, 14.314869856407505], [79.28442473873669, 14.307292343034536], [79.28622218636744, 14.303171888334688], [79.28554970449785, 14.298689167261688], [79.28627178131507, 14.296627659733167], [79.28592901551393, 14.29524738212508], [79.2848720164308, 14.294895311632775], [79.28485112299612, 14.297650775139152], [79.28342522350005, 14.29936274573375], [79.28198098151088, 14.303485730836849], [79.28191290451122, 14.312440964716005], [79.27906082994056, 14.315864829530787], [79.27764263938377, 14.316543452030727], [79.27691251742733, 14.31963820662784], [79.27548640493436, 14.321350104291955], [79.27089425897427, 14.321316713303643], [79.26876424651276, 14.322678989232744], [79.26480972426725, 14.33160576697401], [79.26545266671751, 14.339877209980136], [79.2640236770507, 14.341933439651571], [79.26365448684648, 14.34399741994007], [79.26258669543785, 14.345022939884698], [79.26046703414353, 14.345007399510632], [79.25941518366865, 14.343966341523487], [79.2580313602853, 14.340167271367047], [79.25662627552285, 14.339123609934019], [79.25489192547455, 14.334977506390805], [79.25278570657842, 14.333239778038985], [79.25209253603597, 14.331512445490745], [79.2535322113534, 14.328078585741144], [79.25355353339502, 14.325323175055441], [79.25111017516132, 14.321516287305442], [79.24907885822164, 14.310134617436963], [79.24383676638982, 14.30286259491555], [79.24173091441465, 14.301124807814007], [79.23929870743301, 14.295940145371986], [79.22979208952032, 14.29208071426387], [79.22874331021144, 14.290695137473682], [79.22592862741227, 14.28929639872088], [79.22454291404287, 14.28584164163489], [79.22242655593078, 14.285481403629701], [79.21888666563316, 14.286488265147234], [79.21642256806028, 14.285436489660267], [79.21292072575973, 14.281621378978295], [79.21010354734787, 14.280566896011862], [79.20765046585197, 14.278137364744353], [79.20412704142485, 14.277077501750293], [79.20062280527364, 14.273606664875414], [79.19780579720525, 14.272552054046576], [79.19360642037745, 14.267698121804086], [79.18938521533632, 14.26559946361262], [79.18834231219826, 14.263524917255651], [79.18414054469167, 14.2590152736125], [79.17954989097626, 14.258980266530948], [79.17777042167698, 14.260688848733459], [79.17740345157766, 14.26240821864291], [79.17880491310204, 14.263796671097444], [79.18162998810917, 14.263818240311004], [79.18446885684003, 14.262117700148627], [79.1876140142063, 14.266274873976933], [79.18619043223187, 14.267641788809874], [79.18407158442561, 14.267625651331528], [79.18126027530722, 14.26588203311], [79.1773729946614, 14.266196770334977], [79.17597707193967, 14.26411948197145], [79.17209815560624, 14.26340089739695], [79.1685835286871, 14.261307317375342], [79.16753527659246, 14.259921528294507], [79.16542209505634, 14.259216410389689], [79.1572946591176, 14.259842596505107], [79.15554024551876, 14.258451304341342], [79.14953719688413, 14.258404790022109], [79.14778284815371, 14.257013447668948], [79.14709067936946, 14.255285920074344], [79.14568385192767, 14.254586125641532], [79.14179679087516, 14.254900300027876], [79.13966399343741, 14.256605815905527], [79.13647747236894, 14.257614219191554], [79.13400566211045, 14.257594888067903], [79.13189831600924, 14.25620067760517], [79.12588971703201, 14.256842383457766], [79.11953941129194, 14.256103538250759], [79.11953370124024, 14.256792343666763], [79.12094329406438, 14.257147881213957], [79.12304201765977, 14.25957539127945], [79.1304574777202, 14.259633656643846], [79.13221172203558, 14.261025115819658], [79.1445794381487, 14.260088408615838], [79.1484469065561, 14.262185057196856], [79.15831486782479, 14.264672524523347], [79.16397055789969, 14.264027295294802], [79.16607541774684, 14.265765665376732], [79.1692480693313, 14.26647892570679], [79.17557403983015, 14.270316219731555], [79.1822810188693, 14.270711920393678], [79.18968333334026, 14.272490466585493], [79.19354326919114, 14.275619705419453], [79.19564025389165, 14.278391102863425], [79.19916364278212, 14.27945108913299], [79.20408607198222, 14.282243778512424], [79.20617779006695, 14.285703941286336], [79.20758775771395, 14.286059002797906], [79.21144001885196, 14.290221262604883], [79.21390413635203, 14.291273092678379], [79.21706107986107, 14.29405229684306], [79.21704479186577, 14.296118819551193], [79.22305718206256, 14.29513048597296], [79.22798028434303, 14.297922751316063], [79.2325610824755, 14.29933461023208], [79.2343055670797, 14.302103116879076], [79.23886503411183, 14.306270261686704], [79.24200107456862, 14.31180458785887], [79.24269144257723, 14.313876361624978], [79.24296695289469, 14.323867287711941], [79.2386581810419, 14.332790894764088], [79.23616386327349, 14.335527911557463], [79.23506904941837, 14.339997524508547], [79.2336371048136, 14.342397961615802], [79.23325684135274, 14.34583955093987], [79.23002598458294, 14.352359844022336], [79.22825686452052, 14.352691066842445], [79.2254604476258, 14.348881297470843], [79.22159616000116, 14.34609681812131], [79.21600652289928, 14.338132720710925], [79.21318865282367, 14.337078195517993], [79.21071313534868, 14.337403976371204], [79.207862459386, 14.34048240173816], [79.20538141979688, 14.34149695547753], [79.20217186082584, 14.345261455501657], [79.19933197678742, 14.346962088730017], [79.19895117964562, 14.350403560205645], [79.19964121192749, 14.352475420820838], [79.1981867754239, 14.3576309094781], [79.19640380086236, 14.359683957586995], [79.1953190901755, 14.362775615806866], [79.1914052061169, 14.366190108620005], [79.18890441024277, 14.369615337063943], [79.1825283003781, 14.371633072520883], [79.17757926944321, 14.371939454769425], [79.17402946830842, 14.373978687716608], [79.16943650400962, 14.373943208480737], [79.16732509747746, 14.372893577349869], [79.16378926560701, 14.373210603524406], [79.15845871911306, 14.376957907190706], [79.15738186376306, 14.379016095993277], [79.15348414288727, 14.380363420545129], [79.14992268601695, 14.383779868770059], [79.14884287961317, 14.386182409064205], [79.14528978730894, 14.388565554441355], [79.14420990453645, 14.390968063958073], [79.14136334826831, 14.393356681142768], [79.14028624848255, 14.39541476120776], [79.13920056390741, 14.398506041139916], [79.13987013683021, 14.402988837954203], [79.13771577522758, 14.407104959271946], [79.13696617120198, 14.412265411624501], [79.13590037180987, 14.412945847198245], [79.13307923519028, 14.41223470839221], [79.12636258115, 14.412525924565854], [79.12422804059908, 14.41423108527103], [79.12279442373476, 14.416630641398728], [79.12067136489405, 14.416958168184593], [79.1156982471943, 14.420018301705996], [79.11426160281867, 14.422762186160613], [79.1100008338909, 14.425139028525162], [79.10892618148111, 14.426852511246533], [79.10957770795741, 14.433401694596505], [79.1085000954354, 14.435459564363056], [79.1052962808548, 14.438189182054543], [79.10105557449072, 14.438155055968497], [79.0978545661223, 14.440540162978841], [79.09783114903924, 14.443295306997006], [79.1030883473332, 14.448503949180914], [79.10342131459, 14.450917552146747], [79.10091525840639, 14.454685944041781], [79.10052380068271, 14.459160203750063], [79.09659800179497, 14.46360589966666], [79.09657746442088, 14.466016644243393], [79.09867755645493, 14.468444536388981], [79.11204132963431, 14.476473781682117], [79.11557587893333, 14.476502134084782], [79.11736348524123, 14.474105518909806], [79.12092119267479, 14.47137861316812], [79.12665435256463, 14.46212497622764], [79.1298410331852, 14.461461476038572], [79.13299892699749, 14.464241924353512], [79.13511956511533, 14.464258739314515], [79.1358350647618, 14.463231140307402], [79.13550461316042, 14.460473141154935], [79.13410237801939, 14.459084339711444], [79.13198754642738, 14.458378722857034], [79.13058822716395, 14.45664550532877], [79.1295913202169, 14.449060306169928], [79.13314271650584, 14.447021943805607], [79.13741807230997, 14.442922703659793], [79.13814207670379, 14.440861883390221], [79.1431382975251, 14.435046083036683], [79.15130621380692, 14.43028830641349], [79.15626501351721, 14.428949418107106], [79.15731951296027, 14.429646513623618], [79.15730817985022, 14.43102413400552], [79.15338111475347, 14.435815386324464], [79.15336975236424, 14.4371930029196], [79.15476632347675, 14.439270498629053], [79.15688107946342, 14.439975898936883], [79.16430262034379, 14.44003381967862], [79.17350248133481, 14.438727575850427], [79.18019483197412, 14.441534786491797], [79.18300256440392, 14.443967469669358], [79.18471935145479, 14.450180467664522], [79.18682874991721, 14.451574441938366], [79.18855405128292, 14.4567541964309], [79.19031566979474, 14.457456607641102], [79.19241124632464, 14.460572598005456], [79.19096400869967, 14.464694664654706], [79.19342981822378, 14.465746904730699], [79.19447904658355, 14.467132688029368], [79.19516091423556, 14.470237812977192], [79.1950940984517, 14.478503679174414], [79.1964885158862, 14.480925407164218], [79.19608213291481, 14.487466503922345], [79.19996217594164, 14.488529556466293]], [[79.19454861208239, 14.458522405237945], [79.19068862042174, 14.455048448754896], [79.18860426977277, 14.450554808397754], [79.18614423359895, 14.448813718382238], [79.18547090239754, 14.444675353825508], [79.18407679060047, 14.442253593641105], [79.18056504267017, 14.439471059503015], [79.17668314964853, 14.438752201288391], [79.17422053145204, 14.437355419299838], [79.17068648283407, 14.43732802073674], [79.16855760468974, 14.438344777376093], [79.15618845184972, 14.438248347406262], [79.15514527121023, 14.43617362498902], [79.1590751402072, 14.431037934258566], [79.15909212314479, 14.428971501563227], [79.15768989687447, 14.427582843155074], [79.15450942110849, 14.427557980324076], [79.15025742149166, 14.42890237839308], [79.14102364498682, 14.434340569796184], [79.13709619818113, 14.439131500887193], [79.13601592018574, 14.441533923427565], [79.13209685668029, 14.44529154113765], [79.12926094564368, 14.446302306875452], [79.12712318566112, 14.448351851693593], [79.12639328090533, 14.4511014186016], [79.12671496324825, 14.454892612636796], [79.12600234341305, 14.455575784550252], [79.11894256409316, 14.454486229290996], [79.10730885532689, 14.450948825296868], [79.10592436569787, 14.44749351659647], [79.10136514473893, 14.443323808933235], [79.10102343443147, 14.44194338664766], [79.10244578575653, 14.44092159177184], [79.10597975347412, 14.44095001995568], [79.1095399066407, 14.43787883649476], [79.11169512116518, 14.433763081076137], [79.11172125508973, 14.430663516543447], [79.11102610845916, 14.429280272347901], [79.1113998120136, 14.42687232964081], [79.11459468989713, 14.42517578830624], [79.11816602927779, 14.420726835342247], [79.12100740830873, 14.419027371437632], [79.12384010059871, 14.41836106451797], [79.12598907903244, 14.414933916137691], [79.12740827245787, 14.41425633345118], [79.13022940711956, 14.414967540851823], [79.13235531204012, 14.414295523356792], [79.1365927816767, 14.41467343380638], [79.13872724697175, 14.412968150468943], [79.13912346387411, 14.407804904263973], [79.14163685885667, 14.403002742365082], [79.14096724998971, 14.398519946324246], [79.14205291134348, 14.395428655361185], [79.14561752343545, 14.391667961428247], [79.14633838879513, 14.389951482815302], [79.14989149573914, 14.38756832322825], [79.15133028476697, 14.38447972935342], [79.15382331151207, 14.382088207112847], [79.15772106227752, 14.380740880480031], [79.15986349213635, 14.378002122526674], [79.16448462719171, 14.374593716761789], [79.174724898446, 14.375361778504143], [79.17862802324088, 14.373325256206632], [79.1828704747457, 14.373013431771916], [79.18995600212388, 14.370656682359867], [79.19281562732583, 14.366545311757559], [79.1960146328617, 14.364158656563665], [79.19781419409712, 14.360039127279768], [79.19959716030662, 14.357986067435009], [79.20105431938191, 14.352486151002472], [79.20036702465819, 14.350069877285229], [79.20073954957789, 14.347661648436189], [79.2028674071764, 14.3466444766692], [79.20429694561246, 14.344588683896886], [79.21069947082329, 14.339126066400382], [79.21317500752068, 14.338800287930894], [79.21528637798039, 14.339849500686134], [79.2170308881661, 14.342618137011595], [79.2159438336685, 14.346054355152917], [79.2187727166231, 14.345731184155083], [79.2201721961804, 14.347463893171156], [79.22369135291905, 14.349212488656706], [79.22649587561229, 14.35198901415675], [79.22682475524313, 14.355091442756132], [79.22431916464517, 14.35920596522059], [79.22501488763189, 14.360588940531748], [79.22677864750543, 14.36094659057914], [79.2278493778642, 14.359576839904399], [79.22786293158758, 14.357854736717833], [79.22930046735375, 14.354765513782104], [79.23143370661607, 14.353059235973657], [79.23355341056593, 14.353075044470577], [79.23918442640598, 14.355872490882565], [79.24554633512784, 14.355575236684132], [79.25405469268082, 14.351849180963852], [79.25654102469174, 14.350145253984806], [79.2590379644444, 14.347063589481257], [79.26363591297155, 14.346408413540761], [79.26505963682305, 14.345041046401082], [79.26579004055039, 14.341946362083046], [79.26721901545433, 14.339890119962051], [79.2665336575492, 14.33712953051928], [79.26690280321829, 14.335065540376945], [79.2672613573094, 14.334379263173505], [79.26832114152981, 14.334386999758909], [79.26971833468443, 14.336463882170301], [79.26969719281009, 14.3392193140095], [79.26861622580928, 14.341967010642142], [79.26648069460468, 14.34401809683037], [79.26610622101664, 14.346770938894872], [79.26326670709568, 14.348472391258156], [79.25934867074488, 14.352577011169313], [79.25438395672744, 14.354951614580271], [79.25152821439289, 14.358719454081738], [79.24763391564461, 14.359724013891894], [79.2429953550851, 14.365545192516429], [79.24050606031868, 14.367593366952752], [79.23835385007573, 14.371710672425056], [79.23692979503798, 14.37307783854473], [79.23268188651663, 14.37407948329147], [79.23052946515439, 14.378196691989144], [79.22202249439927, 14.381577316964034], [79.22059010187871, 14.383977620796651], [79.21775253709743, 14.385334011304801], [79.21596673798685, 14.387731615136525], [79.21523817927597, 14.390481621873509], [79.2109706795458, 14.393893741922524], [79.20952984344092, 14.397327201971711], [79.20490051007819, 14.401769752903686], [79.20452786832774, 14.404177972619964], [79.20627814570108, 14.406257886087316], [79.20626988572661, 14.407291131624888], [79.20520703857476, 14.40762749309644], [79.20309788612784, 14.406233713178791], [79.20062435499206, 14.40621488246047], [79.19884925512994, 14.407234657426013], [79.1910114116159, 14.415096723811622], [79.19063302459087, 14.418193722865704], [79.18674029698568, 14.41885271310505], [79.18282242455615, 14.42261132904973], [79.18174271309569, 14.425014031930887], [79.17960560213648, 14.427064137655936], [79.177813440169, 14.430150176882297], [79.17850342426382, 14.432222091834593], [79.18132501683026, 14.432932732991391], [79.18306686541317, 14.436046044675633], [79.18692922105616, 14.439175668889831], [79.19080282348453, 14.440927596704512], [79.19503824342753, 14.441648938849882], [79.19255042476213, 14.443352035957584], [79.19253095084126, 14.445762916235951], [79.19426470266204, 14.449909406627304], [79.19459032935569, 14.453356232388709], [79.19599017491358, 14.455089125834244], [79.19631860525081, 14.458191539946364], [79.19454861208239, 14.458522405237945]], [[79.23958347532765, 14.350019925118827], [79.2406782747316, 14.34555029023682], [79.2428381905719, 14.340399649820817], [79.2442646652289, 14.338687992674519], [79.24500871517797, 14.333871278227587], [79.24679105818235, 14.33181778559932], [79.247516291763, 14.329412028116293], [79.24928788607991, 14.328736211353858], [79.2499863708634, 14.32977469791509], [79.24995431040855, 14.333907804245623], [79.25204449331133, 14.337712110516057], [79.25450134390103, 14.33979687485365], [79.25693427096977, 14.344981456830292], [79.25691828797603, 14.34704801522825], [79.2537120855267, 14.350468875667408], [79.24733690865357, 14.352488489275148], [79.24449720243827, 14.354189691695968], [79.23990715531937, 14.35381120242093], [79.23958347532765, 14.350019925118827]], [[79.24686864828146, 14.321829457930749], [79.24794974276502, 14.319081875016131], [79.24935733777272, 14.319781145044029], [79.2493439854072, 14.321503273729636], [79.24863216640638, 14.322186915765831], [79.24686864828146, 14.321829457930749]], [[79.22378519868822, 14.292380387616483], [79.22484746343561, 14.292043873598407], [79.22484476119716, 14.292388295596368], [79.22378519868822, 14.292380387616483]]], [[[79.16442118413346, 14.425568751210808], [79.17118609415411, 14.419421555977012], [79.17721310468433, 14.417057167840365], [79.18291174703519, 14.411590195695426], [79.18503751998476, 14.410917680777002], [79.18752777801363, 14.408870211625487], [79.1918042206989, 14.404425356353196], [79.1932426015031, 14.401336456063518], [79.20072097609508, 14.39416038166793], [79.20789497456019, 14.38078184283129], [79.20827848927382, 14.376995938990687], [79.21006974618533, 14.373909557101118], [79.2100971521913, 14.370465388054019], [79.20904545684263, 14.369424121505862], [79.20692562734014, 14.369408076029965], [79.1984104774226, 14.373821095821953], [79.19487185283947, 14.37448300404689], [79.19131382261794, 14.37755574940531], [79.1845146249475, 14.388181106534702], [79.18024398406503, 14.391937033674811], [79.17699407163177, 14.400522781754283], [79.17592843137203, 14.401203419780503], [79.17448982622638, 14.404292186772162], [79.16985972267022, 14.408733950256412], [79.16589672812555, 14.418002791695004], [79.1605678797502, 14.421405601424306], [79.15984415860721, 14.42346652589484], [79.16124355109422, 14.425199576489922], [79.16442118413346, 14.425568751210808]], [[79.16232911990252, 14.422108180925699], [79.1676607794937, 14.418360922958373], [79.17126754526589, 14.40943371658414], [79.17447021325742, 14.406703050767831], [79.17840187339402, 14.401222502546407], [79.18165174780628, 14.392636730438365], [79.18592238303502, 14.38888077686299], [79.1934364777587, 14.37722753000178], [79.1959234956249, 14.375524328302644], [79.19839944165865, 14.375198754314995], [79.20797456814176, 14.370793767407319], [79.20867569735603, 14.371487948718924], [79.20865649726083, 14.373898865073542], [79.2068652223502, 14.376985234023874], [79.2064816841442, 14.380771132817989], [79.20433973983086, 14.38351037623521], [79.20289338400619, 14.387632624895447], [79.20146902641518, 14.38899953923404], [79.19931036858951, 14.39380520480194], [79.19183196758934, 14.400981230862387], [79.19003743764338, 14.404411825688932], [79.18505145279967, 14.409195625578228], [79.18186002336057, 14.41054880382484], [79.1772271037631, 14.415335121047002], [79.16942483807019, 14.418719041683719], [79.16514487411203, 14.423507808858307], [79.16231499952741, 14.423830212340333], [79.16232911990252, 14.422108180925699]]]]}}, {"type": "Feature", "properties": {"depth_class": 2, "depth_lo_m": 1.0, "t_s": 65700.51383125616}, "geometry": {"type": "MultiPolygon", "coordinates": [[[[79.02027459039152, 14.219826087145787], [79.02065159775512, 14.21707394186038], [79.01960750057071, 14.215343252802397], [79.01819839683871, 14.214987168333762], [79.01610126561869, 14.2125589214722], [79.01291806577964, 14.213221304854397], [79.01254398765876, 14.215629045399083], [79.01324101536012, 14.216668060368143], [79.01641525626744, 14.217038827487833], [79.01815339219868, 14.220152915754356], [79.02027459039152, 14.219826087145787]], [[79.01430610767282, 14.21598809505003], [79.013974124304, 14.213574486052321], [79.01644227872582, 14.213939381788796], [79.0164272670522, 14.215661296171254], [79.01430610767282, 14.21598809505003]]], [[[79.15890271052439, 14.235744762761133], [79.1578741660003, 14.231948073218977], [79.1561087649173, 14.231934450296858], [79.156100381072, 14.232967682060588], [79.15890271052439, 14.235744762761133]]], [[[79.081173141624, 14.241332321110304], [79.08331196512026, 14.238938571079752], [79.08475040425927, 14.235850339677373], [79.08476782352267, 14.233783961502166], [79.08371733209553, 14.232742275542826], [79.08194909323745, 14.23307249975079], [79.07768607369903, 14.236137988239372], [79.07765109757193, 14.240270726184372], [79.07940483298951, 14.241662517378431], [79.081173141624, 14.241332321110304]], [[79.07908670771496, 14.23752693510326], [79.0801575696389, 14.236157873678428], [79.0819229262152, 14.236172061922813], [79.08191129440726, 14.2375496448375], [79.08048444823977, 14.239260271119985], [79.07942522056187, 14.239251751550986], [79.07908670771496, 14.23752693510326]]], [[[79.03486676209809, 14.24715495376699], [79.0334604150932, 14.246454546198297], [79.0330924167534, 14.248173562985087], [79.03450175466527, 14.248529588185537], [79.03486676209809, 14.24715495376699]]], [[[79.02593195250584, 14.259479903876935], [79.02630303036523, 14.257416525317973], [79.02383138253299, 14.257396052775857], [79.02416947409795, 14.259120895213629], [79.02593195250584, 14.259479903876935]]], [[[79.22484746343561, 14.292043873598407], [79.22378519868822, 14.292380387616483], [79.22484476119716, 14.292388295596368], [79.22484746343561, 14.292043873598407]]], [[[79.20566069232594, 14.30636637662536], [79.20639169958618, 14.303271944632371], [79.20462843048256, 14.302914197331662], [79.20355788282053, 14.304283864214044], [79.20354419670437, 14.306005952262131], [79.20389192761384, 14.306697456582903], [79.20566069232594, 14.30636637662536]]], [[[79.248988076445, 14.321845095080596], [79.24935733777272, 14.319781145044029], [79.24794974276502, 14.319081875016131], [79.24688201983827, 14.320107331581436], [79.24686864828146, 14.321829457930749], [79.248988076445, 14.321845095080596]]], [[[79.22214500943619, 14.366078456692696], [79.2210851025152, 14.366070496764218], [79.22072635402398, 14.36675668055774], [79.22178354231598, 14.36710906172428], [79.22214500943619, 14.366078456692696]]], [[[79.19633249888217, 14.456469480860164], [79.19459032935569, 14.453356232388709], [79.19426470266204, 14.449909406627304], [79.19253095084126, 14.445762916235951], [79.19255042476213, 14.443352035957584], [79.19503824342753, 14.441648938849882], [79.19080282348453, 14.440927596704512], [79.18692922105616, 14.439175668889831], [79.18306686541317, 14.436046044675633], [79.18132501683026, 14.432932732991391], [79.17991141879148, 14.432921825773162], [79.17780223265352, 14.43152781306395], [79.17817243701025, 14.429464088820966], [79.18245786812001, 14.423986247824311], [79.18282242455615, 14.42261132904973], [79.18674029698568, 14.41885271310505], [79.19063302459087, 14.418193722865704], [79.1910114116159, 14.415096723811622], [79.19884925512994, 14.407234657426013], [79.20062435499206, 14.40621488246047], [79.20309788612784, 14.406233713178791], [79.20520703857476, 14.40762749309644], [79.20626988572661, 14.407291131624888], [79.20627814570108, 14.406257886087316], [79.20452786832774, 14.404177972619964], [79.20490051007819, 14.401769752903686], [79.20952984344092, 14.397327201971711], [79.2109706795458, 14.393893741922524], [79.21523817927597, 14.390481621873509], [79.21596673798685, 14.387731615136525], [79.21775253709743, 14.385334011304801], [79.22059010187871, 14.383977620796651], [79.22202249439927, 14.381577316964034], [79.23052946515439, 14.378196691989144], [79.23268188651663, 14.37407948329147], [79.23692979503798, 14.37307783854473], [79.23835385007573, 14.371710672425056], [79.24050606031868, 14.367593366952752], [79.2429953550851, 14.365545192516429], [79.24763391564461, 14.359724013891894], [79.25152821439289, 14.358719454081738], [79.25438395672744, 14.354951614580271], [79.25934867074488, 14.352577011169313], [79.26326670709568, 14.348472391258156], [79.26610622101664, 14.346770938894872], [79.26648069460468, 14.34401809683037], [79.26861622580928, 14.341967010642142], [79.26969719281009, 14.3392193140095], [79.26971833468443, 14.336463882170301], [79.26832114152981, 14.334386999758909], [79.2672613573094, 14.334379263173505], [79.26690280321829, 14.335065540376945], [79.2665336575492, 14.33712953051928], [79.26721901545433, 14.339890119962051], [79.26579004055039, 14.341946362083046], [79.26505963682305, 14.345041046401082], [79.26363591297155, 14.346408413540761], [79.2590379644444, 14.347063589481257], [79.25654102469174, 14.350145253984806], [79.25405469268082, 14.351849180963852], [79.24554633512784, 14.355575236684132], [79.23918442640598, 14.355872490882565], [79.23355341056593, 14.353075044470577], [79.23143370661607, 14.353059235973657], [79.22930046735375, 14.354765513782104], [79.22786293158758, 14.357854736717833], [79.2278493778642, 14.359576839904399], [79.22677864750543, 14.36094659057914], [79.22501488763189, 14.360588940531748], [79.22431916464517, 14.35920596522059], [79.22682475524313, 14.355091442756132], [79.22649587561229, 14.35198901415675], [79.22369135291905, 14.349212488656706], [79.2201721961804, 14.347463893171156], [79.2187727166231, 14.345731184155083], [79.2159438336685, 14.346054355152917], [79.2170308881661, 14.342618137011595], [79.21528637798039, 14.339849500686134], [79.21317500752068, 14.338800287930894], [79.21069947082329, 14.339126066400382], [79.20429694561246, 14.344588683896886], [79.2028674071764, 14.3466444766692], [79.20073954957789, 14.347661648436189], [79.20036702465819, 14.350069877285229], [79.20105431938191, 14.352486151002472], [79.19959716030662, 14.357986067435009], [79.19781419409712, 14.360039127279768], [79.1960146328617, 14.364158656563665], [79.19281562732583, 14.366545311757559], [79.18995600212388, 14.370656682359867], [79.1828704747457, 14.373013431771916], [79.17862802324088, 14.373325256206632], [79.174724898446, 14.375361778504143], [79.16448462719171, 14.374593716761789], [79.15986349213635, 14.378002122526674], [79.15772106227752, 14.380740880480031], [79.15382331151207, 14.382088207112847], [79.15133028476697, 14.38447972935342], [79.14989149573914, 14.38756832322825], [79.14633838879513, 14.389951482815302], [79.14561752343545, 14.391667961428247], [79.14205291134348, 14.395428655361185], [79.14096724998971, 14.398519946324246], [79.14163685885667, 14.403002742365082], [79.13912346387411, 14.407804904263973], [79.13872724697175, 14.412968150468943], [79.1365927816767, 14.41467343380638], [79.13235531204012, 14.414295523356792], [79.13022940711956, 14.414967540851823], [79.12740827245787, 14.41425633345118], [79.12598907903244, 14.414933916137691], [79.12384010059871, 14.41836106451797], [79.12100740830873, 14.419027371437632], [79.11816602927779, 14.420726835342247], [79.11459468989713, 14.42517578830624], [79.1113998120136, 14.42687232964081], [79.11102610845916, 14.429280272347901], [79.11172125508973, 14.430663516543447], [79.11169512116518, 14.433763081076137], [79.1095399066407, 14.43787883649476], [79.10597975347412, 14.44095001995568], [79.10244578575653, 14.44092159177184], [79.10102343443147, 14.44194338664766], [79.10136514473893, 14.443323808933235], [79.10592436569787, 14.44749351659647], [79.10730885532689, 14.450948825296868], [79.11894256409316, 14.454486229290996], [79.12600234341305, 14.455575784550252], [79.12671496324825, 14.454892612636796], [79.12639328090533, 14.4511014186016], [79.12712318566112, 14.448351851693593], [79.12926094564368, 14.446302306875452], [79.13209685668029, 14.44529154113765], [79.13601592018574, 14.441533923427565], [79.13709619818113, 14.439131500887193], [79.14102364498682, 14.434340569796184], [79.15025742149166, 14.42890237839308], [79.15450942110849, 14.427557980324076], [79.15768989687447, 14.427582843155074], [79.15909212314479, 14.428971501563227], [79.1590751402072, 14.431037934258566], [79.15514527121023, 14.43617362498902], [79.15618845184972, 14.438248347406262], [79.16855760468974, 14.438344777376093], [79.17068648283407, 14.43732802073674], [79.17422053145204, 14.437355419299838], [79.17668314964853, 14.438752201288391], [79.18056504267017, 14.439471059503015], [79.18407679060047, 14.442253593641105], [79.18547090239754, 14.444675353825508], [79.18614423359895, 14.448813718382238], [79.18860426977277, 14.450554808397754], [79.19068862042174, 14.455048448754896], [79.19454861208239, 14.458522405237945], [79.19631860525081, 14.458191539946364], [79.19633249888217, 14.456469480860164]], [[79.16194749307182, 14.425549490353507], [79.15984415860721, 14.42346652589484], [79.1605678797502, 14.421405601424306], [79.16589672812555, 14.418002791695004], [79.16985972267022, 14.408733950256412], [79.17448982622638, 14.404292186772162], [79.17592843137203, 14.401203419780503], [79.17699407163177, 14.400522781754283], [79.18024398406503, 14.391937033674811], [79.1845146249475, 14.388181106534702], [79.19131382261794, 14.37755574940531], [79.19487185283947, 14.37448300404689], [79.1984104774226, 14.373821095821953], [79.20692562734014, 14.369408076029965], [79.20904545684263, 14.369424121505862], [79.2100971521913, 14.370465388054019], [79.21006974618533, 14.373909557101118], [79.20827848927382, 14.376995938990687], [79.20789497456019, 14.38078184283129], [79.1996499048932, 14.395529967564011], [79.1932426015031, 14.401336456063518], [79.1918042206989, 14.404425356353196], [79.1896646313101, 14.406820002357039], [79.18503751998476, 14.410917680777002], [79.18291174703519, 14.411590195695426], [79.17863499371434, 14.416034850633213], [79.17118609415411, 14.419421555977012], [79.16548415828092, 14.42523259110906], [79.16194749307182, 14.425549490353507]], [[79.1828698865379, 14.416756353301555], [79.18323442328975, 14.41538143141854], [79.19106418829051, 14.408552893250773], [79.19535994709587, 14.401697072395834], [79.20212607441593, 14.395204380098825], [79.20464353441496, 14.389712536524902], [79.20642671309616, 14.387659450197937], [79.20715811063118, 14.384565065428411], [79.20930003531626, 14.381825793890094], [79.2100450745654, 14.377009308344498], [79.21183083230633, 14.374611744633288], [79.2118664254691, 14.370134320607931], [79.21082019991766, 14.368404226840859], [79.2094124666027, 14.36770470950031], [79.20587669899224, 14.368022381348405], [79.19771765609038, 14.37209364341441], [79.18957220631688, 14.374442523714718], [79.19421776218975, 14.367933749097524], [79.19634860553728, 14.366572248935476], [79.19884650214782, 14.363491338818736], [79.20245643411624, 14.353874536819475], [79.2024949076183, 14.349052711908204], [79.2049815309583, 14.347349366900886], [79.20677254438156, 14.344262980486553], [79.2099656097948, 14.342564913900583], [79.21139232591429, 14.340853485169912], [79.21351189195155, 14.340869459565775], [79.21456349305969, 14.341910695600912], [79.21454985346115, 14.343632788610234], [79.2127671395169, 14.34568599241677], [79.21239747899759, 14.347749837839293], [79.21697094022805, 14.350195354064766], [79.22191681839116, 14.350232505585883], [79.22437618999999, 14.351973143731708], [79.22506375421588, 14.35438937791357], [79.2225635805112, 14.357815039850724], [79.22218853510897, 14.360567745691961], [79.22569975914502, 14.36334959510884], [79.2285342835674, 14.362337490144178], [79.22963209337642, 14.357523521699882], [79.23177076739654, 14.355128401064391], [79.23740719612813, 14.357237047837401], [79.24199730240666, 14.357615592943196], [79.24588352904485, 14.35764439649887], [79.25084569933601, 14.355614413674088], [79.25047902936969, 14.357333930103108], [79.24694072914785, 14.357996665179083], [79.24053029564958, 14.36449356188536], [79.23838890808663, 14.367233182697088], [79.23658997905464, 14.371353097187939], [79.23163276727925, 14.372693882535275], [79.22912702353314, 14.376808437691125], [79.22061736675978, 14.380533434851083], [79.21847558186298, 14.383272826561328], [79.21563528220705, 14.384973608904751], [79.21347422209944, 14.390123862043964], [79.20992162813985, 14.392508051779911], [79.20705365139268, 14.397652865528036], [79.20313924927306, 14.401067493099108], [79.20205435789545, 14.404159159497066], [79.19851248336533, 14.405165480041788], [79.19103363660778, 14.412341427197624], [79.19032689853887, 14.412336011302834], [79.187472113033, 14.415758440510196], [79.1839272205842, 14.417108922893657], [79.1828698865379, 14.416756353301555]], [[79.16114709068017, 14.393855837514069], [79.16152861498942, 14.390414515703524], [79.16224090765948, 14.389731195144094], [79.16365140433741, 14.390086583545266], [79.16434961879118, 14.391125293821842], [79.1636119825129, 14.39490828747037], [79.16183684461402, 14.395927775868332], [79.16114709068017, 14.393855837514069]]]]}}, {"type": "Feature", "properties": {"depth_class": 3, "depth_lo_m": 2.0, "t_s": 65700.51383125616}, "geometry": {"type": "MultiPolygon", "coordinates": [[[[79.01360606965545, 14.215293465045868], [79.0164272670522, 14.215661296171254], [79.01644227872582, 14.213939381788796], [79.013974124304, 14.213574486052321], [79.01360606965545, 14.215293465045868]]], [[[79.07942522056187, 14.239251751550986], [79.08191129440726, 14.2375496448375], [79.0819229262152, 14.236172061922813], [79.0801575696389, 14.236157873678428], [79.07908670771496, 14.23752693510326], [79.07942522056187, 14.239251751550986]]], [[[79.1828698865379, 14.416756353301555], [79.187472113033, 14.415758440510196], [79.19032689853887, 14.412336011302834], [79.19103363660778, 14.412341427197624], [79.19851248336533, 14.405165480041788], [79.20205435789545, 14.404159159497066], [79.20313924927306, 14.401067493099108], [79.20705365139268, 14.397652865528036], [79.20992162813985, 14.392508051779911], [79.21347422209944, 14.390123862043964], [79.21563528220705, 14.384973608904751], [79.21847558186298, 14.383272826561328], [79.22061736675978, 14.380533434851083], [79.22912702353314, 14.376808437691125], [79.23163276727925, 14.372693882535275], [79.23658997905464, 14.371353097187939], [79.23838890808663, 14.367233182697088], [79.24053029564958, 14.36449356188536], [79.24694072914785, 14.357996665179083], [79.25047902936969, 14.357333930103108], [79.25084569933601, 14.355614413674088], [79.24588352904485, 14.35764439649887], [79.24199730240666, 14.357615592943196], [79.23740719612813, 14.357237047837401], [79.23177076739654, 14.355128401064391], [79.22963209337642, 14.357523521699882], [79.2285342835674, 14.362337490144178], [79.22569975914502, 14.36334959510884], [79.22218853510897, 14.360567745691961], [79.2225635805112, 14.357815039850724], [79.22506375421588, 14.35438937791357], [79.22437618999999, 14.351973143731708], [79.22191681839116, 14.350232505585883], [79.21697094022805, 14.350195354064766], [79.21239747899759, 14.347749837839293], [79.2127671395169, 14.34568599241677], [79.21454985346115, 14.343632788610234], [79.21456349305969, 14.341910695600912], [79.21351189195155, 14.340869459565775], [79.21139232591429, 14.340853485169912], [79.2099656097948, 14.342564913900583], [79.20677254438156, 14.344262980486553], [79.2049815309583, 14.347349366900886], [79.2024949076183, 14.349052711908204], [79.20245643411624, 14.353874536819475], [79.19884650214782, 14.363491338818736], [79.19634860553728, 14.366572248935476], [79.19421776218975, 14.367933749097524], [79.18957220631688, 14.374442523714718], [79.19771765609038, 14.37209364341441], [79.20693935083226, 14.367685993957956], [79.2094124666027, 14.36770470950031], [79.21117076561525, 14.368751313625975], [79.2118664254691, 14.370134320607931], [79.21183083230633, 14.374611744633288], [79.2100450745654, 14.377009308344498], [79.20930003531626, 14.381825793890094], [79.20715811063118, 14.384565065428411], [79.20642671309616, 14.387659450197937], [79.20464353441496, 14.389712536524902], [79.20212607441593, 14.395204380098825], [79.19535994709587, 14.401697072395834], [79.19106418829051, 14.408552893250773], [79.18323442328975, 14.41538143141854], [79.1828698865379, 14.416756353301555]], [[79.22072635402398, 14.36675668055774], [79.2210851025152, 14.366070496764218], [79.22214500943619, 14.366078456692696], [79.22178354231598, 14.36710906172428], [79.22072635402398, 14.36675668055774]]]]}}]}