{"type": "FeatureCollection", "features": [{"type": "Feature", "properties": {"depth_class": 1, "depth_lo_m": 0.3, "t_s": 47700.65478913599}, "geometry": {"type": "MultiPolygon", "coordinates": [[[[79.01317181977129, 14.224588847114543], [79.01637921620154, 14.22117142042738], [79.0195505306757, 14.221886537873932], [79.02168672354301, 14.21983777971867], [79.02171966913033, 14.216049556950844], [79.02102559621225, 14.214666178048029], [79.01646329169536, 14.211528701211513], [79.01293009436576, 14.211843776031177], [79.01150297172912, 14.213553947723556], [79.01148190310485, 14.215964620613429], [79.01217892634699, 14.21700363815606], [79.01144276519125, 14.220441583183506], [79.01317181977129, 14.224588847114543]], [[79.01815339219868, 14.220152915754356], [79.01641525626744, 14.217038827487833], [79.01324101536012, 14.216668060368143], [79.01254398765876, 14.215629045399083], [79.01291806577964, 14.213221304854397], [79.01610126561869, 14.2125589214722], [79.01819839683871, 14.214987168333762], [79.01995752948092, 14.215690560402804], [79.02064860126119, 14.217418325548406], [79.02027459039152, 14.219826087145787], [79.01815339219868, 14.220152915754356]]], [[[79.16097103768853, 14.241960492584555], [79.16141054658739, 14.231286456682], [79.16424353546628, 14.230274946805665], [79.16390993123291, 14.22786134759165], [79.16250598243334, 14.22681725309217], [79.16074340297509, 14.226459257530584], [79.15898919719153, 14.225068015579426], [79.15722384841197, 14.225054407334662], [79.15543614648841, 14.227796071131706], [79.15331770701934, 14.227779705115275], [79.15189701514774, 14.228802013680765], [79.15221368698735, 14.233282073302131], [79.15572493499282, 14.235720239400475], [79.15673947518127, 14.24123898722351], [79.15814347395816, 14.242283121995076], [79.16097103768853, 14.241960492584555]], [[79.15890271052439, 14.235744762761133], [79.156100381072, 14.232967682060588], [79.1561087649173, 14.231934450296858], [79.1582244551067, 14.232295207249601], [79.15890271052439, 14.235744762761133]]], [[[79.0793873548928, 14.243728887678136], [79.08293272458654, 14.242035298481827], [79.08615398699949, 14.236894853721072], [79.08653026609687, 14.234142510108619], [79.0847881424665, 14.231373186487032], [79.08196362775256, 14.231350520399044], [79.07805953813532, 14.233730065580076], [79.07591780487103, 14.236468163242238], [79.07203403165892, 14.236436833618454], [79.0705924991548, 14.239869359333866], [79.06776790249398, 14.23984651209543], [79.06775911203559, 14.240879690349226], [79.06881248251904, 14.241577048503595], [79.0716400269483, 14.241255492590108], [79.0726934132219, 14.241952835308775], [79.0765772822349, 14.24198416607927], [79.0793873548928, 14.243728887678136]], [[79.07869867410847, 14.241656834057089], [79.07730385182289, 14.239579093053658], [79.07768898787008, 14.23579359334238], [79.08230506650045, 14.23273093927216], [79.0840703986884, 14.232745108307421], [79.08510928155698, 14.235164378694286], [79.08223819679111, 14.240652042794586], [79.08081715168525, 14.241673877762336], [79.07869867410847, 14.241656834057089]]], [[[79.11821835883717, 14.245071512487145], [79.12036827828598, 14.241299773694987], [79.1203882306469, 14.238888950273804], [79.11829540661789, 14.235772633775452], [79.11653001572947, 14.235758714744671], [79.11401843811802, 14.240560836186502], [79.11400413678402, 14.242282846396957], [79.11680598822896, 14.245060370735448], [79.11821835883717, 14.245071512487145]]], [[[79.02768245692721, 14.261216435854251], [79.02876570278754, 14.258470124908133], [79.02702119820533, 14.256044834396468], [79.02420247308895, 14.255332679175918], [79.02207192835726, 14.256692648188968], [79.0220509053966, 14.259103327882938], [79.02380137369316, 14.260839884221653], [79.02768245692721, 14.261216435854251]], [[79.02383138253299, 14.257396052775857], [79.02559984263743, 14.257066295060401], [79.02664413778716, 14.25879698293623], [79.02487266498778, 14.259471130173212], [79.02381937995807, 14.258773585480736], [79.02383138253299, 14.257396052775857]]], [[[79.04850358252169, 14.262765450493285], [79.0502809583138, 14.261402344886147], [79.04994858448835, 14.25898873681769], [79.04713564590745, 14.257588063052104], [79.04572028911859, 14.257920878537409], [79.04464021144337, 14.260322905932176], [79.04497846673935, 14.262047739314534], [79.04567873810072, 14.262742305634553], [79.04850358252169, 14.262765450493285]]], [[[79.08205190822744, 14.262693345098118], [79.08347309294126, 14.26167152026909], [79.08349346713261, 14.259260752706338], [79.08279307445079, 14.258566284081496], [79.08067443677503, 14.258549238154322], [79.07818518574358, 14.260595693401529], [79.07852953974337, 14.26163172281381], [79.080286345286, 14.262679131955288], [79.08205190822744, 14.262693345098118]]], [[[79.09396800441786, 14.273465963502773], [79.09467426862636, 14.273471613981144], [79.094680061191, 14.272782819462263], [79.0939737991265, 14.272777169267746], [79.09396800441786, 14.273465963502773]]], [[[79.10381825341616, 14.27802206717275], [79.10276171529125, 14.277669229948954], [79.10204966246354, 14.278352399022232], [79.10203523060076, 14.280074391835095], [79.10415697921856, 14.279746873937343], [79.10381825341616, 14.27802206717275]]], [[[79.19978922455148, 14.466140076350428], [79.20334870995873, 14.463067374905558], [79.20444226880502, 14.458942508268162], [79.20268611992644, 14.457551370392617], [79.19880657903377, 14.456488420871262], [79.19636583611656, 14.45233653797437], [79.19637972351401, 14.450614477989154], [79.19463758896464, 14.44750123361601], [79.19430362121224, 14.445087642615864], [79.19501879869443, 14.444059822796543], [79.19785448114838, 14.443048226475133], [79.19787112089055, 14.440981751136087], [79.19611514634505, 14.439590583283545], [79.19046333084478, 14.439202827418367], [79.18764719564389, 14.437803461993157], [79.18413825276417, 14.434676572915262], [79.18414663120025, 14.433643342419842], [79.1823991915495, 14.431218858400484], [79.18028160800289, 14.43085809643896], [79.18029559747943, 14.429136048704764], [79.18601403055993, 14.421258158520581], [79.1874359149973, 14.420235787021166], [79.19132032967286, 14.420610023786008], [79.19274218934473, 14.41958761693658], [79.19277550400834, 14.415454669366092], [79.19990105335842, 14.408275981252423], [79.2020267614704, 14.407603303522547], [79.20554387420697, 14.409696668111792], [79.20802570379279, 14.408682205446253], [79.20840107195914, 14.405929561999042], [79.20629741642416, 14.403846979464118], [79.20630567421236, 14.402813733610408], [79.21058165620387, 14.398368479408418], [79.21237857302863, 14.394593268054164], [79.21664606903484, 14.391181121831993], [79.21773341506832, 14.387744936830806], [79.21915767669051, 14.386377911966797], [79.22128313273407, 14.385705029129523], [79.22378368585565, 14.382279426281071], [79.23193463264809, 14.379240518998927], [79.23444036104637, 14.375125932124783], [79.2376256326776, 14.374460789030502], [79.23904699727896, 14.37343804169246], [79.2404818192009, 14.370693171170162], [79.24546581063427, 14.365907952612101], [79.24868309103499, 14.361109549489473], [79.25222411305715, 14.360102368387542], [79.25472123314049, 14.35702077101586], [79.26004460568515, 14.35395990645842], [79.26325077810907, 14.350538956028371], [79.26573173436635, 14.34952377873026], [79.26786732971566, 14.347472706827512], [79.26823913795937, 14.345064288356136], [79.2703773087423, 14.342668756855096], [79.27145825959273, 14.3399210503151], [79.2718326475232, 14.337168189664588], [79.2700927328154, 14.333711025242874], [79.2701085796692, 14.331644450035736], [79.27189860962166, 14.328557451714449], [79.27262884181054, 14.325462725697143], [79.27936157625084, 14.322756013712535], [79.28115140294847, 14.319668921316628], [79.2832813231727, 14.318306522346594], [79.28472043815148, 14.31487240693638], [79.28476750473392, 14.308672622492944], [79.28657279202253, 14.303518867114224], [79.28661194099571, 14.298352370361512], [79.28838841112727, 14.296987352573325], [79.28594467341787, 14.293180782970603], [79.28633960742567, 14.287672393445503], [79.28529568730953, 14.285598161950157], [79.28214312888217, 14.282130913915438], [79.27826598297118, 14.281069553532452], [79.27123131635913, 14.277229629424273], [79.2691149129762, 14.276869807143289], [79.26666116003962, 14.274440815332767], [79.26101577540814, 14.273710770079328], [79.25962163316072, 14.271289449846899], [79.25716539847231, 14.269204806169213], [79.25683608028112, 14.266102364957488], [79.25579252181873, 14.2640280422006], [79.25687579988343, 14.260935933395643], [79.2569102106796, 14.256458357480172], [79.25409836430168, 14.254715548240464], [79.25270174124682, 14.252638633886223], [79.25128921786671, 14.252628282463954], [79.25022185799801, 14.253653796956733], [79.24984481305512, 14.256751055511932], [79.25265664408732, 14.258493913802539], [79.25228492491617, 14.260902321906292], [79.25085640983266, 14.262958528417832], [79.25083780926614, 14.265369521929108], [79.25328597779577, 14.268487504100293], [79.25326739555416, 14.27089849963427], [79.25255310855594, 14.271926603413359], [79.25149362590999, 14.2719188296942], [79.24763016855152, 14.269134870874215], [79.24373211432987, 14.270828400259735], [79.24372410602454, 14.271861678620056], [79.24512340556875, 14.273594220248714], [79.24579238956814, 14.278421391930799], [79.24965596550658, 14.281205394028373], [79.25071549053197, 14.281213180869766], [79.25357011029563, 14.277445217983788], [79.25710446190617, 14.277126662681104], [79.26027241216391, 14.278527619122228], [79.26096288883842, 14.280599352826673], [79.2623676647936, 14.28164295456773], [79.26378301821153, 14.28130883135872], [79.26449729292193, 14.280280692222647], [79.26908332486327, 14.281002974000597], [79.27576749502148, 14.28449597986577], [79.27859035780214, 14.284860861281302], [79.28280246577734, 14.288335801624212], [79.28277110115496, 14.29246899440716], [79.28381240814923, 14.294887669592407], [79.28378888821788, 14.297987564264782], [79.2816303837479, 14.303138746074291], [79.2812012044151, 14.313124719232862], [79.27977254537771, 14.315181083269009], [79.27728677696282, 14.316885321662475], [79.27620340812378, 14.31997751085292], [79.27407606855621, 14.320995409329234], [79.26983717399511, 14.320964565608438], [79.26770715984908, 14.322326831745452], [79.26446176676224, 14.330914327481057], [79.26509939718127, 14.339874626407191], [79.26330651845906, 14.343305977683942], [79.26118155875781, 14.34397930006302], [79.2559517055199, 14.334985298523259], [79.25529313067037, 14.328780427222814], [79.25391477095752, 14.324292493863219], [79.25181665155979, 14.321521489062132], [79.25115285343385, 14.316005469377147], [79.25010917454856, 14.313931109693808], [79.25049440524614, 14.30980059658388], [79.24244267778832, 14.300441180120169], [79.24000509941783, 14.29594537311015], [79.22805312012194, 14.288623342166304], [79.22525466946169, 14.285158065002527], [79.21855246162127, 14.284074674799562], [79.21539562164412, 14.281295502268348], [79.20448839150276, 14.276046908813655], [79.20308668729747, 14.274658581360278], [79.20311127098852, 14.271558815321892], [79.20241043365905, 14.270864650214245], [79.1985203150554, 14.271524143579057], [79.19432093768911, 14.26667022398135], [79.18940446950238, 14.263188550980715], [79.1876580636508, 14.260764221511202], [79.18697382783532, 14.258003525167885], [79.18487160501095, 14.255920912687069], [79.18171558310162, 14.253141382086266], [79.17574027373203, 14.24965140484978], [79.17469201889178, 14.248265647175035], [79.17046859446526, 14.24651112744483], [79.16801353289243, 14.244425687892592], [79.16166607794455, 14.243343578197699], [79.16163819011174, 14.246787691230212], [79.15915808339682, 14.247801867279591], [79.15879380290137, 14.249176785272187], [79.15949443185315, 14.249871056031205], [79.16338141788869, 14.24955657956885], [79.16443517373547, 14.25025355591275], [79.17079394461767, 14.249957964404805], [79.1732379977991, 14.25342103792563], [79.17641051596532, 14.25413418564213], [79.17886852438652, 14.255875144554661], [79.17886022947675, 14.256908387460845], [79.17635790611448, 14.260678047759697], [79.1738860067263, 14.260659125943171], [79.17037417758755, 14.258221162336904], [79.16614505172907, 14.257155372995479], [79.16544716556965, 14.25611670532603], [79.16403468823079, 14.256105834770926], [79.16225235131213, 14.25815870127163], [79.15836521706173, 14.25847314120359], [79.15802328293437, 14.257092772499892], [79.16015876128078, 14.25504266553094], [79.16228025302142, 14.254714590321742], [79.16439338107347, 14.255419730140476], [79.16510797426082, 14.25439193007735], [79.16476878652044, 14.252667154728291], [79.16406813190822, 14.251972896648343], [79.1605342160907, 14.252290102800938], [79.15878262647283, 14.250554427707351], [79.1513561207847, 14.251874715298847], [79.15068077175884, 14.24808074168664], [79.14856214887638, 14.248064310634124], [79.14749440554417, 14.249089313396654], [79.1474719144982, 14.25184458049426], [79.14605103629633, 14.252866830883294], [79.142517115068, 14.253183765180536], [79.13720067409947, 14.25555330051351], [79.13366954833185, 14.255525691399638], [79.13120627584924, 14.25447311877539], [79.12872882580832, 14.255142546357229], [79.12413839437946, 14.255106482322606], [79.12061586102371, 14.25404547178552], [79.1156695065831, 14.254350866762913], [79.11320921763618, 14.252953718267149], [79.10898058526337, 14.251886958739412], [79.1044161623259, 14.248750924033887], [79.10018190214555, 14.248372821167111], [79.09912838820452, 14.247675585936], [79.0878323546871, 14.247240901864052], [79.08255055942837, 14.245476418841328], [79.07901970231052, 14.2454480204525], [79.07548009405961, 14.246452752381067], [79.07122258076372, 14.24882929300784], [79.06694738147355, 14.253272099379512], [79.06268966145473, 14.255648458890665], [79.05667815953983, 14.25663278718335], [79.0486132037949, 14.250023081446491], [79.04579148332219, 14.24965557013992], [79.0433347360924, 14.247913372869679], [79.04299946918613, 14.245844152021052], [79.04371452918473, 14.244816779573968], [79.04373530026787, 14.242406065508534], [79.042679049638, 14.242052993515617], [79.04054575680246, 14.243757546422922], [79.03948653331405, 14.243748847019711], [79.03809209036704, 14.241670921015782], [79.03562059635712, 14.241650592617704], [79.03418744478843, 14.24404966533019], [79.03027973426263, 14.246772719594972], [79.02991171163829, 14.248491728262412], [79.03305958337103, 14.251961801642706], [79.03447192713645, 14.251973444386309], [79.03625226001962, 14.250266056275514], [79.03662619873495, 14.247858260011], [79.03910668716213, 14.246845426682555], [79.04015997789443, 14.247542903389403], [79.0401242894825, 14.251675545113843], [79.03441821751395, 14.258172382892685], [79.03087231347352, 14.259865170285803], [79.02410644912003, 14.266352940469078], [79.02835571188103, 14.265010501657963], [79.03369112466551, 14.260577256290663], [79.037234044668, 14.25922881170057], [79.04151285596565, 14.254442241787807], [79.04470552206112, 14.252746379891663], [79.04682109571195, 14.253108126504667], [79.05242028849251, 14.259008940933759], [79.0598206917149, 14.26079135258537], [79.06405795952925, 14.260825801417573], [79.06547626053776, 14.260148484240359], [79.06584111464339, 14.258773782117116], [79.06761836887269, 14.257410529544543], [79.0693838776126, 14.25742483131784], [79.07646929478206, 14.254726755330884], [79.08070649107039, 14.254760894139842], [79.08637353235581, 14.252739918760035], [79.08849212288602, 14.25275690729046], [79.10152224175211, 14.25699404458249], [79.10431256376467, 14.261149314202127], [79.10819683312047, 14.261180171253802], [79.10891168104133, 14.260152573425648], [79.11067725382293, 14.260166572185343], [79.11312326630797, 14.263285760057594], [79.11736643242648, 14.262630463334359], [79.12159246395765, 14.264041505549026], [79.12583563947693, 14.263386056725036], [79.12830465807117, 14.263749884466778], [79.1268637054477, 14.267182827207685], [79.1229479144556, 14.270940694902762], [79.12007426202966, 14.276773258928362], [79.11546048976489, 14.2794921847946], [79.11544329219608, 14.281558592007308], [79.11649414469099, 14.282600180203211], [79.1210879707402, 14.28229205736389], [79.12713428009829, 14.277173312035293], [79.12786334084032, 14.274423635239394], [79.12720260549914, 14.268907622230888], [79.13004186923318, 14.26720778837331], [79.13183873884591, 14.263433183679242], [79.14667001918995, 14.263548967649745], [79.15090474332983, 14.263926288176439], [79.15407168790418, 14.26532856037616], [79.15900994302125, 14.26605562180999], [79.16395661131426, 14.265749351197844], [79.17485943088502, 14.271344049563217], [79.18156643637793, 14.271739773790992], [79.18896326876882, 14.27420717683726], [79.19141058842503, 14.277325705153189], [79.19984806394311, 14.282211770876867], [79.20369464380393, 14.287062969339527], [79.20721275851433, 14.288811693406853], [79.21071731450104, 14.292282468357573], [79.21458604242817, 14.294378174601935], [79.21245058097564, 14.296428777876695], [79.20926913336278, 14.296749286590565], [79.20749498829888, 14.297769240221582], [79.20114027160503, 14.29737682315745], [79.19865970807489, 14.298391361917679], [79.19583417512115, 14.298369943831835], [79.19337284256419, 14.29697351194841], [79.19231052416168, 14.297309877031841], [79.19264995108956, 14.299034639855648], [79.19545074966973, 14.302155842565984], [79.19898821199236, 14.301493788882862], [79.20180831045201, 14.302204008825056], [79.20105531688783, 14.308053756798241], [79.20210397906895, 14.309439443489508], [79.20422050231794, 14.30979988407597], [79.20563881597154, 14.309121720083809], [79.2081331342113, 14.306385027357825], [79.20958414939413, 14.301573810441484], [79.21490933164563, 14.298169445309753], [79.2184467086529, 14.29750708785423], [79.22057671478966, 14.29614526794889], [79.2223426789587, 14.296158472505134], [79.22655939496708, 14.298945487342591], [79.22725499136028, 14.300328442926467], [79.22651887253286, 14.304111818034261], [79.22369051857925, 14.304435144014077], [79.22016930675902, 14.303031043716704], [79.21769688524397, 14.303012522384545], [79.21591999970057, 14.304376957101862], [79.21519999319491, 14.306093753856405], [79.21518095374816, 14.308504692090475], [79.2162215551137, 14.310923586260726], [79.21833812990896, 14.311283905231491], [79.21976184842852, 14.309916812124154], [79.2218811337576, 14.309932678209698], [79.2243455168131, 14.310984428918426], [79.22574485996539, 14.312717089934926], [79.22571780727407, 14.316161305151539], [79.22464459574942, 14.317875494425603], [79.21932718159968, 14.320246775211258], [79.21925110026754, 14.329890535358702], [79.21566689123516, 14.33640796898979], [79.2110718548637, 14.33671780425039], [79.20715320168271, 14.340821479624346], [79.20467215588783, 14.34183602510649], [79.20324264114501, 14.343891823027922], [79.19969349892767, 14.345931524473253], [79.19861718130389, 14.347989967924276], [79.19928242873824, 14.353161567800331], [79.19818953128382, 14.357286494401412], [79.19640655985974, 14.359339542909176], [79.1946069813338, 14.363459059366232], [79.19247616118379, 14.364820546401162], [79.18997262740434, 14.368590203424397], [79.18784173189489, 14.369951639195056], [79.1825283003781, 14.371633072520883], [79.17793257240787, 14.371942174579791], [79.1743827737739, 14.373981413201555], [79.1687298952317, 14.373937742236], [79.1652052844399, 14.372877154563152], [79.16201431213669, 14.374230115477365], [79.15666959620509, 14.379699404779133], [79.1538374542961, 14.380366177886044], [79.14991985091285, 14.384124273773587], [79.14848104645932, 14.387212857103345], [79.14528410085873, 14.389254362347815], [79.14456323075389, 14.390970837142426], [79.14100146651136, 14.394387111637185], [79.13955390097274, 14.398508823232019], [79.14022348108442, 14.40299161989196], [79.13770719910904, 14.408138165040908], [79.13731666916836, 14.412612601364062], [79.13589464648169, 14.4136346500008], [79.1270549130579, 14.414253530210646], [79.12527372050376, 14.415961502351761], [79.12490595754025, 14.417680691245447], [79.12729029670848, 14.428376712195913], [79.13112577245921, 14.434606743261785], [79.13498153454526, 14.438425931299907], [79.13851552911567, 14.438453867045189], [79.14243722099414, 14.434351711138325], [79.15095566732779, 14.429941132060481], [79.15697179047478, 14.42895494214395], [79.15730534638546, 14.431368539074537], [79.15373735331566, 14.435473749969713], [79.15371747267193, 14.437884579455789], [79.1551197279014, 14.439273265089684], [79.1692531494296, 14.439727896713054], [79.17102863235928, 14.438708393097139], [79.17385588862842, 14.43873031412698], [79.18054824502016, 14.441537515256059], [79.18335318580422, 14.444314604396215], [79.18472214657572, 14.449836057850517], [79.18718218012272, 14.451577162605028], [79.18891585978591, 14.455723684158297], [79.19207172970962, 14.458847828854875], [79.19311535308337, 14.460922436466776], [79.19238060240896, 14.46436111810638], [79.19660256570874, 14.466804540731667], [79.19978922455148, 14.466140076350428]], [[79.19246972364756, 14.453339965166224], [79.18650324345273, 14.448127619168165], [79.18547928073713, 14.443642123438197], [79.18162247468243, 14.439823650921792], [79.17703655760971, 14.438754934802182], [79.17457393672225, 14.43735815624587], [79.15689525811591, 14.438253875152597], [79.15549015869084, 14.43720960397019], [79.15550150805116, 14.435831985724459], [79.15763890629835, 14.43378213591896], [79.15943419269634, 14.430351881729218], [79.15909778352541, 14.428282690580133], [79.1580461150012, 14.427241197725394], [79.15522470043899, 14.426530294747517], [79.14707978906159, 14.428533009999992], [79.14496803030494, 14.427483134862358], [79.13904345006819, 14.417448161580607], [79.13906345907728, 14.415037348029239], [79.14014354241633, 14.412634887178541], [79.14018351915544, 14.407813254571861], [79.1423378467532, 14.403697106347126], [79.14166822330567, 14.399214310614841], [79.14275672853398, 14.395778612593197], [79.14596516539403, 14.39235954063411], [79.14668603111632, 14.390643061003033], [79.15059813983936, 14.387573850816358], [79.15203691973419, 14.384485251484268], [79.15452993996034, 14.382093720901533], [79.1580715531305, 14.381088038246572], [79.16306297030363, 14.375615975579507], [79.16448181626848, 14.374938124865015], [79.17436879480256, 14.375703463265616], [79.1779186226727, 14.373664228357331], [79.18180777402941, 14.37334970376166], [79.18960269881255, 14.3706539807256], [79.19246232990803, 14.366542615144233], [79.19566133856375, 14.364155965158995], [79.197460905911, 14.360036439312728], [79.19924387499302, 14.357983382501533], [79.20070104240872, 14.352483469245962], [79.20001099997948, 14.35041161057899], [79.20038903073191, 14.347314551308367], [79.20358217981159, 14.345616581783158], [79.20537045249543, 14.342874623012975], [79.20820750716902, 14.34151832300443], [79.21105819375856, 14.338439894717709], [79.21282720905562, 14.33810878991869], [79.21529183028737, 14.3391606630171], [79.21704450781262, 14.340896041518628], [79.21773469452884, 14.342967866960093], [79.22054178614407, 14.345400027283024], [79.22123473364746, 14.347127427372108], [79.22615073028992, 14.350953108818564], [79.22754487928984, 14.353374625288707], [79.22752590634343, 14.355785570169152], [79.2257486166736, 14.357150031622028], [79.22537904112116, 14.359213906966108], [79.2267894982566, 14.359568909011307], [79.22823790013474, 14.355102012794037], [79.23215378883427, 14.351342399436907], [79.23431396172474, 14.346191867731676], [79.23578366214845, 14.338969512574451], [79.2425895774029, 14.326964492661137], [79.24331215197299, 14.324903174915834], [79.24339253528203, 14.314570435332648], [79.24061768913674, 14.308005462109735], [79.2325610824755, 14.29933461023208], [79.22903717820517, 14.29827506622364], [79.22341307860822, 14.29478870241689], [79.21777017076185, 14.293713169295554], [79.20794093215417, 14.286061662201371], [79.20653096367968, 14.285706602716612], [79.20373563658717, 14.281896695776624], [79.19599615739052, 14.278049361633258], [79.19108493382306, 14.27387886195999], [79.18933844024642, 14.271454535014573], [79.18722506358218, 14.270749590344797], [79.18617940718211, 14.269019450260519], [79.18760024489814, 14.267996952323633], [79.18832304626729, 14.265935828398016], [79.19325053191737, 14.268039861234053], [79.19674634320127, 14.272544036585705], [79.20026417968805, 14.274292832666937], [79.20341799025594, 14.277416592773985], [79.20799545241931, 14.279173280263908], [79.21641714048602, 14.286125330861884], [79.21923442350763, 14.287179750068722], [79.22348067925938, 14.286178157775847], [79.22488528721534, 14.287221964529742], [79.22592592736024, 14.289640821000726], [79.22944429177636, 14.291389240447504], [79.23084357453894, 14.293121864667635], [79.23823911999135, 14.295932299836117], [79.2403261380434, 14.30008108285708], [79.24802186911504, 14.309782382078085], [79.24868558957895, 14.315298402482169], [79.25041437462313, 14.320133379739659], [79.25039302233446, 14.32288878699209], [79.2524938000767, 14.325315377357825], [79.25247513223168, 14.327726360377817], [79.25140738182994, 14.328751834282384], [79.24964914968625, 14.327705539771339], [79.24788291290321, 14.327692509828477], [79.24430756406981, 14.333177202959732], [79.24356350346982, 14.337993914028747], [79.24177570663701, 14.340736219993165], [79.2381649669435, 14.350698271960985], [79.23814341736094, 14.353453653968142], [79.23884190982231, 14.354492174188023], [79.24519841184932, 14.35488377274268], [79.24768483605357, 14.353179950533738], [79.25157634473497, 14.352519801727373], [79.2554811730629, 14.350137456428628], [79.2576168572997, 14.348086488196238], [79.25905126760568, 14.345341455562226], [79.26329059581704, 14.345372543396225], [79.26650982770683, 14.340229385877105], [79.26659188428569, 14.329552102745087], [79.26944960948693, 14.325439573563068], [79.26981869721779, 14.323375571796854], [79.27088370741511, 14.322694431919652], [79.27194080236329, 14.32304657599841], [79.26976852862447, 14.329919728870243], [79.26833964911776, 14.331975997717002], [79.2686770466904, 14.334045148673818], [79.27007688343427, 14.335777600073637], [79.27004253443779, 14.34025517758222], [79.26718724724815, 14.344023260796149], [79.26681278214677, 14.346776104945306], [79.2589900584352, 14.353263269422321], [79.25437861768734, 14.355640465904207], [79.25116956763394, 14.359405696352727], [79.24727525574652, 14.360410248680669], [79.24584059242518, 14.363155179540732], [79.2404979805891, 14.368626635119679], [79.2376364276575, 14.3730831009335], [79.23338852065822, 14.374084758717359], [79.23052675463228, 14.378541112555718], [79.22840410052446, 14.378869669685656], [79.22201977018223, 14.381921735839445], [79.2198752574515, 14.385005558777234], [79.21845920086473, 14.385339335361952], [79.2166788756464, 14.387048109982699], [79.21559151873022, 14.39048428885348], [79.21168011004552, 14.393554672764987], [79.20952709695543, 14.397671618036327], [79.20525386528547, 14.401772437384958], [79.20488122725283, 14.404180658097316], [79.20663150824048, 14.40626056932609], [79.20662049696222, 14.407638230289104], [79.20520428340609, 14.407971908043441], [79.20344849042542, 14.40658081582408], [79.20026823123311, 14.406556604297517], [79.19920261776095, 14.407237351953812], [79.19100863316113, 14.41544113584089], [79.1909864028766, 14.418196431695046], [79.19027408590375, 14.418879837096238], [79.1863841321871, 14.419194408835168], [79.18282242455615, 14.42261132904973], [79.18174271309569, 14.425014031930887], [79.17960560213648, 14.427064137655936], [79.177813440169, 14.430150176882297], [79.17779943058949, 14.431872222082937], [79.18132221989755, 14.43327714264648], [79.18271346053768, 14.436043320700021], [79.18622239998241, 14.439170230833389], [79.19009321030445, 14.441266580718976], [79.19221091694834, 14.44162726753128], [79.19182410677192, 14.445757492554767], [79.19318493991882, 14.452312155645101], [79.19246972364756, 14.453339965166224]], [[79.24380136790427, 14.352806761490447], [79.24277374779673, 14.348665821827218], [79.24384700615656, 14.346951555742676], [79.24351520363032, 14.344193547275287], [79.24568040017488, 14.338354022508287], [79.24606580631863, 14.334223538640064], [79.24785081878652, 14.33182561221588], [79.24855732621151, 14.331830827334276], [79.25097401692425, 14.339082001581595], [79.25201779297734, 14.341156367398122], [79.25552649909237, 14.344282212674948], [79.25621172971914, 14.347042819604292], [79.25407070751038, 14.34978262656512], [79.25088581615458, 14.35044803748776], [79.24668125973785, 14.345939199351792], [79.24527083980358, 14.345584321539777], [79.24419759927021, 14.3472985962365], [79.2448907406332, 14.349025948324744], [79.24629581901856, 14.350069679344665], [79.24628241381346, 14.351791800813327], [79.2452145114379, 14.35281722869116], [79.24380136790427, 14.352806761490447]], [[79.22896613767598, 14.35235192675696], [79.22335708537123, 14.346798900500058], [79.22197116698412, 14.343344108084073], [79.21916136025284, 14.341256384983861], [79.21882986406143, 14.338498376334398], [79.22385413744757, 14.328547261820466], [79.22210962524989, 14.325778675470943], [79.22248185020662, 14.323370376182924], [79.2235523981241, 14.322000623250794], [79.22781013042895, 14.319621343021165], [79.22925005998385, 14.316187660887838], [79.22855711459552, 14.314460283818256], [79.22929325478113, 14.310676905475399], [79.22789929425228, 14.308255419210964], [79.2279154974456, 14.30618888638496], [79.2300482417883, 14.304482562803512], [79.23041492939336, 14.302763078655534], [79.23183044312384, 14.302429166684252], [79.23252877457695, 14.303467688300541], [79.23212977189793, 14.30932025247869], [79.23352647881026, 14.3113972966202], [79.2335022407913, 14.314497103795714], [79.23242909356523, 14.316211336199107], [79.23136671800123, 14.316547871669751], [79.2309973043571, 14.318611776042289], [79.23345913664676, 14.320007870015253], [79.23307625361, 14.323793891871237], [79.23412788550236, 14.324835043811465], [79.23329733267458, 14.34067321946918], [79.23291436999969, 14.344459230463409], [79.23074877884272, 14.350298591225794], [79.22896613767598, 14.35235192675696]], [[79.2376468434412, 14.326583407180971], [79.23804578870951, 14.320730828907953], [79.23595866984799, 14.316582015640343], [79.23565924079419, 14.309690924152212], [79.23496625804594, 14.30796356154388], [79.2353356069808, 14.305899643073245], [79.23674576357962, 14.306254550943608], [79.23849571575029, 14.308334189211559], [79.2412705001108, 14.31489918046221], [79.24084751261773, 14.323851594673902], [79.23869044575392, 14.32865781317081], [79.23798395201497, 14.328652569823072], [79.2376468434412, 14.326583407180971]], [[79.28011266564705, 14.316905798216169], [79.28117237505538, 14.316913468266916], [79.28116713244708, 14.317602331591974], [79.27939569680007, 14.318278407552867], [79.28011266564705, 14.316905798216169]], [[79.20284326415604, 14.30531177768745], [79.20357156711508, 14.302561775904167], [79.20499530274564, 14.301194774341491], [79.20711175814047, 14.301555180925872], [79.20708171180605, 14.305343782560454], [79.2052992819337, 14.30739696381324], [79.20353050876652, 14.307728040048394], [79.20284326415604, 14.30531177768745]], [[79.25923936368027, 14.275075587983522], [79.25853302950615, 14.275070424730721], [79.2585383246838, 14.274381567217446], [79.25889149066302, 14.274384148975665], [79.25923936368027, 14.275075587983522]], [[79.17841580061534, 14.268271353833239], [79.1819527392693, 14.267609495036877], [79.18335978146003, 14.268309097655328], [79.18370464312886, 14.26934503434386], [79.1791137814339, 14.269309994060407], [79.17841580061534, 14.268271353833239]], [[79.17523476194253, 14.268591449105925], [79.16714317567573, 14.264740580056415], [79.16398729134637, 14.261960827865744], [79.1625747787838, 14.261949944304364], [79.16079796513945, 14.263313970628957], [79.15867918791109, 14.263297612296226], [79.15763099420442, 14.261911786012995], [79.15975814223465, 14.260894920713126], [79.16646476091694, 14.261291030467715], [79.1682164890692, 14.263026664615989], [79.1734968112403, 14.265133790837215], [79.1770004670832, 14.268604964663824], [79.17523476194253, 14.268591449105925]], [[79.18656561607408, 14.264889152616705], [79.18376535047594, 14.261767904934116], [79.18234730180754, 14.262445968286258], [79.17987813950289, 14.262082691937437], [79.17953883257623, 14.260357923884365], [79.181668652682, 14.258996434614726], [79.18413778716423, 14.25935968884671], [79.1876250283305, 14.264897211111382], [79.18656561607408, 14.264889152616705]], [[79.15551783679203, 14.261206581843082], [79.15481158608512, 14.261201116305415], [79.15481719085761, 14.26051229726759], [79.15517031510254, 14.26051503016021], [79.15551783679203, 14.261206581843082]], [[79.14212733827675, 14.257658308524725], [79.14178550658615, 14.256277928526849], [79.14496917734122, 14.255613856762432], [79.14637037933731, 14.257002471845533], [79.1463563063315, 14.25872451162098], [79.14423758929787, 14.258708030147131], [79.14212733827675, 14.257658308524725]], [[79.1562772803653, 14.254668257521184], [79.15663319413311, 14.254326577101322], [79.15663039580683, 14.254670987157262], [79.1562772803653, 14.254668257521184]], [[79.07615707575475, 14.24990238947389], [79.07934073293899, 14.249239206628788], [79.0803941812084, 14.249936522526262], [79.08038544172256, 14.250969707610526], [79.07649557182071, 14.251627207918013], [79.07579230351408, 14.251277118030828], [79.07615707575475, 14.24990238947389]], [[79.03275127605626, 14.24679311044698], [79.03486974355957, 14.246810567973677], [79.03449877227077, 14.248873973853014], [79.03273933689593, 14.248170651800082], [79.03275127605626, 14.24679311044698]], [[79.1655223409774, 14.246817585051875], [79.16588379392074, 14.245787063279419], [79.16729620852584, 14.245797915197555], [79.16834162549115, 14.24752811142924], [79.16657052915424, 14.248203375701793], [79.1655223409774, 14.246817585051875]]], [[[79.18820186372798, 14.281090115274191], [79.18892471644939, 14.27902899595985], [79.18822666263382, 14.277990376424317], [79.18681954538907, 14.277290794210183], [79.18328521977355, 14.277608294032815], [79.18327140616188, 14.279330366598986], [79.18431983819893, 14.280716106401242], [79.18820186372798, 14.281090115274191]]], [[[79.2482112874754, 14.28532812356146], [79.24892830623894, 14.283955614271047], [79.24680389865004, 14.284628869682898], [79.24679322869454, 14.28600657482617], [79.2482112874754, 14.28532812356146]]], [[[79.23938178327725, 14.285262978126765], [79.2372653908443, 14.284902870021867], [79.23725466264088, 14.286280568052163], [79.23901788628076, 14.28663806480592], [79.23938178327725, 14.285262978126765]]], [[[79.19657900239811, 14.2935534698482], [79.198010940628, 14.291153256657646], [79.19696237680166, 14.289767562766922], [79.19272424461569, 14.289735411803731], [79.19375353310812, 14.293532034145748], [79.19657900239811, 14.2935534698482]]], [[[79.27956612260306, 14.295890350300757], [79.27922863917759, 14.293821203691172], [79.27817166043747, 14.293469105284087], [79.27746001685021, 14.29415285505595], [79.2777974839309, 14.296222002362633], [79.27885447425702, 14.296574103732544], [79.27956612260306, 14.295890350300757]]], [[[79.18487422154402, 14.299664288990636], [79.18700717586985, 14.297958381562141], [79.18666503241545, 14.296578030441044], [79.18419272708142, 14.29655916913739], [79.18382018048459, 14.298967371005046], [79.18487422154402, 14.299664288990636]]], [[[79.25577675604349, 14.311906104388367], [79.26320241806124, 14.310927151080158], [79.2628650810569, 14.308857998055686], [79.25935410048832, 14.30607673125722], [79.25652572159821, 14.306400450641837], [79.25438780799571, 14.308795886486248], [79.25437716544725, 14.310173594440029], [79.25577675604349, 14.311906104388367]]], [[[79.2648706329031, 14.3236839141266], [79.26772037299173, 14.320604686298209], [79.26738827487242, 14.317846676750058], [79.26600177589572, 14.31439207706026], [79.26424621349791, 14.313001465766753], [79.26283330488964, 14.312991140096434], [79.26105391420293, 14.314700361662021], [79.26032623295217, 14.317450612934573], [79.26240852990416, 14.32228811971213], [79.26381090087685, 14.323676167794973], [79.2648706329031, 14.3236839141266]]], [[[79.16252660914702, 14.397999713376064], [79.16468043550982, 14.39388329797458], [79.16470576316745, 14.390783629271269], [79.1636570348332, 14.389397768529971], [79.16224654233345, 14.389042380655258], [79.16082195759058, 14.390409019706988], [79.16076836933574, 14.396952749638352], [79.1614665867749, 14.397991468816565], [79.16252660914702, 14.397999713376064]]], [[[79.16406497751183, 14.425910407786352], [79.17118609415411, 14.419421555977012], [79.17721310468433, 14.417057167840365], [79.18220222325652, 14.411929166219869], [79.1857498226898, 14.410234289658602], [79.19180699571851, 14.404080943851568], [79.19324537369579, 14.400992043197602], [79.19965266609644, 14.395185553309316], [79.20754165184698, 14.380779166118492], [79.20792517243375, 14.376993263539292], [79.20971369230445, 14.374251301664556], [79.20974384525371, 14.370462716504193], [79.20904271516669, 14.369768538289305], [79.2069228824233, 14.369752492412829], [79.19309423339237, 14.375847178147515], [79.1891689714087, 14.380639250832159], [79.18737460412427, 14.384069845281337], [79.18595296899285, 14.385092246166431], [79.18487351949233, 14.387494995685973], [79.17989064922621, 14.391934313618439], [79.17664352142027, 14.400175645544547], [79.1737831200189, 14.404286724356789], [79.16915300431123, 14.408728472342935], [79.16519280075883, 14.417652891484638], [79.16164495978983, 14.419347425775229], [79.15914588467773, 14.422427795515262], [79.15948229225752, 14.424496986577358], [79.16124072486916, 14.425543982493322], [79.16406497751183, 14.425910407786352]], [[79.1616167123023, 14.422791487816305], [79.16340054516895, 14.420738808967574], [79.16552644507497, 14.42006648747009], [79.16730740554942, 14.418358179185528], [79.1712703528103, 14.409089308170767], [79.17482917325663, 14.406016963292073], [79.17840466832699, 14.400878092519559], [79.1809227584224, 14.395386579489314], [79.18129562276138, 14.39297842317867], [79.1862812749241, 14.38819466354165], [79.19272154435801, 14.378255374523762], [79.19556741998196, 14.375866048728838], [79.19804336989947, 14.375540478976761], [79.20584923325512, 14.371466543119757], [79.2079718245543, 14.371138183948473], [79.20866472630951, 14.372865615270367], [79.20687071516922, 14.376296401689311], [79.20648717964647, 14.380082300848489], [79.20398366129267, 14.383852109133668], [79.20289613865953, 14.387288209795356], [79.20111293431275, 14.389341266139091], [79.19895426508114, 14.394146927053823], [79.19219086641952, 14.40029510937843], [79.19075248035757, 14.40338400260838], [79.18861289221158, 14.40577863912869], [79.1843419394885, 14.409534603867732], [79.18186002336057, 14.41054880382484], [79.17758327395964, 14.414993439954696], [79.16942483807019, 14.418719041683719], [79.16478867212791, 14.423849467101745], [79.16266555734684, 14.424177370926053], [79.1616167123023, 14.422791487816305]]]]}}, {"type": "Feature", "properties": {"depth_class": 2, "depth_lo_m": 1.0, "t_s": 47700.65478913599}, "geometry": {"type": "MultiPolygon", "coordinates": [[[[79.01991855910141, 14.220167546157368], [79.02064860126119, 14.217418325548406], [79.01995752948092, 14.215690560402804], [79.01819839683871, 14.214987168333762], [79.01680430638004, 14.212909161207792], [79.01433616182298, 14.212544270560205], [79.01291806577964, 14.213221304854397], [79.01254398765876, 14.215629045399083], [79.01324101536012, 14.216668060368143], [79.01641525626744, 14.217038827487833], [79.01815339219868, 14.220152915754356], [79.01991855910141, 14.220167546157368]], [[79.01360606965545, 14.215293465045868], [79.013974124304, 14.213574486052321], [79.01644227872582, 14.213939381788796], [79.0164272670522, 14.215661296171254], [79.01430610767282, 14.21598809505003], [79.01360606965545, 14.215293465045868]]], [[[79.15890271052439, 14.235744762761133], [79.1578741660003, 14.231948073218977], [79.1561087649173, 14.231934450296858], [79.156100381072, 14.232967682060588], [79.15890271052439, 14.235744762761133]]], [[[79.08081715168525, 14.241673877762336], [79.08474459721744, 14.236539132318489], [79.08511798946911, 14.234131189377038], [79.0840703986884, 14.232745108307421], [79.08230506650045, 14.23273093927216], [79.08088116703641, 14.234097177139159], [79.07875693558165, 14.234768933188933], [79.07732717351719, 14.236823934996288], [79.07799834522582, 14.240962359037873], [79.07869867410847, 14.241656834057089], [79.08081715168525, 14.241673877762336]], [[79.07872489562428, 14.238557279186127], [79.0794514275527, 14.236152194731181], [79.08263778922321, 14.235144545846437], [79.0822614604819, 14.237896876981779], [79.0808346141494, 14.239607505369005], [79.07977247281428, 14.239943382360712], [79.07872489562428, 14.238557279186127]]], [[[79.03486974355957, 14.246810567973677], [79.03310733783029, 14.24645163590118], [79.03273933689593, 14.248170651800082], [79.03449877227077, 14.248873973853014], [79.03486974355957, 14.246810567973677]]], [[[79.15628007922689, 14.254323847533891], [79.15663039580683, 14.254670987157262], [79.15663319413311, 14.254326577101322], [79.15628007922689, 14.254323847533891]]], [[[79.14602289206822, 14.256310910738692], [79.14320360522214, 14.255600116170735], [79.14178550658615, 14.256277928526849], [79.14177422109218, 14.257655556858236], [79.14423758929787, 14.258708030147131], [79.1463563063315, 14.25872451162098], [79.14602289206822, 14.256310910738692]]], [[[79.02593195250584, 14.259479903876935], [79.02630303036523, 14.257416525317973], [79.02383138253299, 14.257396052775857], [79.02416947409795, 14.259120895213629], [79.02593195250584, 14.259479903876935]]], [[[79.15551783679203, 14.261206581843082], [79.15481719085761, 14.26051229726759], [79.15481158608512, 14.261201116305415], [79.15551783679203, 14.261206581843082]]], [[[79.16762985167749, 14.248211513725446], [79.16834718362114, 14.246839286351703], [79.16729620852584, 14.245797915197555], [79.16517201974989, 14.246470458100939], [79.16657052915424, 14.248203375701793], [79.16762985167749, 14.248211513725446]]], [[[79.18728290592999, 14.263516862706243], [79.18343428946358, 14.259009893653435], [79.18060650861456, 14.259332767480725], [79.17953883257623, 14.260357923884365], [79.17987813950289, 14.262082691937437], [79.18234730180754, 14.262445968286258], [79.18376535047594, 14.261767904934116], [79.18656561607408, 14.264889152616705], [79.1876250283305, 14.264897211111382], [79.18728290592999, 14.263516862706243]]], [[[79.1770004670832, 14.268604964663824], [79.1734968112403, 14.265133790837215], [79.1682164890692, 14.263026664615989], [79.16646476091694, 14.261291030467715], [79.15975814223465, 14.260894920713126], [79.15763099420442, 14.261911786012995], [79.15867918791109, 14.263297612296226], [79.16079796513945, 14.263313970628957], [79.1625747787838, 14.261949944304364], [79.16398729134637, 14.261960827865744], [79.16714317567573, 14.264740580056415], [79.16996268351237, 14.265451113522907], [79.17523476194253, 14.268591449105925], [79.1770004670832, 14.268604964663824]]], [[[79.18371016345104, 14.268656204606668], [79.1819527392693, 14.267609495036877], [79.17841580061534, 14.268271353833239], [79.1791137814339, 14.269309994060407], [79.18122987510631, 14.269670591855512], [79.18299559456013, 14.269684063998742], [79.18371016345104, 14.268656204606668]]], [[[79.25888884364576, 14.274728577802364], [79.25853302950615, 14.275070424730721], [79.25923936368027, 14.275075587983522], [79.25888884364576, 14.274728577802364]]], [[[79.20459013142104, 14.307736046602407], [79.20708171180605, 14.305343782560454], [79.20676129126664, 14.301208099144073], [79.20499530274564, 14.301194774341491], [79.203210155801, 14.303592359824725], [79.20318003963159, 14.307380952679216], [79.20459013142104, 14.307736046602407]]], [[[79.27939569680007, 14.318278407552867], [79.28116713244708, 14.317602331591974], [79.28117237505538, 14.316913468266916], [79.28011266564705, 14.316905798216169], [79.27939569680007, 14.318278407552867]]], [[[79.19246972364756, 14.453339965166224], [79.19320163392666, 14.45024568726409], [79.19182410677192, 14.445757492554767], [79.19221091694834, 14.44162726753128], [79.19009321030445, 14.441266580718976], [79.18622239998241, 14.439170230833389], [79.18271346053768, 14.436043320700021], [79.18132221989755, 14.43327714264648], [79.17779943058949, 14.431872222082937], [79.177813440169, 14.430150176882297], [79.17960560213648, 14.427064137655936], [79.18174271309569, 14.425014031930887], [79.18282242455615, 14.42261132904973], [79.1863841321871, 14.419194408835168], [79.19027408590375, 14.418879837096238], [79.1909864028766, 14.418196431695046], [79.19100863316113, 14.41544113584089], [79.19920261776095, 14.407237351953812], [79.20026823123311, 14.406556604297517], [79.20344849042542, 14.40658081582408], [79.20520428340609, 14.407971908043441], [79.20662049696222, 14.407638230289104], [79.20663150824048, 14.40626056932609], [79.20488122725283, 14.404180658097316], [79.20525386528547, 14.401772437384958], [79.20952709695543, 14.397671618036327], [79.21168011004552, 14.393554672764987], [79.21559151873022, 14.39048428885348], [79.2166788756464, 14.387048109982699], [79.21845920086473, 14.385339335361952], [79.2198752574515, 14.385005558777234], [79.22201977018223, 14.381921735839445], [79.22840410052446, 14.378869669685656], [79.23052675463228, 14.378541112555718], [79.23338852065822, 14.374084758717359], [79.2376364276575, 14.3730831009335], [79.2404979805891, 14.368626635119679], [79.24584059242518, 14.363155179540732], [79.24727525574652, 14.360410248680669], [79.25116956763394, 14.359405696352727], [79.25437861768734, 14.355640465904207], [79.2589900584352, 14.353263269422321], [79.26681278214677, 14.346776104945306], [79.26718724724815, 14.344023260796149], [79.27004253443779, 14.34025517758222], [79.27007688343427, 14.335777600073637], [79.2686770466904, 14.334045148673818], [79.26833964911776, 14.331975997717002], [79.26976852862447, 14.329919728870243], [79.27194080236329, 14.32304657599841], [79.27088370741511, 14.322694431919652], [79.26981869721779, 14.323375571796854], [79.26944960948693, 14.325439573563068], [79.26659188428569, 14.329552102745087], [79.26650982770683, 14.340229385877105], [79.26329059581704, 14.345372543396225], [79.25905126760568, 14.345341455562226], [79.2576168572997, 14.348086488196238], [79.2554811730629, 14.350137456428628], [79.25157634473497, 14.352519801727373], [79.24768483605357, 14.353179950533738], [79.24519841184932, 14.35488377274268], [79.23884190982231, 14.354492174188023], [79.23814341736094, 14.353453653968142], [79.2381649669435, 14.350698271960985], [79.24177570663701, 14.340736219993165], [79.24356350346982, 14.337993914028747], [79.24430756406981, 14.333177202959732], [79.24788291290321, 14.327692509828477], [79.24964914968625, 14.327705539771339], [79.25105413236079, 14.328749231773669], [79.25247513223168, 14.327726360377817], [79.2524938000767, 14.325315377357825], [79.25039302233446, 14.32288878699209], [79.25041437462313, 14.320133379739659], [79.24868558957895, 14.315298402482169], [79.24802186911504, 14.309782382078085], [79.2403261380434, 14.30008108285708], [79.23823911999135, 14.295932299836117], [79.23084357453894, 14.293121864667635], [79.22944429177636, 14.291389240447504], [79.22592592736024, 14.289640821000726], [79.22488528721534, 14.287221964529742], [79.22348067925938, 14.286178157775847], [79.21994078046137, 14.287185034204834], [79.21641714048602, 14.286125330861884], [79.20799545241931, 14.279173280263908], [79.20341799025594, 14.277416592773985], [79.20026417968805, 14.274292832666937], [79.19674634320127, 14.272544036585705], [79.19325053191737, 14.268039861234053], [79.18832304626729, 14.265935828398016], [79.18760024489814, 14.267996952323633], [79.18617940718211, 14.269019450260519], [79.18722506358218, 14.270749590344797], [79.18933844024642, 14.271454535014573], [79.19108493382306, 14.27387886195999], [79.19599615739052, 14.278049361633258], [79.20373563658717, 14.281896695776624], [79.20653096367968, 14.285706602716612], [79.20794093215417, 14.286061662201371], [79.21777017076185, 14.293713169295554], [79.22341307860822, 14.29478870241689], [79.22903717820517, 14.29827506622364], [79.2325610824755, 14.29933461023208], [79.24061768913674, 14.308005462109735], [79.24339253528203, 14.314570435332648], [79.24331215197299, 14.324903174915834], [79.2425895774029, 14.326964492661137], [79.23578366214845, 14.338969512574451], [79.23431396172474, 14.346191867731676], [79.23215378883427, 14.351342399436907], [79.22823790013474, 14.355102012794037], [79.2267894982566, 14.359568909011307], [79.22537904112116, 14.359213906966108], [79.2257486166736, 14.357150031622028], [79.22752590634343, 14.355785570169152], [79.22754487928984, 14.353374625288707], [79.22615073028992, 14.350953108818564], [79.22123473364746, 14.347127427372108], [79.22054178614407, 14.345400027283024], [79.21773469452884, 14.342967866960093], [79.21704450781262, 14.340896041518628], [79.21529183028737, 14.3391606630171], [79.21282720905562, 14.33810878991869], [79.21105819375856, 14.338439894717709], [79.20820750716902, 14.34151832300443], [79.20537045249543, 14.342874623012975], [79.20358217981159, 14.345616581783158], [79.20038903073191, 14.347314551308367], [79.20001099997948, 14.35041161057899], [79.20070104240872, 14.352483469245962], [79.19924387499302, 14.357983382501533], [79.197460905911, 14.360036439312728], [79.19566133856375, 14.364155965158995], [79.19246232990803, 14.366542615144233], [79.18960269881255, 14.3706539807256], [79.18180777402941, 14.37334970376166], [79.1779186226727, 14.373664228357331], [79.17436879480256, 14.375703463265616], [79.16871587303447, 14.375659786850406], [79.16766156466458, 14.374962765104593], [79.16448181626848, 14.374938124865015], [79.16306297030363, 14.375615975579507], [79.1580715531305, 14.381088038246572], [79.15452993996034, 14.382093720901533], [79.15203691973419, 14.384485251484268], [79.15059813983936, 14.387573850816358], [79.14668603111632, 14.390643061003033], [79.14596516539403, 14.39235954063411], [79.14275672853398, 14.395778612593197], [79.14166822330567, 14.399214310614841], [79.1423378467532, 14.403697106347126], [79.14018351915544, 14.407813254571861], [79.14014354241633, 14.412634887178541], [79.13906345907728, 14.415037348029239], [79.13904345006819, 14.417448161580607], [79.14496803030494, 14.427483134862358], [79.14707978906159, 14.428533009999992], [79.15522470043899, 14.426530294747517], [79.1580461150012, 14.427241197725394], [79.15909778352541, 14.428282690580133], [79.15943419269634, 14.430351881729218], [79.15763890629835, 14.43378213591896], [79.15550150805116, 14.435831985724459], [79.15619128844132, 14.437903942755028], [79.16431674198253, 14.438311788696982], [79.17457393672225, 14.43735815624587], [79.17809397886138, 14.439107541033176], [79.18021443277502, 14.439123921884237], [79.18478082706721, 14.442603449312807], [79.18617494871577, 14.445025206405457], [79.18650324345273, 14.448127619168165], [79.18896327598829, 14.44986870497423], [79.191762855666, 14.453334538520537], [79.19246972364756, 14.453339965166224]], [[79.16053678427531, 14.42519406665209], [79.15913456870472, 14.423805418158489], [79.15986395265884, 14.421055685123932], [79.16271072849418, 14.418666868542351], [79.16519280075883, 14.417652891484638], [79.16915300431123, 14.408728472342935], [79.1737831200189, 14.404286724356789], [79.17664352142027, 14.400175645544547], [79.17989064922621, 14.391934313618439], [79.18487351949233, 14.387494995685973], [79.1920259901703, 14.376872322918448], [79.19451577763625, 14.37482472292428], [79.19805440811749, 14.37416282079432], [79.2069228824233, 14.369752492412829], [79.20904271516669, 14.369768538289305], [79.20974384525371, 14.370462716504193], [79.20971369230445, 14.374251301664556], [79.20792517243375, 14.376993263539292], [79.20754165184698, 14.380779166118492], [79.19965266609644, 14.395185553309316], [79.19324537369579, 14.400992043197602], [79.19002354790297, 14.406133886353677], [79.1857498226898, 14.410234289658602], [79.18220222325652, 14.411929166219869], [79.17721310468433, 14.417057167840365], [79.17118609415411, 14.419421555977012], [79.16619374574651, 14.424893679172298], [79.16406497751183, 14.425910407786352], [79.16053678427531, 14.42519406665209]], [[79.18038788165447, 14.417770527033733], [79.18182093442026, 14.415370548596577], [79.1907163801588, 14.407861361952712], [79.19429711712125, 14.402033386079212], [79.20141938595927, 14.39519900365392], [79.2060816289965, 14.386623522902319], [79.20645145367358, 14.384559707897889], [79.20859338613667, 14.381820443753261], [79.20933844023061, 14.377003962183602], [79.21112694426262, 14.374261987637716], [79.2111598120204, 14.370128982381203], [79.20940698498548, 14.368393543295236], [79.20587120642762, 14.368711213786787], [79.19771213692525, 14.372782472518653], [79.19382021978012, 14.37344167616609], [79.18849008407877, 14.377189714998568], [79.18743014445047, 14.377181598348596], [79.1863785388578, 14.3761402401616], [79.18674851166718, 14.3740764733361], [79.19065152829836, 14.372039737001097], [79.19351392759567, 14.367583945130326], [79.19635688670337, 14.365539005501358], [79.19814267171702, 14.363141549275483], [79.1985125027534, 14.361077746782808], [79.20065701668594, 14.357994119078588], [79.2006735285233, 14.355927625706585], [79.20174987534315, 14.353869176452163], [79.20143509222247, 14.34904467338155], [79.20463374911967, 14.346657858726502], [79.20713402802512, 14.343232400186816], [79.20890582054278, 14.3425569123019], [79.21175378191104, 14.339822894454588], [79.21316681946868, 14.339833543252759], [79.21527547249723, 14.341227175898325], [79.21560965104749, 14.343640765580153], [79.21382694572014, 14.34569397846888], [79.21381329674387, 14.347416070235836], [79.22086786466403, 14.348846874852883], [79.22368320687983, 14.350245749007572], [79.22578388815242, 14.352672566988995], [79.22576489733021, 14.35508350970407], [79.22326200665111, 14.358853598971711], [79.22360171079346, 14.360578347321983], [79.22535732176942, 14.361969267902984], [79.22712380559535, 14.361982496264448], [79.22819182909606, 14.360957165107358], [79.22928692765969, 14.356487618760744], [79.23142559380467, 14.354092500336353], [79.23565962775766, 14.354812945199054], [79.23917904053157, 14.356561336526408], [79.24483170164086, 14.356603275766956], [79.25333743816843, 14.35322167730829], [79.25688897920537, 14.350836704645445], [79.259741864067, 14.347413203574709], [79.26151092353932, 14.347081735519692], [79.26256545323682, 14.347778359296617], [79.25900070619387, 14.35188556306197], [79.25403600548819, 14.354260160619061], [79.25047100140445, 14.358367204704708], [79.24622072694574, 14.359713556194208], [79.24514472803159, 14.361772250188652], [79.23944613571054, 14.367585488369272], [79.237293907308, 14.37170278200017], [79.23198066744338, 14.373385363814453], [79.23018427489347, 14.377160787969125], [79.22132129146229, 14.380883167391389], [79.21882345164869, 14.38396432384255], [79.21669527504073, 14.384981603489946], [79.21490946887027, 14.387379198423366], [79.21453697528034, 14.389787451884118], [79.2102694809088, 14.393199559751274], [79.20811644770501, 14.397316489685634], [79.2042020661053, 14.400731137518054], [79.20275555826257, 14.404853366471919], [79.19992592103569, 14.405176255486541], [79.19815082743855, 14.406196025871001], [79.18925010742566, 14.41439435399974], [79.18817329481409, 14.41645268913313], [79.18498455847347, 14.41746148812581], [79.18214079670068, 14.419506193350403], [79.18037390438019, 14.419492576511262], [79.18038788165447, 14.417770527033733]], [[79.16076836933574, 14.396952749638352], [79.16082195759058, 14.390409019706988], [79.1615370705819, 14.389381294428663], [79.16295319600209, 14.389047871885447], [79.16470576316745, 14.390783629271269], [79.16468043550982, 14.39388329797458], [79.16252660914702, 14.397999713376064], [79.1614665867749, 14.397991468816565], [79.16076836933574, 14.396952749638352]], [[79.268653251642, 14.337145008363771], [79.26794142927953, 14.337828708519757], [79.26795201043232, 14.336450993806316], [79.26830527514221, 14.336453572529901], [79.268653251642, 14.337145008363771]], [[79.22449697910098, 14.291696816252617], [79.22484205888674, 14.29273271758387], [79.2234320113293, 14.292377750575856], [79.22343742002975, 14.291688907098624], [79.22449697910098, 14.291696816252617]]]]}}, {"type": "Feature", "properties": {"depth_class": 3, "depth_lo_m": 2.0, "t_s": 47700.65478913599}, "geometry": {"type": "MultiPolygon", "coordinates": [[[[79.01430610767282, 14.21598809505003], [79.0164272670522, 14.215661296171254], [79.01644227872582, 14.213939381788796], [79.013974124304, 14.213574486052321], [79.01360606965545, 14.215293465045868], [79.01430610767282, 14.21598809505003]]], [[[79.08012846106162, 14.239601827077824], [79.0822614604819, 14.237896876981779], [79.08263778922321, 14.235144545846437], [79.0790954445152, 14.236493749648208], [79.07872489562428, 14.238557279186127], [79.07906923201335, 14.239593305729896], [79.08012846106162, 14.239601827077824]]], [[[79.22484746343561, 14.292043873598407], [79.22343742002975, 14.291688907098624], [79.2234320113293, 14.292377750575856], [79.22484205888674, 14.29273271758387], [79.22484746343561, 14.292043873598407]]], [[[79.26865060739641, 14.337489437165928], [79.26830527514221, 14.336453572529901], [79.26795201043232, 14.336450993806316], [79.26794142927953, 14.337828708519757], [79.26865060739641, 14.337489437165928]]], [[[79.18285034595353, 14.419167226038082], [79.18498455847347, 14.41746148812581], [79.18817329481409, 14.41645268913313], [79.18925010742566, 14.41439435399974], [79.19815082743855, 14.406196025871001], [79.203111675668, 14.404511640082369], [79.2042020661053, 14.400731137518054], [79.20811644770501, 14.397316489685634], [79.2102694809088, 14.393199559751274], [79.21453697528034, 14.389787451884118], [79.21490946887027, 14.387379198423366], [79.21669527504073, 14.384981603489946], [79.21882345164869, 14.38396432384255], [79.22132129146229, 14.380883167391389], [79.23018427489347, 14.377160787969125], [79.23198066744338, 14.373385363814453], [79.237293907308, 14.37170278200017], [79.23944613571054, 14.367585488369272], [79.24514472803159, 14.361772250188652], [79.24622072694574, 14.359713556194208], [79.25047100140445, 14.358367204704708], [79.25403600548819, 14.354260160619061], [79.25900070619387, 14.35188556306197], [79.26256545323682, 14.347778359296617], [79.26151092353932, 14.347081735519692], [79.259741864067, 14.347413203574709], [79.25688897920537, 14.350836704645445], [79.25333743816843, 14.35322167730829], [79.24483170164086, 14.356603275766956], [79.23917904053157, 14.356561336526408], [79.23565962775766, 14.354812945199054], [79.23142559380467, 14.354092500336353], [79.22928692765969, 14.356487618760744], [79.22819182909606, 14.360957165107358], [79.22712380559535, 14.361982496264448], [79.22535732176942, 14.361969267902984], [79.22360171079346, 14.360578347321983], [79.22326200665111, 14.358853598971711], [79.22576489733021, 14.35508350970407], [79.22578388815242, 14.352672566988995], [79.22368320687983, 14.350245749007572], [79.22086786466403, 14.348846874852883], [79.21381329674387, 14.347416070235836], [79.21382694572014, 14.34569397846888], [79.21560965104749, 14.343640765580153], [79.21527547249723, 14.341227175898325], [79.21316681946868, 14.339833543252759], [79.21175378191104, 14.339822894454588], [79.20890582054278, 14.3425569123019], [79.20713402802512, 14.343232400186816], [79.20463374911967, 14.346657858726502], [79.20143509222247, 14.34904467338155], [79.20174987534315, 14.353869176452163], [79.2006735285233, 14.355927625706585], [79.20065701668594, 14.357994119078588], [79.1985125027534, 14.361077746782808], [79.19814267171702, 14.363141549275483], [79.19635688670337, 14.365539005501358], [79.19351392759567, 14.367583945130326], [79.19065152829836, 14.372039737001097], [79.18674851166718, 14.3740764733361], [79.1863785388578, 14.3761402401616], [79.18743014445047, 14.377181598348596], [79.18849008407877, 14.377189714998568], [79.19382021978012, 14.37344167616609], [79.19771213692525, 14.372782472518653], [79.20693386165384, 14.368374826818298], [79.20940698498548, 14.368393543295236], [79.21081198342802, 14.369437478254623], [79.21112694426262, 14.374261987637716], [79.20933844023061, 14.377003962183602], [79.20859338613667, 14.381820443753261], [79.20645145367358, 14.384559707897889], [79.2060816289965, 14.386623522902319], [79.20141938595927, 14.39519900365392], [79.19429711712125, 14.402033386079212], [79.1907163801588, 14.407861361952712], [79.18110580909104, 14.416398334362443], [79.18037390438019, 14.419492576511262], [79.18285034595353, 14.419167226038082]], [[79.23414652232815, 14.367546024367753], [79.23100195631253, 14.363044815689733], [79.23103443256042, 14.358911761736595], [79.23210783213955, 14.35719756604191], [79.23810030446329, 14.358964415969124], [79.24233984134621, 14.358995907474599], [79.24304105653997, 14.359689995588395], [79.24267969510069, 14.360720645182022], [79.24055183330809, 14.361738178889798], [79.23520644371555, 14.367553926645895], [79.23414652232815, 14.367546024367753]]]]}}, {"type": "Feature", "properties": {"depth_class": 4, "depth_lo_m": 3.0, "t_s": 47700.65478913599}, "geometry": {"type": "Polygon", "coordinates": [[[79.23414652232815, 14.367546024367753], [79.23100195631253, 14.363044815689733], [79.23139584130118, 14.357881135525174], [79.23352099429286, 14.357208106095996], [79.23810030446329, 14.358964415969124], [79.24233984134621, 14.358995907474599], [79.24304105653997, 14.359689995588395], [79.24267969510069, 14.360720645182022], [79.24055183330809, 14.361738178889798], [79.23520644371555, 14.367553926645895], [79.23414652232815, 14.367546024367753]]]}}]}