{"type": "FeatureCollection", "features": [{"type": "Feature", "properties": {"depth_class": 1, "depth_lo_m": 0.3, "t_s": 58500.697181520336}, "geometry": {"type": "MultiPolygon", "coordinates": [[[[79.01530809109286, 14.222540157219358], [79.01637921620154, 14.22117142042738], [79.0195505306757, 14.221886537873932], [79.02132769791919, 14.220523624848338], [79.02171966913033, 14.216049556950844], [79.02067556682104, 14.2143188719775], [79.01891644127093, 14.213615486208635], [79.0178693710617, 14.212229176129327], [79.0139921575822, 14.211508191486345], [79.01150297172912, 14.213553947723556], [79.01148190310485, 14.215964620613429], [79.01217892634699, 14.21700363815606], [79.01144276519125, 14.220441583183506], [79.01318385684436, 14.223211319384776], [79.01530809109286, 14.222540157219358]], [[79.01815339219868, 14.220152915754356], [79.01641525626744, 14.217038827487833], [79.01324101536012, 14.216668060368143], [79.01254398765876, 14.215629045399083], [79.01291806577964, 14.213221304854397], [79.01610126561869, 14.2125589214722], [79.01819839683871, 14.214987168333762], [79.02030755945819, 14.21603786761961], [79.02063661448385, 14.2187958601953], [79.01991855910141, 14.220167546157368], [79.01815339219868, 14.220152915754356]]], [[[79.16062073082857, 14.241613360551185], [79.16141054658739, 14.231286456682], [79.16388767401897, 14.23061664514664], [79.16425466223365, 14.228897297796511], [79.16320934656169, 14.227167095131888], [79.16074340297509, 14.226459257530584], [79.15898919719153, 14.225068015579426], [79.15722384841197, 14.225054407334662], [79.15543614648841, 14.227796071131706], [79.15331770701934, 14.227779705115275], [79.15189701514774, 14.228802013680765], [79.15187180994066, 14.23190170211306], [79.15291145065518, 14.234320765836308], [79.15572493499282, 14.235720239400475], [79.15708977487797, 14.241586124182863], [79.15814347395816, 14.242283121995076], [79.15990895746806, 14.242296739560603], [79.16062073082857, 14.241613360551185]], [[79.15890271052439, 14.235744762761133], [79.156100381072, 14.232967682060588], [79.1561087649173, 14.231934450296858], [79.1582244551067, 14.232295207249601], [79.15890271052439, 14.235744762761133]]], [[[79.0818676640541, 14.242715579271671], [79.08615688849888, 14.236550457131123], [79.08618589922843, 14.233106490654498], [79.08443507785556, 14.231370355050153], [79.08231669182003, 14.231353355484158], [79.07805953813532, 14.233730065580076], [79.07591488787189, 14.236812557760208], [79.0730961627953, 14.236100990362662], [79.07131619583222, 14.237808704824829], [79.07129572437343, 14.240219459409161], [79.0730494142788, 14.241611292381585], [79.07587987780204, 14.240945291156827], [79.07903718595044, 14.24338165089697], [79.0818676640541, 14.242715579271671]], [[79.07834850913248, 14.241309596741957], [79.07730968271382, 14.238890303602314], [79.07804497150944, 14.235452040632822], [79.08265813278273, 14.232733774121671], [79.0844205620407, 14.23309233689971], [79.08475040425927, 14.235850339677373], [79.08259709068597, 14.239966087753174], [79.08046407189465, 14.241671038448708], [79.07834850913248, 14.241309596741957]]], [[[79.11821835883717, 14.245071512487145], [79.12036827828598, 14.241299773694987], [79.1203882306469, 14.238888950273804], [79.11899871194554, 14.236122600929617], [79.11653001572947, 14.235758714744671], [79.11401843811802, 14.240560836186502], [79.11400413678402, 14.242282846396957], [79.11680598822896, 14.245060370735448], [79.11821835883717, 14.245071512487145]]], [[[79.04195508584787, 14.244113525673594], [79.04124299259378, 14.244796504994287], [79.04123704979838, 14.245485279326466], [79.04230222208545, 14.244805197229708], [79.04195508584787, 14.244113525673594]]], [[[79.03482799585316, 14.251631968121599], [79.03698523567681, 14.247172392950986], [79.04017484469118, 14.24582096889006], [79.03773901955564, 14.241668018523457], [79.03597366669133, 14.241653498239108], [79.03418744478843, 14.24404966533019], [79.03206004836434, 14.245065360902002], [79.03027674584823, 14.24711710443601], [79.03026180257916, 14.248839028483157], [79.0316681509471, 14.249539455419903], [79.03306256862246, 14.251617416362873], [79.03482799585316, 14.251631968121599]], [[79.03274829138574, 14.247137495801057], [79.0345196473599, 14.24646327395949], [79.03485781723595, 14.248188111083739], [79.03344251277102, 14.248520859106744], [79.03274829138574, 14.247137495801057]]], [[[79.08076474749714, 14.247872992674077], [79.08077348327812, 14.246839807091765], [79.07936113249514, 14.246828442418769], [79.07970547947895, 14.247864469308649], [79.08076474749714, 14.247872992674077]]], [[[79.04365813095258, 14.251360143723193], [79.04367297536695, 14.24963820615764], [79.04191943905404, 14.248246173037698], [79.04120435874918, 14.249273537400754], [79.04153663747009, 14.251687145813014], [79.0429460164573, 14.252043125487049], [79.04365813095258, 14.251360143723193]]], [[[79.06764183859438, 14.254655391360954], [79.06728287333235, 14.255341314480592], [79.06940146431542, 14.255358475585682], [79.06941025661065, 14.254325297577632], [79.06764183859438, 14.254655391360954]]], [[[79.06267495482189, 14.257370415133456], [79.06231597013327, 14.258056328181473], [79.06373131658256, 14.257723411127456], [79.06373425653871, 14.257379019694106], [79.06267495482189, 14.257370415133456]]], [[[79.02804154572235, 14.260530589186269], [79.0287627095181, 14.258814509097384], [79.02702119820533, 14.256044834396468], [79.02455556226504, 14.255335604427632], [79.02207192835726, 14.256692648188968], [79.0220509053966, 14.259103327882938], [79.02345127789235, 14.260492573724974], [79.0252107656334, 14.261195972272752], [79.02804154572235, 14.260530589186269]], [[79.02383138253299, 14.257396052775857], [79.02559984263743, 14.257066295060401], [79.02664413778716, 14.25879698293623], [79.02487266498778, 14.259471130173212], [79.02381937995807, 14.258773585480736], [79.02383138253299, 14.257396052775857]]], [[[79.04956882551404, 14.262085344424321], [79.05029280250766, 14.260024790549565], [79.04889520938893, 14.258291293364268], [79.04607338689839, 14.25792377245424], [79.04536125543804, 14.258606759378878], [79.04497846673935, 14.262047739314534], [79.04567873810072, 14.262742305634553], [79.04850358252169, 14.262765450493285], [79.04956882551404, 14.262085344424321]]], [[[79.08311707004823, 14.262013076241544], [79.08349346713261, 14.259260752706338], [79.08279307445079, 14.258566284081496], [79.08067443677503, 14.258549238154322], [79.0785441306088, 14.259909751037718], [79.0785324580722, 14.261287328479622], [79.080286345286, 14.262679131955288], [79.08311707004823, 14.262013076241544]]], [[[79.12899100904716, 14.266166259834662], [79.12934982106715, 14.26548022328257], [79.12899669428474, 14.265477451213245], [79.12899100904716, 14.266166259834662]]], [[[79.1214525516068, 14.280917234909674], [79.12606914770103, 14.277853784530777], [79.12714282316492, 14.276140101140326], [79.12752158645746, 14.273043244104787], [79.12578153449977, 14.269929726206], [79.12329819615051, 14.271287880004907], [79.12077483233409, 14.27746763800686], [79.1179296501187, 14.279856139144279], [79.11827421125822, 14.280892135660249], [79.1214525516068, 14.280917234909674]]], [[[79.10380095149947, 14.2800884606991], [79.10346799622013, 14.277674855982553], [79.10204966246354, 14.278352399022232], [79.10238837462667, 14.28007720665401], [79.10380095149947, 14.2800884606991]]], [[[79.16183402528017, 14.396272182838453], [79.16432991571462, 14.393536146779038], [79.16434961879118, 14.391125293821842], [79.16330089151991, 14.389739431609161], [79.16224090765948, 14.389731195144094], [79.16116964773569, 14.391100581962391], [79.16114427071211, 14.394200244410529], [79.16183402528017, 14.396272182838453]]], [[[79.16867528017843, 14.249941709799206], [79.17081337419151, 14.247547073622913], [79.1683638562298, 14.244772810868238], [79.1641294174919, 14.24439583951237], [79.16306454171482, 14.245076511262727], [79.16304224618423, 14.247831803543816], [79.16444074482584, 14.249564732504595], [79.16867528017843, 14.249941709799206]], [[79.16728508643978, 14.247175564617564], [79.16657887470876, 14.247170139156092], [79.16658443804032, 14.246481314740016], [79.16693754279869, 14.246484027595164], [79.16728508643978, 14.247175564617564]]], [[[79.18750380831015, 14.280051493429621], [79.18716443207809, 14.278326728638433], [79.18504272319107, 14.278655002855459], [79.18573800364418, 14.28003804513582], [79.18750380831015, 14.280051493429621]]], [[[79.1972936034678, 14.29252557322824], [79.19731006752512, 14.29045907232803], [79.19590284276715, 14.289759532093802], [79.19413145707574, 14.290434969675527], [79.19377003069717, 14.291465537466292], [79.19446539733292, 14.292848563759772], [79.19658174788367, 14.293209053223373], [79.1972936034678, 14.29252557322824]]], [[[79.27887019828835, 14.294507512505202], [79.277810595173, 14.29449984394235], [79.27850389130943, 14.296227115903005], [79.27921291920664, 14.295887795428202], [79.27887019828835, 14.294507512505202]]], [[[79.18629251162315, 14.29898623928739], [79.18595865909495, 14.296572644116049], [79.18418996206591, 14.296903583298562], [79.18383124402081, 14.2975897148195], [79.184523795448, 14.299317178717667], [79.18629251162315, 14.29898623928739]]], [[[79.20564155077058, 14.308777302188156], [79.20813586466548, 14.306040608910887], [79.20958960389638, 14.300884972710323], [79.21242880315465, 14.299184133902916], [79.2124424148365, 14.297462036464992], [79.20961959846669, 14.297096364440662], [79.20784545174726, 14.298116320526043], [79.20290348987783, 14.297734590801742], [79.20042566854578, 14.298404731195733], [79.19935786496961, 14.299429962183236], [79.19970009036928, 14.300810304338649], [79.20216698632757, 14.301517844867526], [79.20142496948924, 14.305989927008532], [79.20175625076551, 14.308747936849072], [79.20281039889213, 14.309444786579741], [79.20564155077058, 14.308777302188156]], [[79.203199205487, 14.304970030100247], [79.20427796602128, 14.302567112124137], [79.20604669743997, 14.302236025342085], [79.2067476326096, 14.30293019067161], [79.20673123982093, 14.30499670015918], [79.20565795803638, 14.306710794594318], [79.2038891905638, 14.30704187420706], [79.203199205487, 14.304970030100247]]], [[[79.22682073736698, 14.310658469360291], [79.22649184858503, 14.307556037188078], [79.22509252634109, 14.305823382886274], [79.22121807696435, 14.304416657512784], [79.21768330806884, 14.304734623971537], [79.21589553269335, 14.307476736404546], [79.21693342088925, 14.310240047977285], [79.21834627732558, 14.31025064450899], [79.21941406233884, 14.309225324988423], [79.22153334078281, 14.30924119342455], [79.22611160049158, 14.31099761887717], [79.22682073736698, 14.310658469360291]]], [[[79.26214539586843, 14.310574975679385], [79.26181071796782, 14.308161393861278], [79.25970201220284, 14.306768173522379], [79.25687362454231, 14.307091896106826], [79.25509158640683, 14.309145501119707], [79.25542885099078, 14.311214657123204], [79.26108042546358, 14.311256080491736], [79.26214539586843, 14.310574975679385]]], [[[79.23346991440295, 14.318630178711505], [79.23312746294286, 14.317249860124832], [79.23135862639774, 14.317581139166496], [79.23169836989608, 14.319305881585604], [79.23346991440295, 14.318630178711505]]], [[[79.26417473812563, 14.322301036844486], [79.2666606538093, 14.32059695430709], [79.2659859113651, 14.31645865075703], [79.26458621120871, 14.314726189563075], [79.26211360256455, 14.314708115540196], [79.26104065592709, 14.316422501855417], [79.26137002350161, 14.319524939602665], [79.26311766274762, 14.32194885991105], [79.26417473812563, 14.322301036844486]]], [[[79.22071838793411, 14.323012727754053], [79.2246229326205, 14.320630863839854], [79.22498428694557, 14.319600240557202], [79.2210960463029, 14.3199155903369], [79.22038415753292, 14.320599138499613], [79.2203705834464, 14.322321240070586], [79.22071838793411, 14.323012727754053]]], [[[79.23731780728185, 14.32348097420175], [79.23662747170697, 14.321409188683093], [79.23485860381469, 14.321740490545528], [79.23449459458547, 14.323115556390077], [79.2355462309971, 14.324156702489182], [79.23731780728185, 14.32348097420175]]], [[[79.22172381803361, 14.329909074537468], [79.22209334578226, 14.327845198369666], [79.22103904864781, 14.32714841839877], [79.22065864917461, 14.330589972552339], [79.22172381803361, 14.329909074537468]]], [[[79.21815055976829, 14.335048875833532], [79.2206396340591, 14.33300091301549], [79.22100918002914, 14.330937040777789], [79.21887882220697, 14.332298823093092], [79.21815055976829, 14.335048875833532]]], [[[79.19895174889058, 14.482322023282364], [79.20994008675883, 14.478617176599915], [79.21670843953248, 14.47212432536179], [79.2192293999664, 14.466288002557933], [79.21928154617947, 14.459744098752216], [79.21822943443304, 14.45870282747609], [79.2125687748763, 14.459348787501712], [79.20905361883575, 14.4569110242712], [79.19916279350477, 14.45614671208121], [79.1967192693943, 14.45233924447338], [79.19638805507248, 14.449581241871124], [79.19464314752395, 14.446812410030075], [79.19465982144033, 14.444745939018537], [79.19820790004779, 14.443050929041938], [79.19822453653106, 14.440984453299974], [79.19682197262183, 14.439595991837376], [79.19117015368569, 14.439208252773318], [79.18694595695862, 14.437109205382724], [79.18414104565002, 14.434332162760695], [79.18310319217898, 14.431568715031252], [79.18028440604613, 14.430513686913267], [79.18065458517047, 14.428449955724691], [79.18601403055993, 14.421258158520581], [79.1874359149973, 14.420235787021166], [79.19132032967286, 14.420610023786008], [79.19274218934473, 14.41958761693658], [79.19277550400834, 14.415454669366092], [79.2002571806601, 14.40793426039848], [79.2023801253011, 14.407605993365134], [79.20448652782824, 14.409344195292542], [79.2069600987128, 14.40936298956789], [79.20802845477317, 14.40833778998573], [79.20839832203009, 14.406273977600101], [79.20664527069887, 14.404538492885205], [79.20630842666267, 14.402469318304766], [79.21022555969762, 14.398710219677724], [79.21202248561882, 14.394935012143804], [79.21628999338489, 14.391522873820577], [79.21844827875205, 14.386717007685347], [79.22092979969493, 14.385702371515931], [79.22378368585565, 14.382279426281071], [79.22874928394182, 14.379905575523187], [79.23122527321011, 14.379579658048995], [79.23408704210335, 14.375123296058248], [79.23727231417062, 14.374458157836823], [79.23940570632293, 14.372751825308484], [79.24084051874279, 14.370006951462203], [79.24546849581697, 14.365563528899902], [79.24832979138085, 14.361106937172208], [79.25187081431211, 14.360099761528803], [79.25507986504344, 14.356334521579019], [79.26075650598186, 14.353276239341714], [79.26360671847621, 14.350197116734169], [79.26751139985409, 14.347814553808215], [79.26824178429014, 14.344719859848624], [79.27037995134647, 14.342324327887503], [79.27146354037383, 14.33923219181562], [79.27148466069208, 14.336476757399396], [79.269752680645, 14.331986304004294], [79.2722624104285, 14.327182304242454], [79.27227295702114, 14.325804585139556], [79.27298736077911, 14.324776435639176], [79.27617185033088, 14.324110678277055], [79.27936420132735, 14.32241158253213], [79.28079553973912, 14.32001079616564], [79.28292546520534, 14.318648401025799], [79.28436197205566, 14.315558721009204], [79.28478318858483, 14.306606026927426], [79.28621435329234, 14.304205187243554], [79.28626395220208, 14.297660959236188], [79.28697297592151, 14.297321614856225], [79.28698601837613, 14.295599448275459], [79.28558625296724, 14.293867104337169], [79.28564105011952, 14.286634006121336], [79.28108619655931, 14.28177883374064], [79.27861654476122, 14.281416539458835], [79.27369302680907, 14.278625288307682], [79.268408569497, 14.27686467253642], [79.26701169295559, 14.274787815376156], [79.26101313174945, 14.274055199315693], [79.25926847186604, 14.271286869718129], [79.25681224088837, 14.26920222276965], [79.25648292759158, 14.266099781619438], [79.25543937255641, 14.264025457684246], [79.25652265523085, 14.26093335103145], [79.25620658293145, 14.2561087650578], [79.25233534587272, 14.254358187952745], [79.25056702302045, 14.25468967100166], [79.2505510868866, 14.25675623800872], [79.25301243701738, 14.258152073246602], [79.25299651912486, 14.260218642363222], [79.25120955656719, 14.262961119532758], [79.2511909597514, 14.265372113499971], [79.25329394055146, 14.267454220143708], [79.25361259183948, 14.271934372426287], [79.2521919772603, 14.272957295661055], [79.24832050680378, 14.271206626371294], [79.24655204722103, 14.271538063479134], [79.24584039622145, 14.272221716867646], [79.2461482265369, 14.278079566932073], [79.25072613290082, 14.279835472272465], [79.25358338772519, 14.275723079033739], [79.25570504365, 14.275394179019644], [79.25710711209935, 14.276782234251753], [79.2599245317648, 14.277836180854997], [79.26166659716905, 14.280948939986441], [79.26307930481366, 14.280959249970882], [79.26379622174281, 14.279586683578307], [79.26485838608576, 14.279249976875663], [79.2659099985271, 14.280290984945514], [79.27084658686019, 14.281360236054999], [79.27577011825518, 14.284151548233313], [79.27859297681216, 14.284516429145935], [79.28280769223947, 14.287646936014532], [79.2841734479531, 14.293856918859552], [79.28414209574359, 14.297990112710647], [79.28162514779261, 14.303827610362026], [79.28155705500103, 14.312782842305912], [79.28048425651109, 14.314497334354481], [79.27728677696282, 14.316885321662475], [79.2762007786924, 14.320321941529034], [79.27407343568571, 14.321339839588505], [79.2698345346661, 14.321308995095265], [79.26841364503767, 14.322331984427416], [79.26804454754735, 14.324395982927893], [79.26661833972923, 14.326107815720405], [79.26481767098426, 14.330572482133624], [79.26545531630575, 14.339532781832215], [79.26330121119369, 14.343994832963231], [79.26117624474053, 14.34466815452359], [79.26012173349247, 14.343971526516313], [79.2552505138019, 14.33429125145314], [79.2534948868667, 14.332900552830221], [79.25390411350742, 14.325670199675441], [79.25146074586813, 14.321863314542977], [79.24943207820668, 14.31013721957443], [79.24593997881225, 14.304944792378734], [79.24173627083692, 14.300435958013118], [79.23965190338973, 14.295942759502976], [79.2378966562333, 14.294551986224098], [79.2312021498431, 14.292435644502536], [79.22593672713674, 14.288263131818661], [79.22559704657411, 14.28653838733073], [79.22454561545031, 14.28549721950451], [79.21783798074293, 14.285102650379235], [79.21573793390877, 14.282675831557919], [79.21080988014744, 14.280572204834929], [79.20835679012544, 14.278142679957831], [79.20377934416068, 14.276386001383012], [79.20202722035889, 14.274650586224173], [79.20168773391629, 14.272925829332744], [79.19816168756702, 14.272210307956314], [79.19396230776574, 14.267356381706437], [79.18974385482642, 14.264913313991197], [79.18729667314153, 14.261794784017518], [79.18625931214183, 14.259031400953353], [79.1845046996479, 14.257640301496703], [79.18097897102027, 14.256924559372743], [79.17884916856379, 14.258286044522738], [79.17669441892762, 14.262747231183896], [79.17316310231986, 14.262720193327647], [79.17034639160504, 14.261665287945716], [79.16684016032265, 14.258538451227196], [79.16331171772603, 14.25816686403592], [79.15906307404708, 14.259511826396404], [79.15589336670016, 14.258454035777154], [79.15590176713289, 14.257420806335244], [79.15767016344654, 14.25709004447224], [79.15944973371586, 14.25538162662636], [79.159825198073, 14.252629066189083], [79.15806802129809, 14.251582207129754], [79.15594935688021, 14.251565837718553], [79.15417540060415, 14.252585411131845], [79.15029117594874, 14.252555320752796], [79.15101423546459, 14.250494342159639], [79.15102826467518, 14.248772296647056], [79.15032766775767, 14.248078004482615], [79.14820623550241, 14.248405978891922], [79.14748034920345, 14.250811355411162], [79.14853124258536, 14.251852805341743], [79.14851157021887, 14.254263664950795], [79.15062744347222, 14.254624512331928], [79.15272369364979, 14.257396206466115], [79.1491925080035, 14.2573688236645], [79.14814158886813, 14.256327373645833], [79.14780534392573, 14.254258181275787], [79.14639570601511, 14.253902799590007], [79.14215554439893, 14.254214236690158], [79.13896058895445, 14.256255898610009], [79.13648313132856, 14.256925407125616], [79.1343644430193, 14.256908839990945], [79.13155087650084, 14.255509100867773], [79.12872030305682, 14.256175760008233], [79.12377673956647, 14.256136915231767], [79.12131351988381, 14.255084245211588], [79.11566092487027, 14.255384072715414], [79.11214704031524, 14.253289737308533], [79.1096753117609, 14.253270159861508], [79.10651462403835, 14.251178549866369], [79.10193873392447, 14.249420071441937], [79.09240805828622, 14.24899963228077], [79.08324219203683, 14.247204070886115], [79.08426948255185, 14.251000932580244], [79.0874473411268, 14.251026433309404], [79.09307662297128, 14.253482446334026], [79.10260749066346, 14.253902882179279], [79.10576241850802, 14.256683343711192], [79.10859590227467, 14.255672565817516], [79.11034135645671, 14.258097368683735], [79.11316338549219, 14.258464141730522], [79.11597112238886, 14.260552892004638], [79.11738644783591, 14.260219648385691], [79.12020281515453, 14.26127514800027], [79.12938960173797, 14.260658560782788], [79.13185008945129, 14.262055563831082], [79.14527159687363, 14.261815942306093], [79.15760580624882, 14.265011475919975], [79.16396497948877, 14.264716117687419], [79.17521812291376, 14.270657928429214], [79.18192511012442, 14.271053640234639], [79.18862113096134, 14.272826828750903], [79.1917829914544, 14.274917473503798], [79.19493393379507, 14.278385749852754], [79.20267340146955, 14.282233117672611], [79.20581642653801, 14.286734535091865], [79.20722639957961, 14.287089599400407], [79.21143457422014, 14.290910101651189], [79.21530328829816, 14.293005794496217], [79.2163547025883, 14.294047001674947], [79.2156265905129, 14.296797065813301], [79.21738984047059, 14.297154728160145], [79.2198757506546, 14.295451140537226], [79.2230544764908, 14.295474907546092], [79.22727119108173, 14.29826190944951], [79.23220249757036, 14.300020831284098], [79.23955536144345, 14.308342040259557], [79.24232481790857, 14.315595871844863], [79.24225510854686, 14.324550907439628], [79.23830761733161, 14.332443849222438], [79.23475083499521, 14.3355174028016], [79.23290356857964, 14.3458369183617], [79.23002869072404, 14.352015422789803], [79.22861014714663, 14.352693707574776], [79.22230270209326, 14.3461021165296], [79.22126191584027, 14.343683229526595], [79.218107016078, 14.340559586527853], [79.21742227575179, 14.337798923677814], [79.2128381270182, 14.336731116191714], [79.21035988013055, 14.337401311748252], [79.20715320168271, 14.340821479624346], [79.20538141979688, 14.34149695547753], [79.20181859495852, 14.34525877672956], [79.19933472876247, 14.34661767312632], [79.19927967537444, 14.353505983204432], [79.1981867754239, 14.3576309094781], [79.19604775389843, 14.360025682182407], [79.19496303629452, 14.363117337922219], [79.1917640375181, 14.365503979528038], [79.18926048371017, 14.369273626522752], [79.18394429512425, 14.371299506889436], [79.17757926944321, 14.371939454769425], [79.17402946830842, 14.373978687716608], [79.16943650400962, 14.373943208480737], [79.16732509747746, 14.372893577349869], [79.16485198252765, 14.372874415588685], [79.16130488969576, 14.374569034471634], [79.15738186376306, 14.379016095993277], [79.15348414288727, 14.380363420545129], [79.14992268601695, 14.383779868770059], [79.1484838844029, 14.386868452470658], [79.1449307771952, 14.38925159056368], [79.14420990453645, 14.390968063958073], [79.14064528413546, 14.394728735366252], [79.13919770933335, 14.39885044361531], [79.13986728235636, 14.403333240430777], [79.13771577522758, 14.407104959271946], [79.13732238970736, 14.411923797942558], [79.13625373094015, 14.412948636955667], [79.12600634696543, 14.412867519556983], [79.12314778601421, 14.416633451467266], [79.12031511522218, 14.417299752558552], [79.11605161336611, 14.420021123042297], [79.11390243572794, 14.423448155144488], [79.11106385659922, 14.424803123339398], [79.109279557041, 14.426855344031713], [79.10993400069248, 14.433060131987244], [79.10849427651468, 14.436148354990932], [79.10493122590808, 14.43956391917553], [79.10245454494319, 14.439888409860545], [79.10102927877334, 14.44125459934706], [79.10135637835015, 14.444356989889245], [79.10485830844613, 14.448173778147016], [79.10589811968067, 14.450593066298232], [79.1115178273483, 14.454771218021294], [79.11785040795185, 14.458266119316736], [79.12243628609636, 14.459336000712787], [79.12773773807824, 14.459378226211001], [79.1291601089802, 14.458356269974637], [79.12955675736288, 14.45319309480065], [79.12885855991986, 14.452154282836414], [79.1288816099091, 14.449399091446494], [79.12959707962791, 14.448371507916232], [79.13278930426723, 14.447019142935776], [79.1367055238729, 14.443605917139969], [79.13850120891315, 14.440175872829657], [79.1427849021734, 14.43504329941421], [79.15130621380692, 14.43028830641349], [79.15626501351721, 14.428949418107106], [79.15731951296027, 14.429646513623618], [79.15730817985022, 14.43102413400552], [79.15338111475347, 14.435815386324464], [79.15336691157927, 14.437537407041907], [79.15476632347675, 14.439270498629053], [79.15652767357795, 14.43997313498484], [79.16430262034379, 14.44003381967862], [79.17350248133481, 14.438727575850427], [79.18019483197412, 14.441534786491797], [79.18300256440392, 14.443967469669358], [79.18471935145479, 14.450180467664522], [79.18752723675591, 14.45261311361593], [79.18820619472615, 14.45606265628207], [79.19206615839752, 14.459536650757741], [79.19240010411171, 14.461950241826695], [79.1913313991374, 14.462975328157832], [79.19131467249638, 14.465041792168618], [79.19448183008463, 14.466788276844724], [79.19550881030055, 14.470929347113378], [79.1951108063621, 14.476437213197041], [79.19614617186129, 14.47954505063294], [79.19895174889058, 14.482322023282364]], [[79.19419795166746, 14.458175282967304], [79.19068862042174, 14.455048448754896], [79.18860426977277, 14.450554808397754], [79.18614423359895, 14.448813718382238], [79.18547090239754, 14.444675353825508], [79.18372617078212, 14.441906460180308], [79.18091565365135, 14.439818196717594], [79.17738716148251, 14.439102076515779], [79.17422053145204, 14.437355419299838], [79.17068648283407, 14.43732802073674], [79.1689110103996, 14.43834752299307], [79.15618845184972, 14.438248347406262], [79.15513675744889, 14.43720683845121], [79.1551481089807, 14.435829220480445], [79.15764173974462, 14.433437730855374], [79.15907797088384, 14.430693528835793], [79.15909212314479, 14.428971501563227], [79.15768989687447, 14.427582843155074], [79.15557241437601, 14.427221867851204], [79.14990403440137, 14.428899606591928], [79.14244864828196, 14.432974102762415], [79.1388889702944, 14.436045848680497], [79.13531198133425, 14.441183931384703], [79.1313986665124, 14.44425273759637], [79.12857140853552, 14.444230299094373], [79.12366125570992, 14.439713774285538], [79.11486980854133, 14.434477324968272], [79.11347076091825, 14.43274403646456], [79.11209205313901, 14.428599968618483], [79.11316669326828, 14.426886469776665], [79.11636735117973, 14.424501108494628], [79.11780398527277, 14.42175720981453], [79.12171125409513, 14.419377395736358], [79.12419058408986, 14.418708272288955], [79.1266957996195, 14.414939525539037], [79.13623655729816, 14.415015045653028], [79.13872438868054, 14.413312552430758], [79.13912060725892, 14.408149306453833], [79.14163400709016, 14.403347145188032], [79.14096439812205, 14.398864349146125], [79.14205291134348, 14.395428655361185], [79.14490233501449, 14.392695628771122], [79.14669455509149, 14.389609848425332], [79.14989149573914, 14.38756832322825], [79.15097130005636, 14.385165777865074], [79.15346716807805, 14.382429855172907], [79.15843050942836, 14.380401975365954], [79.15950736400342, 14.378343781662915], [79.16448462719171, 14.374593716761789], [79.174724898446, 14.375361778504143], [79.17827471796731, 14.37332253717811], [79.1828704747457, 14.373013431771916], [79.18960269881255, 14.3706539807256], [79.19173912885923, 14.36860370167448], [79.19210349845953, 14.36722874529334], [79.19637344705832, 14.363472518349171], [79.1978169510088, 14.359694712343794], [79.1992411206058, 14.358327797758516], [79.20069554021597, 14.353172300622141], [79.2000192546421, 14.349378363649102], [79.20074229954223, 14.347317232585286], [79.20251413900652, 14.3466417986806], [79.20607971907035, 14.342535551580736], [79.20927276249031, 14.340837491856067], [79.21034621291089, 14.33912340144413], [79.21282447938364, 14.338453208324218], [79.2152891041701, 14.339505081856858], [79.2170390601711, 14.341584879747279], [79.21772380153223, 14.344345543654944], [79.2264985870759, 14.351644593573766], [79.2271780413581, 14.355094086054697], [79.225036608996, 14.357833579787934], [79.2250230336839, 14.35955568033155], [79.22572419082667, 14.360249813790558], [79.2274960845897, 14.3595741967996], [79.2285884775914, 14.35544907486262], [79.23072713920698, 14.353053962266774], [79.23321093168245, 14.351694723755218], [79.233936394721, 14.349289035505286], [79.23536299498092, 14.347577447308328], [79.23610728402987, 14.342760789305093], [79.24039489355663, 14.336592658288986], [79.24149226477388, 14.33177858161565], [79.24399719823955, 14.327663797750992], [79.24474118920287, 14.322847076395542], [79.24725664148451, 14.317354535533548], [79.24515331367395, 14.315272337228782], [79.24448165307216, 14.31078959219518], [79.24273698050922, 14.308021140219674], [79.23993003427975, 14.305589261149283], [79.23818545401977, 14.302820785569887], [79.23607696497227, 14.301427377239527], [79.23433515034222, 14.298314457961652], [79.22131018100904, 14.292706338660894], [79.2216769034669, 14.29098687184554], [79.22274457353512, 14.289961523496931], [79.22415730779332, 14.289972070854072], [79.2266187985969, 14.291368198073085], [79.228716346533, 14.294139364665703], [79.23787787463525, 14.296962956539494], [79.23996221190629, 14.301456167278495], [79.24311696800751, 14.30457950145193], [79.24555468462552, 14.309075291161323], [79.24765796568524, 14.311157480785683], [79.24796310340582, 14.317359747269272], [79.24971324261264, 14.319439322649075], [79.24933330223622, 14.32288097648989], [79.24720316673174, 14.32424304234124], [79.24432632657711, 14.330766231616748], [79.24182672677053, 14.334192166807078], [79.24179450652524, 14.338325253469732], [79.24107454781016, 14.340042134247327], [79.23571357437307, 14.347924498957322], [79.23496924669888, 14.352741150815303], [79.23989369763731, 14.355533317422324], [79.24554901817356, 14.35523081265735], [79.25476660159245, 14.351165533033598], [79.25904328592091, 14.346374735945053], [79.26328528770576, 14.34606139854992], [79.2647090109936, 14.344694033471331], [79.26507819362858, 14.34263005069691], [79.26686574556625, 14.339887539016715], [79.26694249254773, 14.329899110988434], [79.26908843763584, 14.326470286113725], [79.2701481857473, 14.32647801037159], [79.27014026579522, 14.327511298492542], [79.26798903561028, 14.331628990991684], [79.26797581391396, 14.33335113508931], [79.26972361945077, 14.33577502410593], [79.27005310462357, 14.338877461613977], [79.26896949928303, 14.341969589346812], [79.2668313225444, 14.344365107346377], [79.26645950154652, 14.346773522182984], [79.26467983817027, 14.348482739374465], [79.26326405244083, 14.34881681874603], [79.25970195910455, 14.352579605549538], [79.25438128724282, 14.355296040247477], [79.25117224282693, 14.359061271397115], [79.24763123491168, 14.36006843817433], [79.24406064658561, 14.364864207192646], [79.24121536910147, 14.367254193834608], [79.23728311131195, 14.373080470002492], [79.23303520355155, 14.37408212126781], [79.2319671299517, 14.375107468595592], [79.23088278824387, 14.378199333917259], [79.22237582116607, 14.381579972201086], [79.21952192578314, 14.385002899187416], [79.21668160905986, 14.386703692260207], [79.21523544290156, 14.390826039214376], [79.21203893722074, 14.392868512292754], [79.20917100027143, 14.398013356676937], [79.20489775560765, 14.402114167962957], [79.20487847227177, 14.404525073082823], [79.2066287555302, 14.406604984582653], [79.20626713225602, 14.407635546783004], [79.20485367416016, 14.407624807478168], [79.20239116258094, 14.406228335613479], [79.19955874415518, 14.406895632057228], [79.19385504468632, 14.413051894942988], [79.1913675629356, 14.414755019398697], [79.1909864028766, 14.418196431695046], [79.19027408590375, 14.418879837096238], [79.18815659519672, 14.418519157658935], [79.1863841321871, 14.419194408835168], [79.18282242455615, 14.42261132904973], [79.1820988944584, 14.424672345281513], [79.17996179000872, 14.426722455055687], [79.17781063840121, 14.43049458594357], [79.17850342426382, 14.432222091834593], [79.18202902044608, 14.433282593217225], [79.18306686541317, 14.436046044675633], [79.18552953683295, 14.437442739115742], [79.18692922105616, 14.439175668889831], [79.19080282348453, 14.440927596704512], [79.19503824342753, 14.441648938849882], [79.19255042476213, 14.443352035957584], [79.19253095084126, 14.445762916235951], [79.19426470266204, 14.449909406627304], [79.19459032935569, 14.453356232388709], [79.19598739608367, 14.455433537647725], [79.19596516280347, 14.458188831774759], [79.19419795166746, 14.458175282967304]], [[79.24061641885388, 14.353472025875535], [79.2421074875564, 14.34349422865387], [79.24461524772516, 14.339035031389749], [79.24571790648822, 14.333532077846701], [79.24750559128552, 14.330789728609137], [79.24892394574464, 14.33011130731531], [79.24994629369694, 14.334941080592795], [79.25238441041357, 14.339436842039735], [79.25588510378059, 14.34359595874631], [79.2565650088122, 14.347045417679162], [79.25335880160692, 14.350466272735645], [79.24769555286733, 14.351802252502518], [79.24449988681772, 14.353845267823392], [79.24061641885388, 14.353472025875535]], [[79.25108616065029, 14.324616121213765], [79.25142606247157, 14.326340852849503], [79.25036632558454, 14.326333045116375], [79.24967318932747, 14.324605709056494], [79.25108616065029, 14.324616121213765]], [[79.20480879098085, 14.280182594567776], [79.20481425150034, 14.27949375740913], [79.20552057890143, 14.279499081526968], [79.20727276560788, 14.28123447782301], [79.20480879098085, 14.280182594567776]], [[79.18197207528581, 14.265198592776118], [79.18233349636179, 14.264168042138706], [79.18410193261012, 14.263837085940194], [79.18550344784367, 14.26522550474574], [79.18549242056604, 14.266603165948704], [79.1833735832883, 14.266587023415255], [79.18197207528581, 14.265198592776118]]], [[[79.16442118413346, 14.425568751210808], [79.17047653074093, 14.419760486022293], [79.17756927796141, 14.416715487140435], [79.18220222325652, 14.411929166219869], [79.18468415433279, 14.410914964384828], [79.18859620953734, 14.40784511002234], [79.19395761918896, 14.400308620165868], [79.20036487384456, 14.394502106220585], [79.20753890560844, 14.381123582287866], [79.2082839777693, 14.376307106121878], [79.21007248711301, 14.373565140243725], [79.20939602087853, 14.369771210758952], [79.2065695772208, 14.369749816256984], [79.1987637874293, 14.37382378489476], [79.19522516319459, 14.374485698521601], [79.19166990693456, 14.377214036497946], [79.1845146249475, 14.388181106534702], [79.18024398406503, 14.391937033674811], [79.17735301215347, 14.399836688028767], [79.17413367091378, 14.404633864934295], [79.16985972267022, 14.408733950256412], [79.16625573513859, 14.41731672311468], [79.16447477690012, 14.419025023631496], [79.16234888529108, 14.419697336501077], [79.15984981442446, 14.422777714298885], [79.16018905645828, 14.424502499312878], [79.16194749307182, 14.425549490353507], [79.16442118413346, 14.425568751210808]], [[79.16197291664471, 14.422449834709067], [79.1676607794937, 14.418360922958373], [79.17126754526589, 14.40943371658414], [79.17589764052919, 14.404991924149554], [79.17733623303229, 14.40190314699944], [79.17840187339402, 14.401222502546407], [79.18165174780628, 14.392636730438365], [79.18592238303502, 14.38888077686299], [79.19272154435801, 14.378255374523762], [79.19521410739208, 14.375863354511958], [79.19875275382672, 14.375201443656264], [79.20655859466461, 14.371127481416053], [79.20832513220869, 14.371140858264953], [79.2086592403498, 14.373554448483], [79.20686796879612, 14.376640817861853], [79.20648443193176, 14.380426716838498], [79.19966923178005, 14.393119067559931], [79.19254698988189, 14.399953399828537], [79.1893251670939, 14.405095233755631], [79.18576374934949, 14.408512233678143], [79.18186002336057, 14.41054880382484], [79.17758327395964, 14.414993439954696], [79.1697810247225, 14.418377374498853], [79.16514487411203, 14.423507808858307], [79.16231499952741, 14.423830212340333], [79.16197291664471, 14.422449834709067]]]]}}, {"type": "Feature", "properties": {"depth_class": 2, "depth_lo_m": 1.0, "t_s": 58500.697181520336}, "geometry": {"type": "MultiPolygon", "coordinates": [[[[79.02027459039152, 14.219826087145787], [79.02065159775512, 14.21707394186038], [79.01960750057071, 14.215343252802397], [79.01819839683871, 14.214987168333762], [79.01610126561869, 14.2125589214722], [79.01291806577964, 14.213221304854397], [79.01254398765876, 14.215629045399083], [79.01324101536012, 14.216668060368143], [79.01641525626744, 14.217038827487833], [79.01815339219868, 14.220152915754356], [79.02027459039152, 14.219826087145787]], [[79.01430610767282, 14.21598809505003], [79.013974124304, 14.213574486052321], [79.01644227872582, 14.213939381788796], [79.0164272670522, 14.215661296171254], [79.01430610767282, 14.21598809505003]]], [[[79.15890271052439, 14.235744762761133], [79.1578741660003, 14.231948073218977], [79.1561087649173, 14.231934450296858], [79.156100381072, 14.232967682060588], [79.15890271052439, 14.235744762761133]]], [[[79.081173141624, 14.241332321110304], [79.08331196512026, 14.238938571079752], [79.08475040425927, 14.235850339677373], [79.08477072646167, 14.233439565102909], [79.08371733209553, 14.232742275542826], [79.08194909323745, 14.23307249975079], [79.07768607369903, 14.236137988239372], [79.07730968271382, 14.238890303602314], [79.07799834522582, 14.240962359037873], [79.07905175351007, 14.241659675978543], [79.081173141624, 14.241332321110304]], [[79.07907505755851, 14.238904515563013], [79.0798044985569, 14.236155034465481], [79.08227890498691, 14.2358305021813], [79.08083752428796, 14.23926310993337], [79.07907505755851, 14.238904515563013]]], [[[79.16728508643978, 14.247175564617564], [79.16658443804032, 14.246481314740016], [79.16657887470876, 14.247170139156092], [79.16728508643978, 14.247175564617564]]], [[[79.03486974355957, 14.246810567973677], [79.0334604150932, 14.246454546198297], [79.03274232180557, 14.247826266477611], [79.03450175466527, 14.248529588185537], [79.03486974355957, 14.246810567973677]]], [[[79.02628804568184, 14.259138443746428], [79.02630303036523, 14.257416525317973], [79.02383138253299, 14.257396052775857], [79.02416947409795, 14.259120895213629], [79.02628804568184, 14.259138443746428]]], [[[79.20727276560788, 14.28123447782301], [79.20622417851584, 14.279848822404075], [79.20481425150034, 14.27949375740913], [79.20550966186275, 14.280876756337202], [79.20727276560788, 14.28123447782301]]], [[[79.20565795803638, 14.306710794594318], [79.20673123982093, 14.30499670015918], [79.2067476326096, 14.30293019067161], [79.20498709970973, 14.302228028287065], [79.20356335675694, 14.303595028921507], [79.20319099198626, 14.306003282696928], [79.2038891905638, 14.30704187420706], [79.20565795803638, 14.306710794594318]]], [[[79.25108616065029, 14.324616121213765], [79.24967318932747, 14.324605709056494], [79.25036632558454, 14.326333045116375], [79.25142606247157, 14.326340852849503], [79.25108616065029, 14.324616121213765]]], [[[79.19563951673368, 14.454742005981021], [79.19459032935569, 14.453356232388709], [79.19426470266204, 14.449909406627304], [79.19253095084126, 14.445762916235951], [79.19255042476213, 14.443352035957584], [79.19503824342753, 14.441648938849882], [79.19080282348453, 14.440927596704512], [79.18692922105616, 14.439175668889831], [79.18552953683295, 14.437442739115742], [79.18306686541317, 14.436046044675633], [79.18202902044608, 14.433282593217225], [79.17850342426382, 14.432222091834593], [79.17781063840121, 14.43049458594357], [79.17996179000872, 14.426722455055687], [79.1820988944584, 14.424672345281513], [79.18282242455615, 14.42261132904973], [79.1863841321871, 14.419194408835168], [79.18815659519672, 14.418519157658935], [79.19027408590375, 14.418879837096238], [79.1909864028766, 14.418196431695046], [79.1913675629356, 14.414755019398697], [79.19385504468632, 14.413051894942988], [79.19955874415518, 14.406895632057228], [79.20239116258094, 14.406228335613479], [79.20485367416016, 14.407624807478168], [79.20626713225602, 14.407635546783004], [79.2066287555302, 14.406604984582653], [79.20487847227177, 14.404525073082823], [79.20489775560765, 14.402114167962957], [79.20917100027143, 14.398013356676937], [79.21203893722074, 14.392868512292754], [79.21523544290156, 14.390826039214376], [79.21668160905986, 14.386703692260207], [79.21952192578314, 14.385002899187416], [79.22237582116607, 14.381579972201086], [79.23088278824387, 14.378199333917259], [79.2319671299517, 14.375107468595592], [79.23303520355155, 14.37408212126781], [79.23728311131195, 14.373080470002492], [79.24121536910147, 14.367254193834608], [79.24406064658561, 14.364864207192646], [79.24763123491168, 14.36006843817433], [79.25117224282693, 14.359061271397115], [79.25438128724282, 14.355296040247477], [79.25970195910455, 14.352579605549538], [79.26326405244083, 14.34881681874603], [79.26467983817027, 14.348482739374465], [79.26645950154652, 14.346773522182984], [79.2668313225444, 14.344365107346377], [79.26896949928303, 14.341969589346812], [79.27005310462357, 14.338877461613977], [79.26972361945077, 14.33577502410593], [79.26797581391396, 14.33335113508931], [79.26798903561028, 14.331628990991684], [79.27014026579522, 14.327511298492542], [79.2701481857473, 14.32647801037159], [79.26908843763584, 14.326470286113725], [79.26694249254773, 14.329899110988434], [79.26686574556625, 14.339887539016715], [79.26507819362858, 14.34263005069691], [79.2647090109936, 14.344694033471331], [79.26328528770576, 14.34606139854992], [79.25904328592091, 14.346374735945053], [79.25476660159245, 14.351165533033598], [79.24554901817356, 14.35523081265735], [79.23989369763731, 14.355533317422324], [79.23496924669888, 14.352741150815303], [79.23571357437307, 14.347924498957322], [79.24107454781016, 14.340042134247327], [79.24179450652524, 14.338325253469732], [79.24182672677053, 14.334192166807078], [79.24432632657711, 14.330766231616748], [79.24720316673174, 14.32424304234124], [79.24933330223622, 14.32288097648989], [79.24971324261264, 14.319439322649075], [79.24796310340582, 14.317359747269272], [79.24765796568524, 14.311157480785683], [79.24555468462552, 14.309075291161323], [79.24311696800751, 14.30457950145193], [79.23996221190629, 14.301456167278495], [79.23787787463525, 14.296962956539494], [79.228716346533, 14.294139364665703], [79.2266187985969, 14.291368198073085], [79.22415730779332, 14.289972070854072], [79.22274457353512, 14.289961523496931], [79.2216769034669, 14.29098687184554], [79.22131018100904, 14.292706338660894], [79.23433515034222, 14.298314457961652], [79.23607696497227, 14.301427377239527], [79.2371338915396, 14.301779659378475], [79.24273698050922, 14.308021140219674], [79.24448165307216, 14.31078959219518], [79.24515331367395, 14.315272337228782], [79.24725664148451, 14.317354535533548], [79.24474118920287, 14.322847076395542], [79.24399719823955, 14.327663797750992], [79.24149226477388, 14.33177858161565], [79.24039489355663, 14.336592658288986], [79.23610728402987, 14.342760789305093], [79.23536299498092, 14.347577447308328], [79.233936394721, 14.349289035505286], [79.23321093168245, 14.351694723755218], [79.23072713920698, 14.353053962266774], [79.2285884775914, 14.35544907486262], [79.2274960845897, 14.3595741967996], [79.22678407302499, 14.360257749816213], [79.2250230336839, 14.35955568033155], [79.225036608996, 14.357833579787934], [79.2271780413581, 14.355094086054697], [79.2264985870759, 14.351644593573766], [79.21772380153223, 14.344345543654944], [79.2170390601711, 14.341584879747279], [79.2152891041701, 14.339505081856858], [79.21282447938364, 14.338453208324218], [79.21034621291089, 14.33912340144413], [79.20927276249031, 14.340837491856067], [79.20607971907035, 14.342535551580736], [79.20251413900652, 14.3466417986806], [79.20074229954223, 14.347317232585286], [79.20002200605018, 14.349033947984793], [79.20069554021597, 14.353172300622141], [79.1992411206058, 14.358327797758516], [79.1978169510088, 14.359694712343794], [79.19637344705832, 14.363472518349171], [79.19210349845953, 14.36722874529334], [79.19173912885923, 14.36860370167448], [79.18960269881255, 14.3706539807256], [79.1828704747457, 14.373013431771916], [79.17827471796731, 14.37332253717811], [79.174724898446, 14.375361778504143], [79.16448462719171, 14.374593716761789], [79.15950736400342, 14.378343781662915], [79.15843050942836, 14.380401975365954], [79.15346716807805, 14.382429855172907], [79.15097130005636, 14.385165777865074], [79.14989149573914, 14.38756832322825], [79.14669455509149, 14.389609848425332], [79.14490233501449, 14.392695628771122], [79.14205291134348, 14.395428655361185], [79.14096439812205, 14.398864349146125], [79.14163400709016, 14.403347145188032], [79.13912060725892, 14.408149306453833], [79.13872438868054, 14.413312552430758], [79.13623655729816, 14.415015045653028], [79.1266957996195, 14.414939525539037], [79.12419058408986, 14.418708272288955], [79.12171125409513, 14.419377395736358], [79.11780398527277, 14.42175720981453], [79.11636735117973, 14.424501108494628], [79.11316669326828, 14.426886469776665], [79.11209205313901, 14.428599968618483], [79.11347076091825, 14.43274403646456], [79.11486980854133, 14.434477324968272], [79.12366125570992, 14.439713774285538], [79.12857140853552, 14.444230299094373], [79.1313986665124, 14.44425273759637], [79.13531198133425, 14.441183931384703], [79.13603312882452, 14.439467519624245], [79.14138275592677, 14.433654552173873], [79.14990403440137, 14.428899606591928], [79.15663257133733, 14.427230155255408], [79.15909212314479, 14.428971501563227], [79.15907797088384, 14.430693528835793], [79.15764173974462, 14.433437730855374], [79.1551481089807, 14.435829220480445], [79.15513675744889, 14.43720683845121], [79.15618845184972, 14.438248347406262], [79.1689110103996, 14.43834752299307], [79.17068648283407, 14.43732802073674], [79.17422053145204, 14.437355419299838], [79.17738716148251, 14.439102076515779], [79.18021163288253, 14.439468331145614], [79.18372617078212, 14.441906460180308], [79.18547090239754, 14.444675353825508], [79.18614423359895, 14.448813718382238], [79.18860426977277, 14.450554808397754], [79.19068862042174, 14.455048448754896], [79.19419795166746, 14.458175282967304], [79.19596516280347, 14.458188831774759], [79.19563951673368, 14.454742005981021]], [[79.16194749307182, 14.425549490353507], [79.15984133058645, 14.423810931676945], [79.1605678797502, 14.421405601424306], [79.16625573513859, 14.41731672311468], [79.16985972267022, 14.408733950256412], [79.17413367091378, 14.404633864934295], [79.17735301215347, 14.399836688028767], [79.18024398406503, 14.391937033674811], [79.1845146249475, 14.388181106534702], [79.19166990693456, 14.377214036497946], [79.19522516319459, 14.374485698521601], [79.1987637874293, 14.37382378489476], [79.2065695772208, 14.369749816256984], [79.20939602087853, 14.369771210758952], [79.21007248711301, 14.373565140243725], [79.2082839777693, 14.376307106121878], [79.20790046573767, 14.380093010327421], [79.20503538980785, 14.384893402096717], [79.20466555146453, 14.386957213257707], [79.20288236466293, 14.389010285190539], [79.20036487384456, 14.394502106220585], [79.19395761918896, 14.400308620165868], [79.19073582027103, 14.405450476373403], [79.1857498226898, 14.410234289658602], [79.18220222325652, 14.411929166219869], [79.17756927796141, 14.416715487140435], [79.17047653074093, 14.419760486022293], [79.16584036179718, 14.424890931987376], [79.16442118413346, 14.425568751210808], [79.16194749307182, 14.425549490353507]], [[79.17824243987221, 14.420853856628517], [79.18182093442026, 14.415370548596577], [79.19071360270587, 14.408205774136134], [79.19429434633281, 14.402377799115412], [79.2014166274621, 14.395543418243852], [79.20393410871009, 14.390051584834183], [79.20607612964443, 14.387312354338263], [79.20716360557294, 14.38387623342316], [79.20858789639406, 14.382509276418947], [79.209330211806, 14.378037212008554], [79.2114802574338, 14.374264657814072], [79.21151311870844, 14.370131651757879], [79.20940972583044, 14.368049126403028], [79.20693660627946, 14.368030410393386], [79.19806820424364, 14.37244074782952], [79.19417629346276, 14.37309995816555], [79.18778068180977, 14.377528716939656], [79.18602244937992, 14.376481944388095], [79.18603356196915, 14.375104295492719], [79.19100483399095, 14.37204243732513], [79.19386722685365, 14.36758664036616], [79.19671018330756, 14.365541696122035], [79.1984959649077, 14.363144236794176], [79.2021031546932, 14.353871856898813], [79.2017883639481, 14.349047353416234], [79.20498701772699, 14.346660533560824], [79.20713128864013, 14.343576817368042], [79.20890308399848, 14.342901329837893], [79.21175105025964, 14.340167312607871], [79.21386788177446, 14.340527701594066], [79.21491948331744, 14.34156893608413], [79.21525638511292, 14.34363810711579], [79.21311767745019, 14.3460330732011], [79.21310402271928, 14.347755164250048], [79.21803621809408, 14.349514485679295], [79.22227281352053, 14.349890735480303], [79.22543060610208, 14.352669922048916], [79.2254143252335, 14.354736444010978], [79.2229114336934, 14.358506529446611], [79.22289784146837, 14.360228627900266], [79.22570518891186, 14.362660754889378], [79.22676508244668, 14.362668692302753], [79.22854241450491, 14.361304228119563], [79.22927880298063, 14.35752088162202], [79.23106689846668, 14.354778706272457], [79.23459706637503, 14.355149473803884], [79.23811647394571, 14.356897880533381], [79.24553560223268, 14.356952932686442], [79.24872862992206, 14.355254332468377], [79.2522668839919, 14.354591565049125], [79.25082964813508, 14.357680963488425], [79.24693536616337, 14.358685513577129], [79.24159289715703, 14.364157010926176], [79.236231264672, 14.372039308654188], [79.2323393966675, 14.372699160594934], [79.22947763231696, 14.377155501873888], [79.22132401654395, 14.38053874861695], [79.21882618116578, 14.383619905626967], [79.21527374554631, 14.38600419548471], [79.21418363712564, 14.389784783455017], [79.21063105520716, 14.39216898541188], [79.20811919628296, 14.396972073877444], [79.20348984654207, 14.401414594898267], [79.20240495753742, 14.40450626318674], [79.19779746665219, 14.406193329960582], [79.18960904018522, 14.413708240607718], [79.18852945234406, 14.416110989798506], [79.18498455847347, 14.41746148812581], [79.17965036629333, 14.42155358428698], [79.17824243987221, 14.420853856628517]], [[79.16183402528017, 14.396272182838453], [79.16116964773569, 14.391100581962391], [79.16224090765948, 14.389731195144094], [79.16330089151991, 14.389739431609161], [79.16434961879118, 14.391125293821842], [79.16432991571462, 14.393536146779038], [79.16254070152384, 14.39627767799907], [79.16183402528017, 14.396272182838453]], [[79.25723693566444, 14.351528154998018], [79.25938060245939, 14.348443890556007], [79.26114967041934, 14.348112426198384], [79.26114169674663, 14.349145707496682], [79.25900602964916, 14.351196709818959], [79.25723693566444, 14.351528154998018]]]]}}, {"type": "Feature", "properties": {"depth_class": 3, "depth_lo_m": 2.0, "t_s": 58500.697181520336}, "geometry": {"type": "MultiPolygon", "coordinates": [[[[79.01430610767282, 14.21598809505003], [79.0164272670522, 14.215661296171254], [79.01644227872582, 14.213939381788796], [79.013974124304, 14.213574486052321], [79.01360606965545, 14.215293465045868], [79.01430610767282, 14.21598809505003]]], [[[79.08084043434876, 14.238918714487241], [79.08190838626102, 14.23789404053993], [79.08227890498691, 14.2358305021813], [79.0798044985569, 14.236155034465481], [79.07908962005953, 14.237182539962072], [79.07907505755851, 14.238904515563013], [79.08084043434876, 14.238918714487241]]], [[[79.25723693566444, 14.351528154998018], [79.26114169674663, 14.349145707496682], [79.26114967041934, 14.348112426198384], [79.25866871549482, 14.349127555055032], [79.25723693566444, 14.351528154998018]]], [[[79.17894360367171, 14.421548130924052], [79.18142565717879, 14.420533978369985], [79.18498455847347, 14.41746148812581], [79.18852945234406, 14.416110989798506], [79.18960904018522, 14.413708240607718], [79.19779746665219, 14.406193329960582], [79.20240495753742, 14.40450626318674], [79.20348984654207, 14.401414594898267], [79.20811919628296, 14.396972073877444], [79.21063105520716, 14.39216898541188], [79.21418363712564, 14.389784783455017], [79.21527374554631, 14.38600419548471], [79.21882618116578, 14.383619905626967], [79.22132401654395, 14.38053874861695], [79.22947763231696, 14.377155501873888], [79.2323393966675, 14.372699160594934], [79.236231264672, 14.372039308654188], [79.24159289715703, 14.364157010926176], [79.24693536616337, 14.358685513577129], [79.25082964813508, 14.357680963488425], [79.2522668839919, 14.354591565049125], [79.24872862992206, 14.355254332468377], [79.24553560223268, 14.356952932686442], [79.23811647394571, 14.356897880533381], [79.23459706637503, 14.355149473803884], [79.23106689846668, 14.354778706272457], [79.22927880298063, 14.35752088162202], [79.22854241450491, 14.361304228119563], [79.22676508244668, 14.362668692302753], [79.22570518891186, 14.362660754889378], [79.22289784146837, 14.360228627900266], [79.2229114336934, 14.358506529446611], [79.2254143252335, 14.354736444010978], [79.22543060610208, 14.352669922048916], [79.22227281352053, 14.349890735480303], [79.21803621809408, 14.349514485679295], [79.21310402271928, 14.347755164250048], [79.21311767745019, 14.3460330732011], [79.21525638511292, 14.34363810711579], [79.21491948331744, 14.34156893608413], [79.21386788177446, 14.340527701594066], [79.21175105025964, 14.340167312607871], [79.20890308399848, 14.342901329837893], [79.20713128864013, 14.343576817368042], [79.20498701772699, 14.346660533560824], [79.2017883639481, 14.349047353416234], [79.2021031546932, 14.353871856898813], [79.1984959649077, 14.363144236794176], [79.19671018330756, 14.365541696122035], [79.19386722685365, 14.36758664036616], [79.19100483399095, 14.37204243732513], [79.18603356196915, 14.375104295492719], [79.18602244937992, 14.376481944388095], [79.18778068180977, 14.377528716939656], [79.19417629346276, 14.37309995816555], [79.19806820424364, 14.37244074782952], [79.20693660627946, 14.368030410393386], [79.20940972583044, 14.368049126403028], [79.21151311870844, 14.370131651757879], [79.2114802574338, 14.374264657814072], [79.209330211806, 14.378037212008554], [79.20858789639406, 14.382509276418947], [79.20716360557294, 14.38387623342316], [79.20607612964443, 14.387312354338263], [79.20393410871009, 14.390051584834183], [79.2014166274621, 14.395543418243852], [79.19429434633281, 14.402377799115412], [79.19071360270587, 14.408205774136134], [79.18182093442026, 14.415370548596577], [79.17824803810214, 14.420165037767834], [79.17894360367171, 14.421548130924052]]]]}}]}