{"type": "FeatureCollection", "features": [{"type": "Feature", "properties": {"depth_class": 1, "depth_lo_m": 0.3, "t_s": 30600.404300670234}, "geometry": {"type": "MultiPolygon", "coordinates": [[[[79.11857430575765, 14.244729893771632], [79.12000663718665, 14.242330202610578], [79.12038538053808, 14.239233353651114], [79.11899586030789, 14.236467004110674], [79.11688309375461, 14.235761499593597], [79.11545935402852, 14.237127966968828], [79.11437724202221, 14.239874821370123], [79.11435436447108, 14.242630038310502], [79.11680598822896, 14.245060370735448], [79.11857430575765, 14.244729893771632]]], [[[79.07756652562885, 14.250258169974428], [79.07756069066637, 14.250946958875645], [79.07826687796332, 14.250952649190875], [79.0782727107856, 14.250263860003384], [79.07756652562885, 14.250258169974428]]], [[[79.08275813394825, 14.262699026698666], [79.08382620446697, 14.261674359026994], [79.08384075517176, 14.259952381892225], [79.08279307445079, 14.258566284081496], [79.08067443677503, 14.258549238154322], [79.07747896847194, 14.26058999907834], [79.07782331910303, 14.261626029105823], [79.07958012065394, 14.262673443041582], [79.08275813394825, 14.262699026698666]]], [[[79.09573077072825, 14.273824483234195], [79.09503898352284, 14.272096849072545], [79.09327043568146, 14.272427119990859], [79.09396220940016, 14.27415475769574], [79.09573077072825, 14.273824483234195]]], [[[79.10415121252436, 14.280435671857603], [79.10487767722526, 14.278030500943775], [79.1041771602272, 14.27733608088532], [79.10205832065787, 14.277319203208364], [79.10168208665179, 14.280071576493125], [79.10238260241556, 14.280766003846905], [79.10415121252436, 14.280435671857603]]], [[[79.17635499054911, 14.435649790042794], [79.1774264130157, 14.434280353347274], [79.17745444093502, 14.43083626410086], [79.18209051201521, 14.425705575382505], [79.18352640059643, 14.4229611815693], [79.18779486452826, 14.419549678452473], [79.19097250655962, 14.419918491260843], [79.19204376068491, 14.418548967148919], [79.19206875544903, 14.415449257540988], [79.1999038167262, 14.407931567320608], [79.20202952144164, 14.407258889167432], [79.20554662919847, 14.409352253150626], [79.2076750886921, 14.408335108458248], [79.20769434730816, 14.405924200406961], [79.20594130446563, 14.40418871136191], [79.2059550701537, 14.402466635273264], [79.21022830531861, 14.398365803511298], [79.21202522773405, 14.39459059552828], [79.21664880331753, 14.390836704235753], [79.21773887886717, 14.38705610101883], [79.22057646672806, 14.385699713375113], [79.22413973510976, 14.381937659753007], [79.23158130772146, 14.379237878454017], [79.23408704210335, 14.375123296058248], [79.23727231417062, 14.374458157836823], [79.23940570632293, 14.372751825308484], [79.24119652346096, 14.36966515373486], [79.24618047608762, 14.364879915411011], [79.24797381132018, 14.361448748634414], [79.25222411305715, 14.360102368387542], [79.25472123314049, 14.35702077101586], [79.26004460568515, 14.35395990645842], [79.26325077810907, 14.350538956028371], [79.26573173436635, 14.34952377873026], [79.26786732971566, 14.347472706827512], [79.26823913795937, 14.345064288356136], [79.27109706554683, 14.340951763153667], [79.27113931592851, 14.335440895518953], [79.2700927328154, 14.333711025242874], [79.27011122056578, 14.331300020797956], [79.27225977360507, 14.327526733992055], [79.27262884181054, 14.325462725697143], [79.27404973669988, 14.324439711451962], [79.27652509726416, 14.324113242604861], [79.27794859531359, 14.322745771075525], [79.27761111581299, 14.32067662378885], [79.26877745193335, 14.320956842870112], [79.26811587449973, 14.315096394360511], [79.26637086449816, 14.312328080342205], [79.26603349735959, 14.310258928538817], [79.26041639821551, 14.305740059940824], [79.25299889405791, 14.305685664030277], [79.25051040370555, 14.30773403882399], [79.24910020670626, 14.307379209176574], [79.24771137564541, 14.304268964727315], [79.24454853025644, 14.302178960906849], [79.24174698282572, 14.299058258285964], [79.24036097484294, 14.295603561403635], [79.23754882938394, 14.293860521112297], [79.23615217156842, 14.291783505902481], [79.2319327487077, 14.289341084783894], [79.23158763848512, 14.288305190311652], [79.23335624054077, 14.287973882399896], [79.23934427365052, 14.290084925867257], [79.24464208355427, 14.290124066134107], [79.24889366843792, 14.288433160737625], [79.25138725931924, 14.28569592296325], [79.2556413747932, 14.28366045321343], [79.26589153464022, 14.282701994333452], [79.2680237904375, 14.280995268984135], [79.27049603841348, 14.28101324002997], [79.2736641442873, 14.282414033284294], [79.27613641513432, 14.28243194752147], [79.27614428175744, 14.281398652212689], [79.2726335009153, 14.278617605049797], [79.26875910870838, 14.277211670665686], [79.26701169295559, 14.274787815376156], [79.26066261007807, 14.273708191588748], [79.25926847186604, 14.271286869718129], [79.25680959171362, 14.26954665136335], [79.2557792725003, 14.265750184872187], [79.25367893296796, 14.26332367090165], [79.25261683547875, 14.263660334758853], [79.25260090757313, 14.265726902485135], [79.2539949427265, 14.268148252467538], [79.25326739555416, 14.27089849963427], [79.25044743979217, 14.27018891441432], [79.2472903300532, 14.267410139022084], [79.24234085398308, 14.268062575423668], [79.24092022296762, 14.269085428682692], [79.24090150839741, 14.271496408076692], [79.24441441249341, 14.273933441854219], [79.24508338126805, 14.27876061378327], [79.24683590169207, 14.280495753251436], [79.24646939242736, 14.28221528423812], [79.24327210520961, 14.284602831135722], [79.24150621115973, 14.284589792235048], [79.23798783133212, 14.282841551698487], [79.23445608255732, 14.282815385589675], [79.23270096409838, 14.281424587881466], [79.22952241886281, 14.281400972463336], [79.22567261773499, 14.27689455876415], [79.22142654612438, 14.277896212219344], [79.21754174263049, 14.277867166286823], [79.21331193568307, 14.276802146851347], [79.21120656936048, 14.275064140968492], [79.20519743691821, 14.275707813874297], [79.20414615489169, 14.274666571789707], [79.20418437112315, 14.269844710332265], [79.2034889949219, 14.2684617112321], [79.20032708990058, 14.266371218746393], [79.19679019083503, 14.267033359124179], [79.19434014088768, 14.264259304970137], [79.18976585383409, 14.262157984520625], [79.18836707739386, 14.26042517360574], [79.18768283319939, 14.257664478323408], [79.18348944597308, 14.252121589479884], [79.17329621252654, 14.246188356232585], [79.17188379073805, 14.246177539526515], [79.16801631186145, 14.244081275333194], [79.16484118711483, 14.243712447286207], [79.16133528829779, 14.240585567499936], [79.16073783009789, 14.227148080833926], [79.15828305745589, 14.225062573844587], [79.15651212432292, 14.225737782131059], [79.15543614648841, 14.227796071131706], [79.15367078007725, 14.227782434087485], [79.15189701514774, 14.228802013680765], [79.15187180994066, 14.23190170211306], [79.15256116792784, 14.233973624666612], [79.15467127260291, 14.23502323511254], [79.15606963455383, 14.23675619772288], [79.15638078848605, 14.241925081023687], [79.15990337559613, 14.24298556162863], [79.16023414740053, 14.245743572115698], [79.15810156253086, 14.247449281344519], [79.15526833146617, 14.24846068781622], [79.15348599231355, 14.250513487692901], [79.15172325625444, 14.250155405702671], [79.15209599237515, 14.247747275922496], [79.15033608714548, 14.247044777399884], [79.14714411219093, 14.24874216292335], [79.14606229188391, 14.251489198647976], [79.13827131840122, 14.254183947253152], [79.1230904627371, 14.253720533440047], [79.1216837366151, 14.253020607470152], [79.11532498253547, 14.253314870724491], [79.1096953951646, 14.250859353747787], [79.10477788518335, 14.247720529284969], [79.09349626580236, 14.245564122295356], [79.08819414628053, 14.24621054122506], [79.08256801098055, 14.24341004499827], [79.08686883523316, 14.235867322912815], [79.08619750134945, 14.231728903770081], [79.0851470108008, 14.23068722430424], [79.08302863024467, 14.23067023184836], [79.07841843012413, 14.233044116661254], [79.07592363863549, 14.235779374174793], [79.07310492591735, 14.235067808434806], [79.0716868084263, 14.235745194996435], [79.07060712697096, 14.238147392491856], [79.06707640865524, 14.238118831824076], [79.06601132989702, 14.238799038354497], [79.06563772468722, 14.241206924020853], [79.06703537099868, 14.24294032825347], [79.06879197884247, 14.243987798757964], [79.07303187843263, 14.243677654945419], [79.07408528005692, 14.24437499333865], [79.07407651542466, 14.24540817506125], [79.0730084929323, 14.246432804442179], [79.0687509599871, 14.248809297721811], [79.06592625522357, 14.248786414656903], [79.0613508282017, 14.247027202333673], [79.05673715310074, 14.249744984776845], [79.05214111243048, 14.250396327917814], [79.04898109260716, 14.2483040262834], [79.04475596309132, 14.246891788096999], [79.04549770282368, 14.242764917272996], [79.04410913695513, 14.239998244189824], [79.04198775204017, 14.240325264258379], [79.04056358827168, 14.241691223859608], [79.03810101625675, 14.240637761125031], [79.03527646482269, 14.240614528338375], [79.03385524588012, 14.241636056688], [79.03277515055107, 14.244038027235224], [79.02921751324327, 14.247108357453843], [79.02919957145302, 14.249174664958373], [79.03130610668553, 14.250569696753228], [79.03233250548338, 14.254366672777834], [79.03196148999164, 14.256430068927038], [79.03018406541491, 14.257793029281848], [79.0284185952044, 14.257778436996752], [79.02667110324042, 14.255697528818994], [79.02278711553673, 14.255665355983389], [79.02171583402625, 14.257034101759933], [79.02170381892509, 14.258411632740119], [79.02345127789235, 14.260492573724974], [79.0234392702927, 14.26187010575581], [79.01812473011408, 14.263892418772473], [79.01424665502266, 14.26317132658992], [79.01316623043944, 14.26557316412425], [79.01174777885727, 14.26625014513594], [79.00964427850927, 14.264510558842915], [79.00752870494742, 14.26414847636265], [79.00719376779034, 14.262079246855256], [79.01112917180937, 14.256257219649763], [79.0125837588197, 14.251447662488923], [79.01225179372932, 14.249034053454894], [79.01050150429442, 14.247297433931609], [79.0069858895055, 14.245546066259985], [78.99744998521082, 14.24581063076728], [78.99569984548992, 14.244073920171033], [78.99571808532747, 14.24200765396051], [78.99893509621343, 14.237557397319963], [79.012411539957, 14.230781844842099], [79.01490694413032, 14.22804734105404], [79.0174293126819, 14.222213357368231], [79.02096866992005, 14.221209469120577], [79.02168672354301, 14.21983777971867], [79.02137562667045, 14.215013483734918], [79.01681631117576, 14.211531629090894], [79.01293009436576, 14.211843776031177], [79.01150297172912, 14.213553947723556], [79.01143072001821, 14.221819109770221], [79.00963238918808, 14.225592608207009], [79.00253529543554, 14.229666237858321], [78.9968683797808, 14.231685203026574], [78.99188008016327, 14.236809353000918], [78.99008129173862, 14.240582641636204], [78.98969164517786, 14.24471218567471], [78.99037338588847, 14.247473145364156], [78.99352361428923, 14.250599283659124], [78.99774532830799, 14.252356775004463], [79.0044568690848, 14.252068618780706], [79.00515697343542, 14.252763284743247], [79.00478874974014, 14.254482227879606], [79.00193981644463, 14.257213607800448], [78.99835119170977, 14.263727170783323], [78.99831774061907, 14.267515324456962], [79.00005590200148, 14.270629550296372], [79.00180929383087, 14.272021878270303], [79.01133423306676, 14.273134803400747], [79.01346197783417, 14.272119341160018], [79.01911480646716, 14.271822009227211], [79.02195174424733, 14.270467953763196], [79.0268953231337, 14.270508948944395], [79.03152767980929, 14.265725541377519], [79.03294608475278, 14.265048434467158], [79.03612404309689, 14.265074643925194], [79.03721019779526, 14.261983898812899], [79.04148906938205, 14.25719733708851], [79.04361952620026, 14.255837180161658], [79.04502596694711, 14.25653753874117], [79.04462536277244, 14.262044842957664], [79.04602887538793, 14.263089588213601], [79.04885372472619, 14.26311272947532], [79.05169633446073, 14.261069504313074], [79.0548742727833, 14.261095456749517], [79.057687312047, 14.262496050364035], [79.0612183898318, 14.262524797896088], [79.0650937672615, 14.263589534511084], [79.06686519431183, 14.262915077224676], [79.06936335623278, 14.259835579193465], [79.07539538835111, 14.256440178224668], [79.09094353017468, 14.255187482921746], [79.09587830661381, 14.256260199555447], [79.10115183437107, 14.259057626911401], [79.10394792959003, 14.262524103667023], [79.10675848900667, 14.264268557681131], [79.1063909847631, 14.265987751584957], [79.1077862266945, 14.268065371443035], [79.11131749507335, 14.268093387764566], [79.11376358868426, 14.27121257873155], [79.11553498078145, 14.27053774916995], [79.11554643635434, 14.269160143059178], [79.11344199307572, 14.267421370133428], [79.10991647452701, 14.266704585600303], [79.10921597068304, 14.266010182164274], [79.10958058229687, 14.264635381757943], [79.1109930688318, 14.264646581290938], [79.11239695354173, 14.265690975576275], [79.12334382493695, 14.26577743023976], [79.12404437682876, 14.266471797363502], [79.12297073496161, 14.26818547083116], [79.12048454764945, 14.269887998293296], [79.11939942726228, 14.272979258862302], [79.11797543802422, 14.274345710374796], [79.11514460290887, 14.275012173457014], [79.10838320374664, 14.281158177919394], [79.1080156674579, 14.282877370171816], [79.10976991420844, 14.284268997324371], [79.11718326101264, 14.284672176158097], [79.12178570226556, 14.283330838011468], [79.12391603762755, 14.281969935823193], [79.12855539569023, 14.276151205377722], [79.12825346754936, 14.26994915898439], [79.13253363973904, 14.26481633833702], [79.13783337366782, 14.264513377961944], [79.14206525830335, 14.265235262873217], [79.14383654405174, 14.264560206464955], [79.14772096000829, 14.264590426794227], [79.15406046958554, 14.266706197273692], [79.15723867591608, 14.266730795030746], [79.15934629613312, 14.268124810866505], [79.16429301039027, 14.267818538682523], [79.17343296921602, 14.273055287452218], [79.17728157027368, 14.277562417815485], [79.17904180922947, 14.27826475394429], [79.18219534058926, 14.281388766280665], [79.18567175928274, 14.288304000667472], [79.18598075508687, 14.2938173277457], [79.18561652327777, 14.29519229233678], [79.1834835887017, 14.29689818950536], [79.18346699061645, 14.298964673440654], [79.18416783929072, 14.299658896210737], [79.18628698693391, 14.299675068263648], [79.18771355392849, 14.297963765284527], [79.18877312156764, 14.29797183693933], [79.19157384959448, 14.301093077755393], [79.19330128952157, 14.305928322063975], [79.19470309669231, 14.307316719427476], [79.19682782415506, 14.306643973490907], [79.19720575071187, 14.303546904997404], [79.19897998133398, 14.302527039381648], [79.20145237214565, 14.30254575466756], [79.20104983353048, 14.30874259088106], [79.20280492032755, 14.310133621248475], [79.20492692409087, 14.309805221008444], [79.20777173459824, 14.30741561961776], [79.20886137983184, 14.303635002484615], [79.21100512119091, 14.300551186938666], [79.2198621975444, 14.297173245265148], [79.22268504627606, 14.297538797684533], [79.22267421938994, 14.2989164833568], [79.22053877455313, 14.300967162091487], [79.21700406048866, 14.30128512467419], [79.21558310643421, 14.302307786607576], [79.21450718184475, 14.30436635040927], [79.21447725327764, 14.308154966516831], [79.2151646313988, 14.310571210168575], [79.21762354702626, 14.312311867846091], [79.21903913196567, 14.311978041444132], [79.22010963645228, 14.310608298958929], [79.22328586747028, 14.310976508650691], [79.22503571502342, 14.313056235251361], [79.22501677086126, 14.315467185014205], [79.22358762309898, 14.317523150736696], [79.21862343882395, 14.319897057268008], [79.21855276763914, 14.328851974499864], [79.2153245380452, 14.33502763612194], [79.2142566002833, 14.336052918829784], [79.21106912278788, 14.337062222364834], [79.2075064616355, 14.340824149643367], [79.20431340801589, 14.342522184049361], [79.20288113899775, 14.344922395142545], [79.1996879962752, 14.346620355846293], [79.19897045082729, 14.347992651964061], [79.19963845924931, 14.352819836313033], [79.19854557054593, 14.356944765624752], [79.19640380086236, 14.359683957586995], [79.19496027433216, 14.36346175221551], [79.19176127018301, 14.365848393141947], [79.1892577117866, 14.36961803954903], [79.1853630648146, 14.370621520038782], [79.18500420498678, 14.37130763589547], [79.17792699273576, 14.372630996122407], [79.17296115871272, 14.375003737354966], [79.16801487041415, 14.374965500275232], [79.16660726315064, 14.374265739395028], [79.16342190147755, 14.374929901970345], [79.15735645675018, 14.382115754975857], [79.15733951537413, 14.384182193822824], [79.15908071423866, 14.387295610695995], [79.16083887459449, 14.388342577884405], [79.16295882821393, 14.388359057080567], [79.16436087605173, 14.389747663328421], [79.16465228658569, 14.397327373308947], [79.17133209998988, 14.401512320405201], [79.17380273693477, 14.401875860796354], [79.17771754135676, 14.39846177354237], [79.180594529215, 14.392284163911842], [79.18557461471237, 14.388189242320701], [79.19201214334751, 14.378594389483169], [79.1948607948755, 14.375860659768259], [79.19910882403794, 14.374859717729041], [79.20726795413175, 14.370788417327963], [79.20832787525593, 14.370796441657038], [79.20867569735603, 14.371487948718924], [79.20865649726083, 14.373898865073542], [79.20722677646991, 14.375954662337863], [79.2064816841442, 14.380771132817989], [79.19930760713767, 14.394149619031687], [79.19290033982097, 14.399956102446435], [79.19110583534402, 14.403386708539006], [79.18718276392812, 14.407834264841457], [79.18221059683509, 14.410895934851608], [79.17579680779777, 14.417390656789717], [79.17083552808099, 14.419074409244953], [79.16370030162533, 14.427285283007013], [79.16333562027937, 14.428660156982275], [79.1643760324946, 14.431079255684923], [79.16858296030557, 14.435245113562942], [79.17105114117413, 14.435953132681929], [79.17635499054911, 14.435649790042794]], [[79.18036551712827, 14.420525806071028], [79.17932775528175, 14.417762351606006], [79.182188265815, 14.413651218289175], [79.18965629451708, 14.407853238363671], [79.19430819954138, 14.400655733829016], [79.20071821673476, 14.394504796155411], [79.20323569940739, 14.389012970361344], [79.20501888332828, 14.386959895390548], [79.20575029627516, 14.383865516788068], [79.20789222886228, 14.38112625906744], [79.20827574491696, 14.377340355409318], [79.21006700518498, 14.374253973948004], [79.2100971521913, 14.370465388054019], [79.20939876201432, 14.36942679390879], [79.2065723226778, 14.369405399940932], [79.19876654564709, 14.37347937017808], [79.1938091562119, 14.374819331206476], [79.19025110753671, 14.37789205817379], [79.18703517079588, 14.382345076326335], [79.18383580223338, 14.384731565125547], [79.18242250580242, 14.384720708518563], [79.17996876286801, 14.382290813309462], [79.17753740658378, 14.3771056142937], [79.17896459663416, 14.375394440178669], [79.18995323098656, 14.371001095478942], [79.19244849679751, 14.368264683624307], [79.19281286139052, 14.366889725541943], [79.19565581628574, 14.364844793940893], [79.19959716030662, 14.357986067435009], [79.20104881826803, 14.353174982512702], [79.20073679954054, 14.348006064276587], [79.20322067541922, 14.346647154132084], [79.20643298149972, 14.342538223510337], [79.2082047697648, 14.341862740438437], [79.21140871883847, 14.338786976618453], [79.21388152350127, 14.33880560877791], [79.21634070885118, 14.340546310334902], [79.2170227155098, 14.343651394181496], [79.215596017724, 14.345362859324572], [79.21558783686079, 14.346396115445318], [79.21841672416149, 14.346072949261357], [79.22614530649989, 14.351641949883849], [79.22684373473547, 14.352680498653426], [79.22682475524313, 14.355091442756132], [79.22468603438209, 14.357486512729881], [79.22431916464517, 14.35920596522059], [79.22536818202168, 14.360591587518524], [79.2271373672351, 14.360260394105586], [79.22787106295827, 14.356821474679963], [79.22966187476788, 14.353734890021313], [79.23108312754198, 14.352712177973888], [79.23396338711407, 14.345844814519065], [79.23474813930629, 14.335861825393321], [79.23546273799909, 14.334833812752334], [79.23758765749683, 14.334160719333948], [79.23831837524776, 14.33106615574612], [79.24189650205628, 14.325237140532769], [79.24226315439515, 14.32351763446269], [79.24233285819437, 14.314562598052014], [79.23815861031518, 14.306265026869177], [79.23428942710228, 14.304169657573674], [79.23148801456819, 14.301048847920551], [79.22901829708256, 14.300686024219969], [79.22656749751185, 14.29791222092194], [79.22340496350417, 14.295821967334813], [79.22022894212559, 14.295453783411103], [79.21598521639798, 14.296110874817785], [79.21494466654576, 14.293691984964811], [79.2107227618608, 14.291593629661445], [79.20686503764338, 14.28812019498472], [79.20439826201535, 14.287412717826857], [79.19947846286495, 14.284275604995191], [79.19913899090115, 14.282550846374921], [79.19774002927667, 14.280818070054538], [79.1924700616558, 14.277333748971412], [79.19037312741665, 14.274562329089765], [79.18650774504505, 14.272121876541078], [79.18122158259419, 14.27070383493008], [79.17592163882138, 14.271007750355592], [79.16501601419584, 14.265757510638911], [79.15584014833844, 14.264997820054571], [79.15055723345249, 14.263234731107477], [79.13361003057281, 14.262758205214723], [79.12689216302087, 14.26373878817844], [79.11877605532536, 14.262986017580863], [79.11382664150946, 14.26363575122833], [79.11171652302072, 14.262585772258792], [79.10997102448047, 14.260160974248382], [79.10537478650714, 14.26081333627483], [79.10011846415594, 14.255949598351046], [79.09060781801779, 14.253118274050802], [79.07611911611565, 14.25437951299343], [79.0704431837955, 14.25743340611598], [79.06655319314287, 14.258090726223633], [79.06476123279626, 14.261175927122121], [79.05875842829226, 14.261127118943648], [79.05523919132983, 14.259720779303171], [79.05312057744834, 14.259703487251862], [79.04751542184198, 14.254491461501589], [79.04399043632476, 14.253773752048378], [79.04150690979593, 14.255131015676179], [79.03437642552076, 14.262993777148015], [79.03189872580954, 14.263662149876598], [79.02904994472763, 14.266393879406959], [79.02479165314399, 14.26876947690583], [79.01134632412077, 14.271757282803126], [79.0035809151377, 14.27134792488269], [79.00077427076056, 14.269257965986446], [78.99973319064894, 14.267182807632196], [78.9997605404426, 14.264083406489785], [79.00334913462319, 14.257569817907102], [79.00619805830956, 14.254838419582489], [79.0065723238866, 14.252430713573675], [79.00411893452066, 14.250343768238764], [78.99811056019182, 14.250982226970075], [78.99459196986537, 14.249575059392187], [78.99144173707236, 14.246448934898591], [78.99112523584157, 14.242313442189115], [78.99293011190917, 14.23785139121116], [78.99720928503609, 14.23306567723154], [79.00322928175338, 14.231049660187175], [79.01104153608044, 14.225948749725665], [79.01247778328776, 14.2232054476686], [79.01286692992532, 14.219075800474744], [79.01393203539557, 14.218395838566499], [79.01394406240652, 14.2170183094872], [79.01254398765876, 14.215629045399083], [79.01327409385694, 14.212879856043], [79.01610126561869, 14.2125589214722], [79.02030755945819, 14.21603786761961], [79.02027459039152, 14.219826087145787], [79.01815339219868, 14.220152915754356], [79.01711530863948, 14.217733450979267], [79.01570619651257, 14.21737735045981], [79.01601115908483, 14.222890402868103], [79.01313871118151, 14.228377047502683], [79.00745679127465, 14.232118183745257], [79.00285504779028, 14.233457364963968], [78.99788503443196, 14.236515382081695], [78.99538934260119, 14.23924966713309], [78.99430887868648, 14.241651412513589], [78.9946315235665, 14.245098153895599], [78.9970817232526, 14.24752955678161], [79.0006124389015, 14.247559171356722], [79.00450531808133, 14.24655854880804], [79.00697379514072, 14.246923586211961], [79.0101363539116, 14.248672011913673], [79.01118350994838, 14.250058367652207], [79.00971682137649, 14.256245435276579], [79.00542525939993, 14.262408859262449], [79.00540102058285, 14.265163892484622], [79.0064512360701, 14.266205894084207], [79.00821674831496, 14.266220657495175], [79.01032327334943, 14.267615876733409], [79.01314811814869, 14.267639448318315], [79.01563493660555, 14.265938139968831], [79.01916898810609, 14.26562313518133], [79.02271204827898, 14.264274928418462], [79.03300882190189, 14.257816349787722], [79.03978607692049, 14.24995071013162], [79.03980392338309, 14.247884389580905], [79.0380444735401, 14.247181105499722], [79.03591705848106, 14.248196833681815], [79.03554013007644, 14.250949013555928], [79.03482799585316, 14.251631968121599], [79.03377172337743, 14.251278853195217], [79.03202720522206, 14.248853598185118], [79.03204810651981, 14.246442901879686], [79.03418148092084, 14.244738436782058], [79.03561761715916, 14.24199497871526], [79.03773604356547, 14.2420124050596], [79.03913643322558, 14.2434015593998], [79.04338519463235, 14.242058783521946], [79.04407650692183, 14.243786510529679], [79.0429875930222, 14.247221701974931], [79.04474112987096, 14.248613727175947], [79.04966950263638, 14.250376132846924], [79.05212041847413, 14.252807052499405], [79.0552952901068, 14.25317737441776], [79.05633391417992, 14.25559673934501], [79.05774040285617, 14.256297027701711], [79.0605651873588, 14.256320019499343], [79.06304569982794, 14.255306935886793], [79.06624412687474, 14.252921982579869], [79.06731807681936, 14.251208607059075], [79.07086070972639, 14.249859617478883], [79.07583318024697, 14.246455599999656], [79.07901970231052, 14.2454480204525], [79.08219747336673, 14.245473581350147], [79.08747636302373, 14.247582468392096], [79.0984193172099, 14.248014357364859], [79.10441040946205, 14.249439723844471], [79.11073462353914, 14.253278553328215], [79.11320348968866, 14.253642521346935], [79.11636714166873, 14.255389651974136], [79.13261304702871, 14.2551729931569], [79.13366671490925, 14.255870096924204], [79.13790407316073, 14.255903222427936], [79.14251147596813, 14.253872579832418], [79.14781659001027, 14.252880547827932], [79.15841274691375, 14.252618164954516], [79.15911058950203, 14.253656848349847], [79.15874629483527, 14.25503176446565], [79.1555542485435, 14.25672925556254], [79.15659960928713, 14.258459497081896], [79.15800650112112, 14.259159233823015], [79.16260268333055, 14.258505833821221], [79.1686029978788, 14.258896431871593], [79.17247071884807, 14.260992714927108], [79.17564333630541, 14.26170588477279], [79.17670826575124, 14.261025162545746], [79.17957200423481, 14.256224951322311], [79.17923270289137, 14.254500183349723], [79.17572089349207, 14.252062301858848], [79.17572643107313, 14.251373474194226], [79.1774920026938, 14.251386970162834], [79.17854305291547, 14.25242830458976], [79.18241630141029, 14.253835595103853], [79.18591720271338, 14.257651051975985], [79.1876470530527, 14.262141884878503], [79.19045013091223, 14.264918677437183], [79.19501899321328, 14.267708825763933], [79.1985175768566, 14.271868561198525], [79.20134278333774, 14.271889908648816], [79.20237764297434, 14.27499767005509], [79.20377661298352, 14.276730419861016], [79.20976671712069, 14.278497723668604], [79.211165767369, 14.280230438696712], [79.21538747794912, 14.282328763833316], [79.21819386659773, 14.284760873445746], [79.22489609141819, 14.28584427584824], [79.23296540530167, 14.29279319037003], [79.23929602642463, 14.296284569954725], [79.24068202030553, 14.299739271472983], [79.24873097693035, 14.309443162903177], [79.24904415723871, 14.314612154433561], [79.25075159993082, 14.322202537562417], [79.25319762333916, 14.325665002655107], [79.25316829766008, 14.329453691344613], [79.25208719909041, 14.332201297327654], [79.2545413309055, 14.334630481677687], [79.25592240620502, 14.338773989827294], [79.26011109870551, 14.34534923461802], [79.26329059581704, 14.345372543396225], [79.26650982770683, 14.340229385877105], [79.26658923835446, 14.329896531390062], [79.27017194181322, 14.323378145444456], [79.27123167602053, 14.323385863237888], [79.27049351692145, 14.327513872388433], [79.2683422927778, 14.331631568812051], [79.26832907377486, 14.333353713232254], [79.27007159974558, 14.336466458266914], [79.27004517708954, 14.33991074860585], [79.26968133345486, 14.34128588744964], [79.26718724724815, 14.344023260796149], [79.26681278214677, 14.346776104945306], [79.2589900584352, 14.353263269422321], [79.25437861768734, 14.355640465904207], [79.25152553981066, 14.359063879112973], [79.24727525574652, 14.360410248680669], [79.23728311131195, 14.373080470002492], [79.2323258625955, 14.374421265810433], [79.2316002695221, 14.376826933030403], [79.23017343107414, 14.378538470034725], [79.22769745326192, 14.378864377661186], [79.22202249439927, 14.381577316964034], [79.21952465443567, 14.384658480870678], [79.21739647328026, 14.385675766382846], [79.215969472627, 14.387387197567994], [79.21488210297878, 14.3908233716405], [79.2109734230666, 14.393549325475336], [79.20846155198319, 14.398352416110292], [79.20454715494385, 14.401767067894598], [79.20417175341136, 14.404519701466409], [79.20486469627245, 14.4062471478523], [79.20062711683772, 14.405870468331276], [79.19920814615135, 14.406548524284728], [79.18995407162296, 14.414744185721359], [79.1888744809318, 14.417146936140519], [79.18497619369573, 14.418494720516712], [79.18213241758201, 14.420539423926748], [79.18036551712827, 14.420525806071028]], [[79.22791171009975, 14.351655163074133], [79.22194671368975, 14.34644388747914], [79.21915319816699, 14.34228964347448], [79.21916952168819, 14.340223126398852], [79.22455791557273, 14.328896968061292], [79.22457146421284, 14.327174863512685], [79.22351987195127, 14.326133673231423], [79.22354155721975, 14.323378306745248], [79.22744338055075, 14.321340815393455], [79.22922845568887, 14.318943037589445], [79.23028814581559, 14.318950935663622], [79.23204081396764, 14.320686201361516], [79.23165790488244, 14.324472217859483], [79.23235898872038, 14.325166323450727], [79.23258540330592, 14.341356799831024], [79.2321997247896, 14.345487229801059], [79.2300313967933, 14.35167100154677], [79.22896342984464, 14.352696347781135], [79.22825686452052, 14.352691066842445], [79.22791171009975, 14.351655163074133]], [[79.26153483398744, 14.343981890193907], [79.25630496567659, 14.334987894850094], [79.25599696943424, 14.329130045835953], [79.25461593067237, 14.324986541450588], [79.251479416577, 14.319452331645904], [79.25151408152833, 14.31497479062078], [79.25046506810146, 14.313589284833292], [79.25047840423183, 14.311867153967594], [79.25119018202263, 14.311183501494687], [79.25330685259134, 14.31154351548425], [79.25470644145952, 14.313276031581857], [79.26071129239253, 14.31332006390321], [79.25963038228828, 14.316067726952804], [79.25995973030756, 14.319170164495347], [79.26239262336715, 14.324354688087507], [79.26520005251976, 14.326786351889591], [79.26509939718127, 14.339874626407191], [79.26259466009962, 14.343989657432527], [79.26153483398744, 14.343981890193907]], [[79.23518491315942, 14.325187346184508], [79.23413596870758, 14.323801775394216], [79.23487475925356, 14.319673952262447], [79.23348069101242, 14.317252487240323], [79.23421945740485, 14.313124662900552], [79.23527643261245, 14.313476958922273], [79.23595059922637, 14.317615285703058], [79.237684489203, 14.321761478627428], [79.23691882982058, 14.329333547243976], [79.23620425769174, 14.330361567480914], [79.23514720461947, 14.33000926683454], [79.23518491315942, 14.325187346184508]], [[79.26454651179567, 14.319892619066144], [79.2627882712807, 14.31884642207941], [79.26316004942389, 14.316438006832815], [79.26491562839196, 14.31782862803375], [79.26454651179567, 14.319892619066144]], [[79.22611430446722, 14.310653197179546], [79.2218892641771, 14.308899415372718], [79.21976998852594, 14.308883550480026], [79.21834899298656, 14.309906224247223], [79.21658564358746, 14.309548557663456], [79.21662369187074, 14.304726677400742], [79.21910427075095, 14.30371195034436], [79.22579624024989, 14.306173078140466], [79.22717665621529, 14.310316682757872], [79.22611430446722, 14.310653197179546]], [[79.25684440010413, 14.310880598155151], [79.25615656096493, 14.308464423962624], [79.25758005802297, 14.307097075616442], [79.25969670804818, 14.307457029593152], [79.2614495496122, 14.309192095402567], [79.26144159985765, 14.31022538024562], [79.25967018303925, 14.310901309320428], [79.25684440010413, 14.310880598155151]], [[79.20248732175016, 14.30565352460617], [79.20393571050656, 14.301186773172187], [79.2035879858641, 14.300495269586794], [79.19581493998551, 14.300780857945782], [79.19582318405412, 14.29974760910264], [79.19864873419844, 14.299769029337092], [79.20042292787218, 14.298749148401585], [79.20430805323736, 14.298778515449355], [79.20818500041273, 14.299841075075799], [79.20743764756101, 14.305002027881466], [79.20636163742772, 14.307060544221683], [79.20494060346236, 14.308083132198664], [79.20282135514648, 14.308067117116563], [79.20248732175016, 14.30565352460617]], [[79.19760836714359, 14.297350083993958], [79.1955084617478, 14.294923100975723], [79.19835589384618, 14.292189182237923], [79.19766873319027, 14.28977291393133], [79.19027128457684, 14.28730571333861], [79.18887512803445, 14.285228474675506], [79.18853849394735, 14.283159295020093], [79.19139133571937, 14.279736617614386], [79.19315439557806, 14.280094440079766], [79.19419190903591, 14.282857809789801], [79.19699255836787, 14.285978977313057], [79.20614230236374, 14.290181383098295], [79.21140462355919, 14.294698715658058], [79.21068734883421, 14.296071080438372], [79.20785363927064, 14.297083064600393], [79.20114575014686, 14.296687988383487], [79.19760836714359, 14.297350083993958]], [[79.18844751688269, 14.294524997036735], [79.18740176317667, 14.29279485151728], [79.18776322025454, 14.291764297185114], [79.18988505351652, 14.291436013096204], [79.19128951172475, 14.292480003534255], [79.18986025298634, 14.294535751306979], [79.18844751688269, 14.294524997036735]], [[79.2224373737201, 14.284103716591659], [79.21891376377043, 14.283044054179001], [79.21751734507018, 14.280966955226873], [79.22246170952965, 14.281003920144892], [79.22456992487773, 14.28239741986103], [79.22491229556313, 14.283777742512575], [79.2224373737201, 14.284103716591659]], [[79.11579070921937, 14.282250189690947], [79.11510734397464, 14.279489389469488], [79.1168845286273, 14.278125754723503], [79.11900625426028, 14.277798099472719], [79.12078626184733, 14.276090028531387], [79.12329819615051, 14.271287880004907], [79.12578438281386, 14.269585322643524], [79.12682669925177, 14.271660076377358], [79.12679252829656, 14.275792920190746], [79.12571885236791, 14.277506601925255], [79.1207405364806, 14.28160046542514], [79.11826276245974, 14.282269742586761], [79.11579070921937, 14.282250189690947]], [[79.24862041382286, 14.278097761419192], [79.24721573100666, 14.277054087950779], [79.24723705070461, 14.274298674805264], [79.24936135682636, 14.273625403753464], [79.25146438640508, 14.275707532006352], [79.25109792356513, 14.277427075676373], [79.25038626401482, 14.278110741787053], [79.24862041382286, 14.278097761419192]], [[79.18894124063416, 14.276962502301238], [79.18047933628695, 14.275175825814031], [79.17978963514122, 14.273103945236803], [79.18402742571195, 14.273136289641759], [79.18790105734904, 14.274543534666272], [79.18930265674699, 14.275931940518097], [79.18894124063416, 14.276962502301238]], [[79.0262820512486, 14.259827211043996], [79.02346928688883, 14.2584262753623], [79.0238343829765, 14.25705166957327], [79.0259529348097, 14.257069218591568], [79.0270032246879, 14.258111137613732], [79.0262820512486, 14.259827211043996]], [[79.1749703347949, 14.257567517182723], [79.16756588380815, 14.256132995492221], [79.16757701147682, 14.254755346886682], [79.16583091276202, 14.252330891346109], [79.16654827107318, 14.250958672696978], [79.16972350139797, 14.251327490278726], [79.17146686324463, 14.254096334499597], [79.17499527186398, 14.25446779509098], [79.17675256317206, 14.255514541146935], [79.1767442588466, 14.256547782863091], [79.1749703347949, 14.257567517182723]], [[79.1662118566504, 14.248889486158388], [79.1626919278407, 14.24748467324459], [79.16306454171482, 14.245076511262727], [79.16835829899046, 14.245461636071202], [79.17081059876048, 14.247891486623113], [79.17009605345692, 14.248919309855829], [79.1662118566504, 14.248889486158388]], [[79.08010225669183, 14.242701384239606], [79.07693619475478, 14.241298222040573], [79.07697118651535, 14.237165486191657], [79.07769190196328, 14.235449198434882], [79.08230797294688, 14.232386543340901], [79.08442636859944, 14.232403544191364], [79.08547105850973, 14.234134020341859], [79.08545654760702, 14.235856002841258], [79.08366213547129, 14.239285801667325], [79.08152040188625, 14.242023950329918], [79.08010225669183, 14.242701384239606]], [[79.07237248906085, 14.238161653272522], [79.07308447753972, 14.237478566119451], [79.07449384559466, 14.237834354813065], [79.07411741103355, 14.240586659546864], [79.0727051046755, 14.240575260385148], [79.07237248906085, 14.238161653272522]], [[79.15890271052439, 14.235744762761133], [79.156100381072, 14.232967682060588], [79.1561087649173, 14.231934450296858], [79.1575210856344, 14.23194534967712], [79.15857195433291, 14.232986751943363], [79.15890271052439, 14.235744762761133]]], [[[79.22906357172789, 14.339952762902298], [79.2304847322683, 14.338930043648427], [79.23049554303927, 14.337552356756103], [79.22871842589662, 14.33891686106731], [79.22906357172789, 14.339952762902298]]], [[[79.24590767288176, 14.354544579858308], [79.24804348062298, 14.352493713277038], [79.2508697713443, 14.352514588245203], [79.25476926968729, 14.350821107175648], [79.25797812589202, 14.347055804720794], [79.25764614798086, 14.344297796429265], [79.25204716295455, 14.337367684770278], [79.25103277449028, 14.33150463797668], [79.24963579184416, 14.329427667580097], [79.24751361675031, 14.3297564532552], [79.24501407438079, 14.333182429105106], [79.2446259722749, 14.337657333992645], [79.24319414040721, 14.34005784260155], [79.24064869619917, 14.34933894710363], [79.23921404360439, 14.352083839091703], [79.23954848484325, 14.354497424224022], [79.24590767288176, 14.354544579858308]], [[79.25197238612736, 14.347011601694732], [79.25340418384742, 14.344611035792957], [79.2548172832803, 14.344621439941669], [79.2558664473653, 14.346006942436375], [79.25513855827494, 14.348757152311064], [79.2530081884082, 14.350119243724325], [79.25195101110273, 14.349767005022317], [79.25197238612736, 14.347011601694732]], [[79.24811310184889, 14.343538670835596], [79.24638692721913, 14.338359246411848], [79.24641638578609, 14.334570574341614], [79.24749221408852, 14.332511853989725], [79.24855197835122, 14.332519677846697], [79.24889988618035, 14.333211135349613], [79.25096867362377, 14.339770852567193], [79.25094729758241, 14.34252625609079], [79.24916756773351, 14.34423534786579], [79.24811310184889, 14.343538670835596]]]]}}, {"type": "Feature", "properties": {"depth_class": 2, "depth_lo_m": 1.0, "t_s": 30600.404300670234}, "geometry": {"type": "MultiPolygon", "coordinates": [[[[79.15890271052439, 14.235744762761133], [79.1575210856344, 14.23194534967712], [79.1561087649173, 14.231934450296858], [79.156100381072, 14.232967682060588], [79.15890271052439, 14.235744762761133]]], [[[79.07868993220208, 14.242690018825062], [79.08187639152354, 14.241682392573813], [79.08509476681863, 14.236886360679833], [79.08547105850973, 14.234134020341859], [79.08442636859944, 14.232403544191364], [79.08159893416897, 14.232725268009462], [79.07733300316185, 14.236135145376954], [79.07693619475478, 14.241298222040573], [79.07868993220208, 14.242690018825062]], [[79.07873946040877, 14.236835303890329], [79.07981323121673, 14.235121848455426], [79.08087243988615, 14.235130363886936], [79.0826494145804, 14.233766962066674], [79.0840558786498, 14.234467089590504], [79.08296760915674, 14.237902548301198], [79.08082588326722, 14.240640691612917], [79.07870741531428, 14.240623649194605], [79.07873946040877, 14.236835303890329]]], [[[79.07449384559466, 14.237834354813065], [79.07308447753972, 14.237478566119451], [79.07237248906085, 14.238161653272522], [79.0727051046755, 14.240575260385148], [79.07447340781326, 14.240245113917707], [79.07449384559466, 14.237834354813065]]], [[[79.17081059876048, 14.247891486623113], [79.16730176912328, 14.245109090424831], [79.1627086526985, 14.245418204444215], [79.16304224618423, 14.247831803543816], [79.1662118566504, 14.248889486158388], [79.17009605345692, 14.248919309855829], [79.17081059876048, 14.247891486623113]]], [[[79.0262820512486, 14.259827211043996], [79.0270032246879, 14.258111137613732], [79.0259529348097, 14.257069218591568], [79.0238343829765, 14.25705166957327], [79.02381637911414, 14.259117968630584], [79.02522276188442, 14.259818438686285], [79.0262820512486, 14.259827211043996]]], [[[79.11579070921937, 14.282250189690947], [79.12215885030017, 14.280922806766453], [79.12679252829656, 14.275792920190746], [79.12682669925177, 14.271660076377358], [79.12578438281386, 14.269585322643524], [79.12329819615051, 14.271287880004907], [79.12078626184733, 14.276090028531387], [79.11900625426028, 14.277798099472719], [79.1168845286273, 14.278125754723503], [79.11510734397464, 14.279489389469488], [79.11509014318783, 14.281555796261076], [79.11579070921937, 14.282250189690947]]], [[[79.18213241758201, 14.420539423926748], [79.1888744809318, 14.417146936140519], [79.18995407162296, 14.414744185721359], [79.19920814615135, 14.406548524284728], [79.20062711683772, 14.405870468331276], [79.20486469627245, 14.4062471478523], [79.20417175341136, 14.404519701466409], [79.20454715494385, 14.401767067894598], [79.20846155198319, 14.398352416110292], [79.2109734230666, 14.393549325475336], [79.21488210297878, 14.3908233716405], [79.215969472627, 14.387387197567994], [79.21739647328026, 14.385675766382846], [79.21952465443567, 14.384658480870678], [79.22202249439927, 14.381577316964034], [79.22769745326192, 14.378864377661186], [79.23017343107414, 14.378538470034725], [79.2316002695221, 14.376826933030403], [79.2323258625955, 14.374421265810433], [79.23728311131195, 14.373080470002492], [79.24727525574652, 14.360410248680669], [79.25152553981066, 14.359063879112973], [79.25437861768734, 14.355640465904207], [79.2589900584352, 14.353263269422321], [79.26681278214677, 14.346776104945306], [79.26718724724815, 14.344023260796149], [79.26968133345486, 14.34128588744964], [79.27004517708954, 14.33991074860585], [79.27007159974558, 14.336466458266914], [79.26832907377486, 14.333353713232254], [79.2683422927778, 14.331631568812051], [79.27049351692145, 14.327513872388433], [79.27123167602053, 14.323385863237888], [79.27017194181322, 14.323378145444456], [79.26658923835446, 14.329896531390062], [79.26650982770683, 14.340229385877105], [79.26329059581704, 14.345372543396225], [79.26011109870551, 14.34534923461802], [79.25592240620502, 14.338773989827294], [79.2545413309055, 14.334630481677687], [79.25208719909041, 14.332201297327654], [79.25316829766008, 14.329453691344613], [79.25319762333916, 14.325665002655107], [79.25075159993082, 14.322202537562417], [79.24904415723871, 14.314612154433561], [79.24873097693035, 14.309443162903177], [79.24068202030553, 14.299739271472983], [79.23929602642463, 14.296284569954725], [79.23296540530167, 14.29279319037003], [79.22489609141819, 14.28584427584824], [79.21819386659773, 14.284760873445746], [79.21538747794912, 14.282328763833316], [79.211165767369, 14.280230438696712], [79.20976671712069, 14.278497723668604], [79.20377661298352, 14.276730419861016], [79.20237764297434, 14.27499767005509], [79.20134278333774, 14.271889908648816], [79.1985175768566, 14.271868561198525], [79.19501899321328, 14.267708825763933], [79.19045013091223, 14.264918677437183], [79.1876470530527, 14.262141884878503], [79.18591720271338, 14.257651051975985], [79.18241630141029, 14.253835595103853], [79.17854305291547, 14.25242830458976], [79.1774920026938, 14.251386970162834], [79.17572643107313, 14.251373474194226], [79.17572089349207, 14.252062301858848], [79.17923270289137, 14.254500183349723], [79.17957200423481, 14.256224951322311], [79.17670826575124, 14.261025162545746], [79.17564333630541, 14.26170588477279], [79.17247071884807, 14.260992714927108], [79.1686029978788, 14.258896431871593], [79.16260268333055, 14.258505833821221], [79.15800650112112, 14.259159233823015], [79.15659960928713, 14.258459497081896], [79.1555542485435, 14.25672925556254], [79.15874629483527, 14.25503176446565], [79.15911058950203, 14.253656848349847], [79.15841274691375, 14.252618164954516], [79.14781659001027, 14.252880547827932], [79.14251147596813, 14.253872579832418], [79.13790407316073, 14.255903222427936], [79.13366671490925, 14.255870096924204], [79.13261304702871, 14.2551729931569], [79.11636714166873, 14.255389651974136], [79.11320348968866, 14.253642521346935], [79.11073462353914, 14.253278553328215], [79.10441040946205, 14.249439723844471], [79.0984193172099, 14.248014357364859], [79.08747636302373, 14.247582468392096], [79.08219747336673, 14.245473581350147], [79.07901970231052, 14.2454480204525], [79.07583318024697, 14.246455599999656], [79.07086070972639, 14.249859617478883], [79.06731807681936, 14.251208607059075], [79.06624412687474, 14.252921982579869], [79.06304569982794, 14.255306935886793], [79.0605651873588, 14.256320019499343], [79.05774040285617, 14.256297027701711], [79.05633391417992, 14.25559673934501], [79.0552952901068, 14.25317737441776], [79.05212041847413, 14.252807052499405], [79.04966950263638, 14.250376132846924], [79.04474112987096, 14.248613727175947], [79.0429875930222, 14.247221701974931], [79.04407650692183, 14.243786510529679], [79.04338519463235, 14.242058783521946], [79.04232597725978, 14.242050097730154], [79.04054872891244, 14.24341315935535], [79.03913643322558, 14.2434015593998], [79.03773604356547, 14.2420124050596], [79.03561761715916, 14.24199497871526], [79.03418148092084, 14.244738436782058], [79.03204810651981, 14.246442901879686], [79.03202720522206, 14.248853598185118], [79.03377172337743, 14.251278853195217], [79.03482799585316, 14.251631968121599], [79.03554013007644, 14.250949013555928], [79.03591705848106, 14.248196833681815], [79.0380444735401, 14.247181105499722], [79.03980392338309, 14.247884389580905], [79.03978607692049, 14.24995071013162], [79.03300882190189, 14.257816349787722], [79.02271204827898, 14.264274928418462], [79.01916898810609, 14.26562313518133], [79.01563493660555, 14.265938139968831], [79.01314811814869, 14.267639448318315], [79.01032327334943, 14.267615876733409], [79.00821674831496, 14.266220657495175], [79.0064512360701, 14.266205894084207], [79.00540102058285, 14.265163892484622], [79.00542525939993, 14.262408859262449], [79.00971682137649, 14.256245435276579], [79.01118350994838, 14.250058367652207], [79.0101363539116, 14.248672011913673], [79.00697379514072, 14.246923586211961], [79.00450531808133, 14.24655854880804], [79.0006124389015, 14.247559171356722], [78.9970817232526, 14.24752955678161], [78.9946315235665, 14.245098153895599], [78.99430887868648, 14.241651412513589], [78.99538934260119, 14.23924966713309], [78.99788503443196, 14.236515382081695], [79.00285504779028, 14.233457364963968], [79.00745679127465, 14.232118183745257], [79.01313871118151, 14.228377047502683], [79.01601115908483, 14.222890402868103], [79.01570619651257, 14.21737735045981], [79.01711530863948, 14.217733450979267], [79.01815339219868, 14.220152915754356], [79.02027459039152, 14.219826087145787], [79.02030755945819, 14.21603786761961], [79.01610126561869, 14.2125589214722], [79.01327409385694, 14.212879856043], [79.01254398765876, 14.215629045399083], [79.01394406240652, 14.2170183094872], [79.01393203539557, 14.218395838566499], [79.01286692992532, 14.219075800474744], [79.01247778328776, 14.2232054476686], [79.01104153608044, 14.225948749725665], [79.00322928175338, 14.231049660187175], [78.99720928503609, 14.23306567723154], [78.99293011190917, 14.23785139121116], [78.99112523584157, 14.242313442189115], [78.99144173707236, 14.246448934898591], [78.99459196986537, 14.249575059392187], [78.99811056019182, 14.250982226970075], [79.00411893452066, 14.250343768238764], [79.0065723238866, 14.252430713573675], [79.00619805830956, 14.254838419582489], [79.00334913462319, 14.257569817907102], [78.9997605404426, 14.264083406489785], [78.99973319064894, 14.267182807632196], [79.00077427076056, 14.269257965986446], [79.0035809151377, 14.27134792488269], [79.01134632412077, 14.271757282803126], [79.02479165314399, 14.26876947690583], [79.02904994472763, 14.266393879406959], [79.03189872580954, 14.263662149876598], [79.03437642552076, 14.262993777148015], [79.04150690979593, 14.255131015676179], [79.04399043632476, 14.253773752048378], [79.04751542184198, 14.254491461501589], [79.05312057744834, 14.259703487251862], [79.05523919132983, 14.259720779303171], [79.05875842829226, 14.261127118943648], [79.06476123279626, 14.261175927122121], [79.06655319314287, 14.258090726223633], [79.0704431837955, 14.25743340611598], [79.07611911611565, 14.25437951299343], [79.09060781801779, 14.253118274050802], [79.10011846415594, 14.255949598351046], [79.10537478650714, 14.26081333627483], [79.10997102448047, 14.260160974248382], [79.11171652302072, 14.262585772258792], [79.11382664150946, 14.26363575122833], [79.116304211667, 14.26296649582778], [79.12689216302087, 14.26373878817844], [79.13361003057281, 14.262758205214723], [79.15055723345249, 14.263234731107477], [79.15584014833844, 14.264997820054571], [79.16501601419584, 14.265757510638911], [79.17592163882138, 14.271007750355592], [79.18122158259419, 14.27070383493008], [79.18650774504505, 14.272121876541078], [79.19037312741665, 14.274562329089765], [79.1924700616558, 14.277333748971412], [79.19774002927667, 14.280818070054538], [79.19913899090115, 14.282550846374921], [79.19947846286495, 14.284275604995191], [79.20439826201535, 14.287412717826857], [79.20686503764338, 14.28812019498472], [79.2107227618608, 14.291593629661445], [79.21494466654576, 14.293691984964811], [79.21598521639798, 14.296110874817785], [79.22022894212559, 14.295453783411103], [79.22340496350417, 14.295821967334813], [79.22656749751185, 14.29791222092194], [79.22901829708256, 14.300686024219969], [79.23148801456819, 14.301048847920551], [79.23428942710228, 14.304169657573674], [79.23815861031518, 14.306265026869177], [79.24233285819437, 14.314562598052014], [79.24226315439515, 14.32351763446269], [79.24189650205628, 14.325237140532769], [79.23831837524776, 14.33106615574612], [79.23758765749683, 14.334160719333948], [79.23546273799909, 14.334833812752334], [79.23474813930629, 14.335861825393321], [79.23396338711407, 14.345844814519065], [79.23108312754198, 14.352712177973888], [79.22966187476788, 14.353734890021313], [79.22787106295827, 14.356821474679963], [79.2271373672351, 14.360260394105586], [79.22536818202168, 14.360591587518524], [79.22431916464517, 14.35920596522059], [79.22468603438209, 14.357486512729881], [79.22682475524313, 14.355091442756132], [79.22684373473547, 14.352680498653426], [79.22614530649989, 14.351641949883849], [79.21841672416149, 14.346072949261357], [79.21558783686079, 14.346396115445318], [79.215596017724, 14.345362859324572], [79.2170227155098, 14.343651394181496], [79.21634070885118, 14.340546310334902], [79.21388152350127, 14.33880560877791], [79.21140871883847, 14.338786976618453], [79.2082047697648, 14.341862740438437], [79.20643298149972, 14.342538223510337], [79.20322067541922, 14.346647154132084], [79.20073679954054, 14.348006064276587], [79.20104881826803, 14.353174982512702], [79.19959716030662, 14.357986067435009], [79.19565581628574, 14.364844793940893], [79.19281286139052, 14.366889725541943], [79.19244849679751, 14.368264683624307], [79.18995323098656, 14.371001095478942], [79.17896459663416, 14.375394440178669], [79.17753740658378, 14.3771056142937], [79.17996876286801, 14.382290813309462], [79.18242250580242, 14.384720708518563], [79.18383580223338, 14.384731565125547], [79.18703517079588, 14.382345076326335], [79.19025110753671, 14.37789205817379], [79.1938091562119, 14.374819331206476], [79.19876654564709, 14.37347937017808], [79.2065723226778, 14.369405399940932], [79.20939876201432, 14.36942679390879], [79.2100971521913, 14.370465388054019], [79.21006700518498, 14.374253973948004], [79.20827574491696, 14.377340355409318], [79.20789222886228, 14.38112625906744], [79.20575029627516, 14.383865516788068], [79.20501888332828, 14.386959895390548], [79.20323569940739, 14.389012970361344], [79.20071821673476, 14.394504796155411], [79.19430819954138, 14.400655733829016], [79.18965629451708, 14.407853238363671], [79.18645098332995, 14.410928541064242], [79.18325674425718, 14.412626146778075], [79.18004568877976, 14.416390162918681], [79.17932775528175, 14.417762351606006], [79.17966155437334, 14.42017594552214], [79.18213241758201, 14.420539423926748]], [[79.20388453249056, 14.39625105712326], [79.20462977138892, 14.391434613224732], [79.20677454878046, 14.388350961468243], [79.20714986767243, 14.385598313357354], [79.20929454773633, 14.382514626822708], [79.21040113288325, 14.376667563805192], [79.21182809386245, 14.374956161792413], [79.21186916289643, 14.369789903301628], [79.20941520730227, 14.367360292587074], [79.20587944516528, 14.367677965113442], [79.19807923982748, 14.371063089268318], [79.19525279757082, 14.371041557809102], [79.1949160729674, 14.368972379477764], [79.1991970404677, 14.363838440440638], [79.19956961854197, 14.361430220202624], [79.2013580855993, 14.358688315518277], [79.20173612594547, 14.355591255608843], [79.20281246165435, 14.353532800150386], [79.20284817956285, 14.349055390365482], [79.20533480071691, 14.347352041343221], [79.20712580965181, 14.344265651699011], [79.20889761069178, 14.343590164878398], [79.21174558673911, 14.340856148882972], [79.21421295827899, 14.341563617325491], [79.2145525815258, 14.343288370029354], [79.21205240515472, 14.346713919846668], [79.21239201444047, 14.348438673919082], [79.21591656553339, 14.349498542309592], [79.21696821448948, 14.350539772901055], [79.2219141002037, 14.350576925350822], [79.22437347522771, 14.352317563907546], [79.22470775487487, 14.354731151759442], [79.22184884205035, 14.358842996561012], [79.22183796164906, 14.360220674508236], [79.2253491758237, 14.363002528081095], [79.22782768816553, 14.362332204457127], [79.22928151127886, 14.357176460678755], [79.23177887923543, 14.354095136598456], [79.23530634045899, 14.354810314591813], [79.23847245917842, 14.356556084650965], [79.24518499356647, 14.35660589249734], [79.25511188378334, 14.352201411697756], [79.25938858379824, 14.34741061016708], [79.26256810875879, 14.347433931906762], [79.26220420325704, 14.34880905194324], [79.25900070619387, 14.35188556306197], [79.25403600548819, 14.354260160619061], [79.25047100140445, 14.358367204704708], [79.24657670629482, 14.359371747311007], [79.23945152508024, 14.366896643265626], [79.23765531611706, 14.370672146359535], [79.236231264672, 14.372039308654188], [79.23163005952779, 14.37303830346764], [79.22948034417308, 14.376811081463131], [79.2202640419761, 14.380530777177613], [79.21812225318779, 14.383270165194661], [79.2149258849249, 14.385312693988055], [79.21312362309683, 14.389776775003499], [79.20957377731719, 14.39181654350576], [79.20635795830775, 14.396269841001706], [79.20388453249056, 14.39625105712326]], [[79.2391978898411, 14.354150376589457], [79.23921404360439, 14.352083839091703], [79.24064869619917, 14.34933894710363], [79.24174884358823, 14.344180456993389], [79.2446259722749, 14.337657333992645], [79.24501407438079, 14.333182429105106], [79.24751361675031, 14.3297564532552], [79.24963579184416, 14.329427667580097], [79.25103277449028, 14.33150463797668], [79.25204716295455, 14.337367684770278], [79.25764614798086, 14.344297796429265], [79.25797812589202, 14.347055804720794], [79.25476926968729, 14.350821107175648], [79.2508697713443, 14.352514588245203], [79.24804348062298, 14.352493713277038], [79.24590767288176, 14.354544579858308], [79.24272538875347, 14.354865446870857], [79.2391978898411, 14.354150376589457]], [[79.24543428218065, 14.32457442219233], [79.24579823017513, 14.323199332378142], [79.24615146996415, 14.3232019417176], [79.24614344209319, 14.324235216884246], [79.24543428218065, 14.32457442219233]], [[79.24617287448899, 14.320446540812963], [79.2472459488096, 14.318732237229748], [79.24830564825484, 14.318740054829595], [79.248988076445, 14.321845095080596], [79.24792034309976, 14.322870555138971], [79.24615146996415, 14.3232019417176], [79.24617287448899, 14.320446540812963]], [[79.24515331367395, 14.315272337228782], [79.24308216299184, 14.309057026184536], [79.23291966501658, 14.29864838835099], [79.22939576873102, 14.297588850638986], [79.22482584351235, 14.294799249289387], [79.21847925973144, 14.293374039377237], [79.21111406141974, 14.286774412443297], [79.20653914979401, 14.284673346462448], [79.20514557563133, 14.282251768648107], [79.19529532682783, 14.277355176138883], [79.18758371930389, 14.270063445994623], [79.18796164748409, 14.26696639087164], [79.1900832437472, 14.266638076891923], [79.19324778640998, 14.268384277950247], [79.19709401326507, 14.273235544224374], [79.20061186315576, 14.274984336648899], [79.2027089371603, 14.27775568142731], [79.20763956285039, 14.279515041324826], [79.21149716997108, 14.282988450093482], [79.21323040107424, 14.287134750373358], [79.21534674970532, 14.28749507024724], [79.21886227113463, 14.289588054125083], [79.21992452690772, 14.289251561352412], [79.22135349523488, 14.287195596195518], [79.22347527286422, 14.28686700158749], [79.22557274386456, 14.289638187630743], [79.22768375338272, 14.290687247764655], [79.22978400514181, 14.293113982999367], [79.23717684896158, 14.296268873774947], [79.23996489291115, 14.301111742721336], [79.24311696800751, 14.30457950145193], [79.24450573398555, 14.307689765683833], [79.24730741615329, 14.310810450192179], [79.24726733302164, 14.315976833670051], [79.24620497273742, 14.31631343820098], [79.24515331367395, 14.315272337228782]], [[79.00359608567484, 14.269626032006357], [79.00255801177133, 14.267206504013181], [79.00572382058064, 14.268610638875844], [79.00536162147063, 14.269640820028894], [79.00359608567484, 14.269626032006357]], [[79.18622074505309, 14.26385321895795], [79.18411296610543, 14.262459425484218], [79.17987813950289, 14.262082691937437], [79.17989748976146, 14.25967179135062], [79.1813182872847, 14.258649326536673], [79.18414054469167, 14.2590152736125], [79.18622074505309, 14.26385321895795]], [[79.15727506839539, 14.262253466465463], [79.15798691894223, 14.261570104890414], [79.16116506034507, 14.261594641656604], [79.16115668132473, 14.262627873807476], [79.16044762971666, 14.262966834997803], [79.15727506839539, 14.262253466465463]], [[79.15445846084383, 14.261198382752989], [79.15446406668745, 14.260509563852596], [79.15552343942225, 14.260517762530458], [79.15621848701112, 14.261900864836585], [79.15445846084383, 14.261198382752989]], [[79.13081911108868, 14.258603210849548], [79.13188413399882, 14.257922703280181], [79.13328525847265, 14.25931138704572], [79.13151966935573, 14.259297556472237], [79.13081911108868, 14.258603210849548]], [[79.14212733827675, 14.257658308524725], [79.14177986398978, 14.256966742713493], [79.1432007862536, 14.255944523566912], [79.14566696082636, 14.256652572952035], [79.14529976383423, 14.25837186550736], [79.14212733827675, 14.257658308524725]], [[79.04718011433063, 14.25242224149212], [79.04117760438405, 14.252373020332106], [79.04119544134181, 14.25030669847264], [79.04191052557051, 14.249279334641862], [79.04437914436845, 14.24964399623904], [79.04683591802976, 14.25138618592711], [79.0485983964355, 14.251745024051852], [79.04893964004452, 14.253125466669175], [79.04718011433063, 14.25242224149212]], [[79.00869383267501, 14.25210403012087], [79.0058933989559, 14.24932539388536], [79.00589945063965, 14.248636634523505], [79.00836493194069, 14.249346040865612], [79.00941509948971, 14.250388022933905], [79.00869383267501, 14.25210403012087]], [[79.07756069066637, 14.250946958875645], [79.07756652562885, 14.250258169974428], [79.0782727107856, 14.250263860003384], [79.07826687796332, 14.250952649190875], [79.07756069066637, 14.250946958875645]], [[79.01360606965545, 14.215293465045868], [79.013974124304, 14.213574486052321], [79.01609225821912, 14.213592070037937], [79.0167923002994, 14.214286693156389], [79.01607123814165, 14.21600274965643], [79.01430610767282, 14.21598809505003], [79.01360606965545, 14.215293465045868]]], [[[79.25074209432634, 14.277768909063646], [79.2514590692099, 14.27639638683667], [79.2511165377506, 14.27501608426265], [79.24936135682636, 14.273625403753464], [79.24794870527035, 14.27361501761946], [79.24723705070461, 14.274298674805264], [79.24721573100666, 14.277054087950779], [79.24862041382286, 14.278097761419192], [79.25074209432634, 14.277768909063646]]], [[[79.20494060346236, 14.308083132198664], [79.20707624789078, 14.306032619085181], [79.20818500041273, 14.299841075075799], [79.20430805323736, 14.298778515449355], [79.20042292787218, 14.298749148401585], [79.19864873419844, 14.299769029337092], [79.19582318405412, 14.29974760910264], [79.19581493998551, 14.300780857945782], [79.2035879858641, 14.300495269586794], [79.20247362611381, 14.30737561144083], [79.20282135514648, 14.308067117116563], [79.20494060346236, 14.308083132198664]]], [[[79.22718476265547, 14.309283416976356], [79.22579624024989, 14.306173078140466], [79.221571282693, 14.304419300013903], [79.21804465852243, 14.303704010660272], [79.21626505094011, 14.305412867525815], [79.21624058681697, 14.30851264714392], [79.21728935216392, 14.309898277834096], [79.21976998852594, 14.308883550480026], [79.2218892641771, 14.308899415372718], [79.22682073736698, 14.310658469360291], [79.22718476265547, 14.309283416976356]]], [[[79.26108837746618, 14.310222795936971], [79.2614495496122, 14.309192095402567], [79.25899292583233, 14.307107428344525], [79.25687096812875, 14.30743632361799], [79.25615656096493, 14.308464423962624], [79.25614327139883, 14.31018656055567], [79.25684440010413, 14.310880598155151], [79.26108837746618, 14.310222795936971]]], [[[79.26491562839196, 14.31782862803375], [79.2638665144867, 14.316443170961623], [79.2628041678214, 14.316779852312525], [79.2627882712807, 14.31884642207941], [79.2638400356896, 14.319887455742679], [79.26490239653661, 14.319550771315697], [79.26491562839196, 14.31782862803375]]], [[[79.23620425769174, 14.330361567480914], [79.237684489203, 14.321761478627428], [79.23595059922637, 14.317615285703058], [79.23527643261245, 14.313476958922273], [79.23421945740485, 14.313124662900552], [79.2335022407913, 14.314497103795714], [79.23348069101242, 14.317252487240323], [79.23487475925356, 14.319673952262447], [79.23413596870758, 14.323801775394216], [79.23518491315942, 14.325187346184508], [79.23514720461947, 14.33000926683454], [79.23620425769174, 14.330361567480914]]], [[[79.22214228846808, 14.366422876040977], [79.22073180035265, 14.366067842401774], [79.22072363075128, 14.367101099619964], [79.22178354231598, 14.36710906172428], [79.22214228846808, 14.366422876040977]]]]}}, {"type": "Feature", "properties": {"depth_class": 3, "depth_lo_m": 2.0, "t_s": 30600.404300670234}, "geometry": {"type": "MultiPolygon", "coordinates": [[[[79.0164272670522, 14.215661296171254], [79.0167923002994, 14.214286693156389], [79.01609225821912, 14.213592070037937], [79.01361809590493, 14.213915935883495], [79.01430610767282, 14.21598809505003], [79.0164272670522, 14.215661296171254]]], [[[79.08082588326722, 14.240640691612917], [79.08404716569527, 14.235500278234433], [79.08335555058395, 14.233772630630245], [79.07981323121673, 14.235121848455426], [79.07838638856909, 14.236832462448886], [79.07870741531428, 14.240623649194605], [79.08082588326722, 14.240640691612917]]], [[[79.00834075193171, 14.252101082046169], [79.00941509948971, 14.250388022933905], [79.00836493194069, 14.249346040865612], [79.00589945063965, 14.248636634523505], [79.00834075193171, 14.252101082046169]]], [[[79.04859543472641, 14.252089412541345], [79.04332286016512, 14.24929092286235], [79.04191052557051, 14.249279334641862], [79.04119544134181, 14.25030669847264], [79.04117760438405, 14.252373020332106], [79.0471830782591, 14.252077853303891], [79.04893964004452, 14.253125466669175], [79.04859543472641, 14.252089412541345]]], [[[79.14566696082636, 14.256652572952035], [79.1432007862536, 14.255944523566912], [79.14177704257864, 14.257311149791102], [79.1424776350457, 14.258005466863988], [79.14529976383423, 14.25837186550736], [79.14566696082636, 14.256652572952035]]], [[[79.13328525847265, 14.25931138704572], [79.13188413399882, 14.257922703280181], [79.13082194939993, 14.25825880596522], [79.13151966935573, 14.259297556472237], [79.13328525847265, 14.25931138704572]]], [[[79.00571775952262, 14.269299397013029], [79.0050236719498, 14.267915968842786], [79.00255801177133, 14.267206504013181], [79.00254587134104, 14.268584017738966], [79.00359608567484, 14.269626032006357], [79.00571775952262, 14.269299397013029]]], [[[79.18622074505309, 14.26385321895795], [79.18343704798845, 14.258665478544039], [79.1813182872847, 14.258649326536673], [79.17953883257623, 14.260357923884365], [79.17952777299566, 14.26173558107049], [79.18093477169526, 14.26243519312333], [79.18411296610543, 14.262459425484218], [79.18622074505309, 14.26385321895795]]], [[[79.15621848701112, 14.261900864836585], [79.15552343942225, 14.260517762530458], [79.15446406668745, 14.260509563852596], [79.15480878358669, 14.261545525808625], [79.15621848701112, 14.261900864836585]]], [[[79.16116506034507, 14.261594641656604], [79.15798691894223, 14.261570104890414], [79.15727506839539, 14.262253466465463], [79.16044762971666, 14.262966834997803], [79.16115668132473, 14.262627873807476], [79.16116506034507, 14.261594641656604]]], [[[79.24726733302164, 14.315976833670051], [79.24695953980343, 14.310118993600424], [79.24450573398555, 14.307689765683833], [79.24311696800751, 14.30457950145193], [79.23996489291115, 14.301111742721336], [79.23717684896158, 14.296268873774947], [79.22978400514181, 14.293113982999367], [79.22768375338272, 14.290687247764655], [79.22557274386456, 14.289638187630743], [79.22347527286422, 14.28686700158749], [79.22135349523488, 14.287195596195518], [79.21992452690772, 14.289251561352412], [79.21886227113463, 14.289588054125083], [79.21534674970532, 14.28749507024724], [79.21323040107424, 14.287134750373358], [79.21149716997108, 14.282988450093482], [79.20763956285039, 14.279515041324826], [79.2027089371603, 14.27775568142731], [79.20061186315576, 14.274984336648899], [79.19709401326507, 14.273235544224374], [79.19324778640998, 14.268384277950247], [79.1900832437472, 14.266638076891923], [79.18796164748409, 14.26696639087164], [79.18758371930389, 14.270063445994623], [79.19529532682783, 14.277355176138883], [79.20514557563133, 14.282251768648107], [79.20653914979401, 14.284673346462448], [79.21111406141974, 14.286774412443297], [79.21847925973144, 14.293374039377237], [79.22482584351235, 14.294799249289387], [79.22939576873102, 14.297588850638986], [79.23291966501658, 14.29864838835099], [79.24308216299184, 14.309057026184536], [79.24515331367395, 14.315272337228782], [79.24620497273742, 14.31631343820098], [79.24726733302164, 14.315976833670051]]], [[[79.24543428218065, 14.32457442219233], [79.24614344209319, 14.324235216884246], [79.24615146996415, 14.3232019417176], [79.24579823017513, 14.323199332378142], [79.24543428218065, 14.32457442219233]]], [[[79.24615146996415, 14.3232019417176], [79.248988076445, 14.321845095080596], [79.24900410272575, 14.319778541080545], [79.24830564825484, 14.318740054829595], [79.2472459488096, 14.318732237229748], [79.24617287448899, 14.320446540812963], [79.24615146996415, 14.3232019417176]]], [[[79.20636070937358, 14.395925425495914], [79.21064202956522, 14.390791319616094], [79.21312362309683, 14.389776775003499], [79.2149258849249, 14.385312693988055], [79.21812225318779, 14.383270165194661], [79.2202640419761, 14.380530777177613], [79.22948034417308, 14.376811081463131], [79.23163005952779, 14.37303830346764], [79.236231264672, 14.372039308654188], [79.23765531611706, 14.370672146359535], [79.23945152508024, 14.366896643265626], [79.24657670629482, 14.359371747311007], [79.25047100140445, 14.358367204704708], [79.25403600548819, 14.354260160619061], [79.25900070619387, 14.35188556306197], [79.26220420325704, 14.34880905194324], [79.26256810875879, 14.347433931906762], [79.25938858379824, 14.34741061016708], [79.25511188378334, 14.352201411697756], [79.24518499356647, 14.35660589249734], [79.23847245917842, 14.356556084650965], [79.23530634045899, 14.354810314591813], [79.23177887923543, 14.354095136598456], [79.22928151127886, 14.357176460678755], [79.22782768816553, 14.362332204457127], [79.2253491758237, 14.363002528081095], [79.22183796164906, 14.360220674508236], [79.22184884205035, 14.358842996561012], [79.22470775487487, 14.354731151759442], [79.22437347522771, 14.352317563907546], [79.2219141002037, 14.350576925350822], [79.21696821448948, 14.350539772901055], [79.21591656553339, 14.349498542309592], [79.21239201444047, 14.348438673919082], [79.21205240515472, 14.346713919846668], [79.2145525815258, 14.343288370029354], [79.21421295827899, 14.341563617325491], [79.21174558673911, 14.340856148882972], [79.20889761069178, 14.343590164878398], [79.20712580965181, 14.344265651699011], [79.20533480071691, 14.347352041343221], [79.20284817956285, 14.349055390365482], [79.20281246165435, 14.353532800150386], [79.20173612594547, 14.355591255608843], [79.2013580855993, 14.358688315518277], [79.19956961854197, 14.361430220202624], [79.1991970404677, 14.363838440440638], [79.1949160729674, 14.368972379477764], [79.19525279757082, 14.371041557809102], [79.19807923982748, 14.371063089268318], [79.20587944516528, 14.367677965113442], [79.20941520730227, 14.367360292587074], [79.21186916289643, 14.369789903301628], [79.21219235943806, 14.373581162082399], [79.21003959118363, 14.377698141838458], [79.20965610315535, 14.381484051619124], [79.20714986767243, 14.385598313357354], [79.20677454878046, 14.388350961468243], [79.20390656928424, 14.393495736527143], [79.20423512443082, 14.39659815721132], [79.20636070937358, 14.395925425495914]], [[79.22214228846808, 14.366422876040977], [79.22178354231598, 14.36710906172428], [79.22072363075128, 14.367101099619964], [79.22073180035265, 14.366067842401774], [79.22214228846808, 14.366422876040977]]]]}}]}