{"type": "FeatureCollection", "features": [{"type": "Feature", "properties": {"depth_class": 1, "depth_lo_m": 0.3, "t_s": 76500.47322133133}, "geometry": {"type": "MultiPolygon", "coordinates": [[[[79.01424296778274, 14.223220123053174], [79.01602618186206, 14.221168489959858], [79.01813838663901, 14.221874831035088], [79.02096866992005, 14.221209469120577], [79.02168672354301, 14.21983777971867], [79.02171966913033, 14.216049556950844], [79.02067556682104, 14.2143188719775], [79.01891644127093, 14.213615486208635], [79.0178693710617, 14.212229176129327], [79.0139921575822, 14.211508191486345], [79.01150297172912, 14.213553947723556], [79.01148190310485, 14.215964620613429], [79.01217892634699, 14.21700363815606], [79.01144276519125, 14.220441583183506], [79.01283382962676, 14.222864001902288], [79.01424296778274, 14.223220123053174]], [[79.01815339219868, 14.220152915754356], [79.01641525626744, 14.217038827487833], [79.01324101536012, 14.216668060368143], [79.01254398765876, 14.215629045399083], [79.01291806577964, 14.213221304854397], [79.01610126561869, 14.2125589214722], [79.01819839683871, 14.214987168333762], [79.02030755945819, 14.21603786761961], [79.02063661448385, 14.2187958601953], [79.01991855910141, 14.220167546157368], [79.01815339219868, 14.220152915754356]]], [[[79.16062073082857, 14.241613360551185], [79.16141333288863, 14.230942045023951], [79.16388767401897, 14.23061664514664], [79.16425466223365, 14.228897297796511], [79.16320934656169, 14.227167095131888], [79.16109368959671, 14.226806387010601], [79.15898919719153, 14.225068015579426], [79.15722384841197, 14.225054407334662], [79.15543614648841, 14.227796071131706], [79.15331770701934, 14.227779705115275], [79.15189701514774, 14.228802013680765], [79.15187180994066, 14.23190170211306], [79.15291425045393, 14.233976355919092], [79.15572493499282, 14.235720239400475], [79.15708977487797, 14.241586124182863], [79.15814347395816, 14.242283121995076], [79.15990895746806, 14.242296739560603], [79.16062073082857, 14.241613360551185]], [[79.15890271052439, 14.235744762761133], [79.156100381072, 14.232967682060588], [79.1561087649173, 14.231934450296858], [79.1582244551067, 14.232295207249601], [79.15890271052439, 14.235744762761133]]], [[[79.08115859049458, 14.243054298225754], [79.08615978992073, 14.236206060530675], [79.08618589922843, 14.233106490654498], [79.08443507785556, 14.231370355050153], [79.08160765648091, 14.231692080612673], [79.07770355755726, 14.234071618699938], [79.07591488787189, 14.236812557760208], [79.07274017154056, 14.236442534605917], [79.07131327157252, 14.238153098368386], [79.07164879999883, 14.240222311996115], [79.07305233664657, 14.24126689858418], [79.07623587291111, 14.24060374264391], [79.07693036170394, 14.241987011201704], [79.07868701807759, 14.243034413726718], [79.08115859049458, 14.243054298225754]], [[79.07800417460139, 14.24027356938424], [79.07804205795068, 14.23579643561188], [79.08230215997636, 14.233075335192929], [79.0840674948359, 14.23308950458502], [79.08476782352267, 14.233783961502166], [79.0847533076638, 14.235505943341071], [79.08224110502438, 14.240307647104727], [79.08082006229033, 14.241329482389697], [79.07870158792157, 14.241312439113432], [79.07800417460139, 14.24027356938424]]], [[[79.11821835883717, 14.245071512487145], [79.12036827828598, 14.241299773694987], [79.1203882306469, 14.238888950273804], [79.11899871194554, 14.236122600929617], [79.11653001572947, 14.235758714744671], [79.1143801013723, 14.239530419205416], [79.11400413678402, 14.242282846396957], [79.11680598822896, 14.245060370735448], [79.11821835883717, 14.245071512487145]]], [[[79.16938705731988, 14.249258304748714], [79.17010993633328, 14.247197245588358], [79.16871418063701, 14.245119933448054], [79.16695422780072, 14.244417553686498], [79.16306732832118, 14.244732099680535], [79.16305060756646, 14.246798569016825], [79.16514696315588, 14.24957016518527], [79.16796905929223, 14.249936287421468], [79.16938705731988, 14.249258304748714]]], [[[79.03554013007644, 14.250949013555928], [79.0366291776813, 14.247513873873078], [79.0394686893612, 14.245815167890548], [79.03913643322558, 14.2434015593998], [79.03738594882373, 14.241665115509615], [79.03561761715916, 14.24199497871526], [79.03418744478843, 14.24404966533019], [79.03170398768316, 14.245406833998175], [79.03027674584823, 14.24711710443601], [79.03026180257916, 14.248839028483157], [79.0316681509471, 14.249539455419903], [79.03306256862246, 14.251617416362873], [79.03554013007644, 14.250949013555928]], [[79.03381349243577, 14.24645745597372], [79.03486676209809, 14.24715495376699], [79.03450175466527, 14.248529588185537], [79.0330924167534, 14.248173562985087], [79.03310435377429, 14.246796021339028], [79.03381349243577, 14.24645745597372]]], [[[79.15065832104086, 14.250836013997782], [79.15067796568138, 14.24842515076216], [79.14891525250266, 14.248067050447604], [79.14785032105834, 14.248747646479444], [79.14748316062173, 14.250466947029198], [79.14853124258536, 14.251852805341743], [79.1495905713478, 14.251861025490921], [79.15065832104086, 14.250836013997782]]], [[[79.15838479078947, 14.256062268996695], [79.15946370393492, 14.253659573603077], [79.15735900286847, 14.251921163024392], [79.15240703844388, 14.252916150801427], [79.15133928467252, 14.253941169730469], [79.1516811745642, 14.25532154289267], [79.15378865714396, 14.256715592266994], [79.15731984181178, 14.256742905802403], [79.15838479078947, 14.256062268996695]]], [[[79.02804154572235, 14.260530589186269], [79.0284185952044, 14.257778436996752], [79.02702119820533, 14.256044834396468], [79.02455556226504, 14.255335604427632], [79.02207192835726, 14.256692648188968], [79.0220509053966, 14.259103327882938], [79.02345127789235, 14.260492573724974], [79.0252107656334, 14.261195972272752], [79.02804154572235, 14.260530589186269]], [[79.02383138253299, 14.257396052775857], [79.02559984263743, 14.257066295060401], [79.02664413778716, 14.25879698293623], [79.02487266498778, 14.259471130173212], [79.02381937995807, 14.258773585480736], [79.02383138253299, 14.257396052775857]]], [[[79.17277943672505, 14.266506028527376], [79.1696290128167, 14.263037515559482], [79.16364810826448, 14.260236051622252], [79.16082310635025, 14.26021427469849], [79.15728066611803, 14.261564646529129], [79.15553184280691, 14.25948453348301], [79.15341310765011, 14.259468132662981], [79.15270125244633, 14.260151479819978], [79.14846940276725, 14.259429790956982], [79.1460285215149, 14.255622094851379], [79.14214426285356, 14.25559186554967], [79.14072333904244, 14.256614078115396], [79.14071204682239, 14.257991705574302], [79.14776034757752, 14.259768713391944], [79.15021534478984, 14.261854356584298], [79.15726947037402, 14.262942286359912], [79.15867359372707, 14.263986432676614], [79.16079237738373, 14.264002791831693], [79.1625691969808, 14.262638766275405], [79.16433763148697, 14.262307958782705], [79.16784109181833, 14.265779246154752], [79.17277943672505, 14.266506028527376]]], [[[79.04956882551404, 14.262085344424321], [79.04994562326007, 14.259333125376621], [79.04783887698481, 14.257938234206215], [79.04607338689839, 14.25792377245424], [79.04499925057591, 14.2596370268955], [79.04497846673935, 14.262047739314534], [79.04603184337627, 14.262745200570048], [79.04850358252169, 14.262765450493285], [79.04956882551404, 14.262085344424321]]], [[[79.08311707004823, 14.262013076241544], [79.08349346713261, 14.259260752706338], [79.08279307445079, 14.258566284081496], [79.07996530927423, 14.258887946705295], [79.07854121259146, 14.260254145413967], [79.0785324580722, 14.261287328479622], [79.07958303760977, 14.26232904852435], [79.08205190822744, 14.262693345098118], [79.08311707004823, 14.262013076241544]]], [[[79.12429771684636, 14.278528688930633], [79.12678968022337, 14.276137323773641], [79.12716560133528, 14.273384871625279], [79.12577298910166, 14.27096293683045], [79.12400446557983, 14.271293442717516], [79.12328963858499, 14.272321089036788], [79.12148397641724, 14.277128808063637], [79.1218199833809, 14.279198008704645], [79.12429771684636, 14.278528688930633]]], [[[79.10415986245036, 14.279402474961445], [79.10381825341616, 14.27802206717275], [79.1024056894136, 14.278010814823002], [79.10238837462667, 14.28007720665401], [79.10415986245036, 14.279402474961445]]], [[[79.21154731474955, 14.498606626507014], [79.2247259254473, 14.48630689972478], [79.23008841899956, 14.478769711277193], [79.23189128858982, 14.474305575781516], [79.2330034879382, 14.46776959744216], [79.23165504409332, 14.459492936004132], [79.22886290747174, 14.454994244763377], [79.22638880310541, 14.454975622366842], [79.22071453429004, 14.45734387465788], [79.21576355026136, 14.457650842270237], [79.21363187006962, 14.459012421257057], [79.21221808205702, 14.459001688733004], [79.20940706181207, 14.456913712566873], [79.19916279350477, 14.45614671208121], [79.19741503145502, 14.453722304486384], [79.19638527795965, 14.449925653921039], [79.19464036828099, 14.447156821828326], [79.19465982144033, 14.444745939018537], [79.19821067297813, 14.442706516444696], [79.1978738939245, 14.440637338542603], [79.19505768456511, 14.439238054385337], [79.19081674222846, 14.439205540360456], [79.1872965757583, 14.437456333890257], [79.18448886334676, 14.435023704715473], [79.1827497943598, 14.431565991935932], [79.18028160800289, 14.43085809643896], [79.1799338089582, 14.430166550321514], [79.1842331694779, 14.422966621731392], [79.18708253419435, 14.420233072502272], [79.191676490374, 14.420268320024492], [79.19238880852285, 14.419584910479994], [79.19242212969196, 14.415451963717706], [79.19954768895592, 14.408273287579423], [79.20273348920482, 14.407608682679687], [79.20519326200213, 14.409349567726036], [79.2076750886921, 14.408335108458248], [79.20804495912651, 14.406271297001284], [79.20629191086766, 14.404535809980576], [79.2059550701537, 14.402466635273264], [79.21022830531861, 14.398365803511298], [79.21202522773405, 14.39459059552828], [79.2162927282811, 14.391178456301311], [79.21738281198371, 14.387397855712232], [79.21880707302697, 14.386030832915196], [79.22057919390274, 14.385355294880455], [79.22272097838149, 14.382615883903167], [79.2244957832825, 14.381595892555014], [79.23122798286663, 14.37923523738211], [79.23373642817197, 14.374776238200466], [79.2365656773714, 14.37445289386904], [79.23905239016, 14.37274919707688], [79.2415606023956, 14.368290086645578], [79.24440589112994, 14.36590009712475], [79.24762319228597, 14.361101710958742], [79.25151751563804, 14.360097154143785], [79.25472924082575, 14.355987493944891], [79.26075916532992, 14.352931812443193], [79.26360937287366, 14.349852689223475], [79.26680218608612, 14.348153817628749], [79.26788850664394, 14.344717279576576], [79.2700266770527, 14.342321751220808], [79.27111027072071, 14.339229617305401], [79.2711313953502, 14.33647418340437], [79.2693862113839, 14.333705873555566], [79.26940206470194, 14.331639299121894], [79.27119474229634, 14.328207877686621], [79.27193025586075, 14.324424295178176], [79.27299526612649, 14.32374314572219], [79.27300580560863, 14.322365425686632], [79.26982661625786, 14.322342283493072], [79.26874575597363, 14.32508999370161], [79.26589067099289, 14.328858085039121], [79.26516562923914, 14.331263921186936], [79.2658085853734, 14.339535364815033], [79.26329324976695, 14.345028115803675], [79.2594045445683, 14.345344049106547], [79.25765413486329, 14.3432645166366], [79.25798611285404, 14.346022524984681], [79.25726890367, 14.347395038679494], [79.25300017624501, 14.351152520353834], [79.24449451798752, 14.354534115558046], [79.23813802925008, 14.354142499365082], [79.23744223613205, 14.352759554941366], [79.23781437953294, 14.350351223091451], [79.24177302065327, 14.341080643740327], [79.24355813796157, 14.33868276233483], [79.24430488342665, 14.333521627395431], [79.24644315882922, 14.331126325905858], [79.24753501486077, 14.327001051850953], [79.24894799955328, 14.32701147843343], [79.25104879331899, 14.329438083387197], [79.25318162857744, 14.327731560279013], [79.25320561976315, 14.324631723701968], [79.25110217096295, 14.322549565369002], [79.24872029940072, 14.310820866605276], [79.2441819490672, 14.30389847938552], [79.2410245055992, 14.301119583348987], [79.23894551154768, 14.295937530717179], [79.23366371795677, 14.293831706627197], [79.23048769080573, 14.293463660991348], [79.2287379180504, 14.291383982995681], [79.22521956044085, 14.2896355537372], [79.22523846680953, 14.287224598484098], [79.2234833823489, 14.285833735854352], [79.22100302349607, 14.286848535056366], [79.22062818248698, 14.289601265477334], [79.21886227113463, 14.289588054125083], [79.21676488994844, 14.286816818472717], [79.21429808448994, 14.286109441961], [79.21324671321213, 14.285068230421489], [79.21220895001152, 14.28230491586966], [79.21009537994551, 14.281600154644224], [79.20729457764648, 14.278479125446998], [79.20271440309659, 14.277066844925056], [79.20096501897363, 14.274987004376088], [79.19744716567197, 14.273238216845602], [79.19395133016995, 14.2687340491303], [79.1911371693107, 14.2673349534177], [79.18901831854856, 14.267318860248906], [79.18688844996072, 14.268680410296774], [79.18406330610225, 14.268658896218655], [79.18230864191781, 14.267267774414334], [79.17983666249042, 14.267248905755181], [79.17877170910441, 14.267929639271538], [79.17348016057521, 14.267200268748727], [79.17557958524907, 14.269627393175485], [79.18299283314302, 14.270028478705882], [79.18616286740169, 14.271085942122765], [79.19075103314752, 14.271465267029106], [79.19599890065822, 14.277704944671942], [79.19917185876152, 14.278417836530776], [79.20479786906843, 14.281560268759616], [79.20759593921656, 14.285025745974139], [79.20970408135216, 14.28641937068825], [79.21179864379994, 14.289535077828786], [79.2170692228826, 14.293019035347818], [79.21811522049217, 14.294749077010186], [79.22411946091624, 14.294793976900651], [79.22798568138249, 14.297233906455146], [79.2332701732704, 14.29899543581948], [79.23501466507444, 14.301763938033867], [79.23747367093969, 14.303504398049178], [79.2437618268582, 14.312506497271782], [79.24405078411121, 14.320775304798481], [79.2425895774029, 14.326964492661137], [79.2375795840043, 14.335193988780313], [79.23684614315953, 14.338632969280676], [79.23434363993589, 14.342403222827778], [79.23144722653254, 14.351337128492712], [79.23002327836998, 14.352704265244387], [79.22825415553832, 14.353035487724144], [79.22510717158079, 14.348878652732068], [79.2212401706636, 14.346438587886922], [79.21809068242118, 14.34262610234607], [79.216354331716, 14.338824215191586], [79.21353917970677, 14.337425274441554], [79.21071040258884, 14.33774839439802], [79.20715046280706, 14.341165896879039], [79.20573468046362, 14.341499628257704], [79.20181309906806, 14.345947608948922], [79.19968524483936, 14.346964771517063], [79.1989649451409, 14.34868148294275], [79.19963295367373, 14.353508667265896], [79.1989208891224, 14.354192129259507], [79.19854281529881, 14.357289180779066], [79.19675984674684, 14.359342232320492], [79.1953163288263, 14.36312003017791], [79.19176127018301, 14.365848393141947], [79.18961378478743, 14.369276328413813], [79.18288160383702, 14.371635784890419], [79.17793257240787, 14.371942174579791], [79.1743827737739, 14.373981413201555], [79.1690831995835, 14.373940475621724], [79.16732509747746, 14.372893577349869], [79.16485198252765, 14.372874415588685], [79.16130488969576, 14.374569034471634], [79.15702573052458, 14.379357750723596], [79.15312800206549, 14.380705068406145], [79.14992268601695, 14.383779868770059], [79.1484838844029, 14.386868452470658], [79.1449307771952, 14.38925159056368], [79.14420990453645, 14.390968063958073], [79.14064528413546, 14.394728735366252], [79.13919770933335, 14.39885044361531], [79.13986728235636, 14.403333240430777], [79.13771577522758, 14.407104959271946], [79.13732238970736, 14.411923797942558], [79.13590037180987, 14.412945847198245], [79.13343259263054, 14.412237502235836], [79.12636258115, 14.412525924565854], [79.12387180053003, 14.414572676271698], [79.12315066891016, 14.416289052675626], [79.11960838979284, 14.417294123160348], [79.11853674107842, 14.418663266435551], [79.11605450786742, 14.419676725757943], [79.1135519636565, 14.423100933248259], [79.11035711129652, 14.424797463371826], [79.10892908836186, 14.426508115580901], [79.10958352239201, 14.432712903376029], [79.10850300478045, 14.435115169033198], [79.10565258785587, 14.437847627775326], [79.10105849585115, 14.437810662206656], [79.0975011713216, 14.440537310441284], [79.09747774989432, 14.44329245389234], [79.10308542683954, 14.448848343037756], [79.10306498122459, 14.451259099738062], [79.10056184063635, 14.454683093365079], [79.10017623015999, 14.458468565668834], [79.09482791127323, 14.463935991737136], [79.089173022399, 14.463890142546305], [79.08811862633543, 14.46319274988954], [79.08673144848076, 14.460081748917355], [79.08354178166356, 14.461089041517205], [79.08140349674534, 14.46313810023132], [79.07960676145737, 14.466567573511075], [79.07886731559962, 14.470350075474963], [79.07917039084904, 14.476207563270682], [79.08089025119317, 14.48173220890566], [79.08332598899058, 14.486229451054312], [79.09102262224047, 14.49559128281728], [79.09455448753808, 14.495964378818753], [79.09810106179395, 14.494615465656524], [79.10092890760502, 14.49463834738854], [79.10308788192305, 14.490178382887246], [79.1055768308861, 14.488476381937794], [79.10665478698725, 14.486418568670143], [79.11271620819522, 14.480267800490633], [79.1141329616547, 14.479934751522999], [79.11698389079791, 14.477202251805275], [79.11806458350178, 14.474799968920896], [79.12091249896531, 14.472411803367265], [79.12771754273837, 14.461789015094286], [79.1301887046309, 14.462153081796595], [79.13158804959663, 14.46388630470463], [79.13370005271464, 14.464936330409149], [79.1358264450948, 14.46426434006052], [79.13585804720489, 14.460475940498586], [79.1309416541643, 14.456648311325818], [79.1306199006251, 14.452857114676906], [79.12957404015873, 14.45112670067633], [79.1299447350317, 14.449063112223088], [79.13385241397876, 14.446683143936193], [79.13705893151344, 14.443608711491358], [79.13849834464564, 14.440520273954746], [79.1427820455545, 14.435387701529729], [79.15130621380692, 14.43028830641349], [79.15661840195855, 14.42895218038993], [79.15731951296027, 14.429646513623618], [79.15730534638546, 14.431368539074537], [79.15373735331566, 14.435473749969713], [79.15371747267193, 14.437884579455789], [79.1551197279014, 14.439273265089684], [79.1692531494296, 14.439727896713054], [79.17102863235928, 14.438708393097139], [79.17385588862842, 14.43873031412698], [79.17772655092615, 14.44082685286502], [79.17984421988152, 14.441187648068128], [79.18335318580422, 14.444314604396215], [79.18437151519468, 14.449488924057343], [79.18717938843753, 14.451921572839362], [79.1885568418251, 14.456409786074557], [79.19171828705588, 14.458845114188971], [79.19240010411171, 14.461950241826695], [79.19132861154779, 14.463319738852764], [79.19131467249638, 14.465041792168618], [79.19448183008463, 14.466788276844724], [79.19516091423556, 14.470237812977192], [79.19475176519313, 14.477123321770325], [79.19613782115674, 14.48057828398856], [79.19611554938248, 14.483333572470709], [79.19431469002762, 14.487452929177687], [79.19429796147811, 14.489519392312996], [79.19250817342076, 14.49226108316435], [79.19249421437176, 14.493983133377922], [79.1935407571493, 14.495713342582023], [79.19529153541617, 14.497793393533192], [79.19952247220391, 14.499203600577069], [79.21154731474955, 14.498606626507014]], [[79.1109780521223, 14.476809660233322], [79.0994108050098, 14.465350714906693], [79.10014402802918, 14.462256887892098], [79.10264435086606, 14.459177305382726], [79.10303868845241, 14.454358643301735], [79.10518254178277, 14.451620563560768], [79.1048612260691, 14.447829383915641], [79.0999544696796, 14.44296802112], [79.09996616549743, 14.441590447453178], [79.10210115022434, 14.439885564343731], [79.10527879016146, 14.440255549491722], [79.10669820064098, 14.439578119948786], [79.11026122795025, 14.43616252578407], [79.11134173421651, 14.433760250584248], [79.11104643599288, 14.426869500027626], [79.11459758771622, 14.42483139146182], [79.11781266156252, 14.420724017036177], [79.12030067715321, 14.419021743452424], [79.12348673545652, 14.41835825515644], [79.1270549130579, 14.414253530210646], [79.13623941976117, 14.41467064422993], [79.13872724697175, 14.412968150468943], [79.13912060725892, 14.408149306453833], [79.14163400709016, 14.403347145188032], [79.14096439812205, 14.398864349146125], [79.14205291134348, 14.395428655361185], [79.14490233501449, 14.392695628771122], [79.14669455509149, 14.389609848425332], [79.15024765306637, 14.38722668231903], [79.15097130005636, 14.385165777865074], [79.15488890839188, 14.38140766493372], [79.15843050942836, 14.380401975365954], [79.1627096645164, 14.375613232897496], [79.1648379317308, 14.374596456604806], [79.17366217854244, 14.375698011088707], [79.1779186226727, 14.373664228357331], [79.18499308915588, 14.372685284442898], [79.19066537895048, 14.370317670784104], [79.19281286139052, 14.366889725541943], [79.19672398108678, 14.363819623185563], [79.19816748235641, 14.360041814720592], [79.19959440645907, 14.35833048275907], [79.19996971680243, 14.355577843810192], [79.20104331686206, 14.353863813980903], [79.20109006950234, 14.348008745161813], [79.20321792937531, 14.346991570472856], [79.20678624400189, 14.342540894914382], [79.21175924499612, 14.339134058116542], [79.21422932620484, 14.339497105704275], [79.2163298092563, 14.341923986260756], [79.21631345769217, 14.343990499834838], [79.21488402454314, 14.346046378363747], [79.2152291112638, 14.347082293677511], [79.21805528389949, 14.347103551990049], [79.22157713346121, 14.348507756673106], [79.22614259449685, 14.35198637040076], [79.22683288974316, 14.354058181060783], [79.2239713060659, 14.358514477109583], [79.2243082990685, 14.360583644979402], [79.22571333302186, 14.361627494481443], [79.22783853359046, 14.36095452226473], [79.22858035032165, 14.356482337422444], [79.23072172857982, 14.353742804922131], [79.23319472332085, 14.353761254613557], [79.23812186320096, 14.35620903530423], [79.24483438597954, 14.356258851902371], [79.25440531005326, 14.35219620886544], [79.26045108350353, 14.347073961800822], [79.26327467063727, 14.347439108731717], [79.26255483044372, 14.349156068751341], [79.2597072806846, 14.351890752089027], [79.25403333560573, 14.354604586242186], [79.25153088890413, 14.358375029040022], [79.24621536109031, 14.360402404226106], [79.24015544568492, 14.367246318607076], [79.238356547275, 14.37136625020127], [79.23693249468468, 14.372733416625577], [79.23268459286246, 14.373735062193022], [79.2316165196933, 14.3747604079719], [79.23053217560465, 14.377852271412065], [79.22770016818032, 14.378519957632953], [79.22166916770466, 14.38157466119991], [79.21952738301587, 14.384314062543426], [79.21775526852632, 14.384989593330436], [79.2156134027879, 14.387728949215786], [79.21524091557787, 14.390137204522118], [79.2109734230666, 14.393549325475336], [79.20846155198319, 14.398352416110292], [79.20454715494385, 14.401767067894598], [79.2041745094756, 14.4041752866147], [79.20556866650564, 14.406596933081815], [79.20133383857072, 14.405875851042362], [79.1977836346593, 14.40791539776439], [79.19101418999715, 14.41475231177181], [79.19027964637867, 14.41819101350794], [79.1863869184989, 14.418849997799452], [79.1828252170282, 14.422266918796092], [79.18174550771195, 14.424669621954413], [79.17924941317922, 14.427405819581203], [79.17745444093502, 14.43083626410086], [79.17815002632058, 14.432219361727446], [79.18132221989755, 14.43327714264648], [79.18237403447463, 14.434318547220718], [79.18236564745315, 14.43535177663719], [79.18657581048244, 14.439172950126222], [79.1900959953601, 14.440922169616748], [79.19397799544711, 14.44164081607536], [79.19219422418202, 14.443693736285985], [79.19218309420121, 14.445071381911024], [79.19320997993884, 14.44921245293081], [79.19425914169447, 14.450598229888335], [79.19458476800696, 14.454045055572795], [79.19563395805982, 14.455430829484087], [79.1956172802773, 14.457497299739387], [79.19420351586574, 14.457486460171696], [79.1910420568734, 14.455051164269062], [79.18860705898916, 14.450210397850956], [79.18614702625102, 14.448469308255426], [79.1851258633979, 14.44363940167854], [79.18091845253176, 14.439473787331186], [79.17809397886138, 14.439107541033176], [79.17280972196352, 14.437000058326456], [79.16431674198253, 14.438311788696982], [79.15619128844132, 14.437903942755028], [79.15550150805116, 14.435831985724459], [79.15871325387916, 14.432068391264709], [79.15909212314479, 14.428971501563227], [79.15768989687447, 14.427582843155074], [79.15557241437601, 14.427221867851204], [79.14954780243455, 14.42924123788068], [79.14208954175943, 14.433660122567957], [79.1395957626679, 14.436051427450794], [79.13458507962096, 14.443589139915568], [79.12818630724078, 14.448015880102217], [79.12745353330473, 14.451109850726363], [79.12849649381063, 14.453184670953894], [79.12950777457299, 14.4590478760776], [79.12702799091548, 14.459717001337806], [79.12453663522875, 14.46176368970375], [79.12201918147528, 14.466909920150679], [79.12024038303386, 14.46827339503997], [79.11880340529305, 14.471017265817467], [79.11524568237985, 14.473744137153684], [79.11416787670034, 14.475802008956343], [79.11239187217777, 14.476821014209465], [79.1109780521223, 14.476809660233322]], [[79.26791497147678, 14.34127299457122], [79.26724812741357, 14.336101406207533], [79.2686638279217, 14.33576729305058], [79.26899065427608, 14.33921415920854], [79.26791497147678, 14.34127299457122]]], [[[79.16254070152384, 14.39627767799907], [79.16432710069114, 14.39388055430214], [79.16435243321816, 14.390780886214312], [79.16330089151991, 14.389739431609161], [79.16188757985529, 14.38972844860112], [79.16116964773569, 14.391100581962391], [79.16148350714538, 14.395925027565179], [79.16254070152384, 14.39627767799907]]], [[[79.18163827459085, 14.262784996405742], [79.18271147540776, 14.261071001229926], [79.18166036863244, 14.260029678865004], [79.17989472566013, 14.26001620575153], [79.17847114689751, 14.261383074272116], [79.17987261019366, 14.262771520582415], [79.18163827459085, 14.262784996405742]]], [[[79.28282336995463, 14.285580338935489], [79.28073039966375, 14.28212071619193], [79.27826074520422, 14.281758417872869], [79.27122342972307, 14.278262922407656], [79.26875384351153, 14.277900531762976], [79.26594955239791, 14.27512453453769], [79.26065732161771, 14.274397049921522], [79.25856214948837, 14.271281707891884], [79.25575541927275, 14.268850041024761], [79.25577132206081, 14.266783470350138], [79.2547277715137, 14.26470914379372], [79.25549236286881, 14.25713688569347], [79.25408246029605, 14.256782119152525], [79.25441704388244, 14.259195703772809], [79.2519131948451, 14.263310728065983], [79.25189991676346, 14.265032867265141], [79.25435075078063, 14.267806411673932], [79.25466676977543, 14.272630992963714], [79.2606282300437, 14.278185770006681], [79.26131606496638, 14.280601932089462], [79.26308194666336, 14.280614820554575], [79.26415995623697, 14.278211539790522], [79.26486630232064, 14.278216687469303], [79.26626844879468, 14.27960469677004], [79.26944439951171, 14.279972249525805], [79.27506899798405, 14.283457567768293], [79.27894878075378, 14.284174550740657], [79.28105743107552, 14.285567592506677], [79.28282336995463, 14.285580338935489]]], [[[79.25145109288545, 14.277429669003947], [79.25112451419511, 14.273982802071806], [79.24971718063975, 14.273283571811943], [79.24724504441883, 14.273265394703637], [79.24653338920702, 14.273949049687827], [79.24615889424351, 14.276701861351476], [79.2472077349474, 14.278087367708272], [79.25073677413488, 14.278457763508298], [79.25145109288545, 14.277429669003947]]], [[[79.28386987758095, 14.287310145728807], [79.28421523531175, 14.288345991390647], [79.28456842786935, 14.288348537523316], [79.28457625940551, 14.287315238134292], [79.28386987758095, 14.287310145728807]]], [[[79.19729634766011, 14.292181156437705], [79.19730457979843, 14.291147906003298], [79.19625327541445, 14.290106626170699], [79.1944818876002, 14.290782066147592], [79.19517176236126, 14.29285392346381], [79.19729634766011, 14.292181156437705]]], [[[79.27851175504128, 14.295193820497309], [79.27886757779096, 14.294851944402485], [79.27851437614558, 14.294849388674562], [79.27851175504128, 14.295193820497309]]], [[[79.18595037188413, 14.297605887582076], [79.18489633572469, 14.296908974996596], [79.18417613588373, 14.298625653947262], [79.18593932123972, 14.2989835453901], [79.18595037188413, 14.297605887582076]]], [[[79.20600022860349, 14.30809113266246], [79.20778265900121, 14.306037946159819], [79.20852182373454, 14.30191024815711], [79.21066282493952, 14.299170853017447], [79.21031780641044, 14.298134938036391], [79.2050117068518, 14.299128266167694], [79.20215329237895, 14.303239931995751], [79.20211493962422, 14.308061774561947], [79.20281587716511, 14.308755951869104], [79.20600022860349, 14.30809113266246]], [[79.20462569530865, 14.30325861520478], [79.20603576548798, 14.303613697924995], [79.20531022138762, 14.3060192922257], [79.20389740149534, 14.306008621303166], [79.2039138213914, 14.303942115212626], [79.20462569530865, 14.30325861520478]]], [[[79.22472579142975, 14.307542853155812], [79.22191365154073, 14.305799626296713], [79.22014761250861, 14.305786409845306], [79.21801750629388, 14.307148214027164], [79.21801207498079, 14.307837054574964], [79.22048454967607, 14.307855578738657], [79.22364991437242, 14.309601464262363], [79.22506547729266, 14.30926759887369], [79.22472579142975, 14.307542853155812]]], [[[79.26179217279817, 14.310572392354768], [79.26181071796782, 14.308161393861278], [79.25970201220284, 14.306768173522379], [79.25687362454231, 14.307091896106826], [79.25508892688053, 14.309489928243392], [79.25578207386516, 14.311217250016881], [79.26108042546358, 14.311256080491736], [79.26179217279817, 14.310572392354768]]], [[[79.27972269506502, 14.321725279294782], [79.28328394142262, 14.317962090326239], [79.28436720414362, 14.314869856407505], [79.2844325817532, 14.306259045365248], [79.28586374730828, 14.303858207896875], [79.28589508146986, 14.299725012339442], [79.28519649561932, 14.298686620783865], [79.28377843310528, 14.299365294959285], [79.2819783640359, 14.303830163039501], [79.28191028522419, 14.312785396647444], [79.28012577901757, 14.315183640681555], [79.27764263938377, 14.316543452030727], [79.27619288997857, 14.321355233494726], [79.27653824487703, 14.322391089373202], [79.27972269506502, 14.321725279294782]]], [[[79.2656009352598, 14.32058921759288], [79.2659726889883, 14.318180795217085], [79.26527680004672, 14.316797921707428], [79.26387445675229, 14.315409885323588], [79.26210565265227, 14.315741400270376], [79.26207384665737, 14.319874538250774], [79.26347620209836, 14.321262586654953], [79.2656009352598, 14.32058921759288]]], [[[79.23312476835999, 14.317594282942515], [79.23135592905307, 14.31792556164448], [79.23169836989608, 14.319305881585604], [79.23311398931166, 14.318971974108608], [79.23312476835999, 14.317594282942515]]], [[[79.23661402068521, 14.323131305326468], [79.23661940130856, 14.322442458700513], [79.23591292780857, 14.322437211417242], [79.23590754503229, 14.323126057780403], [79.23661402068521, 14.323131305326468]]], [[[79.25347355235162, 14.335655961674673], [79.2517312749758, 14.332543121055563], [79.25067417952903, 14.332190885737427], [79.25101141207745, 14.334260043510016], [79.25240843299109, 14.336337009835947], [79.25346555073897, 14.336689239818678], [79.25347355235162, 14.335655961674673]]], [[[79.16548415828092, 14.42523259110906], [79.17082990752348, 14.419763225312105], [79.17756647853959, 14.417059896545904], [79.18219943191595, 14.41227357665484], [79.18539088571046, 14.41092039664103], [79.18788114100435, 14.408872923387309], [79.19144531259799, 14.405111476113007], [79.193239829237, 14.401680868918895], [79.20071821673476, 14.394504796155411], [79.20287685455332, 14.389699115274908], [79.20501613199318, 14.38730431090268], [79.2057475466777, 14.384209932528655], [79.20788948309158, 14.381470675293071], [79.20863454993035, 14.37665419741931], [79.21042305859821, 14.373912228791113], [79.21044771946823, 14.37081247609592], [79.20904819844586, 14.369079704711906], [79.20621901808828, 14.369402723325315], [79.1977038576287, 14.373815716096104], [79.195227926962, 14.374141284497709], [79.19167267669272, 14.376869623231313], [79.18773348234805, 14.383383728069965], [79.18559686307732, 14.385433947767265], [79.18487351949233, 14.387494995685973], [79.17988785838135, 14.392278724190904], [79.17915326450594, 14.39571738614832], [79.17663792636236, 14.40086446495084], [79.17413367091378, 14.404633864934295], [79.1702186999289, 14.408047871950501], [79.16625573513859, 14.41731672311468], [79.1605678797502, 14.421405601424306], [79.15984133058645, 14.423810931676945], [79.1608901676474, 14.425196821835339], [79.16265143744322, 14.42589940236578], [79.16548415828092, 14.42523259110906]], [[79.16197291664471, 14.422449834709067], [79.1676607794937, 14.418360922958373], [79.17126754526589, 14.40943371658414], [79.17589764052919, 14.404991924149554], [79.17662113941087, 14.402930922916468], [79.17876081125951, 14.400536406344777], [79.18165174780628, 14.392636730438365], [79.1862812749241, 14.38819466354165], [79.18700460916587, 14.386133610179813], [79.18842624746577, 14.385111203266227], [79.19272431271501, 14.37791096108665], [79.19557018350213, 14.375521634679803], [79.19804612956374, 14.375196064446936], [79.20691464723592, 14.370785741498326], [79.20832787525593, 14.370796441657038], [79.20865375409913, 14.374243281653573], [79.20722403071005, 14.376299078587724], [79.20684050106006, 14.380084979008709], [79.20433698814334, 14.383854791718814], [79.20289062927986, 14.387977039985016], [79.20182511743572, 14.388657811657106], [79.19895150301497, 14.39449134120593], [79.19218809274939, 14.400639522063413], [79.19074970386025, 14.403728414928914], [79.18861011194986, 14.40612305097067], [79.18469530289947, 14.409537320517458], [79.18114770912774, 14.411232181678633], [79.17687093248253, 14.4156768014646], [79.16906865033359, 14.419060708193168], [79.16478867212791, 14.423849467101745], [79.16301893954, 14.424180122731942], [79.16196444279271, 14.42348305335239], [79.16197291664471, 14.422449834709067]]]]}}, {"type": "Feature", "properties": {"depth_class": 2, "depth_lo_m": 1.0, "t_s": 76500.47322133133}, "geometry": {"type": "MultiPolygon", "coordinates": [[[[79.02027459039152, 14.219826087145787], [79.02065159775512, 14.21707394186038], [79.01960750057071, 14.215343252802397], [79.01819839683871, 14.214987168333762], [79.01610126561869, 14.2125589214722], [79.01291806577964, 14.213221304854397], [79.01254398765876, 14.215629045399083], [79.01324101536012, 14.216668060368143], [79.01641525626744, 14.217038827487833], [79.01815339219868, 14.220152915754356], [79.02027459039152, 14.219826087145787]], [[79.01430610767282, 14.21598809505003], [79.013974124304, 14.213574486052321], [79.01644227872582, 14.213939381788796], [79.0164272670522, 14.215661296171254], [79.01430610767282, 14.21598809505003]]], [[[79.15890271052439, 14.235744762761133], [79.1582244551067, 14.232295207249601], [79.1561087649173, 14.231934450296858], [79.156100381072, 14.232967682060588], [79.15890271052439, 14.235744762761133]]], [[[79.08152913049344, 14.240990763783339], [79.0847533076638, 14.235505943341071], [79.08476782352267, 14.233783961502166], [79.0840674948359, 14.23308950458502], [79.08159311890579, 14.233414059554859], [79.07911000429254, 14.234771773679837], [79.07768315945009, 14.236482383125871], [79.07765109757193, 14.240270726184372], [79.07870158792157, 14.241312439113432], [79.08152913049344, 14.240990763783339]], [[79.07980158751471, 14.236499429781176], [79.08156985474447, 14.23616922531665], [79.08155531211784, 14.237891203576662], [79.08048735883516, 14.238915875745315], [79.07942813276097, 14.238907356390781], [79.07980158751471, 14.236499429781176]]], [[[79.03450175466527, 14.248529588185537], [79.034166569858, 14.24646036522745], [79.03310435377429, 14.246796021339028], [79.03344251277102, 14.248520859106744], [79.03450175466527, 14.248529588185537]]], [[[79.02628804568184, 14.259138443746428], [79.02630303036523, 14.257416525317973], [79.02383138253299, 14.257396052775857], [79.02416947409795, 14.259120895213629], [79.02628804568184, 14.259138443746428]]], [[[79.2056661606867, 14.30567754065602], [79.20603576548798, 14.303613697924995], [79.20462569530865, 14.30325861520478], [79.2039138213914, 14.303942115212626], [79.20389740149534, 14.306008621303166], [79.2056661606867, 14.30567754065602]]], [[[79.26827088928944, 14.340931145575466], [79.26901180477282, 14.336458728400892], [79.2686638279217, 14.33576729305058], [79.26760403702501, 14.335759557266927], [79.26756169929202, 14.341270414418801], [79.26827088928944, 14.340931145575466]]], [[[79.11310169361836, 14.476482292973863], [79.12201918147528, 14.466909920150679], [79.12453663522875, 14.46176368970375], [79.12702799091548, 14.459717001337806], [79.12950777457299, 14.4590478760776], [79.12849649381063, 14.453184670953894], [79.12745353330473, 14.451109850726363], [79.12818630724078, 14.448015880102217], [79.13458507962096, 14.443589139915568], [79.1395957626679, 14.436051427450794], [79.14208954175943, 14.433660122567957], [79.14954780243455, 14.42924123788068], [79.15557241437601, 14.427221867851204], [79.15768989687447, 14.427582843155074], [79.15909212314479, 14.428971501563227], [79.15871325387916, 14.432068391264709], [79.15550150805116, 14.435831985724459], [79.15619128844132, 14.437903942755028], [79.16431674198253, 14.438311788696982], [79.17280972196352, 14.437000058326456], [79.17809397886138, 14.439107541033176], [79.18091845253176, 14.439473787331186], [79.1851258633979, 14.44363940167854], [79.18614702625102, 14.448469308255426], [79.18860705898916, 14.450210397850956], [79.1910420568734, 14.455051164269062], [79.19420351586574, 14.457486460171696], [79.1956172802773, 14.457497299739387], [79.19563395805982, 14.455430829484087], [79.19458476800696, 14.454045055572795], [79.19425914169447, 14.450598229888335], [79.19320997993884, 14.44921245293081], [79.19218309420121, 14.445071381911024], [79.19219422418202, 14.443693736285985], [79.19397799544711, 14.44164081607536], [79.1900959953601, 14.440922169616748], [79.18657581048244, 14.439172950126222], [79.18236564745315, 14.43535177663719], [79.18237403447463, 14.434318547220718], [79.18132221989755, 14.43327714264648], [79.17815002632058, 14.432219361727446], [79.17745444093502, 14.43083626410086], [79.17924941317922, 14.427405819581203], [79.18174550771195, 14.424669621954413], [79.1828252170282, 14.422266918796092], [79.1863869184989, 14.418849997799452], [79.19027964637867, 14.41819101350794], [79.19101418999715, 14.41475231177181], [79.1977836346593, 14.40791539776439], [79.20133383857072, 14.405875851042362], [79.20556866650564, 14.406596933081815], [79.2041745094756, 14.4041752866147], [79.20454715494385, 14.401767067894598], [79.20846155198319, 14.398352416110292], [79.2109734230666, 14.393549325475336], [79.21524091557787, 14.390137204522118], [79.2156134027879, 14.387728949215786], [79.21775526852632, 14.384989593330436], [79.21952738301587, 14.384314062543426], [79.22166916770466, 14.38157466119991], [79.22770016818032, 14.378519957632953], [79.23053217560465, 14.377852271412065], [79.2316165196933, 14.3747604079719], [79.23268459286246, 14.373735062193022], [79.23693249468468, 14.372733416625577], [79.238356547275, 14.37136625020127], [79.24015544568492, 14.367246318607076], [79.24621536109031, 14.360402404226106], [79.25153088890413, 14.358375029040022], [79.25403333560573, 14.354604586242186], [79.2597072806846, 14.351890752089027], [79.26255483044372, 14.349156068751341], [79.26327467063727, 14.347439108731717], [79.26045108350353, 14.347073961800822], [79.25440531005326, 14.35219620886544], [79.24483438597954, 14.356258851902371], [79.23812186320096, 14.35620903530423], [79.23319472332085, 14.353761254613557], [79.23072172857982, 14.353742804922131], [79.22858035032165, 14.356482337422444], [79.22783853359046, 14.36095452226473], [79.22571333302186, 14.361627494481443], [79.2243082990685, 14.360583644979402], [79.2239713060659, 14.358514477109583], [79.22683288974316, 14.354058181060783], [79.22614259449685, 14.35198637040076], [79.22157713346121, 14.348507756673106], [79.21805528389949, 14.347103551990049], [79.2152291112638, 14.347082293677511], [79.21488402454314, 14.346046378363747], [79.21631345769217, 14.343990499834838], [79.2163298092563, 14.341923986260756], [79.21422932620484, 14.339497105704275], [79.21175924499612, 14.339134058116542], [79.20678624400189, 14.342540894914382], [79.20321792937531, 14.346991570472856], [79.20109006950234, 14.348008745161813], [79.20104331686206, 14.353863813980903], [79.19996971680243, 14.355577843810192], [79.19959440645907, 14.35833048275907], [79.19816748235641, 14.360041814720592], [79.19672398108678, 14.363819623185563], [79.19281286139052, 14.366889725541943], [79.19066537895048, 14.370317670784104], [79.18499308915588, 14.372685284442898], [79.1779186226727, 14.373664228357331], [79.17366217854244, 14.375698011088707], [79.1648379317308, 14.374596456604806], [79.1627096645164, 14.375613232897496], [79.15843050942836, 14.380401975365954], [79.15488890839188, 14.38140766493372], [79.15097130005636, 14.385165777865074], [79.15024765306637, 14.38722668231903], [79.14669455509149, 14.389609848425332], [79.14490233501449, 14.392695628771122], [79.14205291134348, 14.395428655361185], [79.14096439812205, 14.398864349146125], [79.14163400709016, 14.403347145188032], [79.13912060725892, 14.408149306453833], [79.13872724697175, 14.412968150468943], [79.13623941976117, 14.41467064422993], [79.1270549130579, 14.414253530210646], [79.12348673545652, 14.41835825515644], [79.12030067715321, 14.419021743452424], [79.11781266156252, 14.420724017036177], [79.11459758771622, 14.42483139146182], [79.11104643599288, 14.426869500027626], [79.11134173421651, 14.433760250584248], [79.11026122795025, 14.43616252578407], [79.10669820064098, 14.439578119948786], [79.10527879016146, 14.440255549491722], [79.10210115022434, 14.439885564343731], [79.09996616549743, 14.441590447453178], [79.0999544696796, 14.44296802112], [79.1048612260691, 14.447829383915641], [79.10518254178277, 14.451620563560768], [79.10303868845241, 14.454358643301735], [79.10264435086606, 14.459177305382726], [79.10014402802918, 14.462256887892098], [79.0994108050098, 14.465350714906693], [79.11027405786359, 14.476459585584596], [79.11310169361836, 14.476482292973863]], [[79.16371159238271, 14.425907657224252], [79.15984133058645, 14.423810931676945], [79.1605678797502, 14.421405601424306], [79.16625573513859, 14.41731672311468], [79.1702186999289, 14.408047871950501], [79.17413367091378, 14.404633864934295], [79.17663792636236, 14.40086446495084], [79.17915326450594, 14.39571738614832], [79.17988785838135, 14.392278724190904], [79.18487351949233, 14.387494995685973], [79.18559686307732, 14.385433947767265], [79.18773348234805, 14.383383728069965], [79.19167267669272, 14.376869623231313], [79.195227926962, 14.374141284497709], [79.1977038576287, 14.373815716096104], [79.20621901808828, 14.369402723325315], [79.20904819844586, 14.369079704711906], [79.21044771946823, 14.37081247609592], [79.21042305859821, 14.373912228791113], [79.20863454993035, 14.37665419741931], [79.2082510424307, 14.380440102703627], [79.2057475466777, 14.384209932528655], [79.20501613199318, 14.38730431090268], [79.20287685455332, 14.389699115274908], [79.19964714361684, 14.39587438180817], [79.193239829237, 14.401680868918895], [79.19144531259799, 14.405111476113007], [79.18823728546094, 14.40853122293098], [79.18539088571046, 14.41092039664103], [79.18219943191595, 14.41227357665484], [79.17756647853959, 14.417059896545904], [79.17082990752348, 14.419763225312105], [79.16619374574651, 14.424893679172298], [79.16371159238271, 14.425907657224252]], [[79.20245460426338, 14.398306800268971], [79.20569529047934, 14.390753829599968], [79.20747846994226, 14.388700735351877], [79.20821260462537, 14.385261930134293], [79.21035452529517, 14.38252264847519], [79.21109680629537, 14.378050574459442], [79.21324956051613, 14.373933583347673], [79.21327691789847, 14.370489408304136], [79.21083115422014, 14.367026558142019], [79.20907012865376, 14.366324369981843], [79.20588768324731, 14.366644716345478], [79.19985954794575, 14.36935445419894], [79.19703312436805, 14.369332946489957], [79.19704140405113, 14.368299702905174], [79.20025417014617, 14.364190912362568], [79.20062949111316, 14.361438273857818], [79.20205915883014, 14.35938251034731], [79.20387229896157, 14.353540834977702], [79.20390250480956, 14.349752255374222], [79.2088921370943, 14.344278999876925], [79.21102539970067, 14.342572910769196], [79.21279444820483, 14.342241810092613], [79.21313952124822, 14.343277726977089], [79.21099806333223, 14.346017089657861], [79.2113267280835, 14.349119515598167], [79.21730786448904, 14.35226452442177], [79.22190594520823, 14.351610184582679], [79.22365876486845, 14.353345529493609], [79.22365061623337, 14.354378789466752], [79.22043840068332, 14.358487966483185], [79.22041934461528, 14.36089890099847], [79.22252551219903, 14.362636914226526], [79.22251735286335, 14.363670172753604], [79.22039483875437, 14.363998673190668], [79.21861744141465, 14.365363067769202], [79.21825050629622, 14.367082502948668], [79.21894620830685, 14.368465493733284], [79.22247382543661, 14.369180883301715], [79.2242512358661, 14.367816460957112], [79.22497958057846, 14.365066400307478], [79.22887674127888, 14.363717815014683], [79.23030889617019, 14.361317432136794], [79.2306892587836, 14.35787585997306], [79.23211323988603, 14.356508723069258], [79.23528744859797, 14.357221269325262], [79.23669252222149, 14.358265057383582], [79.24339972717345, 14.359003768510913], [79.24338897847444, 14.360381462524145], [79.2398344626137, 14.363110620313755], [79.23911438773435, 14.364827480980031], [79.23769308251664, 14.365850235668589], [79.2355354418094, 14.370656355631544], [79.23128757713721, 14.37165798005292], [79.22950745877978, 14.373366876777744], [79.22842852247005, 14.375769887864994], [79.21885347235795, 14.380175722892764], [79.21884801469822, 14.380864559523726], [79.2135098225871, 14.385646439842889], [79.21277850484614, 14.38874085371348], [79.20851375638324, 14.391808513285813], [79.20636070937358, 14.395925425495914], [79.20316130290114, 14.398312174753828], [79.20245460426338, 14.398306800268971]], [[79.16148350714538, 14.395925027565179], [79.16153143359492, 14.390070108622458], [79.16330089151991, 14.389739431609161], [79.16435243321816, 14.390780886214312], [79.16432710069114, 14.39388055430214], [79.16254070152384, 14.39627767799907], [79.16148350714538, 14.395925027565179]]]]}}, {"type": "Feature", "properties": {"depth_class": 3, "depth_lo_m": 2.0, "t_s": 76500.47322133133}, "geometry": {"type": "MultiPolygon", "coordinates": [[[[79.01360606965545, 14.215293465045868], [79.0164272670522, 14.215661296171254], [79.01644227872582, 14.213939381788796], [79.013974124304, 14.213574486052321], [79.01360606965545, 14.215293465045868]]], [[[79.07942813276097, 14.238907356390781], [79.08155531211784, 14.237891203576662], [79.08156985474447, 14.23616922531665], [79.0794456043216, 14.23684098520907], [79.07942813276097, 14.238907356390781]]], [[[79.20245460426338, 14.398306800268971], [79.20636070937358, 14.395925425495914], [79.20851375638324, 14.391808513285813], [79.21277850484614, 14.38874085371348], [79.2135098225871, 14.385646439842889], [79.21884801469822, 14.380864559523726], [79.21885347235795, 14.380175722892764], [79.22842852247005, 14.375769887864994], [79.22950745877978, 14.373366876777744], [79.23128757713721, 14.37165798005292], [79.2355354418094, 14.370656355631544], [79.23769308251664, 14.365850235668589], [79.23911438773435, 14.364827480980031], [79.2398344626137, 14.363110620313755], [79.24338897847444, 14.360381462524145], [79.24339972717345, 14.359003768510913], [79.23669252222149, 14.358265057383582], [79.23528744859797, 14.357221269325262], [79.23211323988603, 14.356508723069258], [79.2306892587836, 14.35787585997306], [79.23030889617019, 14.361317432136794], [79.22887674127888, 14.363717815014683], [79.22497958057846, 14.365066400307478], [79.2242512358661, 14.367816460957112], [79.22247382543661, 14.369180883301715], [79.21894620830685, 14.368465493733284], [79.21825050629622, 14.367082502948668], [79.21861744141465, 14.365363067769202], [79.22039483875437, 14.363998673190668], [79.22251735286335, 14.363670172753604], [79.22252551219903, 14.362636914226526], [79.22041934461528, 14.36089890099847], [79.22043840068332, 14.358487966483185], [79.22365061623337, 14.354378789466752], [79.22365876486845, 14.353345529493609], [79.22190594520823, 14.351610184582679], [79.21730786448904, 14.35226452442177], [79.2113267280835, 14.349119515598167], [79.21099806333223, 14.346017089657861], [79.21313952124822, 14.343277726977089], [79.21279444820483, 14.342241810092613], [79.21102539970067, 14.342572910769196], [79.2088921370943, 14.344278999876925], [79.20390250480956, 14.349752255374222], [79.20387229896157, 14.353540834977702], [79.20205915883014, 14.35938251034731], [79.20062949111316, 14.361438273857818], [79.20025417014617, 14.364190912362568], [79.19704140405113, 14.368299702905174], [79.19703312436805, 14.369332946489957], [79.19985954794575, 14.36935445419894], [79.20588768324731, 14.366644716345478], [79.20907012865376, 14.366324369981843], [79.21083115422014, 14.367026558142019], [79.21327691789847, 14.370489408304136], [79.21324956051613, 14.373933583347673], [79.21109680629537, 14.378050574459442], [79.21035452529517, 14.38252264847519], [79.20821260462537, 14.385261930134293], [79.20747846994226, 14.388700735351877], [79.20461875965543, 14.39281227439506], [79.20245460426338, 14.398306800268971]]]]}}]}