{"type": "FeatureCollection", "features": [{"type": "Feature", "properties": {"depth_class": 1, "depth_lo_m": 0.3, "t_s": 4500.524110481672}, "geometry": {"type": "MultiPolygon", "coordinates": [[[[79.20526763383702, 14.400050361596154], [79.20953533619371, 14.396638369810882], [79.21168559470459, 14.392865839572448], [79.21487936599081, 14.391167788904339], [79.21632554138432, 14.38704544524945], [79.22023404426174, 14.384319380930563], [79.22201977018223, 14.381921735839445], [79.2308800782623, 14.37854375454975], [79.23303249767433, 14.374426542421599], [79.23657107824673, 14.373764050235621], [79.23906047894525, 14.371715930074778], [79.24050606031868, 14.367593366952752], [79.24691659347567, 14.361096482640022], [79.25187616275191, 14.359410911388478], [79.25437861768734, 14.355640465904207], [79.26040587621884, 14.352929219576172], [79.26361202720062, 14.349508261702308], [79.26538375271146, 14.348832338153372], [79.26680748425716, 14.34746496130796], [79.26753787640686, 14.344370270389906], [79.27039580549729, 14.340257753862268], [79.27042222346611, 14.33681346298352], [79.26832907377486, 14.333353713232254], [79.26942583993852, 14.328539436765777], [79.26836872551333, 14.328187279187597], [79.2669451379404, 14.329554682278893], [79.26691603475305, 14.33334339750884], [79.26583242364964, 14.336435510431558], [79.26615920600113, 14.339882375549474], [79.26473287332806, 14.341594182245075], [79.26436103836346, 14.344002592316714], [79.26293731807804, 14.345369955634887], [79.2604696923364, 14.344662972425633], [79.2552505138019, 14.33429125145314], [79.25349755336214, 14.332556126677575], [79.25423604470423, 14.328428209040892], [79.25390411350742, 14.325670199675441], [79.25146341332508, 14.32151888844619], [79.24908419576894, 14.309445765434564], [79.24069005881158, 14.298705997220182], [79.23860036155311, 14.294901642121193], [79.23190852779545, 14.292440895018686], [79.2308597329847, 14.291055325916195], [79.22664039128671, 14.288612818902761], [79.22489879228895, 14.285499853651745], [79.21890021560456, 14.284766159793742], [79.21503973816404, 14.28163727525273], [79.211165767369, 14.280230438696712], [79.20906311468946, 14.278147993078894], [79.20343164882311, 14.275694500718465], [79.20203268712838, 14.273961749801545], [79.19816442637493, 14.271865890414393], [79.19431819408226, 14.267014640941147], [79.19255797681058, 14.266312421873215], [79.18905133432163, 14.263185868288438], [79.18627032866361, 14.257653738290067], [79.18134866153773, 14.254860764110713], [79.17959963916805, 14.252780806370788], [79.17608231339389, 14.25103176051613], [79.17328235483811, 14.247910423720418], [79.1704658187216, 14.246855540408271], [79.16766043112094, 14.244422977012334], [79.16271980111476, 14.244040558368194], [79.16200802474756, 14.244723943354925], [79.16198850570575, 14.24713482277384], [79.15951118873208, 14.247804591367622], [79.15879100890615, 14.24952119589667], [79.15984754047345, 14.249873780008507], [79.16268077644649, 14.248862318902384], [79.16549450455281, 14.250261704560797], [79.16761316819431, 14.250277987763093], [79.17115260622425, 14.249271845657153], [79.17255395373319, 14.250660322079266], [79.17324077066927, 14.253076624616202], [79.17711952038147, 14.253795170557812], [79.17957753181166, 14.255536122415624], [79.17671103489427, 14.26068074878674], [79.1738860067263, 14.260659125943171], [79.17002105388907, 14.258218452383684], [79.16614505172907, 14.257155372995479], [79.16544716556965, 14.25611670532603], [79.16438780745392, 14.256108553193021], [79.16225235131213, 14.25815870127163], [79.15871833884063, 14.258475868461039], [79.15802048615211, 14.257437182746576], [79.16015876128078, 14.25504266553094], [79.16228025302142, 14.254714590321742], [79.16439338107347, 14.255419730140476], [79.16510797426082, 14.25439193007735], [79.16441845867911, 14.252320025886231], [79.16088732868086, 14.252292825691747], [79.15913573601422, 14.250557152865706], [79.15560184484963, 14.250874287757515], [79.153474782581, 14.251891125841112], [79.1418108945421, 14.25317826416851], [79.13897189037411, 14.254878272326925], [79.13472888526864, 14.255533979616468], [79.13261871670754, 14.254484182472467], [79.11567236700132, 14.254006464757767], [79.11321208149525, 14.252609316711524], [79.11074322635515, 14.252245350137677], [79.10406594351173, 14.248403718404212], [79.09313739162525, 14.24625009644638], [79.08748506808163, 14.246549278712138], [79.08255637692318, 14.244787627602314], [79.07477976341383, 14.245758267550357], [79.06838907826256, 14.24983961703069], [79.06133317894384, 14.24909354963944], [79.05495695854924, 14.251452546167261], [79.05213224406562, 14.251429495658783], [79.05003146679708, 14.24934585289313], [79.04440288275097, 14.246888894421492], [79.0451416637418, 14.243106413550196], [79.04374716771459, 14.241028514382489], [79.04198181344643, 14.24101403915586], [79.04020457232936, 14.242377099101851], [79.03774497129747, 14.240979245419581], [79.03597962377928, 14.240964725866148], [79.02992366823341, 14.247114189297], [79.02991171163829, 14.248491728262412], [79.03165918996865, 14.250572610538308], [79.03199435243143, 14.252641834193568], [79.03161138596039, 14.25608276956821], [79.03054314032353, 14.25710717698657], [79.02630003358851, 14.257760909024753], [79.0241574720628, 14.26049842800188], [79.0202613812174, 14.26184373300859], [79.0174335851809, 14.262164636781046], [79.01391467176224, 14.260757717573034], [79.01249927245864, 14.261090326783636], [79.010712645339, 14.263486262460098], [79.00930025025957, 14.263474469774886], [79.0085970781154, 14.263124190461932], [79.00896832062918, 14.261060860701727], [79.01183232902873, 14.256607489418498], [79.01327785884712, 14.252831069864362], [79.01331102441706, 14.249042876893592], [79.01261693261601, 14.247659470681702], [79.00664189085856, 14.244509977133813], [79.00240810438774, 14.244130168752863], [78.99851829994451, 14.244786383245275], [78.99746517394075, 14.244088740683992], [78.99748036064244, 14.242366850336888], [79.00353693887342, 14.236218306008782], [79.01204342814434, 14.232500813942353], [79.01560100713726, 14.229430736758047], [79.01667817844157, 14.227373238270737], [79.01881145094713, 14.22566889981032], [79.02097766020546, 14.220176318151092], [79.02137862153631, 14.214669099825917], [79.02492681468716, 14.212631980888665], [79.0252947790797, 14.210912972434857], [79.0235416405319, 14.209520853040843], [79.02071750034317, 14.209497498062785], [79.01858740636474, 14.210857493823172], [79.01328611998771, 14.21150232688183], [79.01150899061135, 14.21286518394602], [79.01110780159098, 14.21837235582251], [79.00894440478315, 14.223520438900685], [79.00645503434001, 14.22556611753792], [79.0018564526981, 14.226560917225772], [78.99935789746364, 14.229639645396935], [78.99723356629217, 14.23031065044577], [78.99046786734098, 14.2367974705367], [78.98902821454239, 14.23988496754883], [78.98931722802455, 14.247119844858304], [78.99455544656855, 14.253707585959186], [79.00338550810172, 14.253437270382774], [78.9976541231337, 14.262688106180297], [78.9976115357265, 14.26750939080869], [78.99934664603717, 14.270967998203691], [79.0025064059966, 14.273060936180139], [79.01238753290995, 14.273832406194346], [79.01557764079608, 14.27248138157873], [79.01875566992943, 14.272507836028925], [79.02123950525822, 14.271150853488045], [79.02265195841207, 14.271162581618885], [79.02509973960326, 14.273938149945653], [79.02827780751316, 14.273964480031703], [79.0293491472949, 14.272595711766897], [79.02937909763504, 14.269151872150884], [79.030097294917, 14.26778017561166], [79.0325870007972, 14.265734289273615], [79.03682130929369, 14.266113619492065], [79.03824864598917, 14.264403321425505], [79.03791044210257, 14.262678484905694], [79.0393466791428, 14.259935017028294], [79.04362546626496, 14.255148405440808], [79.04468771387779, 14.254812705680957], [79.04680330631878, 14.255174454850296], [79.05240845809624, 14.260386497138095], [79.05699290187968, 14.261112734871412], [79.05910269023353, 14.262163165297265], [79.06510258446998, 14.262556359851265], [79.06723298241947, 14.261195980735076], [79.06795973586523, 14.258790960070648], [79.07114353080163, 14.258127905915755], [79.07540123222978, 14.255751390519249], [79.08635610353923, 14.25480629560897], [79.08989582011804, 14.253801413144846], [79.10081025878083, 14.257677218652479], [79.10465992145294, 14.26184092119642], [79.11030404872825, 14.262574578593808], [79.1134649232151, 14.264666160358253], [79.12299925374666, 14.264741439797268], [79.12830750126832, 14.263405480227268], [79.15055161462708, 14.263923548326773], [79.1568939425726, 14.26569483473111], [79.16290000017572, 14.265396776099056], [79.17626923973482, 14.271699280686693], [79.18191958341107, 14.271742469148661], [79.18650223182767, 14.27281070715048], [79.19001997432966, 14.27455964574096], [79.19563202182118, 14.27942435345167], [79.20196159638188, 14.282916620033967], [79.20545779003089, 14.287420709401173], [79.20932638107945, 14.289516486650173], [79.21107594554323, 14.291596285420361], [79.21740884063746, 14.294743784718877], [79.22305177084698, 14.29581932910877], [79.22832268843811, 14.29930307246526], [79.23149609584094, 14.300015578917685], [79.23429480738123, 14.303480810717287], [79.23850645365442, 14.3069564928057], [79.24059623627906, 14.310760857650749], [79.24198231313166, 14.314215560023023], [79.24225510854686, 14.324550907439628], [79.2379489841094, 14.333130073108165], [79.23545195969675, 14.336211503666126], [79.23328113808194, 14.342739752340448], [79.23290086804533, 14.34618134031007], [79.23037926702897, 14.352362482058878], [79.22752319563469, 14.356129990824392], [79.22678136030122, 14.360602170202926], [79.22536546706668, 14.360936007630382], [79.223960438907, 14.359892156687733], [79.2243354608475, 14.357139445267464], [79.22683288974316, 14.354058181060783], [79.22649316407671, 14.352333434729243], [79.22403919967309, 14.349903975941665], [79.21662038996429, 14.349848277660351], [79.21134586510377, 14.346708590681047], [79.20745990001751, 14.346679242681057], [79.2024894122793, 14.349741544164429], [79.20210590381427, 14.353527440968968], [79.19887130372884, 14.36039160315041], [79.1981344001871, 14.364174793937865], [79.19670466368336, 14.36623052522301], [79.19738642705919, 14.369335636796581], [79.19914191397386, 14.370726740008076], [79.20232166422103, 14.37075090778929], [79.2069311169554, 14.368719243232698], [79.20869489388703, 14.369077031849121], [79.20974658599474, 14.370118299608356], [79.20971095069106, 14.374595718434227], [79.20791419240771, 14.378370928883655], [79.207533412913, 14.381812414595055], [79.20539421899464, 14.384207251985185], [79.20501888332828, 14.386959895390548], [79.20215915769631, 14.391071402590029], [79.20035107324053, 14.396224178164728], [79.20034003144139, 14.397601835530404], [79.20209022232758, 14.399681770688296], [79.20526763383702, 14.400050361596154]], [[79.22558838541666, 14.377470810350301], [79.22240849965115, 14.377446944081317], [79.22171003040346, 14.376408377800994], [79.2210524266897, 14.370203525865104], [79.2235419057448, 14.3681555800812], [79.22462627924219, 14.365063751934679], [79.22817827483426, 14.362679268151696], [79.22928421950522, 14.356832039724997], [79.23071631766538, 14.354431647535527], [79.23319202167622, 14.354105676386576], [79.23741258768506, 14.356548202891831], [79.24305718154325, 14.357623454772483], [79.24659279848666, 14.357305202508778], [79.25049775880264, 14.354922955665876], [79.25191092069107, 14.354933384454435], [79.251900227218, 14.356311085238168], [79.25047367746389, 14.358022779847989], [79.24657938850476, 14.359027323203513], [79.240174299167, 14.364835359569124], [79.238391604356, 14.366888760336854], [79.23766071217571, 14.36998330210107], [79.23623396518448, 14.371694886834932], [79.23234210326656, 14.372354739520334], [79.22877912862349, 14.376116952803109], [79.22558838541666, 14.377470810350301]], [[79.24625827995924, 14.354891618796673], [79.23990446392587, 14.354155625442182], [79.24065407475689, 14.348650100494899], [79.24283013747161, 14.341432921651618], [79.24497655397835, 14.338004372083068], [79.24571790648822, 14.333532077846701], [79.24785884327555, 14.330792336760295], [79.24892127274396, 14.330455732694313], [79.24994629369694, 14.334941080592795], [79.25168588911734, 14.338398358694299], [79.25728222066583, 14.345672906435075], [79.25726357637649, 14.348083891503972], [79.2554811730629, 14.350137456428628], [79.25086709696075, 14.352859013334774], [79.24625827995924, 14.354891618796673]], [[79.25688098441836, 14.351869983357474], [79.25973920423066, 14.347757630446326], [79.26185889056184, 14.347773180238955], [79.26149232257237, 14.349492725742417], [79.25935665462741, 14.351543731157362], [79.25688098441836, 14.351869983357474]], [[79.23610189388395, 14.343449634563875], [79.23967762045501, 14.337965111031844], [79.24113632724452, 14.332120387703656], [79.24328266202035, 14.328691843737156], [79.24474922267865, 14.321813801887652], [79.2461835750436, 14.319068840109624], [79.24619694913589, 14.317346713995152], [79.24479473360157, 14.315958577898169], [79.24446559592526, 14.312856142732358], [79.24272894590057, 14.30905441480485], [79.23957414073607, 14.305931070062115], [79.23853060975883, 14.303856675280976], [79.23502004220136, 14.301075090768125], [79.2336260630214, 14.29865363599925], [79.21919105774386, 14.292690486170759], [79.21673503743244, 14.290605444834869], [79.21251044606078, 14.288851545352705], [79.20444470225839, 14.281557605514784], [79.20197800631266, 14.280850112146128], [79.19952228159988, 14.278764924632032], [79.19529807102185, 14.277010759291045], [79.19004748754121, 14.271115486051492], [79.18758647375326, 14.269719030408933], [79.18901831854856, 14.267318860248906], [79.1911371693107, 14.2673349534177], [79.19359818546305, 14.268731372154512], [79.19744442549958, 14.27358263421147], [79.2013127055127, 14.275678507672325], [79.20341525832399, 14.27776101115373], [79.20728912507292, 14.27916796360372], [79.21219807142239, 14.283682595415113], [79.21288538194052, 14.286098838892126], [79.21605039142085, 14.287844786509217], [79.21743869088567, 14.290955158275908], [79.21920190091794, 14.291312802396137], [79.22062005774028, 14.290634529276367], [79.2217039680472, 14.287542656933242], [79.22347527286422, 14.28686700158749], [79.22486367535456, 14.289977341391207], [79.22767835800023, 14.291376092890715], [79.2294281200129, 14.293455777554211], [79.23717953319274, 14.295924449585913], [79.23926921241336, 14.299728815207574], [79.2473127593621, 14.310121598884097], [79.2480085162927, 14.311504510974869], [79.24797646226959, 14.315637619261016], [79.25005046109585, 14.321508480734371], [79.24932796022455, 14.323569827807255], [79.24755373447414, 14.324590075072944], [79.24467957792658, 14.330768844494287], [79.24217998300746, 14.33419478401554], [79.2421558236358, 14.337294599743306], [79.24035726509933, 14.341414587886446], [79.23750958676983, 14.344148986699631], [79.23643360439364, 14.34620764309222], [79.23610189388395, 14.343449634563875]], [[79.25177930824248, 14.326343454377234], [79.2493119324847, 14.32563638150834], [79.2489693758849, 14.324256074271467], [79.25073558681429, 14.324269093079009], [79.25143673556296, 14.324963148943441], [79.25177930824248, 14.326343454377234]], [[79.00498425746488, 14.272392894322742], [79.00110914967036, 14.27132719710113], [78.99832686461731, 14.266482191763682], [78.99871644784395, 14.262352624962169], [79.00193981644463, 14.257213607800448], [79.0040765228382, 14.255165076947169], [79.0048038924297, 14.252760331301248], [79.00410378931086, 14.252065664443522], [79.0005669266712, 14.252724849289365], [78.99492070042133, 14.25233304577462], [78.99002641532245, 14.246781418366494], [78.9897251844069, 14.24092404487242], [78.99188312451207, 14.23646497592556], [78.99722446142957, 14.23134378556952], [79.00041399948807, 14.229992893316556], [79.00255648006696, 14.22725558090123], [79.00644597453112, 14.226599258906656], [79.00893234176247, 14.224897963034172], [79.01180482885071, 14.21941137499948], [79.01220600642452, 14.213904200440556], [79.01433916679575, 14.212199888053355], [79.01821639363867, 14.212920868702732], [79.02030755945819, 14.21603786761961], [79.01991855910141, 14.220167546157368], [79.01775532835268, 14.225315732057739], [79.01205246643036, 14.231467669553437], [79.00212471961568, 14.236206492948549], [78.99856686718647, 14.239276329965998], [78.99641813256609, 14.242702338579214], [78.99640597662675, 14.244079849940885], [78.99745302311908, 14.245466252771728], [79.00733895976313, 14.245549015012418], [79.0119047503307, 14.248342349361659], [79.01259582314572, 14.250070138343046], [79.01221559336506, 14.253166624877903], [79.00719074097915, 14.262423626426715], [79.00752870494742, 14.26414847636265], [79.01175684082581, 14.265217003847791], [79.01354950854233, 14.262132299203005], [79.0149618989212, 14.262144065634047], [79.01706843914604, 14.263539226124948], [79.01954014377404, 14.263559777402595], [79.02449856809349, 14.261878887270752], [79.02769743330238, 14.259494516272872], [79.0312403591366, 14.258146163111258], [79.03337386062802, 14.256441721742465], [79.03409795332095, 14.254381232684642], [79.0355222408008, 14.253015328277302], [79.03800279212307, 14.25200251471197], [79.04013916104384, 14.24995361124627], [79.04052197706443, 14.246512642584552], [79.0398277142189, 14.245129294923665], [79.04161092193775, 14.24307746654847], [79.04337332409584, 14.243436334230344], [79.04229034259468, 14.246182746726877], [79.0433317672295, 14.248257760383636], [79.0500166709283, 14.25106779705636], [79.05141127869618, 14.253145673111673], [79.05387405898486, 14.254199022553504], [79.0563221104918, 14.256974299158017], [79.06161859690116, 14.25701741486247], [79.06835682993383, 14.253627935061708], [79.0715610378507, 14.250554113680561], [79.07297340531241, 14.250565527426314], [79.07366497170246, 14.252293199348568], [79.07472133442246, 14.252646145941913], [79.0747125673823, 14.253679327338054], [79.07400344950955, 14.254018019071633], [79.07223503612352, 14.25434814809089], [79.06974870223567, 14.256050119372487], [79.06621183547296, 14.256710294820229], [79.06264847793662, 14.2604699357076], [79.05947053366215, 14.260444087982068], [79.05347959139277, 14.259017592007751], [79.04681813101097, 14.253452514588595], [79.04399340538596, 14.253429364557194], [79.04150690979593, 14.255131015676179], [79.04007073542233, 14.257874504856883], [79.0382933389559, 14.259237530355346], [79.03577690420762, 14.264382962912599], [79.03259895622091, 14.264356750070496], [79.02940005812071, 14.266741183791945], [79.02723344466702, 14.272233790778454], [79.02582098091854, 14.27222208894222], [79.02372030982045, 14.270138223856074], [79.0212485272116, 14.270117706660951], [79.01876470409836, 14.271474690876776], [79.0145243349193, 14.271783792368968], [79.01239659698184, 14.272799265159088], [79.00498425746488, 14.272392894322742]], [[79.18299835590358, 14.269339649281136], [79.17876340644399, 14.268962881079705], [79.17876894162477, 14.268274053218052], [79.18089331768584, 14.267601409833471], [79.183006639492, 14.268306405065571], [79.18299835590358, 14.269339649281136]], [[79.17664732590721, 14.268602262597652], [79.16819700989207, 14.265437548763401], [79.16398171382846, 14.26264965038396], [79.15832326104379, 14.263639294205602], [79.1526928357597, 14.261184707154912], [79.14951190479415, 14.261504466638646], [79.14669816848522, 14.260104888613181], [79.14140699274375, 14.259374839502023], [79.13964704501771, 14.258672255784456], [79.13965269479253, 14.257983442533384], [79.1425001968651, 14.25525020901052], [79.14567822186116, 14.255274941453585], [79.14846940276725, 14.259429790956982], [79.15164188311421, 14.260143268811683], [79.15588216507682, 14.259831674886483], [79.15693313831301, 14.260873096723916], [79.16682067290668, 14.260949334416082], [79.16821927151179, 14.262682252553073], [79.17314645154995, 14.264786671270425], [79.17665286737117, 14.267913435529419], [79.17664732590721, 14.268602262597652]], [[79.13327391885825, 14.260689008341968], [79.12657033990124, 14.259947569423991], [79.12304771822163, 14.258886584632101], [79.1230534184792, 14.258197777942808], [79.12977680056285, 14.256528475311834], [79.13189547975857, 14.256545082761134], [79.1354124621876, 14.258294749165252], [79.13929675221486, 14.258325093703391], [79.13928827560697, 14.259358313325006], [79.13786731531113, 14.260380504123003], [79.13327391885825, 14.260689008341968]], [[79.11423131385425, 14.257439317869599], [79.11070020538457, 14.25741136514615], [79.10965522460369, 14.25568096546117], [79.10966383384499, 14.254647763124268], [79.11037291442578, 14.254308958913079], [79.11248868391198, 14.25467013751199], [79.11424276638363, 14.256061711286776], [79.11423131385425, 14.257439317869599]], [[79.05986488174291, 14.255625493308859], [79.05774924884498, 14.255263856926451], [79.05776399058554, 14.25354190542389], [79.06130964220102, 14.251848678791506], [79.06342525384241, 14.252210280348335], [79.06341643566408, 14.253243454873884], [79.06199229230435, 14.254609547188634], [79.05986488174291, 14.255625493308859]], [[79.1068303665928, 14.255658555968768], [79.10331657658516, 14.253564099958032], [79.09944398769797, 14.252155584374027], [79.09062230817906, 14.251396288836517], [79.08391057153143, 14.25168688798811], [79.08321019775698, 14.250992422942499], [79.08323346725614, 14.248237257936626], [79.08641418873844, 14.247918371308655], [79.09169607966273, 14.249682779262901], [79.09911108192378, 14.249741979069478], [79.10086791750994, 14.25078923782474], [79.10474912544629, 14.251164528938732], [79.10861025865606, 14.253950562926338], [79.10824853883801, 14.254980963907908], [79.1068303665928, 14.255658555968768]], [[79.15557384963861, 14.254318386832622], [79.15698910683032, 14.25398489601157], [79.15733662691399, 14.254676444862966], [79.15556824969947, 14.25500720652207], [79.15557384963861, 14.254318386832622]], [[79.0341367417586, 14.249904221328341], [79.0323832715939, 14.248512125332011], [79.03239819841795, 14.24679019903323], [79.03559080079616, 14.245094453119528], [79.03631482411299, 14.243033948251075], [79.03737404224744, 14.243042661298785], [79.03842433514278, 14.24408452954122], [79.03841243275714, 14.245462075912261], [79.03558186057592, 14.246127611064756], [79.03519897211346, 14.249568562372382], [79.0341367417586, 14.249904221328341]], [[79.16763263199815, 14.247867101349243], [79.16551955766946, 14.247161997049817], [79.16588101137076, 14.246131475377023], [79.1679968575194, 14.246492163029512], [79.16763263199815, 14.247867101349243]]], [[[79.22505736117417, 14.310300863465896], [79.22612241596244, 14.309619932023896], [79.22614404345026, 14.306864557815159], [79.22509252634109, 14.305823382886274], [79.21909341717631, 14.30508963261291], [79.21660466950142, 14.307137617788522], [79.21694157410747, 14.309206787957233], [79.22083233763523, 14.308547064517834], [79.22294077739609, 14.309940604174006], [79.22505736117417, 14.310300863465896]]]]}}, {"type": "Feature", "properties": {"depth_class": 2, "depth_lo_m": 1.0, "t_s": 4500.524110481672}, "geometry": {"type": "MultiPolygon", "coordinates": [[[[79.01345895832614, 14.272463721758763], [79.01629291435168, 14.271454120402147], [79.01876470409836, 14.271474690876776], [79.0212485272116, 14.270117706660951], [79.02372030982045, 14.270138223856074], [79.02582098091854, 14.27222208894222], [79.02723344466702, 14.272233790778454], [79.02940005812071, 14.266741183791945], [79.03259895622091, 14.264356750070496], [79.03577690420762, 14.264382962912599], [79.0382933389559, 14.259237530355346], [79.04007073542233, 14.257874504856883], [79.04150690979593, 14.255131015676179], [79.04399340538596, 14.253429364557194], [79.04681813101097, 14.253452514588595], [79.05347959139277, 14.259017592007751], [79.05947053366215, 14.260444087982068], [79.06264847793662, 14.2604699357076], [79.06621183547296, 14.256710294820229], [79.06974870223567, 14.256050119372487], [79.07223503612352, 14.25434814809089], [79.07400344950955, 14.254018019071633], [79.0747125673823, 14.253679327338054], [79.07472133442246, 14.252646145941913], [79.07366497170246, 14.252293199348568], [79.07297340531241, 14.250565527426314], [79.0715610378507, 14.250554113680561], [79.06835682993383, 14.253627935061708], [79.06161859690116, 14.25701741486247], [79.0563221104918, 14.256974299158017], [79.05387405898486, 14.254199022553504], [79.05141127869618, 14.253145673111673], [79.0500166709283, 14.25106779705636], [79.0433317672295, 14.248257760383636], [79.0422844023734, 14.246871521412308], [79.04337332409584, 14.243436334230344], [79.04161092193775, 14.24307746654847], [79.0398277142189, 14.245129294923665], [79.04052197706443, 14.246512642584552], [79.04013916104384, 14.24995361124627], [79.03800279212307, 14.25200251471197], [79.0355222408008, 14.253015328277302], [79.03409795332095, 14.254381232684642], [79.03337386062802, 14.256441721742465], [79.0312403591366, 14.258146163111258], [79.02769743330238, 14.259494516272872], [79.02449856809349, 14.261878887270752], [79.01954014377404, 14.263559777402595], [79.01706843914604, 14.263539226124948], [79.0149618989212, 14.262144065634047], [79.01354950854233, 14.262132299203005], [79.01175684082581, 14.265217003847791], [79.00752870494742, 14.26414847636265], [79.00719074097915, 14.262423626426715], [79.01221559336506, 14.253166624877903], [79.01259582314572, 14.250070138343046], [79.0119047503307, 14.248342349361659], [79.00733895976313, 14.245549015012418], [78.99745302311908, 14.245466252771728], [78.99640597662675, 14.244079849940885], [78.99641813256609, 14.242702338579214], [78.99856686718647, 14.239276329965998], [79.00212471961568, 14.236206492948549], [79.01205246643036, 14.231467669553437], [79.01775532835268, 14.225315732057739], [79.02028358291722, 14.218792936492168], [79.01996352372115, 14.215001793205838], [79.01751335010138, 14.212570632834975], [79.01327710051031, 14.212535473768488], [79.01184395668717, 14.21493441105662], [79.01144276519125, 14.220441583183506], [79.00893234176247, 14.224897963034172], [79.00644597453112, 14.226599258906656], [79.00255648006696, 14.22725558090123], [79.00041399948807, 14.229992893316556], [78.99722446142957, 14.23134378556952], [78.99188312451207, 14.23646497592556], [78.99009348291497, 14.239205135231686], [78.98968554607745, 14.245400938410608], [78.99037338588847, 14.247473145364156], [78.99562381469967, 14.252683358624765], [79.0005669266712, 14.252724849289365], [79.00269147102394, 14.252053841876082], [79.0048038924297, 14.252760331301248], [79.0040765228382, 14.255165076947169], [79.00193981644463, 14.257213607800448], [78.99871644784395, 14.262352624962169], [78.99832686461731, 14.266482191763682], [79.00005894146665, 14.270285172465124], [79.00181233094114, 14.271677500109156], [79.00498122501538, 14.272737273131854], [79.01345895832614, 14.272463721758763]], [[79.00393402481399, 14.27135088390393], [79.00076819437845, 14.269946721999592], [78.99937704856634, 14.26752422101098], [78.99905130599996, 14.264421856308951], [79.00013793911084, 14.261331345143846], [79.00477966315624, 14.255515365699965], [79.00551610889174, 14.252077478661038], [79.00481600512613, 14.251382813848583], [79.00092607498631, 14.252039051924758], [78.99563294107446, 14.251650226358711], [78.99073255241315, 14.246787366023101], [78.99043739800129, 14.240241237718362], [78.99187399122161, 14.237498107119979], [78.99828359991074, 14.231352664908693], [79.00111705999672, 14.230343182637338], [79.00361257843512, 14.22760881393552], [79.00785813784186, 14.226611038636303], [79.00999447208409, 14.22456240532229], [79.01251089034285, 14.219417247170686], [79.01290904349517, 14.214254451361333], [79.01468617790158, 14.212891584353601], [79.01574524177924, 14.21290037512246], [79.01855742024212, 14.214301327699985], [79.01959850724896, 14.216376403329354], [79.01957752002454, 14.218787087524042], [79.0170522499763, 14.224965490287818], [79.01205849155176, 14.23077890657482], [79.00284293908372, 14.234834882826926], [78.99679246214454, 14.240294656572164], [78.99571504555755, 14.242352031688647], [78.99604379160682, 14.245110018503372], [78.99709387816064, 14.246152045245417], [79.00733291381177, 14.246237775157898], [79.01154564034016, 14.249028168553604], [79.01187458042732, 14.251786158457117], [79.00935164457735, 14.25762000859835], [79.00613145178922, 14.262414767694958], [79.00611025060414, 14.264825422840874], [79.00928210552199, 14.265540749461666], [79.01068544642362, 14.266585684515203], [79.01245096618707, 14.266600416951368], [79.01388752202296, 14.263857146383097], [79.01952810972672, 14.26493730581218], [79.02626106821268, 14.26223789625329], [79.03016910977412, 14.259514951695513], [79.03371202620548, 14.258166559929556], [79.0386940814292, 14.25373025460584], [79.04010644098821, 14.253741865407392], [79.04009751566892, 14.254775025411975], [79.03509158566781, 14.261966443894508], [79.03119251848379, 14.263656317258144], [79.0265542061584, 14.269128490490816], [79.02125754844316, 14.269084559738857], [79.01912684907941, 14.270444481957036], [79.01382414727546, 14.271089143614537], [79.0120495266079, 14.2721075577895], [79.00393402481399, 14.27135088390393]], [[79.04225469650753, 14.2503153942078], [79.04331692172579, 14.249979697795519], [79.04436430530407, 14.251365934532874], [79.04188675279016, 14.252034431789678], [79.04225469650753, 14.2503153942078]]], [[[79.03413375851058, 14.250248606880493], [79.03556099727626, 14.248538312568376], [79.03558186057592, 14.246127611064756], [79.03841243275714, 14.245462075912261], [79.03842433514278, 14.24408452954122], [79.03737404224744, 14.243042661298785], [79.03631482411299, 14.243033948251075], [79.03559080079616, 14.245094453119528], [79.03239819841795, 14.24679019903323], [79.0323832715939, 14.248512125332011], [79.03413375851058, 14.250248606880493]]], [[[79.10541793942821, 14.255647338691421], [79.10824853883801, 14.254980963907908], [79.10861025865606, 14.253950562926338], [79.10474912544629, 14.251164528938732], [79.10086791750994, 14.25078923782474], [79.09911108192378, 14.249741979069478], [79.09169607966273, 14.249682779262901], [79.08641418873844, 14.247918371308655], [79.08323346725614, 14.248237257936626], [79.08321019775698, 14.250992422942499], [79.08391057153143, 14.25168688798811], [79.09062230817906, 14.251396288836517], [79.09944398769797, 14.252155584374027], [79.10331657658516, 14.253564099958032], [79.10541793942821, 14.255647338691421]]], [[[79.15733662691399, 14.254676444862966], [79.15698910683032, 14.25398489601157], [79.15557384963861, 14.254318386832622], [79.15556824969947, 14.25500720652207], [79.15733662691399, 14.254676444862966]]], [[[79.11424276638363, 14.256061711286776], [79.11143223148042, 14.254317349880594], [79.10966383384499, 14.254647763124268], [79.1103499640945, 14.25706416614492], [79.11140355885998, 14.257761360925773], [79.11423131385425, 14.257439317869599], [79.11424276638363, 14.256061711286776]]], [[[79.13327108376551, 14.261033413639824], [79.13857638357351, 14.260041613172332], [79.13929675221486, 14.258325093703391], [79.1354124621876, 14.258294749165252], [79.13189547975857, 14.256545082761134], [79.12659594252942, 14.256847932990643], [79.1230534184792, 14.258197777942808], [79.12304771822163, 14.258886584632101], [79.12657033990124, 14.259947569423991], [79.13010152013047, 14.259975292028903], [79.13327108376551, 14.261033413639824]]], [[[79.17664732590721, 14.268602262597652], [79.17314645154995, 14.264786671270425], [79.16821927151179, 14.262682252553073], [79.16682067290668, 14.260949334416082], [79.15693313831301, 14.260873096723916], [79.15588216507682, 14.259831674886483], [79.15164188311421, 14.260143268811683], [79.14846940276725, 14.259429790956982], [79.14567822186116, 14.255274941453585], [79.1425001968651, 14.25525020901052], [79.13965269479253, 14.257983442533384], [79.13964704501771, 14.258672255784456], [79.14140699274375, 14.259374839502023], [79.14669816848522, 14.260104888613181], [79.14951190479415, 14.261504466638646], [79.1526928357597, 14.261184707154912], [79.15832326104379, 14.263639294205602], [79.16398171382846, 14.26264965038396], [79.16679004246872, 14.264737864105594], [79.17348016057521, 14.267200268748727], [79.17453125438831, 14.268241626102602], [79.17664732590721, 14.268602262597652]]], [[[79.1679968575194, 14.246492163029512], [79.16588101137076, 14.246131475377023], [79.16551955766946, 14.247161997049817], [79.16763263199815, 14.247867101349243], [79.1679968575194, 14.246492163029512]]], [[[79.183006639492, 14.268306405065571], [79.1794779902729, 14.26793503633747], [79.17876340644399, 14.268962881079705], [79.18299835590358, 14.269339649281136], [79.183006639492, 14.268306405065571]]], [[[79.23608033043645, 14.346205015179788], [79.24035726509933, 14.341414587886446], [79.2421558236358, 14.337294599743306], [79.24217998300746, 14.33419478401554], [79.24467957792658, 14.330768844494287], [79.24755373447414, 14.324590075072944], [79.24932796022455, 14.323569827807255], [79.25005046109585, 14.321508480734371], [79.24797646226959, 14.315637619261016], [79.2480085162927, 14.311504510974869], [79.2473127593621, 14.310121598884097], [79.23926921241336, 14.299728815207574], [79.23717953319274, 14.295924449585913], [79.2294281200129, 14.293455777554211], [79.22767835800023, 14.291376092890715], [79.22486367535456, 14.289977341391207], [79.22347527286422, 14.28686700158749], [79.2217039680472, 14.287542656933242], [79.22062005774028, 14.290634529276367], [79.21920190091794, 14.291312802396137], [79.21743869088567, 14.290955158275908], [79.21605039142085, 14.287844786509217], [79.21393675556921, 14.287140052306988], [79.21288538194052, 14.286098838892126], [79.21219807142239, 14.283682595415113], [79.20728912507292, 14.27916796360372], [79.20341525832399, 14.27776101115373], [79.2013127055127, 14.275678507672325], [79.19744442549958, 14.27358263421147], [79.19359818546305, 14.268731372154512], [79.1911371693107, 14.2673349534177], [79.18901831854856, 14.267318860248906], [79.18758647375326, 14.269719030408933], [79.19004748754121, 14.271115486051492], [79.19529807102185, 14.277010759291045], [79.19952228159988, 14.278764924632032], [79.20197800631266, 14.280850112146128], [79.20444470225839, 14.281557605514784], [79.21251044606078, 14.288851545352705], [79.21673503743244, 14.290605444834869], [79.21919105774386, 14.292690486170759], [79.2336260630214, 14.29865363599925], [79.23502004220136, 14.301075090768125], [79.23853060975883, 14.303856675280976], [79.23957414073607, 14.305931070062115], [79.24272894590057, 14.30905441480485], [79.24446559592526, 14.312856142732358], [79.24479473360157, 14.315958577898169], [79.24619694913589, 14.317346713995152], [79.2461835750436, 14.319068840109624], [79.24474922267865, 14.321813801887652], [79.24328266202035, 14.328691843737156], [79.24113632724452, 14.332120387703656], [79.23967762045501, 14.337965111031844], [79.23646324702221, 14.342418993849668], [79.23608033043645, 14.346205015179788]]], [[[79.25178464385333, 14.325654602314865], [79.25073558681429, 14.324269093079009], [79.2489693758849, 14.324256074271467], [79.25036365551908, 14.326677470871276], [79.25142339402132, 14.326685278799868], [79.25178464385333, 14.325654602314865]]], [[[79.25864741905451, 14.351882967759485], [79.26149232257237, 14.349492725742417], [79.26150826647003, 14.347426162725776], [79.25938326297634, 14.348099463770167], [79.25688098441836, 14.351869983357474], [79.25864741905451, 14.351882967759485]]], [[[79.22346573973527, 14.377799323512926], [79.22877912862349, 14.376116952803109], [79.23163276727925, 14.372693882535275], [79.23623396518448, 14.371694886834932], [79.23766071217571, 14.36998330210107], [79.238391604356, 14.366888760336854], [79.240174299167, 14.364835359569124], [79.24657938850476, 14.359027323203513], [79.25047367746389, 14.358022779847989], [79.251900227218, 14.356311085238168], [79.25191092069107, 14.354933384454435], [79.25049775880264, 14.354922955665876], [79.24659279848666, 14.357305202508778], [79.24305718154325, 14.357623454772483], [79.23741258768506, 14.356548202891831], [79.23319202167622, 14.354105676386576], [79.23071631766538, 14.354431647535527], [79.22928421950522, 14.356832039724997], [79.22817827483426, 14.362679268151696], [79.22462627924219, 14.365063751934679], [79.2235419057448, 14.3681555800812], [79.2210524266897, 14.370203525865104], [79.22102246471192, 14.373992134545226], [79.22205790264964, 14.377099870627035], [79.22346573973527, 14.377799323512926]]]]}}, {"type": "Feature", "properties": {"depth_class": 3, "depth_lo_m": 2.0, "t_s": 4500.524110481672}, "geometry": {"type": "MultiPolygon", "coordinates": [[[[79.00715205602508, 14.226605149813288], [79.00643993425481, 14.227288019766473], [79.00361257843512, 14.22760881393552], [79.00111705999672, 14.230343182637338], [78.99828359991074, 14.231352664908693], [78.99187399122161, 14.237498107119979], [78.99043739800129, 14.240241237718362], [78.99073255241315, 14.246787366023101], [78.99563294107446, 14.251650226358711], [79.00092607498631, 14.252039051924758], [79.00481600512613, 14.251382813848583], [79.00551610889174, 14.252077478661038], [79.00477966315624, 14.255515365699965], [79.00264295851748, 14.257563903200346], [78.99941959848516, 14.262702931165926], [78.99937704856634, 14.26752422101098], [79.00146833366708, 14.270641403554269], [79.00675284599917, 14.272063295673584], [79.0120495266079, 14.2721075577895], [79.01382414727546, 14.271089143614537], [79.01912684907941, 14.270444481957036], [79.02125754844316, 14.269084559738857], [79.0265542061584, 14.269128490490816], [79.03119251848379, 14.263656317258144], [79.03509158566781, 14.261966443894508], [79.03937645004699, 14.256491153017638], [79.04010644098821, 14.253741865407392], [79.0386940814292, 14.25373025460584], [79.03371202620548, 14.258166559929556], [79.02059042636643, 14.264601724244638], [79.01705639010365, 14.264916752468467], [79.01565302398706, 14.263871852352864], [79.01388752202296, 14.263857146383097], [79.01245096618707, 14.266600416951368], [79.00646032214009, 14.265172756131921], [79.00613145178922, 14.262414767694958], [79.01115030641056, 14.253846555390236], [79.01187458042732, 14.251786158457117], [79.01154564034016, 14.249028168553604], [79.00733291381177, 14.246237775157898], [78.99709387816064, 14.246152045245417], [78.99569984548992, 14.244073920171033], [78.99679246214454, 14.240294656572164], [79.00284293908372, 14.234834882826926], [79.00567945469828, 14.233480969648646], [79.00320204524782, 14.234149076474873], [79.0007155324805, 14.235850292586722], [78.99751376424702, 14.238578690644786], [78.99536806331194, 14.241660311076956], [78.99534069837848, 14.244759709673593], [78.99638470060769, 14.2464904944175], [79.00627067537145, 14.246573306724748], [79.01013937321383, 14.248327631326934], [79.01118652796832, 14.249713986885457], [79.01116238155252, 14.252469032724102], [79.01008199268429, 14.25487086067108], [79.00542525939993, 14.262408859262449], [79.00539799036694, 14.26550827158987], [79.00609813386346, 14.266202939834775], [79.00856985100617, 14.266223608610128], [79.01067637866724, 14.267618825010176], [79.01314811814869, 14.267639448318315], [79.0149287291518, 14.265932258261126], [79.02022529289117, 14.26597632013345], [79.03086035148787, 14.261242708571451], [79.03120747088197, 14.261934394377187], [79.02621609136574, 14.267403648532822], [79.0212665689529, 14.268051412721762], [79.01877975944052, 14.26975278207871], [79.01489253284629, 14.270064830579297], [79.01205556966909, 14.271418797152295], [79.00358394940697, 14.27100354632856], [79.00147744539034, 14.269608269135539], [79.00008325426998, 14.267530149434723], [79.00012578919338, 14.26270885750429], [79.00548583381011, 14.255521273250457], [79.00622226916711, 14.252083382638567], [79.0048220609893, 14.250694055058938], [79.00199137711252, 14.251359169903123], [78.99669521355781, 14.251314747488104], [78.99528899111036, 14.250614126912382], [78.99143868982948, 14.246793311593102], [78.99077826855198, 14.241621716740807], [78.99222400164089, 14.237845453700821], [78.99863361325349, 14.231700002297906], [79.0014670769013, 14.23069051626199], [79.00360652913007, 14.22829757354379], [79.00785511987996, 14.226955419368243], [79.00715205602508, 14.226605149813288]]], [[[79.01071862633229, 14.22250199637262], [79.00999447208409, 14.22456240532229], [79.00785813784186, 14.226611038636303], [79.01034449665323, 14.224909726696495], [79.01106262479003, 14.22353807949109], [79.01071862633229, 14.22250199637262]]], [[[79.01143072001821, 14.221819109770221], [79.01107166160011, 14.222504934946892], [79.01142469694848, 14.222507873000414], [79.01143072001821, 14.221819109770221]]], [[[79.01179579741762, 14.220444520272128], [79.01178977605963, 14.221133283734591], [79.01143072001821, 14.221819109770221], [79.01213979916794, 14.221480602240014], [79.01179579741762, 14.220444520272128]]], [[[79.01490995165388, 14.22770295887302], [79.01741129647391, 14.2242796544091], [79.01957752002454, 14.218787087524042], [79.01925447458049, 14.21534032827473], [79.01715432720799, 14.213256471938868], [79.01574524177924, 14.21290037512246], [79.01468617790158, 14.212891584353601], [79.01290904349517, 14.214254451361333], [79.01214882972451, 14.22044745684008], [79.0128609124135, 14.219764564465404], [79.01325905938336, 14.214601767257722], [79.01432714642222, 14.213577418017632], [79.01644528081957, 14.213594998880744], [79.01854842284072, 14.215334477657917], [79.01886545824634, 14.21947000299655], [79.01670221373452, 14.224618177404471], [79.01456292336604, 14.227011260672612], [79.01490995165388, 14.22770295887302]]], [[[79.01348272638643, 14.229413129250142], [79.01455089129651, 14.228388789122123], [79.0145569074921, 14.22770002491843], [79.01313570082687, 14.228721429292964], [79.01348272638643, 14.229413129250142]]], [[[79.01205849155176, 14.23077890657482], [79.0131266692801, 14.229754574600609], [79.01312967987616, 14.229410192841925], [79.01135540849101, 14.230428647119988], [79.01205849155176, 14.23077890657482]]], [[[79.00815685282514, 14.232812835164303], [79.01099331849287, 14.231458851181007], [79.01135239498284, 14.230773028477053], [79.00710072154, 14.232459618301315], [79.00815685282514, 14.232812835164303]]], [[[79.00638857886543, 14.233142485373225], [79.00709770113792, 14.232803998705776], [79.0063916004167, 14.232798105127724], [79.00638857886543, 14.233142485373225]]], [[[79.00567945469828, 14.233480969648646], [79.00638857886543, 14.233142485373225], [79.00568247739879, 14.233136589562152], [79.00567945469828, 14.233480969648646]]], [[[79.04188675279016, 14.252034431789678], [79.04436430530407, 14.251365934532874], [79.04331692172579, 14.249979697795519], [79.04189863981507, 14.250656883300001], [79.04188675279016, 14.252034431789678]]]]}}, {"type": "Feature", "properties": {"depth_class": 4, "depth_lo_m": 3.0, "t_s": 4500.524110481672}, "geometry": {"type": "Polygon", "coordinates": [[[79.00675890513553, 14.271374537260007], [79.0021775862365, 14.270302948769958], [78.99973926894832, 14.266494051896736], [79.00012578919338, 14.26270885750429], [79.0062041115087, 14.254149660409832], [79.00587524196554, 14.251391671717705], [79.0048220609893, 14.250694055058938], [79.00199137711252, 14.251359169903123], [78.99669521355781, 14.251314747488104], [78.99528899111036, 14.250614126912382], [78.99143868982948, 14.246793311593102], [78.99077826855198, 14.241621716740807], [78.99222400164089, 14.237845453700821], [78.99863361325349, 14.231700002297906], [79.0014670769013, 14.23069051626199], [79.00360652913007, 14.22829757354379], [79.00749905982067, 14.22729685579025], [79.01034449665323, 14.224909726696495], [79.0128609124135, 14.219764564465404], [79.01325905938336, 14.214601767257722], [79.01432714642222, 14.213577418017632], [79.01644528081957, 14.213594998880744], [79.01889545106874, 14.216026169960106], [79.01886545824634, 14.21947000299655], [79.01670221373452, 14.224618177404471], [79.01135239498284, 14.230773028477053], [79.00249291427932, 14.234487550223111], [78.9985820401928, 14.237554437762379], [78.99536806331194, 14.241660311076956], [78.99534069837848, 14.244759709673593], [78.99708780086893, 14.246840801034622], [79.00767994001491, 14.24692948378873], [79.01118652796832, 14.249713986885457], [79.01116238155252, 14.252469032724102], [79.01008199268429, 14.25487086067108], [79.00542525939993, 14.262408859262449], [79.00539799036694, 14.26550827158987], [79.00609813386346, 14.266202939834775], [79.00856985100617, 14.266223608610128], [79.01067637866724, 14.267618825010176], [79.01314811814869, 14.267639448318315], [79.0149287291518, 14.265932258261126], [79.02022529289117, 14.26597632013345], [79.03086035148787, 14.261242708571451], [79.03120747088197, 14.261934394377187], [79.02550687464553, 14.267742180836187], [79.0212665689529, 14.268051412721762], [79.01877975944052, 14.26975278207871], [79.01489253284629, 14.270064830579297], [79.01205556966909, 14.271418797152295], [79.00675890513553, 14.271374537260007]]]}}]}