{"type": "FeatureCollection", "features": [{"type": "Feature", "properties": {"depth_class": 1, "depth_lo_m": 0.3, "t_s": 54900.15321101343}, "geometry": {"type": "MultiPolygon", "coordinates": [[[[79.01353388512965, 14.223558636483885], [79.01637921620154, 14.22117142042738], [79.0195505306757, 14.221886537873932], [79.02168672354301, 14.21983777971867], [79.02171966913033, 14.216049556950844], [79.02102559621225, 14.214666178048029], [79.01646329169536, 14.211528701211513], [79.01293009436576, 14.211843776031177], [79.01150297172912, 14.213553947723556], [79.01148190310485, 14.215964620613429], [79.01217892634699, 14.21700363815606], [79.01145480907574, 14.21906405642834], [79.01178676525986, 14.221477665450031], [79.01353388512965, 14.223558636483885]], [[79.01815339219868, 14.220152915754356], [79.01641525626744, 14.217038827487833], [79.01324101536012, 14.216668060368143], [79.01254398765876, 14.215629045399083], [79.01291806577964, 14.213221304854397], [79.01610126561869, 14.2125589214722], [79.01819839683871, 14.214987168333762], [79.02030755945819, 14.21603786761961], [79.02027459039152, 14.219826087145787], [79.01815339219868, 14.220152915754356]]], [[[79.16062073082857, 14.241613360551185], [79.16141054658739, 14.231286456682], [79.16388767401897, 14.23061664514664], [79.16425466223365, 14.228897297796511], [79.16320934656169, 14.227167095131888], [79.16074340297509, 14.226459257530584], [79.15898919719153, 14.225068015579426], [79.15722384841197, 14.225054407334662], [79.15543614648841, 14.227796071131706], [79.15331770701934, 14.227779705115275], [79.15189701514774, 14.228802013680765], [79.15187180994066, 14.23190170211306], [79.15291145065518, 14.234320765836308], [79.15572493499282, 14.235720239400475], [79.15708977487797, 14.241586124182863], [79.15814347395816, 14.242283121995076], [79.15990895746806, 14.242296739560603], [79.16062073082857, 14.241613360551185]], [[79.15890271052439, 14.235744762761133], [79.156100381072, 14.232967682060588], [79.1561087649173, 14.231934450296858], [79.1582244551067, 14.232295207249601], [79.15890271052439, 14.235744762761133]]], [[[79.08222074575976, 14.242718416713263], [79.08615688849888, 14.236550457131123], [79.08618589922843, 14.233106490654498], [79.0847881424665, 14.231373186487032], [79.08160765648091, 14.231692080612673], [79.08018376070866, 14.23305831472149], [79.07805953813532, 14.233730065580076], [79.07591488787189, 14.236812557760208], [79.0730961627953, 14.236100990362662], [79.07131619583222, 14.237808704824829], [79.0709455740893, 14.23987221289199], [79.07269633620243, 14.241608441593625], [79.07623003803333, 14.24129253156059], [79.07868410387526, 14.243378808617868], [79.08222074575976, 14.242718416713263]], [[79.07905175351007, 14.241659675978543], [79.07730676730729, 14.239234698333235], [79.07804497150944, 14.235452040632822], [79.08265813278273, 14.232733774121671], [79.0840703986884, 14.232745108307421], [79.08477072646167, 14.233439565102909], [79.08474750077714, 14.236194736003176], [79.08295307527833, 14.239624527726834], [79.08046407189465, 14.241671038448708], [79.07905175351007, 14.241659675978543]]], [[[79.11892739814174, 14.244732677313422], [79.12036827828598, 14.241299773694987], [79.1203882306469, 14.238888950273804], [79.11899871194554, 14.236122600929617], [79.11653001572947, 14.235758714744671], [79.11401843811802, 14.240560836186502], [79.11400413678402, 14.242282846396957], [79.11680598822896, 14.245060370735448], [79.11892739814174, 14.244732677313422]]], [[[79.04400528083815, 14.252051814487169], [79.04437617671405, 14.249988383918865], [79.04192538097969, 14.247557398582284], [79.04302024942031, 14.243433439196526], [79.04196102586951, 14.243424750965545], [79.04018376381636, 14.244787808064126], [79.03773901955564, 14.241668018523457], [79.03526454636992, 14.241992072499198], [79.03454349982654, 14.243708187735013], [79.03206004836434, 14.245065360902002], [79.02991769009549, 14.247802958800772], [79.03061189458985, 14.249186328318268], [79.0341188410756, 14.251970534483263], [79.03589619558304, 14.250607535255043], [79.0373412926026, 14.246830911350461], [79.04087505599755, 14.246515541926023], [79.04117760438405, 14.252373020332106], [79.04294007567925, 14.252731900106028], [79.04400528083815, 14.252051814487169]], [[79.03310435377429, 14.246796021339028], [79.0345196473599, 14.24646327395949], [79.03485781723595, 14.248188111083739], [79.03308943229895, 14.248517948370273], [79.03310435377429, 14.246796021339028]]], [[[79.054906763847, 14.257307171433512], [79.05350914579985, 14.255573698584994], [79.05104635363134, 14.25452034380248], [79.04824234549093, 14.252086523514867], [79.04928680905408, 14.253817132044544], [79.05139353104543, 14.255212007123202], [79.0527822597428, 14.257978657665943], [79.05489790359373, 14.258340340282388], [79.054906763847, 14.257307171433512]]], [[[79.02697625901483, 14.261210591727911], [79.0283976380118, 14.260189125733856], [79.02876570278754, 14.258470124908133], [79.02702119820533, 14.256044834396468], [79.02455556226504, 14.255335604427632], [79.02207192835726, 14.256692648188968], [79.0220509053966, 14.259103327882938], [79.02345127789235, 14.260492573724974], [79.0252107656334, 14.261195972272752], [79.02697625901483, 14.261210591727911]], [[79.02381937995807, 14.258773585480736], [79.02418747474859, 14.257054595714866], [79.02559984263743, 14.257066295060401], [79.02665013066988, 14.258108215428424], [79.02593195250584, 14.259479903876935], [79.02381937995807, 14.258773585480736]]], [[[79.04956882551404, 14.262085344424321], [79.05029280250766, 14.260024790549565], [79.04889520938893, 14.258291293364268], [79.04607338689839, 14.25792377245424], [79.04536125543804, 14.258606759378878], [79.04497846673935, 14.262047739314534], [79.04567873810072, 14.262742305634553], [79.04850358252169, 14.262765450493285], [79.04956882551404, 14.262085344424321]]], [[[79.08311707004823, 14.262013076241544], [79.08349346713261, 14.259260752706338], [79.08279307445079, 14.258566284081496], [79.08067443677503, 14.258549238154322], [79.0785441306088, 14.259909751037718], [79.0785324580722, 14.261287328479622], [79.080286345286, 14.262679131955288], [79.08311707004823, 14.262013076241544]]], [[[79.13005039283632, 14.266174574892961], [79.13006175657937, 14.264796956772338], [79.12829044094742, 14.265471905507004], [79.12827906588288, 14.266849522150402], [79.13005039283632, 14.266174574892961]]], [[[79.09432113648349, 14.273468789003354], [79.09467716494729, 14.273127216726959], [79.09432403334043, 14.273124391820128], [79.09432113648349, 14.273468789003354]]], [[[79.12215885030017, 14.280922806766453], [79.12678113554817, 14.277170534459351], [79.12750166010821, 14.275454070528816], [79.12752727901695, 14.272354436460615], [79.12613751534295, 14.269588100253031], [79.12507811798359, 14.269579765856465], [79.12330104852019, 14.27094347697329], [79.12042168861689, 14.277464850947478], [79.11687020976449, 14.279847762373539], [79.11686161753065, 14.280880966837502], [79.11791533739246, 14.281578147583323], [79.12215885030017, 14.280922806766453]]], [[[79.10417139460901, 14.278024878952735], [79.10276171529125, 14.277669229948954], [79.10204966246354, 14.278352399022232], [79.10238837462667, 14.28007720665401], [79.10415697921856, 14.279746873937343], [79.10417139460901, 14.278024878952735]]], [[[79.16253788319776, 14.396622085095585], [79.16432710069114, 14.39388055430214], [79.16435243321816, 14.390780886214312], [79.16330089151991, 14.389739431609161], [79.16188757985529, 14.38972844860112], [79.1611724670315, 14.390756174970933], [79.16113863055192, 14.394889058171778], [79.16183120587166, 14.396616589798017], [79.16253788319776, 14.396622085095585]]], [[[79.1795941127716, 14.253469635444707], [79.17466985927295, 14.25102095670437], [79.17292647431003, 14.248252133384723], [79.17151681441226, 14.247896899831888], [79.16766043112094, 14.244422977012334], [79.16342321565831, 14.244390405751155], [79.16271143991425, 14.245073792940893], [79.16268914010382, 14.247829084674725], [79.1647910689808, 14.249911860883563], [79.16761316819431, 14.250277987763093], [79.17150849088485, 14.248930139178372], [79.17326017868746, 14.250665731157506], [79.1743001198954, 14.253084735746508], [79.17641882034496, 14.253100943910152], [79.17958582262362, 14.254502878977195], [79.1795941127716, 14.253469635444707]], [[79.16658721959466, 14.246136902516303], [79.16764375253824, 14.246489451739913], [79.16763541224454, 14.247522688962592], [79.16587266327491, 14.247164711607114], [79.16658721959466, 14.246136902516303]]], [[[79.18786799319838, 14.27867652005686], [79.18540140061968, 14.277968864488127], [79.18468128259855, 14.279685555139828], [79.18785421334655, 14.28039859685828], [79.18786799319838, 14.27867652005686]]], [[[79.19764952964906, 14.292183832228073], [79.1976605035397, 14.290806164692729], [79.19625602070553, 14.289762209508375], [79.19449013174543, 14.289748817200186], [79.19377827850288, 14.290432288985238], [79.19376178223226, 14.29249878585313], [79.19446264869877, 14.293192979991828], [79.19658174788367, 14.293209053223373], [79.19764952964906, 14.292183832228073]]], [[[79.27921029896723, 14.296232227347893], [79.2788754390737, 14.293818648679363], [79.27781321721189, 14.294155412227022], [79.27815068758524, 14.296224559394753], [79.27921029896723, 14.296232227347893]]], [[[79.18664846377723, 14.298644518089409], [79.18631184571842, 14.296575337540437], [79.18454591333692, 14.296561865180681], [79.18383400972073, 14.297245300746917], [79.18417060489539, 14.29931448213339], [79.18593655839467, 14.29932795981591], [79.18664846377723, 14.298644518089409]]], [[[79.22715773867118, 14.31272763588187], [79.22684776241287, 14.307214250487432], [79.22544843898376, 14.305481598164068], [79.22157399228841, 14.304074878977529], [79.21804194362484, 14.304048431044052], [79.21590640764245, 14.306099056819122], [79.21587921809862, 14.309543255468666], [79.21693070300518, 14.310584467963034], [79.21834356159232, 14.310595064760292], [79.22082691434609, 14.309235906043055], [79.22575567902655, 14.31133940355525], [79.22715773867118, 14.31272763588187]]], [[[79.26143629966865, 14.310914236755442], [79.26250391583068, 14.309888701560464], [79.26216128871337, 14.308508405185004], [79.25899823199617, 14.306418572512206], [79.25652040790803, 14.307089305565624], [79.2547330467016, 14.309831761674122], [79.25613263847262, 14.311564269642071], [79.26143629966865, 14.310914236755442]]], [[[79.2638188475802, 14.322642882815204], [79.26701389346647, 14.320599532162248], [79.26599119982336, 14.315769792899884], [79.26458885727298, 14.314381760845972], [79.26211625239432, 14.314363687275916], [79.26104595944906, 14.315733645809404], [79.26136737153796, 14.319869367580727], [79.2638188475802, 14.322642882815204]]], [[[79.23171455138164, 14.317239346416644], [79.23134783658851, 14.31895882901564], [79.23311129437037, 14.31931639687397], [79.23348069101242, 14.317252487240323], [79.23171455138164, 14.317239346416644]]], [[[79.23695649866686, 14.324511621701259], [79.23768180068481, 14.32210590216356], [79.23698339640123, 14.321067387914706], [79.23557314954503, 14.320712471225919], [79.2341521331835, 14.321735238277084], [79.23413866296602, 14.323457352567527], [79.23589139498556, 14.325192596618681], [79.23695649866686, 14.324511621701259]]], [[[79.23552469100412, 14.326912086746162], [79.23551661232541, 14.327945355669792], [79.23622310290902, 14.327950606105537], [79.23623387003005, 14.326572913660705], [79.23552469100412, 14.326912086746162]]], [[[79.20288441596398, 14.476841184632718], [79.20891833842241, 14.473787309559087], [79.21283682687877, 14.470028327907857], [79.21535510243075, 14.464536469721399], [79.21503190718043, 14.460745221738547], [79.21221257274688, 14.459690518274531], [79.20940430327917, 14.457258126872883], [79.19916279350477, 14.45614671208121], [79.1967192693943, 14.45233924447338], [79.1960401813088, 14.448889711383073], [79.19464036828099, 14.447156821828326], [79.19465982144033, 14.444745939018537], [79.1978517076016, 14.443392638994649], [79.19822453653106, 14.440984453299974], [79.19646855944679, 14.439593287825083], [79.19117015368569, 14.439208252773318], [79.18694595695862, 14.437109205382724], [79.18414104565002, 14.434332162760695], [79.18310319217898, 14.431568715031252], [79.18028440604613, 14.430513686913267], [79.18065458517047, 14.428449955724691], [79.1831506775797, 14.425713742801301], [79.18387420294104, 14.423652722775278], [79.1874359149973, 14.420235787021166], [79.19132032967286, 14.420610023786008], [79.19274218934473, 14.41958761693658], [79.19277550400834, 14.415454669366092], [79.19990105335842, 14.408275981252423], [79.2023801253011, 14.407605993365134], [79.20554387420697, 14.409696668111792], [79.20766958557495, 14.409023939235194], [79.20840107195914, 14.405929561999042], [79.20629741642416, 14.403846979464118], [79.20630842666267, 14.402469318304766], [79.21058165620387, 14.398368479408418], [79.21237857302863, 14.394593268054164], [79.21664606903484, 14.391181121831993], [79.21809221341888, 14.387058763643], [79.22057373948113, 14.386044131859256], [79.22378368585565, 14.382279426281071], [79.22803991862621, 14.380244704208836], [79.23122527321011, 14.379579658048995], [79.23408704210335, 14.375123296058248], [79.23727231417062, 14.374458157836823], [79.23976171780997, 14.372410030558614], [79.24012581171019, 14.371034967484965], [79.2458244864923, 14.36522172248929], [79.24832979138085, 14.361106937172208], [79.25151484077186, 14.360441579133091], [79.25543315848955, 14.356337122986204], [79.26040055637306, 14.35361807323313], [79.26360671847621, 14.350197116734169], [79.26573173436635, 14.34952377873026], [79.26751139985409, 14.347814553808215], [79.26824178429014, 14.344719859848624], [79.27037995134647, 14.342324327887503], [79.27146090001835, 14.339576621070588], [79.27148730041618, 14.336132328050313], [79.26975003906935, 14.332330733156715], [79.27262884181054, 14.325462725697143], [79.27865245941962, 14.32309532448554], [79.28043180611496, 14.321385964625856], [79.28079553973912, 14.32001079616564], [79.2832813231727, 14.318306522346594], [79.28435935590728, 14.315903153294402], [79.28477796091285, 14.307294892157648], [79.28658062306812, 14.302485567951317], [79.28626134235874, 14.29800539238302], [79.28768199770043, 14.296982268114936], [79.28593684477872, 14.294214082594731], [79.28598902388929, 14.287325416662824], [79.28529307828835, 14.28594259527008], [79.28108619655931, 14.28177883374064], [79.27791280293893, 14.281066999322311], [79.27158186088896, 14.277576623937927], [79.2687617412015, 14.276867240101414], [79.26630799251075, 14.274438245080994], [79.26136629768624, 14.274057777348032], [79.25681488999244, 14.268857794165523], [79.25683078313293, 14.266791222321997], [79.25578722230347, 14.264716899300485], [79.25580841866768, 14.261961470650972], [79.25688109462924, 14.260247075677027], [79.25620923042155, 14.255764336187788], [79.25374257882876, 14.255057391313091], [79.25234065185435, 14.25366933152845], [79.25057233449785, 14.254000815249338], [79.2501979499354, 14.25675364702149], [79.25300978421231, 14.25849650145874], [79.25084578136293, 14.264336239058213], [79.25329128637037, 14.267798648139657], [79.25325677557252, 14.272276211138703], [79.25184147215778, 14.272610276646727], [79.24797267356486, 14.27051517567066], [79.2462042193044, 14.27084661077246], [79.24549256980369, 14.27153026328754], [79.24579772477864, 14.277732539312876], [79.24896026894325, 14.279822492890796], [79.250723472415, 14.280179899437432], [79.25393390005178, 14.276070096250159], [79.25605290756326, 14.276085621698925], [79.25957136021059, 14.2778336000177], [79.26166659716905, 14.280948939986441], [79.26307930481366, 14.280959249970882], [79.2648557472001, 14.279594406656944], [79.26661371533746, 14.280640558240432], [79.26978968149807, 14.281008108061846], [79.2754169338825, 14.284148989782127], [79.27823979134388, 14.284513874817888], [79.28175596304304, 14.286605990659208], [79.28280507904323, 14.287991368824583], [79.2831242998775, 14.292471543401565], [79.28416299833002, 14.295234650310002], [79.28414470881046, 14.297645679947044], [79.2816277658051, 14.303483178223368], [79.28119858391288, 14.313469151015411], [79.27728677696282, 14.316885321662475], [79.27584753774991, 14.320319377382717], [79.27442931022514, 14.320997976228044], [79.27054365572063, 14.320969711476637], [79.26805776010711, 14.322673837471488], [79.2644538182181, 14.331947612096137], [79.26509674698364, 14.340219054480023], [79.2643875556984, 14.340558313561358], [79.26330386486163, 14.34365040532882], [79.26259200528288, 14.344334084927052], [79.26082562608627, 14.344321136577191], [79.25420673056016, 14.332216898956576], [79.25425203062446, 14.326361650371599], [79.25356419271507, 14.32394546946159], [79.2514660807111, 14.32117446233895], [79.25080229127734, 14.315658442609784], [79.24975594850564, 14.313928507888022], [79.24978529826275, 14.310139821187532], [79.24173894894109, 14.300091533096998], [79.23930406923554, 14.295251296175158], [79.23296540530167, 14.29279319037003], [79.22734135996686, 14.289306926700995], [79.22489879228895, 14.285499853651745], [79.21819386659773, 14.284760873445746], [79.21574064808196, 14.282331410990706], [79.21081260139684, 14.280227785136606], [79.20870995237114, 14.278145336779916], [79.20413250277942, 14.276388664670959], [79.20203268712838, 14.273961749801545], [79.20205181852555, 14.271550821993124], [79.2006310110961, 14.272573410935545], [79.19851483858476, 14.272212978807541], [79.19396505198166, 14.267011964824341], [79.19115091109211, 14.265612871595074], [79.18904858341094, 14.263530284342636], [79.18626482054974, 14.258342569642608], [79.18486058139247, 14.257298574478284], [79.18275010923503, 14.256249191519716], [79.18063137190472, 14.256233036088249], [79.17885469916789, 14.257597216012703], [79.17634682695652, 14.262055702461351], [79.17211203798693, 14.2616788332823], [79.16965959203564, 14.259248979291765], [79.16543323825023, 14.257838763799349], [79.15835962389635, 14.259161961739933], [79.15730305402113, 14.258809366365073], [79.15660800650717, 14.257426267228043], [79.15944693944829, 14.255726037199624], [79.16017831104926, 14.252631790192538], [79.158774243368, 14.251587659423887], [79.15135050904696, 14.252563533484583], [79.1506470938833, 14.252213649902187], [79.15102826467518, 14.248772296647056], [79.15032766775767, 14.248078004482615], [79.14820623550241, 14.248405978891922], [79.14749159442616, 14.24943372182049], [79.14817813314792, 14.251850064247948], [79.14781377860172, 14.2532249562056], [79.14215836459704, 14.253869829449098], [79.13967246662942, 14.255572595824638], [79.1364859606951, 14.256581001076935], [79.13401416167977, 14.256561671411475], [79.13120060188811, 14.255161928903336], [79.1290762557616, 14.255834126109297], [79.1237795880541, 14.25579251166872], [79.12131637189033, 14.254739842106451], [79.11566378551757, 14.255039670741738], [79.11285324916236, 14.253295326166418], [79.10862174238153, 14.252572960424537], [79.10370421606704, 14.249434111481765], [79.08853273432452, 14.24793535385719], [79.08501344844154, 14.246529454949654], [79.07936696023934, 14.24613965254993], [79.07723677418119, 14.247500168724622], [79.0733440393785, 14.248502017824649], [79.06977800336104, 14.25260619180247], [79.0672916752614, 14.254308137767188], [79.06268083771056, 14.256681632667908], [79.05772860710252, 14.25767458858806], [79.05736665800487, 14.258704882311877], [79.06336351176195, 14.259442500038988], [79.06621183547296, 14.256710294820229], [79.07045490215349, 14.256055834807542], [79.0711669589529, 14.255372762149536], [79.07154347698228, 14.252620472882391], [79.07403852723594, 14.249885294766406], [79.07687785022149, 14.24818611176118], [79.07934947607285, 14.248206022030384], [79.08287164967535, 14.249267607659727], [79.08285419340869, 14.251333980859823], [79.08037378798578, 14.25234728757579], [79.08036504686642, 14.253380472439407], [79.08673824610341, 14.251365166425726], [79.09272062714905, 14.25382402028847], [79.10224574485326, 14.25493327068761], [79.10434710768062, 14.257016518990765], [79.10397960453976, 14.25873570935283], [79.10467431418645, 14.260118923127479], [79.1064398823665, 14.260132953225314], [79.1078724511607, 14.257733365722238], [79.10857867208756, 14.257738968940648], [79.10998250515749, 14.258783371375658], [79.11315765509781, 14.259152944474598], [79.1145557938031, 14.260886126694604], [79.11702761229607, 14.260905663785566], [79.1198439855091, 14.26196116842676], [79.12408142392952, 14.261994553407796], [79.12479336100257, 14.26131130305871], [79.127621162417, 14.260989104273209], [79.13078788466518, 14.262391663885289], [79.14597221352307, 14.262510251839322], [79.15795613955564, 14.265358615531335], [79.16396219017169, 14.265060528868029], [79.17556849411541, 14.271005046245767], [79.18227549337539, 14.271400749464021], [79.18932192632663, 14.273521030081994], [79.1959851835883, 14.279427029373931], [79.19845183817507, 14.280134580929392], [79.20231749946224, 14.282574869187101], [79.20511007645617, 14.286729209213354], [79.21565104216572, 14.29369728418973], [79.21599336555477, 14.295077614108616], [79.21350471508521, 14.29712557799232], [79.2092664064822, 14.297093705520265], [79.20749225851458, 14.298113658786244], [79.20113753222468, 14.29772124052873], [79.19758915234598, 14.29976100067854], [79.19793411182572, 14.300796927473957], [79.20181378888735, 14.301515174076288], [79.20140578328908, 14.308400847024027], [79.20245718894408, 14.309442115296768], [79.20457644972556, 14.309458135130223], [79.20706258682989, 14.307754710213757], [79.20849453001776, 14.30535443407903], [79.20958687668156, 14.301229391581135], [79.21242608060079, 14.299528553359107], [79.21349927399791, 14.29781441741915], [79.2180962278447, 14.297160021380774], [79.22058213366876, 14.2954564257612], [79.22305177084698, 14.29581932910877], [79.22832268843811, 14.29930307246526], [79.23149609584094, 14.300015578917685], [79.23885429892964, 14.307647958438617], [79.24197427144601, 14.315248833650807], [79.2419018673884, 14.32454829206476], [79.23723978523672, 14.333469249078274], [79.23404971460381, 14.334823300319956], [79.23401195535797, 14.339645214102395], [79.23292787016099, 14.342737120354682], [79.23290626904225, 14.345492496402851], [79.23002869072404, 14.352015422789803], [79.22790900079389, 14.351999583921293], [79.22651485434568, 14.349578069855559], [79.22300381299428, 14.346796253003523], [79.22161518300409, 14.343685879055515], [79.21880809736793, 14.34125373224006], [79.21811518193007, 14.339526328477154], [79.21849021008846, 14.336773626145886], [79.220987451911, 14.333692401711536], [79.22171838902449, 14.330597915161688], [79.22314764973859, 14.328541974368244], [79.22175367242454, 14.326120450355088], [79.22213403958196, 14.322678890415764], [79.22746230691469, 14.318929863638829], [79.22783715803708, 14.31617712488823], [79.22678018631106, 14.315824795707696], [79.22498970165165, 14.31891139807139], [79.2200309267446, 14.320596491310464], [79.21995759069677, 14.32989583489238], [79.21781363414301, 14.332979705903991], [79.21672393213802, 14.336760356232285], [79.21071586803593, 14.337059558333895], [79.20715320168271, 14.340821479624346], [79.20573742156792, 14.341155211280762], [79.20253062020818, 14.344575301218843], [79.19933472876247, 14.34661767312632], [79.198614427958, 14.348334383351776], [79.19928242873824, 14.353161567800331], [79.1981867754239, 14.3576309094781], [79.19640655985974, 14.359339542909176], [79.1946069813338, 14.363459059366232], [79.19140797406538, 14.36584569508399], [79.18926048371017, 14.369273626522752], [79.18394429512425, 14.371299506889436], [79.17757926944321, 14.371939454769425], [79.1743827737739, 14.373981413201555], [79.16943650400962, 14.373943208480737], [79.16732509747746, 14.372893577349869], [79.16485198252765, 14.372874415588685], [79.16130488969576, 14.374569034471634], [79.15702573052458, 14.379357750723596], [79.15419359357128, 14.38002452875422], [79.15099113443087, 14.382754941393312], [79.1484838844029, 14.386868452470658], [79.14599927472885, 14.388226692044206], [79.14456607547524, 14.390626433385519], [79.14100431739732, 14.394042708677894], [79.13919770933335, 14.39885044361531], [79.13986728235636, 14.403333240430777], [79.13771577522758, 14.407104959271946], [79.1369633103528, 14.412609813260554], [79.12671306104974, 14.41287312812057], [79.12529387534514, 14.413550707504031], [79.12243529334283, 14.417316628073609], [79.11995886446626, 14.417641336253531], [79.11782133716392, 14.41969082416243], [79.11640497961449, 14.420023943850191], [79.1146120756623, 14.423109407080666], [79.11105805003749, 14.425491915611236], [79.109624214829, 14.427891363644187], [79.11030482165789, 14.430996589756406], [79.11027866750713, 14.43409615165955], [79.10919523980134, 14.436842815762546], [79.10952827285371, 14.439256418256377], [79.11933942814758, 14.44932309736565], [79.12497094985507, 14.452123362742118], [79.12709434752588, 14.45179583765511], [79.12924654611062, 14.448024302399903], [79.13279217866507, 14.44667474312378], [79.13670839153717, 14.443261516457314], [79.14207525399202, 14.43538213255929], [79.15095282432083, 14.43028553592313], [79.15661840195855, 14.42895218038993], [79.15730817985022, 14.43102413400552], [79.15338111475347, 14.435815386324464], [79.15371463227977, 14.43822898362573], [79.15476632347675, 14.439270498629053], [79.15652767357795, 14.43997313498484], [79.16430262034379, 14.44003381967862], [79.17350248133481, 14.438727575850427], [79.18230412230974, 14.442928789450317], [79.18404604612005, 14.446042102084714], [79.18471935145479, 14.450180467664522], [79.18717938843753, 14.451921572839362], [79.18820619472615, 14.45606265628207], [79.19031566979474, 14.457456607641102], [79.1924140316941, 14.460228187023688], [79.19131746045376, 14.46469738152662], [79.19448461351227, 14.466443865649493], [79.19651912672309, 14.477136883771198], [79.20005107829303, 14.4775083799134], [79.20288441596398, 14.476841184632718]], [[79.1945541753399, 14.45783358232891], [79.19069140733356, 14.454704037940816], [79.18860426977277, 14.450554808397754], [79.18649486712677, 14.449160849751395], [79.18547090239754, 14.444675353825508], [79.18407679060047, 14.442253593641105], [79.18056504267017, 14.439471059503015], [79.17738716148251, 14.439102076515779], [79.17422053145204, 14.437355419299838], [79.17068648283407, 14.43732802073674], [79.1689110103996, 14.43834752299307], [79.15618845184972, 14.438248347406262], [79.15513675744889, 14.43720683845121], [79.15514527121023, 14.43617362498902], [79.15907797088384, 14.430693528835793], [79.15874439564503, 14.428279932136137], [79.15698595714095, 14.427232916666009], [79.1502602652831, 14.428557974625914], [79.14103222207885, 14.4333073643611], [79.13675713024084, 14.437406703229932], [79.13463674463439, 14.43738993350875], [79.12587965179323, 14.42802108562615], [79.12239779267725, 14.421793809306687], [79.12489155432476, 14.419402686633356], [79.12704340669208, 14.415631128641724], [79.13588033183574, 14.415356656821956], [79.13872153031372, 14.41365695438199], [79.1394796715569, 14.40746328595814], [79.14163115524813, 14.403691548000404], [79.14096154617887, 14.399208751957444], [79.14205006177892, 14.395773058485927], [79.14561468011101, 14.392012365360793], [79.14633554692915, 14.39029588693881], [79.14953250078364, 14.388254368269738], [79.15097130005636, 14.385165777865074], [79.1545327675859, 14.381749314939738], [79.15807437512564, 14.380743631566228], [79.1627096645164, 14.375613232897496], [79.1648379317308, 14.374596456604806], [79.17083571646971, 14.375676181309624], [79.174724898446, 14.375361778504143], [79.17862802324088, 14.373325256206632], [79.18428647818537, 14.372679865091113], [79.18960269881255, 14.3706539807256], [79.19281839318776, 14.366200897962651], [79.19601739335093, 14.363814242089726], [79.1978169510088, 14.359694712343794], [79.1992411206058, 14.358327797758516], [79.19961918845581, 14.355230744464182], [79.20069554021597, 14.353172300622141], [79.20001650316097, 14.349722779302905], [79.20038628022836, 14.347658967092235], [79.20287015368655, 14.346300060384872], [79.20501170457963, 14.34356078301086], [79.20785150804963, 14.341860071270139], [79.21070220387361, 14.33878164841553], [79.21317773672631, 14.338455869469293], [79.21493857143207, 14.339158004891509], [79.22088146116425, 14.347124776654868], [79.2254495971711, 14.350258979282465], [79.22719701707379, 14.35268314148963], [79.2271753302537, 14.355438506664878], [79.22575133029643, 14.356805611328605], [79.22502574889043, 14.359211260243814], [79.2257269050978, 14.359905393591596], [79.22714279138717, 14.359571553168568], [79.2285911865375, 14.35510465398836], [79.23250436787134, 14.35168945583489], [79.23430046876206, 14.347913978632338], [79.23540613912883, 14.342066688179715], [79.23790593009764, 14.338640843952577], [79.24114975255983, 14.330398268156848], [79.2436519931921, 14.326627910932114], [79.2454851363503, 14.318030347228808], [79.24443882831629, 14.316300392791245], [79.24411504954072, 14.312509107732598], [79.24272626755513, 14.30939883964567], [79.2392289780064, 14.30489518112763], [79.23502004220136, 14.301075090768125], [79.2336260630214, 14.29865363599925], [79.21989743187687, 14.292695772428825], [79.21990556114407, 14.291662509215664], [79.22204091286774, 14.289611825135163], [79.22205714752977, 14.287545295665018], [79.2234725695586, 14.287211423477642], [79.22416271333779, 14.289283226965908], [79.22802884734965, 14.291723146062694], [79.22977861519718, 14.293802828770788], [79.23788324116344, 14.296274107930186], [79.24031809706912, 14.301114356787899], [79.24312232155634, 14.303890651336301], [79.24801118699932, 14.311160085216418], [79.2479844767349, 14.314604342330599], [79.25006380807974, 14.31978635139678], [79.2496838717659, 14.323228006244596], [79.25144207168297, 14.324274296927658], [79.2521378886184, 14.32565720318737], [79.25177130429421, 14.327376732392336], [79.24789895612226, 14.32562595806976], [79.24538608083922, 14.33077406867392], [79.24396235213918, 14.332141315925506], [79.24288112960032, 14.3348888651313], [79.2428596623681, 14.337644257811174], [79.23640125710222, 14.350340713546714], [79.23638238308826, 14.352751670614653], [79.23708086501259, 14.353790194910125], [79.23918981199448, 14.355183645196782], [79.24484243856811, 14.35522558024572], [79.25547850618857, 14.350481882437531], [79.25904594655317, 14.346030309161243], [79.26328794179665, 14.345716970978309], [79.26471166264582, 14.344349605599158], [79.26508084431912, 14.342285622697313], [79.26650717959478, 14.340573814197892], [79.26658659235291, 14.330240960024582], [79.26837929664003, 14.326809563045147], [79.27051463108252, 14.324758436674774], [79.27049615643722, 14.327169442960797], [79.26941263217603, 14.330261582623702], [79.26834493636757, 14.331287139896645], [79.26832642976346, 14.333698142084929], [79.27007159974558, 14.336466458266914], [79.2700478196711, 14.339566319619015], [79.26932541690799, 14.341627738730729], [79.26718989498548, 14.343678832450854], [79.26645685209762, 14.347117950304966], [79.26255217456911, 14.349500496088847], [79.2593460093094, 14.352921437819019], [79.25402532553308, 14.355637863048688], [79.25188151090785, 14.35872206120622], [79.24763123491168, 14.36006843817433], [79.24334597226716, 14.365892236898972], [79.24050067390374, 14.368282212407864], [79.23728311131195, 14.373080470002492], [79.23303520355155, 14.37408212126781], [79.23052675463228, 14.378541112555718], [79.22734141420769, 14.379206150810175], [79.22308519743908, 14.3812408620094], [79.22130766497048, 14.382605261105875], [79.22023131676312, 14.384663799390466], [79.21668160905986, 14.386703692260207], [79.21559151873022, 14.39048428885348], [79.21132402354007, 14.393896415897759], [79.20952709695543, 14.397671618036327], [79.20489500106416, 14.402458583011693], [79.20487847227177, 14.404525073082823], [79.20663150824048, 14.40626056932609], [79.20662324989108, 14.407293815064158], [79.20450030981853, 14.407622121331853], [79.20203780091703, 14.406225646038848], [79.19955874415518, 14.406895632057228], [79.19278660654615, 14.414077019838235], [79.19172371317127, 14.414413314312132], [79.19100863316113, 14.41544113584089], [79.1909864028766, 14.418196431695046], [79.19027408590375, 14.418879837096238], [79.1863841321871, 14.419194408835168], [79.17996179000872, 14.426722455055687], [79.17780223265352, 14.43152781306395], [79.18202902044608, 14.433282593217225], [79.18306686541317, 14.436046044675633], [79.18692922105616, 14.439175668889831], [79.19044940938554, 14.440924883425279], [79.19468482736066, 14.441646231787706], [79.19255042476213, 14.443352035957584], [79.19252816855862, 14.446107327662006], [79.19426192221498, 14.450253818263109], [79.19458754871803, 14.453700643986037], [79.19563673743343, 14.455086417737844], [79.1956172802773, 14.457497299739387], [79.1945541753399, 14.45783358232891]], [[79.24099122012446, 14.35071926212517], [79.24243658655928, 14.346596660876738], [79.24282208372946, 14.342466193388148], [79.24497119278125, 14.33869322091239], [79.24607384038138, 14.333190264383832], [79.24785616851698, 14.331136761922624], [79.2489159265294, 14.33114458342093], [79.25132995355972, 14.338740180471053], [79.25622771918356, 14.344976261985723], [79.25620906456066, 14.347387245837401], [79.25371475509804, 14.350124449983628], [79.25123375267049, 14.35113949452561], [79.24840747864343, 14.351118625851809], [79.244855858124, 14.35350346060831], [79.24132568044456, 14.353132846953423], [79.24099122012446, 14.35071926212517]], [[79.27051727003685, 14.324414007163542], [79.2708757930091, 14.323727720771968], [79.2708705163876, 14.324416579954608], [79.27051727003685, 14.324414007163542]], [[79.20320468078975, 14.304281194983433], [79.20498983412783, 14.301883610315674], [79.20675309629063, 14.302241354091999], [79.2067285074349, 14.30534111837046], [79.20530201690637, 14.307052545932061], [79.20388645344092, 14.307386291820748], [79.20318551595469, 14.306692117709018], [79.20320468078975, 14.304281194983433]], [[79.21006542721535, 14.28538876882465], [79.19953049553219, 14.277731671765899], [79.19636028757213, 14.276674368586953], [79.19426605164465, 14.273558561191223], [79.1921553834583, 14.272509239876223], [79.19147382201925, 14.269404132029464], [79.1935899498896, 14.269764622410854], [79.1956814043685, 14.273224848510425], [79.2006036558014, 14.276017590369257], [79.20270620408283, 14.27810009966276], [79.2065827980173, 14.279162644850963], [79.21113855697547, 14.283674635875846], [79.21112494905876, 14.285396734073421], [79.21006542721535, 14.28538876882465]], [[79.18409089793715, 14.265214746228887], [79.18338186350162, 14.265553778745717], [79.18338738327566, 14.264864948913742], [79.18409089793715, 14.265214746228887]], [[79.14885625294424, 14.255299631601632], [79.15027152126616, 14.254966182627168], [79.15131683232754, 14.256696441719793], [79.1491981282638, 14.25668000659841], [79.14885625294424, 14.255299631601632]]], [[[79.16584036179718, 14.424890931987376], [79.17047653074093, 14.419760486022293], [79.17650355607387, 14.417396118035297], [79.18220222325652, 14.411929166219869], [79.1857498226898, 14.410234289658602], [79.19180699571851, 14.404080943851568], [79.19324537369579, 14.400992043197602], [79.20000877051169, 14.394843830101061], [79.20753890560844, 14.381123582287866], [79.2079224275364, 14.377337679891165], [79.2100779687503, 14.372876306497384], [79.20904271516669, 14.369768538289305], [79.2065695772208, 14.369749816256984], [79.19805440811749, 14.37416282079432], [79.19451577763625, 14.37482472292428], [79.1920259901703, 14.376872322918448], [79.1845146249475, 14.388181106534702], [79.18024398406503, 14.391937033674811], [79.17951218932608, 14.395031287196796], [79.17663792636236, 14.40086446495084], [79.17557228346962, 14.401545101032921], [79.17377751451805, 14.404975542421914], [79.16950355327472, 14.409075619646764], [79.16589954565934, 14.417658384569393], [79.16270508314607, 14.419355681488339], [79.1598526422209, 14.422433308485047], [79.15983850249086, 14.424155337448482], [79.16194749307182, 14.425549490353507], [79.16584036179718, 14.424890931987376]], [[79.16232911990252, 14.422108180925699], [79.16730459003509, 14.41870258656327], [79.17126754526589, 14.40943371658414], [79.17554148585486, 14.405333604538175], [79.17876081125951, 14.400536406344777], [79.18165174780628, 14.392636730438365], [79.18663738482135, 14.387852961376163], [79.18736071444177, 14.385791906356191], [79.18878234902976, 14.384769496829687], [79.19272154435801, 14.378255374523762], [79.19627680782092, 14.375527021398684], [79.19875275382672, 14.375201443656264], [79.20655859466461, 14.371127481416053], [79.20832513220869, 14.371140858264953], [79.20866198336603, 14.373210031881943], [79.20687071516922, 14.376296401689311], [79.20648443193176, 14.380426716838498], [79.19966923178005, 14.393119067559931], [79.19219086641952, 14.40029510937843], [79.18896903019436, 14.405436936778882], [79.1843419394885, 14.409534603867732], [79.18186002336057, 14.41054880382484], [79.17651756094365, 14.415674071974092], [79.1697810247225, 14.418377374498853], [79.16514487411203, 14.423507808858307], [79.16231499952741, 14.423830212340333], [79.16232911990252, 14.422108180925699]]]]}}, {"type": "Feature", "properties": {"depth_class": 2, "depth_lo_m": 1.0, "t_s": 54900.15321101343}, "geometry": {"type": "MultiPolygon", "coordinates": [[[[79.02027459039152, 14.219826087145787], [79.02065159775512, 14.21707394186038], [79.01960750057071, 14.215343252802397], [79.01819839683871, 14.214987168333762], [79.01610126561869, 14.2125589214722], [79.01291806577964, 14.213221304854397], [79.01254398765876, 14.215629045399083], [79.01324101536012, 14.216668060368143], [79.01641525626744, 14.217038827487833], [79.01815339219868, 14.220152915754356], [79.02027459039152, 14.219826087145787]], [[79.01430610767282, 14.21598809505003], [79.013974124304, 14.213574486052321], [79.01644227872582, 14.213939381788796], [79.0164272670522, 14.215661296171254], [79.01430610767282, 14.21598809505003]]], [[[79.15890271052439, 14.235744762761133], [79.1578741660003, 14.231948073218977], [79.1561087649173, 14.231934450296858], [79.156100381072, 14.232967682060588], [79.15890271052439, 14.235744762761133]]], [[[79.081173141624, 14.241332321110304], [79.08295307527833, 14.239624527726834], [79.08474750077714, 14.236194736003176], [79.08477072646167, 14.233439565102909], [79.0840703986884, 14.232745108307421], [79.08194909323745, 14.23307249975079], [79.07768607369903, 14.236137988239372], [79.07764818238846, 14.24061512094487], [79.07905175351007, 14.241659675978543], [79.081173141624, 14.241332321110304]], [[79.07909253232627, 14.23683814481039], [79.08051355069418, 14.235816316900873], [79.08227890498691, 14.2358305021813], [79.08226727562767, 14.237208085423598], [79.08048153756663, 14.239604666484158], [79.07942230828496, 14.239596146700691], [79.07909253232627, 14.23683814481039]]], [[[79.16764375253824, 14.246489451739913], [79.16587822874646, 14.246475887464173], [79.16622298664245, 14.24751183776662], [79.16763541224454, 14.247522688962592], [79.16764375253824, 14.246489451739913]]], [[[79.03486974355957, 14.246810567973677], [79.0334604150932, 14.246454546198297], [79.03274829138574, 14.247137495801057], [79.03308943229895, 14.248517948370273], [79.03485781723595, 14.248188111083739], [79.03486974355957, 14.246810567973677]]], [[[79.02628804568184, 14.259138443746428], [79.02630303036523, 14.257416525317973], [79.02383138253299, 14.257396052775857], [79.02416947409795, 14.259120895213629], [79.02628804568184, 14.259138443746428]]], [[[79.2107853856382, 14.283671981649455], [79.2065827980173, 14.279162644850963], [79.20270620408283, 14.27810009966276], [79.2006036558014, 14.276017590369257], [79.1956814043685, 14.273224848510425], [79.1935899498896, 14.269764622410854], [79.19147382201925, 14.269404132029464], [79.1921553834583, 14.272509239876223], [79.19426605164465, 14.273558561191223], [79.19636028757213, 14.276674368586953], [79.19953049553219, 14.277731671765899], [79.20233663986068, 14.280163942739462], [79.20515376600206, 14.281218512882088], [79.21006542721535, 14.28538876882465], [79.21112494905876, 14.285396734073421], [79.2107853856382, 14.283671981649455]]], [[[79.20530201690637, 14.307052545932061], [79.2067285074349, 14.30534111837046], [79.20675309629063, 14.302241354091999], [79.20604943024605, 14.301891607170184], [79.20392476653176, 14.302564444276166], [79.20320468078975, 14.304281194983433], [79.20318551595469, 14.306692117709018], [79.20388645344092, 14.307386291820748], [79.20530201690637, 14.307052545932061]]], [[[79.27052254773501, 14.32372514810974], [79.2708705163876, 14.324416579954608], [79.2708757930091, 14.323727720771968], [79.27052254773501, 14.32372514810974]]], [[[79.19563673743343, 14.455086417737844], [79.19458754871803, 14.453700643986037], [79.19426192221498, 14.450253818263109], [79.19252816855862, 14.446107327662006], [79.19255042476213, 14.443352035957584], [79.19468482736066, 14.441646231787706], [79.19044940938554, 14.440924883425279], [79.18692922105616, 14.439175668889831], [79.18306686541317, 14.436046044675633], [79.18202902044608, 14.433282593217225], [79.17780223265352, 14.43152781306395], [79.17996179000872, 14.426722455055687], [79.1863841321871, 14.419194408835168], [79.19027408590375, 14.418879837096238], [79.1909864028766, 14.418196431695046], [79.19100863316113, 14.41544113584089], [79.19172371317127, 14.414413314312132], [79.19278660654615, 14.414077019838235], [79.19955874415518, 14.406895632057228], [79.20203780091703, 14.406225646038848], [79.20450030981853, 14.407622121331853], [79.20662324989108, 14.407293815064158], [79.20663150824048, 14.40626056932609], [79.20487847227177, 14.404525073082823], [79.20489500106416, 14.402458583011693], [79.20952709695543, 14.397671618036327], [79.21132402354007, 14.393896415897759], [79.21559151873022, 14.39048428885348], [79.21668160905986, 14.386703692260207], [79.22023131676312, 14.384663799390466], [79.22130766497048, 14.382605261105875], [79.22308519743908, 14.3812408620094], [79.22734141420769, 14.379206150810175], [79.23052675463228, 14.378541112555718], [79.23303520355155, 14.37408212126781], [79.23728311131195, 14.373080470002492], [79.24050067390374, 14.368282212407864], [79.24334597226716, 14.365892236898972], [79.24763123491168, 14.36006843817433], [79.25188151090785, 14.35872206120622], [79.25402532553308, 14.355637863048688], [79.2593460093094, 14.352921437819019], [79.26255217456911, 14.349500496088847], [79.26645685209762, 14.347117950304966], [79.26718989498548, 14.343678832450854], [79.26932541690799, 14.341627738730729], [79.2700478196711, 14.339566319619015], [79.27007159974558, 14.336466458266914], [79.26832642976346, 14.333698142084929], [79.26834493636757, 14.331287139896645], [79.26941263217603, 14.330261582623702], [79.27049615643722, 14.327169442960797], [79.27051463108252, 14.324758436674774], [79.26837929664003, 14.326809563045147], [79.26658659235291, 14.330240960024582], [79.26650717959478, 14.340573814197892], [79.26508084431912, 14.342285622697313], [79.26471166264582, 14.344349605599158], [79.26328794179665, 14.345716970978309], [79.25904594655317, 14.346030309161243], [79.25547850618857, 14.350481882437531], [79.24484243856811, 14.35522558024572], [79.23918981199448, 14.355183645196782], [79.23708086501259, 14.353790194910125], [79.23638238308826, 14.352751670614653], [79.23640125710222, 14.350340713546714], [79.2428596623681, 14.337644257811174], [79.24288112960032, 14.3348888651313], [79.24396235213918, 14.332141315925506], [79.24538608083922, 14.33077406867392], [79.24789895612226, 14.32562595806976], [79.2489586882875, 14.325633776436133], [79.25071156234849, 14.327368925647896], [79.25177130429421, 14.327376732392336], [79.2521378886184, 14.32565720318737], [79.25144207168297, 14.324274296927658], [79.2496838717659, 14.323228006244596], [79.25006380807974, 14.31978635139678], [79.2479844767349, 14.314604342330599], [79.24801118699932, 14.311160085216418], [79.24312232155634, 14.303890651336301], [79.24031809706912, 14.301114356787899], [79.23788324116344, 14.296274107930186], [79.22977861519718, 14.293802828770788], [79.22802884734965, 14.291723146062694], [79.22416271333779, 14.289283226965908], [79.2234725695586, 14.287211423477642], [79.22205714752977, 14.287545295665018], [79.22204091286774, 14.289611825135163], [79.21990556114407, 14.291662509215664], [79.21989743187687, 14.292695772428825], [79.2336260630214, 14.29865363599925], [79.23502004220136, 14.301075090768125], [79.2392289780064, 14.30489518112763], [79.24272626755513, 14.30939883964567], [79.24411504954072, 14.312509107732598], [79.24443882831629, 14.316300392791245], [79.2454851363503, 14.318030347228808], [79.2436519931921, 14.326627910932114], [79.24114975255983, 14.330398268156848], [79.23790593009764, 14.338640843952577], [79.23540613912883, 14.342066688179715], [79.23430046876206, 14.347913978632338], [79.23250436787134, 14.35168945583489], [79.2285911865375, 14.35510465398836], [79.22714279138717, 14.359571553168568], [79.2257269050978, 14.359905393591596], [79.22502574889043, 14.359211260243814], [79.22575133029643, 14.356805611328605], [79.2271753302537, 14.355438506664878], [79.22719701707379, 14.35268314148963], [79.2254495971711, 14.350258979282465], [79.22088146116425, 14.347124776654868], [79.21493857143207, 14.339158004891509], [79.21317773672631, 14.338455869469293], [79.21070220387361, 14.33878164841553], [79.20785150804963, 14.341860071270139], [79.20501170457963, 14.34356078301086], [79.20287015368655, 14.346300060384872], [79.20038628022836, 14.347658967092235], [79.20001650316097, 14.349722779302905], [79.20069554021597, 14.353172300622141], [79.19961918845581, 14.355230744464182], [79.1992411206058, 14.358327797758516], [79.1978169510088, 14.359694712343794], [79.19601739335093, 14.363814242089726], [79.19281839318776, 14.366200897962651], [79.18960269881255, 14.3706539807256], [79.18428647818537, 14.372679865091113], [79.17862802324088, 14.373325256206632], [79.174724898446, 14.375361778504143], [79.17083571646971, 14.375676181309624], [79.1648379317308, 14.374596456604806], [79.1627096645164, 14.375613232897496], [79.15807437512564, 14.380743631566228], [79.1545327675859, 14.381749314939738], [79.15097130005636, 14.385165777865074], [79.14953250078364, 14.388254368269738], [79.14633554692915, 14.39029588693881], [79.14561468011101, 14.392012365360793], [79.14205006177892, 14.395773058485927], [79.14096154617887, 14.399208751957444], [79.14163115524813, 14.403691548000404], [79.1394796715569, 14.40746328595814], [79.13872153031372, 14.41365695438199], [79.13588033183574, 14.415356656821956], [79.12704340669208, 14.415631128641724], [79.12489155432476, 14.419402686633356], [79.12239779267725, 14.421793809306687], [79.12587965179323, 14.42802108562615], [79.13463674463439, 14.43738993350875], [79.13675713024084, 14.437406703229932], [79.14103222207885, 14.4333073643611], [79.1502602652831, 14.428557974625914], [79.15698595714095, 14.427232916666009], [79.15874439564503, 14.428279932136137], [79.15907797088384, 14.430693528835793], [79.15514527121023, 14.43617362498902], [79.15513675744889, 14.43720683845121], [79.15618845184972, 14.438248347406262], [79.1689110103996, 14.43834752299307], [79.17068648283407, 14.43732802073674], [79.17422053145204, 14.437355419299838], [79.17738716148251, 14.439102076515779], [79.18056504267017, 14.439471059503015], [79.18477523985118, 14.44329226937451], [79.18649486712677, 14.449160849751395], [79.18860426977277, 14.450554808397754], [79.19069140733356, 14.454704037940816], [79.1945541753399, 14.45783358232891], [79.1956172802773, 14.457497299739387], [79.19563673743343, 14.455086417737844]], [[79.16194749307182, 14.425549490353507], [79.15983850249086, 14.424155337448482], [79.16021167538864, 14.421747252380573], [79.16270508314607, 14.419355681488339], [79.16589954565934, 14.417658384569393], [79.16950355327472, 14.409075619646764], [79.17377751451805, 14.404975542421914], [79.17557228346962, 14.401545101032921], [79.17663792636236, 14.40086446495084], [79.17951218932608, 14.395031287196796], [79.18024398406503, 14.391937033674811], [79.1845146249475, 14.388181106534702], [79.1920259901703, 14.376872322918448], [79.19451577763625, 14.37482472292428], [79.19805440811749, 14.37416282079432], [79.2065695772208, 14.369749816256984], [79.20904271516669, 14.369768538289305], [79.2100779687503, 14.372876306497384], [79.2079224275364, 14.377337679891165], [79.20753890560844, 14.381123582287866], [79.20216742687327, 14.390038157975873], [79.20072373538231, 14.39381596716992], [79.19324537369579, 14.400992043197602], [79.19037968462864, 14.405792181700216], [79.1857498226898, 14.410234289658602], [79.18220222325652, 14.411929166219869], [79.17756927796141, 14.416715487140435], [79.17047653074093, 14.419760486022293], [79.16548415828092, 14.42523259110906], [79.16194749307182, 14.425549490353507]], [[79.17788626013672, 14.421195537579539], [79.17789465921939, 14.420162309508035], [79.18253605287576, 14.41434275980945], [79.18964517776327, 14.40923088622483], [79.193214875539, 14.40478058414281], [79.1946532408495, 14.401691673348065], [79.20070441883678, 14.396226868434793], [79.2060788793569, 14.38696793862555], [79.20680753016401, 14.384217970996174], [79.20859064130175, 14.382164860091363], [79.20933569749512, 14.37734837880244], [79.21148573503916, 14.3735758235765], [79.21116255052806, 14.369784565208166], [79.20905642281922, 14.368046454266969], [79.20551790306403, 14.368708536251702], [79.19735882875894, 14.372779782067077], [79.19452960151003, 14.373102653424704], [79.18777790595962, 14.377873129443332], [79.1863674275463, 14.377517889200922], [79.18566913769311, 14.37647923581213], [79.18568025244386, 14.375101587187109], [79.18710459591368, 14.373734767374282], [79.18993937419751, 14.372723160916465], [79.19351116252035, 14.367928359017785], [79.19813991461353, 14.363485964173458], [79.19850974662863, 14.361422161810983], [79.2006542644574, 14.358338534603806], [79.2010323131738, 14.355241476791221], [79.20210865286234, 14.353183025028622], [79.20179111258672, 14.348702937406317], [79.20534577180607, 14.34597437435365], [79.20677802444804, 14.343574146289173], [79.2096150820317, 14.342217829546676], [79.2113977905127, 14.340164649028054], [79.21351735008264, 14.340180622624844], [79.21527274594536, 14.341571594675152], [79.21561510386991, 14.342951928008947], [79.21347367691322, 14.345691316977195], [79.21345729468894, 14.347757826666777], [79.22192225454957, 14.349543666024537], [79.22508275158259, 14.351978435977152], [79.22577032363952, 14.354394668980795], [79.22326744210096, 14.358164759405364], [79.22324841676412, 14.360575697703876], [79.22570790368722, 14.362316334763896], [79.22712109305148, 14.362326916664728], [79.22818911838758, 14.361301585737221], [79.2289228037469, 14.357862661884807], [79.23142288939061, 14.354436921769608], [79.23636080849101, 14.355507049491704], [79.23776587811132, 14.356550830671004], [79.24482901723091, 14.356947699621053], [79.25439730308754, 14.353229486087077], [79.25973920423066, 14.347757630446326], [79.26185623389073, 14.348117607488856], [79.25900336795685, 14.3515411364457], [79.25404134504048, 14.353571309341383], [79.2522615386184, 14.355280415613148], [79.25118294288887, 14.35768357146988], [79.24693268456436, 14.359029937760424], [79.2401635261774, 14.366213050510915], [79.23658457918184, 14.37204194096834], [79.23269271146931, 14.372701798834658], [79.23127132760202, 14.373724505283239], [79.22983095356928, 14.37715814518496], [79.22096796599347, 14.380880510705694], [79.21953556832261, 14.383280807498569], [79.21527101011432, 14.386348612962365], [79.21382482218407, 14.390470948679647], [79.21027222536652, 14.392855143416378], [79.20776034976092, 14.39765822602587], [79.20384595686514, 14.401072866544247], [79.2024021986922, 14.404850677693167], [79.19850695339372, 14.40585430752676], [79.18925010742566, 14.41439435399974], [79.18817329481409, 14.41645268913313], [79.18462839379632, 14.417803181188413], [79.17964756908837, 14.421897993951779], [79.17788626013672, 14.421195537579539]], [[79.16148068727034, 14.396269434466804], [79.1611724670315, 14.390756174970933], [79.16188757985529, 14.38972844860112], [79.16330089151991, 14.389739431609161], [79.16435243321816, 14.390780886214312], [79.16432710069114, 14.39388055430214], [79.16253788319776, 14.396622085095585], [79.16148068727034, 14.396269434466804]]]]}}, {"type": "Feature", "properties": {"depth_class": 3, "depth_lo_m": 2.0, "t_s": 54900.15321101343}, "geometry": {"type": "MultiPolygon", "coordinates": [[[[79.01360606965545, 14.215293465045868], [79.0164272670522, 14.215661296171254], [79.01644227872582, 14.213939381788796], [79.013974124304, 14.213574486052321], [79.01360606965545, 14.215293465045868]]], [[[79.07942230828496, 14.239596146700691], [79.08154949452314, 14.238579994807186], [79.08227890498691, 14.2358305021813], [79.08051355069418, 14.235816316900873], [79.07909253232627, 14.23683814481039], [79.07942230828496, 14.239596146700691]]], [[[79.17858742364011, 14.42188981291101], [79.18462839379632, 14.417803181188413], [79.18817329481409, 14.41645268913313], [79.18925010742566, 14.41439435399974], [79.19850695339372, 14.40585430752676], [79.20311443335702, 14.404167225431465], [79.20384595686514, 14.401072866544247], [79.20776034976092, 14.39765822602587], [79.21027222536652, 14.392855143416378], [79.21382482218407, 14.390470948679647], [79.21527101011432, 14.386348612962365], [79.21953556832261, 14.383280807498569], [79.22096796599347, 14.380880510705694], [79.22983095356928, 14.37715814518496], [79.23127132760202, 14.373724505283239], [79.23269271146931, 14.372701798834658], [79.23658457918184, 14.37204194096834], [79.2401635261774, 14.366213050510915], [79.24693268456436, 14.359029937760424], [79.25118294288887, 14.35768357146988], [79.2522615386184, 14.355280415613148], [79.25404134504048, 14.353571309341383], [79.25900336795685, 14.3515411364457], [79.26185623389073, 14.348117607488856], [79.25973920423066, 14.347757630446326], [79.25439730308754, 14.353229486087077], [79.24482901723091, 14.356947699621053], [79.23776587811132, 14.356550830671004], [79.23636080849101, 14.355507049491704], [79.23142288939061, 14.354436921769608], [79.2289228037469, 14.357862661884807], [79.22818911838758, 14.361301585737221], [79.22712109305148, 14.362326916664728], [79.22570790368722, 14.362316334763896], [79.22324841676412, 14.360575697703876], [79.22326744210096, 14.358164759405364], [79.22577032363952, 14.354394668980795], [79.22508275158259, 14.351978435977152], [79.22192225454957, 14.349543666024537], [79.21345729468894, 14.347757826666777], [79.21347367691322, 14.345691316977195], [79.21561510386991, 14.342951928008947], [79.21527274594536, 14.341571594675152], [79.21351735008264, 14.340180622624844], [79.2113977905127, 14.340164649028054], [79.2096150820317, 14.342217829546676], [79.20677802444804, 14.343574146289173], [79.20534577180607, 14.34597437435365], [79.20179111258672, 14.348702937406317], [79.20210865286234, 14.353183025028622], [79.2010323131738, 14.355241476791221], [79.2006542644574, 14.358338534603806], [79.19850974662863, 14.361422161810983], [79.19813991461353, 14.363485964173458], [79.19351116252035, 14.367928359017785], [79.18993937419751, 14.372723160916465], [79.18710459591368, 14.373734767374282], [79.18568025244386, 14.375101587187109], [79.18566913769311, 14.37647923581213], [79.1863674275463, 14.377517889200922], [79.18777790595962, 14.377873129443332], [79.19452960151003, 14.373102653424704], [79.19735882875894, 14.372779782067077], [79.20551790306403, 14.368708536251702], [79.20905642281922, 14.368046454266969], [79.21150764255557, 14.370820486205702], [79.21148573503916, 14.3735758235765], [79.20933569749512, 14.37734837880244], [79.20895219906039, 14.381134286243963], [79.20070441883678, 14.396226868434793], [79.1946532408495, 14.401691673348065], [79.193214875539, 14.40478058414281], [79.18964517776327, 14.40923088622483], [79.18893845003588, 14.40922546731888], [79.18608647630619, 14.412303471565014], [79.18324837444806, 14.413659378597425], [79.17860981222199, 14.419134536925258], [79.17788626013672, 14.421195537579539], [79.17858742364011, 14.42188981291101]]]]}}]}