{"type": "FeatureCollection", "features": [{"type": "Feature", "properties": {"depth_class": 1, "depth_lo_m": 0.3, "t_s": 45000.47369821772}, "geometry": {"type": "MultiPolygon", "coordinates": [[[[79.00747490830277, 14.230051900588844], [79.01244165539201, 14.227338028576952], [79.01602317746732, 14.221512872562558], [79.0195505306757, 14.221886537873932], [79.02168672354301, 14.21983777971867], [79.02171966913033, 14.216049556950844], [79.02102559621225, 14.214666178048029], [79.01891644127093, 14.213615486208635], [79.01751935036573, 14.211881866481264], [79.0139921575822, 14.211508191486345], [79.01150297172912, 14.213553947723556], [79.01148190310485, 14.215964620613429], [79.01217892634699, 14.21700363815606], [79.0114397540188, 14.220785964845978], [79.01282179074016, 14.224241529378283], [79.01174159360033, 14.226643389918111], [79.00747490830277, 14.230051900588844]], [[79.01815339219868, 14.220152915754356], [79.01641525626744, 14.217038827487833], [79.01324101536012, 14.216668060368143], [79.01254398765876, 14.215629045399083], [79.01291806577964, 14.213221304854397], [79.01610126561869, 14.2125589214722], [79.01819839683871, 14.214987168333762], [79.01995752948092, 14.215690560402804], [79.02064860126119, 14.217418325548406], [79.02027459039152, 14.219826087145787], [79.01815339219868, 14.220152915754356]]], [[[79.0060597025142, 14.23038449606296], [79.00640972802849, 14.23073182343338], [79.00641274901449, 14.230387443114104], [79.0060597025142, 14.23038449606296]]], [[[79.0807996864219, 14.243740249777659], [79.08293272458654, 14.242035298481827], [79.08651576321033, 14.235864493676953], [79.08618879987498, 14.232762093949129], [79.08408491678667, 14.231023126762038], [79.08196362775256, 14.231350520399044], [79.08053973625464, 14.232716757206216], [79.0784155176447, 14.233388511785341], [79.07591780487103, 14.236468163242238], [79.07239002382639, 14.236095290561424], [79.07059542487437, 14.239524965986472], [79.06706175411131, 14.239840795070993], [79.06880955365712, 14.2419214414286], [79.07199018028395, 14.241602738453045], [79.07304356930902, 14.242300079944885], [79.07657436505792, 14.242328560572474], [79.0786811895951, 14.243723203498515], [79.0807996864219, 14.243740249777659]], [[79.0776452671271, 14.240959515694868], [79.07768898787008, 14.23579359334238], [79.08230506650045, 14.23273093927216], [79.08477362932311, 14.233095168693156], [79.08510637876446, 14.235508775112384], [79.08223819679111, 14.240652042794586], [79.0811702315536, 14.241676716554396], [79.0783455947847, 14.241653991614076], [79.0776452671271, 14.240959515694868]]], [[[79.11928619638952, 14.244046654323691], [79.12038538053808, 14.239233353651114], [79.11829540661789, 14.235772633775452], [79.11653001572947, 14.235758714744671], [79.11401843811802, 14.240560836186502], [79.11400413678402, 14.242282846396957], [79.11680598822896, 14.245060370735448], [79.11821835883717, 14.245071512487145], [79.11928619638952, 14.244046654323691]]], [[[79.0499219305889, 14.262088233468937], [79.05030168482341, 14.25899162468656], [79.0488981719861, 14.257946904991636], [79.04607635369894, 14.257579384652683], [79.04464021144337, 14.260322905932176], [79.04497846673935, 14.262047739314534], [79.04567873810072, 14.262742305634553], [79.04885668843036, 14.262768341250137], [79.0499219305889, 14.262088233468937]]], [[[79.08240502104898, 14.262696186159577], [79.08347309294126, 14.26167152026909], [79.08349346713261, 14.259260752706338], [79.08279307445079, 14.258566284081496], [79.08067443677503, 14.258549238154322], [79.07818518574358, 14.260595693401529], [79.07852953974337, 14.26163172281381], [79.080286345286, 14.262679131955288], [79.08240502104898, 14.262696186159577]]], [[[79.00606783635494, 14.269646731580117], [79.00396435850793, 14.267907097143809], [79.0025519417181, 14.267895260897204], [79.00359608567484, 14.269626032006357], [79.00606783635494, 14.269646731580117]]], [[[79.0106612641274, 14.269340725623914], [79.01312698347881, 14.270050112730951], [79.01313302235857, 14.269361351522997], [79.0106612641274, 14.269340725623914]]], [[[79.09467426862636, 14.273471613981144], [79.094680061191, 14.272782819462263], [79.0939737991265, 14.272777169267746], [79.09396800441786, 14.273465963502773], [79.09467426862636, 14.273471613981144]]], [[[79.1030917779148, 14.28042723346568], [79.10451877102558, 14.27871648837631], [79.1038211367999, 14.277677668214901], [79.10205254860526, 14.27800800042812], [79.10203523060076, 14.280074391835095], [79.1030917779148, 14.28042723346568]]], [[[79.18819910792672, 14.281434530649634], [79.18927787628775, 14.279031681754212], [79.18822941770054, 14.277645960944236], [79.18329350705672, 14.276575050367528], [79.18116904794088, 14.277247705548936], [79.18116075056234, 14.278280947932894], [79.18396391454282, 14.281057827520442], [79.18819910792672, 14.281434530649634]]], [[[79.24043596698833, 14.285959663047395], [79.23903396248508, 14.284571515791912], [79.23691489497712, 14.284555829857302], [79.23620317267711, 14.28523944568828], [79.23760247967803, 14.28697203257169], [79.24007475265236, 14.286990326883592], [79.24043596698833, 14.285959663047395]]], [[[79.27573076240827, 14.289318021626118], [79.27537494516444, 14.289659893623455], [79.27572813812577, 14.289662453102272], [79.27573076240827, 14.289318021626118]]], [[[79.27502437762934, 14.28931290227334], [79.2753801947333, 14.288971030789186], [79.27502700291569, 14.288968470915236], [79.27502437762934, 14.28931290227334]]], [[[79.19657900239811, 14.2935534698482], [79.19800271171108, 14.292186507494812], [79.19696237680166, 14.289767562766922], [79.19201789027669, 14.289730045980443], [79.19305816949905, 14.292149006110566], [79.19304166458755, 14.29421550185697], [79.19657900239811, 14.2935534698482]]], [[[79.2792260193569, 14.294165635673407], [79.27781321721189, 14.294155412227022], [79.27815068758524, 14.296224559394753], [79.27921291920664, 14.295887795428202], [79.2792260193569, 14.294165635673407]]], [[[79.18487422154402, 14.299664288990636], [79.18700441485699, 14.29830279622202], [79.187018219186, 14.296580722817868], [79.18596418353434, 14.295883815086313], [79.1845486777417, 14.29621745094141], [79.1834752899906, 14.297931431520162], [79.18382018048459, 14.298967371005046], [79.18487422154402, 14.299664288990636]]], [[[79.19522768773656, 14.461971940681272], [79.1991294987965, 14.46027966001899], [79.19949959057574, 14.45821588964242], [79.19601240291216, 14.452333830945628], [79.1956839755598, 14.44923141643357], [79.19428694359554, 14.447154113160238], [79.1943091798305, 14.444398819016493], [79.19750106232222, 14.443045523378943], [79.19751770532332, 14.440979048442895], [79.19540832036158, 14.439585172612702], [79.19116737062703, 14.439552664130684], [79.1879978166154, 14.438150589691386], [79.18413825276417, 14.434676572915262], [79.18310039825549, 14.431913125067311], [79.17992821186039, 14.430855369247846], [79.17993660739613, 14.429822140842488], [79.18637019952257, 14.420916463855379], [79.1874359149973, 14.420235787021166], [79.19132032967286, 14.420610023786008], [79.19274218934473, 14.41958761693658], [79.19277550400834, 14.415454669366092], [79.19990105335842, 14.408275981252423], [79.2020267614704, 14.407603303522547], [79.20554387420697, 14.409696668111792], [79.20802570379279, 14.408682205446253], [79.20840107195914, 14.405929561999042], [79.20629741642416, 14.403846979464118], [79.20630567421236, 14.402813733610408], [79.21058165620387, 14.398368479408418], [79.21237857302863, 14.394593268054164], [79.21664606903484, 14.391181121831993], [79.21773341506832, 14.387744936830806], [79.21880161290763, 14.386719669188603], [79.22128313273407, 14.385705029129523], [79.22378368585565, 14.382279426281071], [79.23193463264809, 14.379240518998927], [79.23444036104637, 14.375125932124783], [79.23691629573054, 14.37479994798299], [79.23904699727896, 14.37343804169246], [79.2404818192009, 14.370693171170162], [79.24546581063427, 14.365907952612101], [79.24868309103499, 14.361109549489473], [79.25222411305715, 14.360102368387542], [79.25578645200648, 14.356339723867253], [79.26004460568515, 14.35395990645842], [79.26325077810907, 14.350538956028371], [79.26679688763366, 14.348842673907674], [79.26786732971566, 14.347472706827512], [79.26823913795937, 14.345064288356136], [79.2703773087423, 14.342668756855096], [79.27145825959273, 14.3399210503151], [79.27183000812752, 14.33751261904669], [79.2700927328154, 14.333711025242874], [79.2701085796692, 14.331644450035736], [79.27189860962166, 14.328557451714449], [79.27262884181054, 14.325462725697143], [79.27865245941962, 14.32309532448554], [79.28043180611496, 14.321385964625856], [79.28079553973912, 14.32001079616564], [79.2832813231727, 14.318306522346594], [79.28472043815148, 14.31487240693638], [79.28477534697248, 14.307639324757115], [79.28657540244056, 14.303174434070348], [79.28625351241166, 14.299038691760979], [79.28838580464632, 14.297331786123753], [79.2883936238809, 14.29629848544121], [79.28629004681272, 14.294216627194716], [79.28633960742567, 14.287672393445503], [79.28564626729691, 14.285945139385008], [79.28214312888217, 14.282130913915438], [79.27826598297118, 14.281069553532452], [79.2743993777549, 14.278630407863638], [79.2691149129762, 14.276869807143289], [79.26701432763876, 14.274443385061513], [79.26066525420248, 14.273363762406731], [79.2599721497524, 14.27163645856773], [79.25716539847231, 14.269204806169213], [79.25683872874922, 14.265757936259604], [79.25579252181873, 14.2640280422006], [79.25687315240452, 14.261280362239335], [79.2565623669697, 14.255766918100475], [79.25409836430168, 14.254715548240464], [79.25235126296762, 14.252291618554922], [79.25022451409482, 14.253309369119696], [79.2495023070444, 14.255370752965687], [79.24984481305512, 14.256751055511932], [79.25265399067587, 14.258838341939194], [79.25228492491617, 14.260902321906292], [79.25085640983266, 14.262958528417832], [79.25083780926614, 14.265369521929108], [79.25293813170855, 14.26779605924938], [79.25327005037254, 14.27055407173211], [79.25290892514658, 14.271584765801416], [79.25114312341738, 14.27157180992831], [79.24833648010649, 14.269140064336623], [79.24657336640055, 14.268782650043654], [79.24267264183706, 14.27082058791132], [79.24512073778007, 14.273938646557356], [79.2457897218562, 14.278765818224118], [79.24860443266, 14.28016432221866], [79.24965064067734, 14.281894247873423], [79.24964531556424, 14.282583101676751], [79.24752092271666, 14.283256365279149], [79.24574169087857, 14.284965489719873], [79.24537783206391, 14.286340590641252], [79.24784744237, 14.286703229868197], [79.24927083096699, 14.285335919030084], [79.25000115470344, 14.282241271112916], [79.25177767528476, 14.280876535672684], [79.25321162800992, 14.2781314831719], [79.25745498216588, 14.27747367553445], [79.25956871356023, 14.278178028869842], [79.26166130896604, 14.281637798270049], [79.26873014665114, 14.281000406185056], [79.27576749502148, 14.28449597986577], [79.27859035780214, 14.284860861281302], [79.28034843947601, 14.285906922695416], [79.28279985244181, 14.288680234413428], [79.28276848698378, 14.29281342707135], [79.28380979510194, 14.29523210237547], [79.28306155343931, 14.300737926000428], [79.2816277658051, 14.303483178223368], [79.28155967482593, 14.312438410438478], [79.28048425651109, 14.314497334354481], [79.27728677696282, 14.316885321662475], [79.27655927742133, 14.31963564365948], [79.27513842495894, 14.320658677988702], [79.26771244531702, 14.321637973597902], [79.26705089598454, 14.315777525327684], [79.26424885974804, 14.31265703706207], [79.26286772861279, 14.308513569484411], [79.26041109663471, 14.30642891633349], [79.25688159335873, 14.306058613510668], [79.2540399110933, 14.308104438040584], [79.25402394446932, 14.31017099964377], [79.25577409702652, 14.312250531558439], [79.26248802452042, 14.311955272192565], [79.26247742890385, 14.313332985738414], [79.26033949766634, 14.315728473545782], [79.26032092657245, 14.318139468616947], [79.26310441321155, 14.323671000949382], [79.26557182850136, 14.324377932970512], [79.26629154532303, 14.322660948883172], [79.26770980261819, 14.321982402676904], [79.26591978189228, 14.325069370445378], [79.2659012577596, 14.327480370787734], [79.26446441613611, 14.33056989925512], [79.26509939718127, 14.339874626407191], [79.26330651845906, 14.343305977683942], [79.26118155875781, 14.34397930006302], [79.25664491448339, 14.336712623869067], [79.25460794049619, 14.326019821152878], [79.25147408244347, 14.320141183954489], [79.25013051637585, 14.311175700788278], [79.2522658323387, 14.309124738018287], [79.25014651976488, 14.309109143670202], [79.24804056008136, 14.307371401183659], [79.24664907295187, 14.304605577912367], [79.24069541745885, 14.298017147666076], [79.23930675002968, 14.294906871561077], [79.23578555444988, 14.293503007475621], [79.23227786157777, 14.290376979033669], [79.22875948497072, 14.288628600656928], [79.22560784590762, 14.285160698036863], [79.21925880862607, 14.284079959835486], [79.21364064808944, 14.279904578726798], [79.20413796384275, 14.275699827549813], [79.20308941911009, 14.274314162953376], [79.20311673322969, 14.270869978309516], [79.20135645215973, 14.270167817765522], [79.20028880132399, 14.271193071356427], [79.19852305318119, 14.271179725949143], [79.19467407932703, 14.266672899508254], [79.19185993697248, 14.265273814599237], [79.18870645311303, 14.262149937050685], [79.18697658078455, 14.257659109351335], [79.18242181938957, 14.253146764967074], [79.17890446131982, 14.251397757540849], [79.17364100537276, 14.247224299832581], [79.16976793694327, 14.24581688596405], [79.16907006121369, 14.244778230156273], [79.16448530283826, 14.244054143733738], [79.16202475245034, 14.242657474873827], [79.16097661590447, 14.241271670042819], [79.16104074396662, 14.233350207808082], [79.16141054658739, 14.231286456682], [79.16388767401897, 14.23061664514664], [79.16425466223365, 14.228897297796511], [79.16320934656169, 14.227167095131888], [79.16074340297509, 14.226459257530584], [79.15898919719153, 14.225068015579426], [79.15722384841197, 14.225054407334662], [79.15543614648841, 14.227796071131706], [79.15260876214182, 14.228118655644048], [79.15189701514774, 14.228802013680765], [79.15187180994066, 14.23190170211306], [79.15291145065518, 14.234320765836308], [79.15572493499282, 14.235720239400475], [79.15673947518127, 14.24123898722351], [79.15779037748001, 14.24228039691693], [79.16096266980577, 14.242993726318748], [79.16093198183128, 14.24678224920577], [79.15880497813615, 14.247799142669669], [79.15772329829642, 14.250546249100328], [79.15595775282901, 14.250532607648747], [79.15418380525355, 14.251552182186698], [79.1513589265412, 14.251530306190276], [79.15103107029252, 14.248427887513147], [79.14856214887638, 14.248064310634124], [79.14749440554417, 14.249089313396654], [79.14676288335981, 14.252183502854555], [79.1418108945421, 14.25317826416851], [79.13649444834157, 14.255547782868014], [79.13261871670754, 14.254484182472467], [79.12378813306083, 14.254759300916678], [79.12238139822281, 14.254059378067902], [79.11531926085767, 14.254003674625901], [79.10757679615294, 14.250842555677144], [79.10406594351173, 14.248403718404212], [79.10159427974745, 14.248384063831924], [79.09877817994293, 14.247328373719695], [79.08748216647317, 14.246893675282621], [79.08466907742914, 14.24549343283241], [79.08008478361165, 14.24476775520825], [79.07158152197509, 14.248143360800153], [79.06269260254577, 14.255304067610542], [79.0570342075173, 14.25629127453133], [79.05492743501249, 14.254896443751061], [79.0542360133211, 14.253168734870677], [79.05212041847413, 14.252807052499405], [79.04931937608266, 14.250028857061938], [79.0457944487575, 14.249311182158417], [79.04333770487602, 14.247568985345193], [79.04407057315834, 14.244475286091037], [79.04373826724843, 14.242061677742806], [79.04197290496084, 14.242047201423153], [79.04054872891244, 14.24341315935535], [79.03948950702818, 14.243404460171066], [79.03738892526901, 14.241320729036003], [79.03562059635712, 14.241650592617704], [79.03418744478843, 14.24404966533019], [79.03027973426263, 14.246772719594972], [79.02990872228995, 14.248836112977422], [79.03236535677416, 14.250578436542924], [79.03305659803989, 14.252306186912008], [79.03411585734962, 14.25231491997221], [79.03624927990187, 14.250610442256066], [79.03698225734487, 14.247516779172535], [79.03945679180399, 14.247192714927209], [79.04013618689041, 14.250297998040846], [79.03870003552589, 14.253041481800786], [79.03442418652418, 14.257483612116136], [79.02981002900987, 14.260200802660938], [79.02910383335109, 14.260194965241816], [79.02842158876946, 14.257434052849279], [79.02702119820533, 14.256044834396468], [79.02526174085733, 14.255341453364995], [79.02314020492764, 14.255668283396787], [79.02171283037121, 14.257378484520803], [79.0220509053966, 14.259103327882938], [79.02380137369316, 14.260839884221653], [79.02732935793105, 14.261213514052207], [79.02732036954045, 14.262246665454153], [79.02092248208179, 14.267015333154662], [79.01561383100116, 14.268348808373819], [79.01418933073066, 14.269714564187083], [79.01771741601743, 14.270088351963002], [79.01949199987908, 14.269069890027778], [79.02373532605405, 14.268416309689295], [79.02834672567255, 14.266043653372753], [79.0333290647789, 14.261607498718895], [79.0375841626391, 14.259576104440018], [79.04221903899732, 14.254448040172514], [79.04505564427785, 14.253093662013626], [79.04856877578622, 14.255188908473063], [79.05065774531602, 14.258650123318583], [79.06087411748032, 14.261488753335401], [79.06546744658239, 14.261181659337284], [79.06725939807542, 14.258096451920228], [79.0707962860129, 14.257436263337718], [79.07540415405214, 14.255406996650773], [79.08105667816424, 14.25510813068159], [79.08636772306048, 14.253428711085032], [79.08954561953465, 14.25345418811521], [79.09975958816646, 14.256635582356163], [79.10256716056027, 14.258724472824866], [79.10395944882937, 14.26114650588158], [79.1060723865537, 14.26185214773028], [79.10995954257785, 14.26153857695318], [79.11346778913844, 14.264321759089118], [79.12723959683368, 14.264430371063469], [79.12686939756972, 14.26649401948575], [79.1236655892352, 14.269568646010153], [79.1200799787786, 14.2760844544496], [79.11865597117408, 14.277450907805912], [79.11511307695892, 14.27880058712158], [79.11473699425598, 14.281552999991714], [79.11578497685242, 14.282938992109452], [79.12073196080298, 14.28263367204339], [79.12641944410663, 14.27820096674237], [79.12785480212928, 14.275456846710185], [79.1275557372602, 14.268910397610188], [79.13075380902104, 14.266524520295546], [79.13112113462189, 14.264805266292248], [79.13218902571536, 14.263780356156335], [79.14772658770478, 14.263901610719609], [79.15759740891946, 14.266044705700494], [79.16395382177392, 14.266093762347051], [79.1755601749886, 14.27203828593859], [79.18050699572088, 14.271731684581006], [79.18861011651157, 14.274204491464122], [79.19175824676152, 14.278017219267756], [79.19843813732109, 14.281856667615212], [79.20368917686129, 14.28775180563678], [79.20650640140963, 14.28880637091438], [79.21001094520616, 14.292277155002264], [79.21352647653634, 14.294370219866568], [79.21245330287704, 14.296084358326338], [79.20820410239992, 14.297430144335191], [79.19583692270497, 14.298025527487955], [79.19267747344033, 14.295590482207963], [79.19125922036383, 14.29626857496295], [79.1919435677523, 14.299029270396803], [79.19369852209924, 14.300420353688141], [79.19439115850929, 14.3021477983499], [79.19686079205839, 14.302510977271096], [79.20110465396988, 14.301854248167492], [79.20180557112494, 14.302548426183733], [79.20106902400427, 14.306331671407879], [79.20175076926677, 14.309436771157953], [79.20422050231794, 14.30979988407597], [79.20705985439953, 14.308099128408058], [79.20994007518534, 14.30123205077784], [79.21455341784878, 14.298511213934159], [79.2180908007236, 14.29784886253539], [79.21986761900507, 14.29648440340535], [79.22269316568378, 14.296505533320541], [79.22655399291095, 14.299634331570749], [79.22688828649598, 14.302047920216848], [79.22581246020525, 14.304106547315493], [79.21805280278156, 14.302670749446165], [79.21556679512804, 14.30437430621488], [79.21552056561019, 14.31022944305618], [79.21657205147862, 14.311270657260087], [79.21869134581192, 14.311286553252637], [79.21940592041175, 14.310258586402208], [79.22152791935568, 14.309930035172929], [79.2246960272062, 14.311331489381685], [79.22573945000295, 14.313405933061976], [79.22536187619576, 14.316503088090748], [79.22216115976487, 14.319234683803911], [79.21932718159968, 14.320246775211258], [79.21925381843343, 14.329546115494892], [79.21566961616179, 14.336063549989168], [79.21178109443348, 14.33637871234476], [79.21000662498503, 14.337398646599935], [79.20715320168271, 14.340821479624346], [79.20467215588783, 14.34183602510649], [79.20324264114501, 14.343891823027922], [79.20004951611261, 14.345589790764064], [79.19897870880858, 14.346959405417248], [79.19860066013179, 14.350056460331688], [79.19928518202894, 14.352817152385722], [79.19855383584857, 14.35591152009875], [79.1946069813338, 14.363459059366232], [79.19247616118379, 14.364820546401162], [79.18997262740434, 14.368590203424397], [79.18784173189489, 14.369951639195056], [79.1825283003781, 14.371633072520883], [79.17793257240787, 14.371942174579791], [79.17296675454969, 14.37431491786314], [79.16449587013935, 14.373216084243476], [79.1616581935635, 14.374571779055243], [79.15737904106095, 14.379360502589094], [79.15348131393986, 14.380707826342801], [79.14956086286799, 14.384810319715589], [79.14883720503316, 14.386871218499216], [79.14635259699571, 14.388229462039318], [79.1442042137857, 14.39165687130191], [79.1417138280166, 14.393703862149412], [79.13954819283161, 14.399197628310882], [79.14021777314412, 14.40368042497314], [79.13806340927323, 14.407796549204326], [79.13802910539818, 14.411929372287549], [79.13731094832661, 14.413301404743239], [79.13376302221707, 14.414995503340968], [79.1326914646025, 14.416364722946799], [79.13266851638352, 14.419119928050701], [79.13404184894969, 14.423952719129046], [79.13926526191105, 14.433293426820768], [79.14244293478906, 14.433662906971554], [79.15095851025958, 14.429596728187239], [79.15662123598413, 14.428607775384188], [79.15767007008888, 14.429993679637361], [79.15730534638546, 14.431368539074537], [79.15373735331566, 14.435473749969713], [79.15372031298904, 14.437540175275261], [79.1551197279014, 14.439273265089684], [79.16889974147334, 14.439725151352329], [79.17102863235928, 14.438708393097139], [79.17385588862842, 14.43873031412698], [79.17702253334109, 14.440476978001794], [79.18019763231047, 14.441190377293871], [79.18265753797193, 14.442931515309644], [79.18439667218824, 14.446389235768944], [79.18472494162287, 14.449491648025942], [79.1871849717342, 14.451232752360099], [79.18857358353137, 14.454343323714259], [79.19312092172012, 14.460233614244403], [79.19522768773656, 14.461971940681272]], [[79.18757467864724, 14.446758137404654], [79.18723520813722, 14.445033366142574], [79.18408517390846, 14.441220363843469], [79.18092125133819, 14.439129377934199], [79.17774337375441, 14.43876040024216], [79.17386993547734, 14.437008273722624], [79.16360993257535, 14.438306283175425], [79.16114175990852, 14.437598185946932], [79.15584072302318, 14.437556773563742], [79.15549867082356, 14.43617639030177], [79.1562168143931, 14.434804300417492], [79.15835136369626, 14.433098847234993], [79.15942853250311, 14.431040692722526], [79.15944834187025, 14.428629854060775], [79.15769839294514, 14.426549627361096], [79.15311575075265, 14.425136085683805], [79.15176186522723, 14.417892525692066], [79.15002343169317, 14.414434642154388], [79.14827651686362, 14.412009962893645], [79.14266268629318, 14.407143914347595], [79.14338933672042, 14.404738649320377], [79.14341212949553, 14.401983424010732], [79.14271399224678, 14.400944660272389], [79.14346339559081, 14.395784164590392], [79.14595663636594, 14.393392752543914], [79.14739268359905, 14.390648599323592], [79.1505924700663, 14.388262660856261], [79.15167510433531, 14.385515706631404], [79.15345867966106, 14.38346307234434], [79.1559460232193, 14.381760335918074], [79.15842486659398, 14.381090788874431], [79.16341627616548, 14.37561871773475], [79.16483512134788, 14.374940864776407], [79.17436879480256, 14.375703463265616], [79.1779186226727, 14.373664228357331], [79.18180777402941, 14.37334970376166], [79.18960269881255, 14.3706539807256], [79.19246232990803, 14.366542615144233], [79.19566133856375, 14.364155965158995], [79.197460905911, 14.360036439312728], [79.19924387499302, 14.357983382501533], [79.20033675867307, 14.353858449405706], [79.20038903073191, 14.347314551308367], [79.20251688605585, 14.346297382463227], [79.20572645671378, 14.342532879125573], [79.20820750716902, 14.34151832300443], [79.21176743907941, 14.338100803530798], [79.21634615821428, 14.339857472309042], [79.21808523729034, 14.34331494086823], [79.22054178614407, 14.345400027283024], [79.22158528812574, 14.347474497356707], [79.2265012984675, 14.351300172980288], [79.22754487928984, 14.353374625288707], [79.22752590634343, 14.355785570169152], [79.22538718468928, 14.35818064644158], [79.22572961929689, 14.35956097338214], [79.22643620519801, 14.359566264327817], [79.22750692987121, 14.358196514535447], [79.22788190377867, 14.355443791815897], [79.23143911479804, 14.352370393012741], [79.23251517632657, 14.350311768912913], [79.23431666010227, 14.345847445520091], [79.2354303996547, 14.33896688499088], [79.2379301502318, 14.335541035682514], [79.24295354781755, 14.325589409890158], [79.24304466719732, 14.313878973920954], [79.23886771772878, 14.305925837472593], [79.23185468275176, 14.299329359176971], [79.22762708752741, 14.297920119503353], [79.22376356530064, 14.295135761636573], [79.21811793343846, 14.294404656343985], [79.2089895548104, 14.287447313957632], [79.20547144305968, 14.285698616855608], [79.20337973658019, 14.282238449139026], [79.19528983822029, 14.278044009803176], [79.1893329359001, 14.272143366745548], [79.1865187705976, 14.270744215196755], [79.17522921589548, 14.269280275588876], [79.16326987529752, 14.263333031577423], [79.1579673331051, 14.263980975444854], [79.15268722426092, 14.26187352532585], [79.14950909418694, 14.261848875099236], [79.14070357686616, 14.259024926058485], [79.13929110121833, 14.259013906794943], [79.13857638357351, 14.260041613172332], [79.13574576179329, 14.260708351153255], [79.13186143884522, 14.260677943815173], [79.1304574777202, 14.259633656643846], [79.12622575879483, 14.258911582449963], [79.1262342946105, 14.257878370514812], [79.1272993249685, 14.257197884664308], [79.13224575743192, 14.256892254056714], [79.13470622861901, 14.258289225187045], [79.13929675221486, 14.258325093703391], [79.14143803498428, 14.255586362524781], [79.14497480969932, 14.254925041247573], [79.14638163638976, 14.255624839836678], [79.14742129207764, 14.258043929014168], [79.1488253352105, 14.259088124649326], [79.15482839950519, 14.259134659066294], [79.15764218690985, 14.26053414578213], [79.16682624111131, 14.26026051070014], [79.17139189147453, 14.263395480148802], [79.17491767019594, 14.26411137215039], [79.17771782585847, 14.267232712235172], [79.18160512468411, 14.266917971462098], [79.18371568347871, 14.267967374827638], [79.18583453405888, 14.267983515847632], [79.18655459552026, 14.266266814672106], [79.18410469109435, 14.263492670841883], [79.17986984542836, 14.263115934889223], [79.17846838028481, 14.261727488349527], [79.17883534076185, 14.260008115614879], [79.1806147970416, 14.25829952377731], [79.1830921977597, 14.257629542660698], [79.18555030064563, 14.259370442767047], [79.18623727556975, 14.261786725778267], [79.18973560398784, 14.265946562370202], [79.19465761980341, 14.26873940151369], [79.19815347070498, 14.273243560519347], [79.20132090943092, 14.274645253518615], [79.20342072211506, 14.27707217438379], [79.20799817766965, 14.27882886105727], [79.20904677262449, 14.280214509488296], [79.21782984593004, 14.28613591299414], [79.22453751101199, 14.286530485864295], [79.22558084541532, 14.288604920958115], [79.23049577217765, 14.292430391891692], [79.23788860740576, 14.295585259279088], [79.2399782968646, 14.299389619778804], [79.24837241846463, 14.310129411588917], [79.250395691619, 14.322544361122137], [79.25214855683546, 14.324279498676663], [79.25283904598085, 14.326351255810481], [79.25246979792348, 14.328415212575102], [79.25140471288303, 14.329096260159526], [79.24823348653746, 14.32803954218889], [79.24430488342665, 14.333521627395431], [79.24392213013542, 14.337307680851644], [79.24213165848556, 14.340394414622804], [79.23851824834095, 14.350700897572176], [79.23849400959391, 14.353800702873716], [79.2398990809245, 14.354844471453223], [79.24484512262178, 14.354881156339202], [79.24733154902542, 14.353177338139224], [79.25228559056417, 14.352180587744996], [79.25726091262362, 14.348428317900499], [79.25869799071371, 14.345338861492184], [79.26258138531072, 14.345711794800483], [79.2643583862425, 14.344347020134698], [79.26508349493925, 14.341941194687253], [79.26650982770683, 14.340229385877105], [79.26659188428569, 14.329552102745087], [79.26944960948693, 14.325439573563068], [79.26981869721779, 14.323375571796854], [79.27088370741511, 14.322694431919652], [79.27194080236329, 14.32304657599841], [79.26976852862447, 14.329919728870243], [79.26833964911776, 14.331975997717002], [79.2686770466904, 14.334045148673818], [79.27007688343427, 14.335777600073637], [79.27004253443779, 14.34025517758222], [79.26718724724815, 14.344023260796149], [79.26609827084094, 14.347804223035661], [79.26326139771548, 14.349161246223433], [79.2589900584352, 14.353263269422321], [79.2540226553671, 14.3559822886299], [79.25116956763394, 14.359405696352727], [79.2479845328041, 14.360071051348381], [79.24334328377294, 14.366236660208232], [79.2404979805891, 14.368626635119679], [79.23834845546259, 14.372399516841138], [79.23621776103528, 14.373761417592933], [79.23338852065822, 14.374084758717359], [79.23232044846424, 14.375110107823112], [79.2312361114052, 14.378201975318424], [79.22272914800506, 14.381582626911078], [79.2198752574515, 14.385005558777234], [79.21845920086473, 14.385339335361952], [79.2166788756464, 14.387048109982699], [79.21559151873022, 14.39048428885348], [79.21168011004552, 14.393554672764987], [79.20952709695543, 14.397671618036327], [79.20525386528547, 14.401772437384958], [79.20488122725283, 14.404180658097316], [79.20663150824048, 14.40626056932609], [79.20662049696222, 14.407638230289104], [79.20520428340609, 14.407971908043441], [79.20344849042542, 14.40658081582408], [79.20026823123311, 14.406556604297517], [79.19920261776095, 14.407237351953812], [79.19278660654615, 14.414077019838235], [79.19172371317127, 14.414413314312132], [79.19100863316113, 14.41544113584089], [79.1909864028766, 14.418196431695046], [79.19027408590375, 14.418879837096238], [79.18815659519672, 14.418519157658935], [79.1863841321871, 14.419194408835168], [79.17996458770693, 14.426378045470978], [79.17745724331951, 14.430491855118074], [79.17779662845139, 14.432216631091348], [79.18096881973418, 14.433274416567611], [79.18341188711891, 14.43708199798947], [79.19078890290186, 14.442649652784306], [79.19040206266739, 14.446779871871836], [79.18968964244723, 14.447463263131631], [79.18757467864724, 14.446758137404654]], [[79.24346419540672, 14.350737600908635], [79.24383090089057, 14.349018099293602], [79.24488805779073, 14.349370372409437], [79.24593985569209, 14.35041148968353], [79.24557047997537, 14.352475420065721], [79.24415733831468, 14.352464955230525], [79.24346419540672, 14.350737600908635]], [[79.2275611390092, 14.351308100696308], [79.22370764305074, 14.347145967671734], [79.22232171754824, 14.343691176536488], [79.21951190312602, 14.341603456775836], [79.21882442282178, 14.33918721537373], [79.21990867074521, 14.336095393036322], [79.22205263575057, 14.333011503966208], [79.22242216908286, 14.330947628037837], [79.2238487154774, 14.32923610332294], [79.22386498052305, 14.327169578689823], [79.22246015201888, 14.326125741080473], [79.22247913818558, 14.32371479683178], [79.22426157449038, 14.321661486106738], [79.22638638644518, 14.32098848189027], [79.22816606373434, 14.319279556635783], [79.22889143267072, 14.31687387178107], [79.23031243579803, 14.31585113504687], [79.23101349143795, 14.316545241538305], [79.23099460625912, 14.318956198422987], [79.23310320911638, 14.32034966510726], [79.232725711799, 14.323446840417027], [79.23377464544994, 14.324832416297994], [79.2333000315224, 14.340328797287288], [79.23255029587828, 14.345834285257817], [79.23039008900456, 14.350984796802065], [79.2296754088893, 14.352012784293246], [79.2275611390092, 14.351308100696308]], [[79.25229895027307, 14.350458460784875], [79.24598543045552, 14.34455627601958], [79.24422174814632, 14.344198779708417], [79.24567236129221, 14.339387296097346], [79.24606312815534, 14.334567963371205], [79.24785081878652, 14.33182561221588], [79.24890523324761, 14.332522284748581], [79.25236305218822, 14.342192247731274], [79.25517589066425, 14.343935187410278], [79.25621972476986, 14.346009540842124], [79.25585311923055, 14.34772907332945], [79.25442665884395, 14.34944080248016], [79.25229895027307, 14.350458460784875]], [[79.23873076217127, 14.32349145905938], [79.23631996577815, 14.315551368073455], [79.23603665265206, 14.306593733514037], [79.23814518578297, 14.307987147126818], [79.24125977284653, 14.316276878004038], [79.24049695739082, 14.323504553321905], [79.23905444319368, 14.327282739595232], [79.2383506421334, 14.326933074312086], [79.23873076217127, 14.32349145905938]], [[79.22926086040721, 14.314809972285861], [79.22999699091409, 14.311026590641188], [79.22825250726204, 14.308258052479696], [79.22826600741492, 14.306535941487512], [79.23074656962031, 14.3055210892751], [79.23106742971527, 14.30965679047118], [79.23246143329716, 14.312078262773948], [79.23244795966372, 14.313800376884185], [79.229964608586, 14.315159658908726], [79.22926086040721, 14.314809972285861]], [[79.2240112491946, 14.308570840027174], [79.21801207498079, 14.307837054574964], [79.21766429698731, 14.307145565753833], [79.21837886048762, 14.306117600676988], [79.22085131687385, 14.306136118849944], [79.22437258021466, 14.307540214776626], [79.2240112491946, 14.308570840027174]], [[79.20317730136072, 14.307725370148603], [79.2032128931973, 14.303247942229667], [79.2046421052598, 14.301192107809035], [79.20746768718428, 14.301213425397236], [79.20744584105802, 14.30396877278412], [79.2060084305145, 14.307057878649346], [79.20317730136072, 14.307725370148603]], [[79.258179862525, 14.27506784231976], [79.25783993839146, 14.273343116173113], [79.25924730312326, 14.27404230130891], [79.26029357537364, 14.27577218705974], [79.258179862525, 14.27506784231976]], [[79.25367893296796, 14.26332367090165], [79.25401881879795, 14.265048399052036], [79.25295936746203, 14.265040635510523], [79.25296998363913, 14.26366292339105], [79.25367893296796, 14.26332367090165]], [[79.02381937995807, 14.258773585480736], [79.02418747474859, 14.257054595714866], [79.02559984263743, 14.257066295060401], [79.02665013066988, 14.258108215428424], [79.02664114122585, 14.259141366674312], [79.02593195250584, 14.259479903876935], [79.02381937995807, 14.258773585480736]], [[79.17248459595797, 14.259270650106043], [79.17143354912783, 14.258229289062765], [79.16685129435439, 14.257160803460529], [79.16580028509028, 14.25611942165927], [79.16547223006067, 14.253016999415065], [79.1644240306621, 14.251631202603564], [79.1608901200617, 14.251948414739818], [79.1601950650859, 14.250565325208777], [79.17079116866778, 14.250302377331835], [79.17253176428126, 14.253415627758809], [79.176057397433, 14.254131485383065], [79.17816504690119, 14.255525335958936], [79.17815121669749, 14.257247406790952], [79.17601031761524, 14.259986518932514], [79.17248459595797, 14.259270650106043]], [[79.15872952213395, 14.257098226988461], [79.16051187807861, 14.255045389491842], [79.16192434601524, 14.25505628011376], [79.16332845000773, 14.256100396360091], [79.16332287287825, 14.256789218960552], [79.16119298556856, 14.258150533806734], [79.1587211347759, 14.25813145810859], [79.15872952213395, 14.257098226988461]], [[79.15451450581682, 14.254310191864706], [79.15628567672591, 14.253635027527912], [79.15769533594566, 14.253990352398512], [79.15697791551705, 14.25536253648895], [79.1545089026658, 14.25499901114195], [79.15451450581682, 14.254310191864706]], [[79.07721343316733, 14.25025532417711], [79.0789818114781, 14.24992515319219], [79.07897306557173, 14.250958337418435], [79.07720759713474, 14.250944112935157], [79.07721343316733, 14.25025532417711]], [[79.03273933689593, 14.248170651800082], [79.03310733783029, 14.24645163590118], [79.03487272494142, 14.246466182169833], [79.03449877227077, 14.248873973853014], [79.03273933689593, 14.248170651800082]], [[79.16516366822104, 14.24750369388981], [79.16481891536311, 14.246467742636549], [79.16553069045523, 14.24578434899533], [79.1676493123628, 14.245800626872528], [79.16870028928575, 14.246841996665797], [79.16798295933377, 14.248214225356163], [79.16516366822104, 14.24750369388981]], [[79.15890271052439, 14.235744762761133], [79.156100381072, 14.232967682060588], [79.1561087649173, 14.231934450296858], [79.1582244551067, 14.232295207249601], [79.15890271052439, 14.235744762761133]]], [[[79.25127384755368, 14.345973115319007], [79.25199375661096, 14.344256197696835], [79.25093660785798, 14.343903957601288], [79.25021401853031, 14.345965296443383], [79.25127384755368, 14.345973115319007]]], [[[79.16323329110166, 14.398005207110938], [79.16505346642673, 14.391475187278887], [79.16401036246955, 14.389400512367983], [79.16224935955846, 14.38869797339501], [79.16047144923158, 14.390061864042199], [79.1600645138634, 14.396602842321585], [79.16145812558142, 14.399024689299718], [79.16323329110166, 14.398005207110938]]], [[[79.16583754269811, 14.425235338890987], [79.17082990752348, 14.419763225312105], [79.17721310468433, 14.417057167840365], [79.18220222325652, 14.411929166219869], [79.1857498226898, 14.410234289658602], [79.19180699571851, 14.404080943851568], [79.19324537369579, 14.400992043197602], [79.19965266609644, 14.395185553309316], [79.20754165184698, 14.380779166118492], [79.20792517243375, 14.376993263539292], [79.20971369230445, 14.374251301664556], [79.20974384525371, 14.370462716504193], [79.20904271516669, 14.369768538289305], [79.2069228824233, 14.369752492412829], [79.19805440811749, 14.37416282079432], [79.1934503123048, 14.375505461879857], [79.18701850192036, 14.384411549495344], [79.18559686307732, 14.385433947767265], [79.1845174078737, 14.38783669495527], [79.17989064922621, 14.391934313618439], [79.17664631883811, 14.399831235825573], [79.17342976702645, 14.40428399235728], [79.1688024564312, 14.408381324636943], [79.16557716708698, 14.413867159963742], [79.16484788545334, 14.416616923324687], [79.16165343257931, 14.418314206956724], [79.15844478714055, 14.421733469320605], [79.15842497685725, 14.424144308022761], [79.16018057312567, 14.425535716737972], [79.16441836271555, 14.425913157819762], [79.16583754269811, 14.425235338890987]], [[79.1619785655059, 14.421761022227297], [79.16731022098926, 14.418013771797215], [79.16804229371844, 14.414919590478576], [79.17091418466836, 14.409430979867304], [79.17554428600864, 14.40498919518138], [79.17804852431163, 14.401219778020288], [79.18129562276138, 14.39297842317867], [79.1862812749241, 14.38819466354165], [79.18700460916587, 14.386133610179813], [79.18842624746577, 14.385111203266227], [79.19272154435801, 14.378255374523762], [79.19556741998196, 14.375866048728838], [79.19804336989947, 14.375540478976761], [79.20584923325512, 14.371466543119757], [79.2079718245543, 14.371138183948473], [79.2083004415095, 14.374240607263038], [79.20687071516922, 14.376296401689311], [79.20648717964647, 14.380082300848489], [79.20398366129267, 14.383852109133668], [79.20289613865953, 14.387288209795356], [79.20111293431275, 14.389341266139091], [79.19895426508114, 14.394146927053823], [79.19219086641952, 14.40029510937843], [79.18896903019436, 14.405436936778882], [79.1843419394885, 14.409534603867732], [79.18186002336057, 14.41054880382484], [79.1772271037631, 14.415335121047002], [79.17013439918769, 14.418380114572823], [79.16478867212791, 14.423849467101745], [79.16160823659922, 14.423824706222419], [79.1619785655059, 14.421761022227297]]]]}}, {"type": "Feature", "properties": {"depth_class": 2, "depth_lo_m": 1.0, "t_s": 45000.47369821772}, "geometry": {"type": "MultiPolygon", "coordinates": [[[[79.02027459039152, 14.219826087145787], [79.02064860126119, 14.217418325548406], [79.01960750057071, 14.215343252802397], [79.01819839683871, 14.214987168333762], [79.01610126561869, 14.2125589214722], [79.01291806577964, 14.213221304854397], [79.01254398765876, 14.215629045399083], [79.01324101536012, 14.216668060368143], [79.01641525626744, 14.217038827487833], [79.01815339219868, 14.220152915754356], [79.02027459039152, 14.219826087145787]], [[79.01430610767282, 14.21598809505003], [79.013974124304, 14.213574486052321], [79.01644227872582, 14.213939381788796], [79.0164272670522, 14.215661296171254], [79.01430610767282, 14.21598809505003]]], [[[79.15890271052439, 14.235744762761133], [79.1578741660003, 14.231948073218977], [79.1561087649173, 14.231934450296858], [79.156100381072, 14.232967682060588], [79.15890271052439, 14.235744762761133]]], [[[79.0811702315536, 14.241676716554396], [79.08330905880148, 14.239282967025751], [79.08510637876446, 14.235508775112384], [79.08477362932311, 14.233095168693156], [79.0840703986884, 14.232745108307421], [79.08230506650045, 14.23273093927216], [79.08088116703641, 14.234097177139159], [79.07875693558165, 14.234768933188933], [79.07732717351719, 14.236823934996288], [79.0776452671271, 14.240959515694868], [79.0783455947847, 14.241653991614076], [79.0811702315536, 14.241676716554396]], [[79.07941939593026, 14.2399405418399], [79.07873654760753, 14.237179698970483], [79.07980740952131, 14.235810639139295], [79.0829908593237, 14.235147380674377], [79.0822614604819, 14.237896876981779], [79.08047862681572, 14.239949061837834], [79.07941939593026, 14.2399405418399]]], [[[79.03485483545599, 14.248532496834923], [79.03487272494142, 14.246466182169833], [79.03310733783029, 14.24645163590118], [79.03273933689593, 14.248170651800082], [79.03343952877178, 14.24886524455462], [79.03485483545599, 14.248532496834923]]], [[[79.15697791551705, 14.25536253648895], [79.15734501845698, 14.253643214251978], [79.15451450581682, 14.254310191864706], [79.15521233332977, 14.255348885011196], [79.15697791551705, 14.25536253648895]]], [[[79.02665013066988, 14.258108215428424], [79.02559984263743, 14.257066295060401], [79.02418747474859, 14.257054595714866], [79.02381937995807, 14.258773585480736], [79.02593195250584, 14.259479903876935], [79.02664114122585, 14.259141366674312], [79.02665013066988, 14.258108215428424]]], [[[79.16833884631482, 14.247872523952326], [79.16870028928575, 14.246841996665797], [79.1676493123628, 14.245800626872528], [79.16553069045523, 14.24578434899533], [79.16481891536311, 14.246467742636549], [79.16621742179505, 14.248200661983413], [79.16833884631482, 14.247872523952326]]], [[[79.25367893296796, 14.26332367090165], [79.25296998363913, 14.26366292339105], [79.25295936746203, 14.265040635510523], [79.25401881879795, 14.265048399052036], [79.25367893296796, 14.26332367090165]]], [[[79.26029357537364, 14.27577218705974], [79.25924730312326, 14.27404230130891], [79.25783993839146, 14.273343116173113], [79.25782934431112, 14.274720830764073], [79.25888090217046, 14.275761864219932], [79.26029357537364, 14.27577218705974]]], [[[79.2052992819337, 14.30739696381324], [79.20708171180605, 14.305343782560454], [79.20711722016502, 14.300866344128949], [79.2046421052598, 14.301192107809035], [79.2032128931973, 14.303247942229667], [79.20282683283627, 14.30737828232213], [79.2052992819337, 14.30739696381324]]], [[[79.22437258021466, 14.307540214776626], [79.22085131687385, 14.306136118849944], [79.21837886048762, 14.306117600676988], [79.21766429698731, 14.307145565753833], [79.21801207498079, 14.307837054574964], [79.22190010372663, 14.307521731443574], [79.22330482389899, 14.308565560250612], [79.2240112491946, 14.308570840027174], [79.22437258021466, 14.307540214776626]]], [[[79.18968964244723, 14.447463263131631], [79.19078890290186, 14.442649652784306], [79.18341188711891, 14.43708199798947], [79.18096881973418, 14.433274416567611], [79.17885122103912, 14.432913639805205], [79.17744883594379, 14.431525082034723], [79.17996458770693, 14.426378045470978], [79.1863841321871, 14.419194408835168], [79.18815659519672, 14.418519157658935], [79.19027408590375, 14.418879837096238], [79.1909864028766, 14.418196431695046], [79.19100863316113, 14.41544113584089], [79.19172371317127, 14.414413314312132], [79.19278660654615, 14.414077019838235], [79.19920261776095, 14.407237351953812], [79.20026823123311, 14.406556604297517], [79.20344849042542, 14.40658081582408], [79.20520428340609, 14.407971908043441], [79.20662049696222, 14.407638230289104], [79.20663150824048, 14.40626056932609], [79.20488122725283, 14.404180658097316], [79.20525386528547, 14.401772437384958], [79.20952709695543, 14.397671618036327], [79.21168011004552, 14.393554672764987], [79.21559151873022, 14.39048428885348], [79.2166788756464, 14.387048109982699], [79.21845920086473, 14.385339335361952], [79.2198752574515, 14.385005558777234], [79.22272914800506, 14.381582626911078], [79.2312361114052, 14.378201975318424], [79.23232044846424, 14.375110107823112], [79.23338852065822, 14.374084758717359], [79.23621776103528, 14.373761417592933], [79.23834845546259, 14.372399516841138], [79.2404979805891, 14.368626635119679], [79.24334328377294, 14.366236660208232], [79.2479845328041, 14.360071051348381], [79.25116956763394, 14.359405696352727], [79.2540226553671, 14.3559822886299], [79.2589900584352, 14.353263269422321], [79.26326139771548, 14.349161246223433], [79.26609827084094, 14.347804223035661], [79.26718724724815, 14.344023260796149], [79.27004253443779, 14.34025517758222], [79.27007688343427, 14.335777600073637], [79.2686770466904, 14.334045148673818], [79.26833964911776, 14.331975997717002], [79.26976852862447, 14.329919728870243], [79.27194080236329, 14.32304657599841], [79.27088370741511, 14.322694431919652], [79.26981869721779, 14.323375571796854], [79.26944960948693, 14.325439573563068], [79.26659188428569, 14.329552102745087], [79.26650982770683, 14.340229385877105], [79.26508349493925, 14.341941194687253], [79.2643583862425, 14.344347020134698], [79.26258138531072, 14.345711794800483], [79.25869799071371, 14.345338861492184], [79.25726091262362, 14.348428317900499], [79.25228559056417, 14.352180587744996], [79.24733154902542, 14.353177338139224], [79.24484512262178, 14.354881156339202], [79.2398990809245, 14.354844471453223], [79.23849400959391, 14.353800702873716], [79.23851824834095, 14.350700897572176], [79.24213165848556, 14.340394414622804], [79.24392213013542, 14.337307680851644], [79.24430488342665, 14.333521627395431], [79.24823348653746, 14.32803954218889], [79.25140471288303, 14.329096260159526], [79.25246979792348, 14.328415212575102], [79.25283904598085, 14.326351255810481], [79.25214855683546, 14.324279498676663], [79.250395691619, 14.322544361122137], [79.24837241846463, 14.310129411588917], [79.2399782968646, 14.299389619778804], [79.23788860740576, 14.295585259279088], [79.23049577217765, 14.292430391891692], [79.22558084541532, 14.288604920958115], [79.22453751101199, 14.286530485864295], [79.21782984593004, 14.28613591299414], [79.20904677262449, 14.280214509488296], [79.20799817766965, 14.27882886105727], [79.20342072211506, 14.27707217438379], [79.20132090943092, 14.274645253518615], [79.19815347070498, 14.273243560519347], [79.19465761980341, 14.26873940151369], [79.18973560398784, 14.265946562370202], [79.18623727556975, 14.261786725778267], [79.18555030064563, 14.259370442767047], [79.1830921977597, 14.257629542660698], [79.1806147970416, 14.25829952377731], [79.17883534076185, 14.260008115614879], [79.17846838028481, 14.261727488349527], [79.17986984542836, 14.263115934889223], [79.18410469109435, 14.263492670841883], [79.18655459552026, 14.266266814672106], [79.18583453405888, 14.267983515847632], [79.18371568347871, 14.267967374827638], [79.18160512468411, 14.266917971462098], [79.17771782585847, 14.267232712235172], [79.17491767019594, 14.26411137215039], [79.17139189147453, 14.263395480148802], [79.16682624111131, 14.26026051070014], [79.15764218690985, 14.26053414578213], [79.15482839950519, 14.259134659066294], [79.1488253352105, 14.259088124649326], [79.14742129207764, 14.258043929014168], [79.14638163638976, 14.255624839836678], [79.14497480969932, 14.254925041247573], [79.14143803498428, 14.255586362524781], [79.13929675221486, 14.258325093703391], [79.13470622861901, 14.258289225187045], [79.13224575743192, 14.256892254056714], [79.1272993249685, 14.257197884664308], [79.1262342946105, 14.257878370514812], [79.12622575879483, 14.258911582449963], [79.1304574777202, 14.259633656643846], [79.13186143884522, 14.260677943815173], [79.13574576179329, 14.260708351153255], [79.13857638357351, 14.260041613172332], [79.13929110121833, 14.259013906794943], [79.14070357686616, 14.259024926058485], [79.14950909418694, 14.261848875099236], [79.15268722426092, 14.26187352532585], [79.1579673331051, 14.263980975444854], [79.16326987529752, 14.263333031577423], [79.17522921589548, 14.269280275588876], [79.1865187705976, 14.270744215196755], [79.1893329359001, 14.272143366745548], [79.19528983822029, 14.278044009803176], [79.20337973658019, 14.282238449139026], [79.20547144305968, 14.285698616855608], [79.2089895548104, 14.287447313957632], [79.21811793343846, 14.294404656343985], [79.22376356530064, 14.295135761636573], [79.22762708752741, 14.297920119503353], [79.23185468275176, 14.299329359176971], [79.23886771772878, 14.305925837472593], [79.24304466719732, 14.313878973920954], [79.24295354781755, 14.325589409890158], [79.2379301502318, 14.335541035682514], [79.2354303996547, 14.33896688499088], [79.23431666010227, 14.345847445520091], [79.23251517632657, 14.350311768912913], [79.23143911479804, 14.352370393012741], [79.22788190377867, 14.355443791815897], [79.22750692987121, 14.358196514535447], [79.22643620519801, 14.359566264327817], [79.22538175571592, 14.35886948680176], [79.22610461889342, 14.356808256535812], [79.22752590634343, 14.355785570169152], [79.22754487928984, 14.353374625288707], [79.2265012984675, 14.351300172980288], [79.22158528812574, 14.347474497356707], [79.22054178614407, 14.345400027283024], [79.21808523729034, 14.34331494086823], [79.21634615821428, 14.339857472309042], [79.21176743907941, 14.338100803530798], [79.20820750716902, 14.34151832300443], [79.20572645671378, 14.342532879125573], [79.20251688605585, 14.346297382463227], [79.20038903073191, 14.347314551308367], [79.20033675867307, 14.353858449405706], [79.19924387499302, 14.357983382501533], [79.197460905911, 14.360036439312728], [79.19566133856375, 14.364155965158995], [79.19246232990803, 14.366542615144233], [79.18960269881255, 14.3706539807256], [79.18180777402941, 14.37334970376166], [79.1779186226727, 14.373664228357331], [79.17436879480256, 14.375703463265616], [79.16800925915081, 14.375654317816421], [79.16695495338868, 14.374957293183048], [79.16341627616548, 14.37561871773475], [79.15842486659398, 14.381090788874431], [79.1559460232193, 14.381760335918074], [79.15345867966106, 14.38346307234434], [79.15167510433531, 14.385515706631404], [79.1505924700663, 14.388262660856261], [79.14739268359905, 14.390648599323592], [79.14595663636594, 14.393392752543914], [79.14346339559081, 14.395784164590392], [79.14273393795999, 14.398533838318052], [79.14338933672042, 14.404738649320377], [79.14266268629318, 14.407143914347595], [79.14827651686362, 14.412009962893645], [79.15002343169317, 14.414434642154388], [79.15176186522723, 14.417892525692066], [79.15311575075265, 14.425136085683805], [79.15769839294514, 14.426549627361096], [79.15944834187025, 14.428629854060775], [79.15942853250311, 14.431040692722526], [79.15835136369626, 14.433098847234993], [79.1562168143931, 14.434804300417492], [79.15549867082356, 14.43617639030177], [79.15584072302318, 14.437556773563742], [79.16114175990852, 14.437598185946932], [79.16360993257535, 14.438306283175425], [79.17386993547734, 14.437008273722624], [79.17774337375441, 14.43876040024216], [79.18162527247675, 14.439479241399829], [79.1854876584128, 14.442608892955704], [79.18827594609022, 14.447452395358098], [79.18968964244723, 14.447463263131631]], [[79.15947663460766, 14.425185797930386], [79.15842497685725, 14.424144308022761], [79.15880382296343, 14.421047415699475], [79.16165343257931, 14.418314206956724], [79.16484788545334, 14.416616923324687], [79.16557716708698, 14.413867159963742], [79.1688024564312, 14.408381324636943], [79.17342976702645, 14.40428399235728], [79.17664631883811, 14.399831235825573], [79.17989064922621, 14.391934313618439], [79.1845174078737, 14.38783669495527], [79.19166990693456, 14.377214036497946], [79.19451577763625, 14.37482472292428], [79.19805440811749, 14.37416282079432], [79.2069228824233, 14.369752492412829], [79.20904271516669, 14.369768538289305], [79.20974384525371, 14.370462716504193], [79.20971369230445, 14.374251301664556], [79.2082867219079, 14.375962689671695], [79.20754165184698, 14.380779166118492], [79.20503814063261, 14.384548986510909], [79.20466830326758, 14.386612797801936], [79.19965266609644, 14.395185553309316], [79.19324537369579, 14.400992043197602], [79.19037968462864, 14.405792181700216], [79.1857498226898, 14.410234289658602], [79.18220222325652, 14.411929166219869], [79.17721310468433, 14.417057167840365], [79.17082990752348, 14.419763225312105], [79.16583754269811, 14.425235338890987], [79.16441836271555, 14.425913157819762], [79.15947663460766, 14.425185797930386]], [[79.18144521501209, 14.418123107825837], [79.18324558436404, 14.414003789182763], [79.18537416715026, 14.412986862937016], [79.1907163801588, 14.407861361952712], [79.19429711712125, 14.402033386079212], [79.20141938595927, 14.39519900365392], [79.20322192629084, 14.39073504582806], [79.2060816289965, 14.386623522902319], [79.20645145367358, 14.384559707897889], [79.20895494313643, 14.38078986980756], [79.20933844023061, 14.377003962183602], [79.21112694426262, 14.374261987637716], [79.2111598120204, 14.370128982381203], [79.20940698498548, 14.368393543295236], [79.20587120642762, 14.368711213786787], [79.19700275989295, 14.373121505490817], [79.19311083610906, 14.373780696520894], [79.18884617151701, 14.376848006767604], [79.18778623328929, 14.376839891900701], [79.18673462725488, 14.375798535262621], [79.18674573493199, 14.374420885742456], [79.19065152829836, 14.372039737001097], [79.19351392759567, 14.367583945130326], [79.19742781078587, 14.364169416918624], [79.1992301023259, 14.359705458681335], [79.20065701668594, 14.357994119078588], [79.2006735285233, 14.355927625706585], [79.20174987534315, 14.353869176452163], [79.20143784140038, 14.348700257438626], [79.20356845265265, 14.347338663874158], [79.20713402802512, 14.343232400186816], [79.20890582054278, 14.3425569123019], [79.21175378191104, 14.339822894454588], [79.21316681946868, 14.339833543252759], [79.21527547249723, 14.341227175898325], [79.21560965104749, 14.343640765580153], [79.21382694572014, 14.34569397846888], [79.21381329674387, 14.347416070235836], [79.2219249725205, 14.349199246228123], [79.22578388815242, 14.352672566988995], [79.22576489733021, 14.35508350970407], [79.22434089233825, 14.356450605199125], [79.22325928881799, 14.359198018739141], [79.22395228778072, 14.360925416261122], [79.22571061839055, 14.361971914627915], [79.22712380559535, 14.361982496264448], [79.22819182909606, 14.360957165107358], [79.22892822149461, 14.357173820140718], [79.23142559380467, 14.354092500336353], [79.23460246570639, 14.354460629783931], [79.2377685732428, 14.35620640811683], [79.24412511800342, 14.356598040727771], [79.25440264113554, 14.35254063461646], [79.25903264268523, 14.347752442975581], [79.26045108350353, 14.347073961800822], [79.26256810875879, 14.347433931906762], [79.26220420325704, 14.34880905194324], [79.25900070619387, 14.35188556306197], [79.25403600548819, 14.354260160619061], [79.25118026797989, 14.358027996467412], [79.24728598069512, 14.359032551791108], [79.23944613571054, 14.367585488369272], [79.2369378937633, 14.37204457275578], [79.23198066744338, 14.373385363814453], [79.22982824218175, 14.377502565651174], [79.2277055978012, 14.377831117544975], [79.22132129146229, 14.380883167391389], [79.21846739168946, 14.384306081008965], [79.21598314474083, 14.385665109567505], [79.21453697528034, 14.389787451884118], [79.2102694809088, 14.393199559751274], [79.20847254456649, 14.396974752673684], [79.2042020661053, 14.400731137518054], [79.20275555826257, 14.404853366471919], [79.19992592103569, 14.405176255486541], [79.19815082743855, 14.406196025871001], [79.18889395391074, 14.414736054916233], [79.18852945234406, 14.416110989798506], [79.1832093065538, 14.41848112583138], [79.18144521501209, 14.418123107825837]], [[79.16145812558142, 14.399024689299718], [79.1600645138634, 14.396602842321585], [79.16010683773423, 14.391436741958701], [79.16118374346794, 14.389378546899572], [79.16295601214532, 14.388703464488282], [79.1647085769789, 14.390439221584803], [79.16503939821106, 14.393197225789269], [79.16287431369638, 14.398691274721116], [79.16145812558142, 14.399024689299718]], [[79.26795201043232, 14.336450993806316], [79.26865060739641, 14.337489437165928], [79.26794142927953, 14.337828708519757], [79.26795201043232, 14.336450993806316]], [[79.23643822780187, 14.300396725401715], [79.235044235729, 14.297975277554936], [79.23540280852855, 14.297289050738947], [79.23716342673339, 14.2979909945634], [79.23819887319227, 14.3010986645283], [79.23643822780187, 14.300396725401715]], [[79.22695039199623, 14.29412620923246], [79.22201926261414, 14.292367197176734], [79.22309234793784, 14.290653004570975], [79.22555923984082, 14.291360298542804], [79.22731167906177, 14.293095574110666], [79.22695039199623, 14.29412620923246]]]]}}, {"type": "Feature", "properties": {"depth_class": 3, "depth_lo_m": 2.0, "t_s": 45000.47369821772}, "geometry": {"type": "MultiPolygon", "coordinates": [[[[79.01430610767282, 14.21598809505003], [79.0164272670522, 14.215661296171254], [79.01609225821912, 14.213592070037937], [79.01361809590493, 14.213915935883495], [79.01430610767282, 14.21598809505003]]], [[[79.0808346141494, 14.239607505369005], [79.08262034885722, 14.23721092120123], [79.0829908593237, 14.235147380674377], [79.07980740952131, 14.235810639139295], [79.07873654760753, 14.237179698970483], [79.07906923201335, 14.239593305729896], [79.0808346141494, 14.239607505369005]]], [[[79.22730628159903, 14.293784418958392], [79.22661339970531, 14.29205704276117], [79.2241519019608, 14.290660914700434], [79.22309234793784, 14.290653004570975], [79.22202467561016, 14.291678354229056], [79.22272022569103, 14.293061318094312], [79.22624401068475, 14.29412094339302], [79.22730628159903, 14.293784418958392]]], [[[79.23819887319227, 14.3010986645283], [79.23646240070032, 14.297296909634793], [79.23504692354084, 14.29763085381233], [79.23713926221834, 14.30109081132433], [79.23819887319227, 14.3010986645283]]], [[[79.26794142927953, 14.337828708519757], [79.26865589581733, 14.336800579551163], [79.26795201043232, 14.336450993806316], [79.26794142927953, 14.337828708519757]]], [[[79.18391885114865, 14.418142154707361], [79.18852945234406, 14.416110989798506], [79.18889395391074, 14.414736054916233], [79.19815082743855, 14.406196025871001], [79.203111675668, 14.404511640082369], [79.2042020661053, 14.400731137518054], [79.20847254456649, 14.396974752673684], [79.2102694809088, 14.393199559751274], [79.21453697528034, 14.389787451884118], [79.21526827460981, 14.386693030429491], [79.21669527504073, 14.384981603489946], [79.21846739168946, 14.384306081008965], [79.22132129146229, 14.380883167391389], [79.2277055978012, 14.377831117544975], [79.22982824218175, 14.377502565651174], [79.23198066744338, 14.373385363814453], [79.2369378937633, 14.37204457275578], [79.23944613571054, 14.367585488369272], [79.2440740815173, 14.363142089677295], [79.24515009769577, 14.361083402632792], [79.24728598069512, 14.359032551791108], [79.25118026797989, 14.358027996467412], [79.25403600548819, 14.354260160619061], [79.25900070619387, 14.35188556306197], [79.26220420325704, 14.34880905194324], [79.26256810875879, 14.347433931906762], [79.26045108350353, 14.347073961800822], [79.25903264268523, 14.347752442975581], [79.25440264113554, 14.35254063461646], [79.24412511800342, 14.356598040727771], [79.2377685732428, 14.35620640811683], [79.23460246570639, 14.354460629783931], [79.23142559380467, 14.354092500336353], [79.22892822149461, 14.357173820140718], [79.22819182909606, 14.360957165107358], [79.22712380559535, 14.361982496264448], [79.22571061839055, 14.361971914627915], [79.22395228778072, 14.360925416261122], [79.22325657091271, 14.359542438496076], [79.22434089233825, 14.356450605199125], [79.22576489733021, 14.35508350970407], [79.22578388815242, 14.352672566988995], [79.2219249725205, 14.349199246228123], [79.21381329674387, 14.347416070235836], [79.21382694572014, 14.34569397846888], [79.21560965104749, 14.343640765580153], [79.21527547249723, 14.341227175898325], [79.21316681946868, 14.339833543252759], [79.21175378191104, 14.339822894454588], [79.20890582054278, 14.3425569123019], [79.20713402802512, 14.343232400186816], [79.20356845265265, 14.347338663874158], [79.20143784140038, 14.348700257438626], [79.20174987534315, 14.353869176452163], [79.2006735285233, 14.355927625706585], [79.20065701668594, 14.357994119078588], [79.1992301023259, 14.359705458681335], [79.19742781078587, 14.364169416918624], [79.19351392759567, 14.367583945130326], [79.19065152829836, 14.372039737001097], [79.18674573493199, 14.374420885742456], [79.18673462725488, 14.375798535262621], [79.18778623328929, 14.376839891900701], [79.18884617151701, 14.376848006767604], [79.19311083610906, 14.373780696520894], [79.19700275989295, 14.373121505490817], [79.20693386165384, 14.368374826818298], [79.20940698498548, 14.368393543295236], [79.21081198342802, 14.369437478254623], [79.21112694426262, 14.374261987637716], [79.20933844023061, 14.377003962183602], [79.20859338613667, 14.381820443753261], [79.20645145367358, 14.384559707897889], [79.2060816289965, 14.386623522902319], [79.20322192629084, 14.39073504582806], [79.20141938595927, 14.39519900365392], [79.19429711712125, 14.402033386079212], [79.1907163801588, 14.407861361952712], [79.18217430652685, 14.415373270094538], [79.18144521501209, 14.418123107825837], [79.18391885114865, 14.418142154707361]], [[79.23236104745014, 14.369943791704076], [79.22955895672554, 14.366822884981948], [79.22957792311111, 14.364411939680618], [79.23175724622939, 14.356850508297812], [79.23493415759361, 14.357218637731707], [79.23774970581995, 14.358617365775803], [79.2423425299619, 14.358651484141465], [79.24339704010568, 14.35934819202995], [79.24338897847444, 14.360381462524145], [79.24019314914784, 14.36242440001706], [79.2366277701445, 14.366531189549377], [79.23483422231529, 14.369962244635165], [79.23236104745014, 14.369943791704076]]]]}}, {"type": "Feature", "properties": {"depth_class": 4, "depth_lo_m": 3.0, "t_s": 45000.47369821772}, "geometry": {"type": "Polygon", "coordinates": [[[79.23483422231529, 14.369962244635165], [79.23095322254814, 14.36924439378543], [79.22955895672554, 14.366822884981948], [79.23140125149345, 14.35719229285799], [79.23352369604336, 14.356863684351568], [79.23774970581995, 14.358617365775803], [79.24304643182639, 14.359001148691702], [79.24338897847444, 14.360381462524145], [79.23948116150258, 14.363107994445311], [79.23840508462986, 14.365166648378267], [79.2366277701445, 14.366531189549377], [79.23554624660525, 14.369278668649399], [79.23483422231529, 14.369962244635165]]]}}]}