{"type": "FeatureCollection", "features": [{"type": "Feature", "properties": {"depth_class": 1, "depth_lo_m": 0.3, "t_s": 64800.23091438088}, "geometry": {"type": "MultiPolygon", "coordinates": [[[[79.01495505485937, 14.222537224894142], [79.01602618186206, 14.221168489959858], [79.01990356688542, 14.221889463281796], [79.02168672354301, 14.21983777971867], [79.02171966913033, 14.216049556950844], [79.02102559621225, 14.214666178048029], [79.01646329169536, 14.211528701211513], [79.01293009436576, 14.211843776031177], [79.01150297172912, 14.213553947723556], [79.01148190310485, 14.215964620613429], [79.01217892634699, 14.21700363815606], [79.01145480907574, 14.21906405642834], [79.01178676525986, 14.221477665450031], [79.01318385684436, 14.223211319384776], [79.01495505485937, 14.222537224894142]], [[79.01815339219868, 14.220152915754356], [79.01641525626744, 14.217038827487833], [79.01324101536012, 14.216668060368143], [79.01254398765876, 14.215629045399083], [79.01291806577964, 14.213221304854397], [79.01610126561869, 14.2125589214722], [79.01819839683871, 14.214987168333762], [79.02030755945819, 14.21603786761961], [79.02027459039152, 14.219826087145787], [79.01815339219868, 14.220152915754356]]], [[[79.16062073082857, 14.241613360551185], [79.16141054658739, 14.231286456682], [79.16388767401897, 14.23061664514664], [79.16425466223365, 14.228897297796511], [79.16320934656169, 14.227167095131888], [79.16074340297509, 14.226459257530584], [79.15898919719153, 14.225068015579426], [79.15722384841197, 14.225054407334662], [79.15543614648841, 14.227796071131706], [79.15331770701934, 14.227779705115275], [79.15189701514774, 14.228802013680765], [79.15187180994066, 14.23190170211306], [79.15291145065518, 14.234320765836308], [79.15572493499282, 14.235720239400475], [79.15708977487797, 14.241586124182863], [79.15814347395816, 14.242283121995076], [79.15990895746806, 14.242296739560603], [79.16062073082857, 14.241613360551185]], [[79.15890271052439, 14.235744762761133], [79.156100381072, 14.232967682060588], [79.1561087649173, 14.231934450296858], [79.1582244551067, 14.232295207249601], [79.15890271052439, 14.235744762761133]]], [[[79.08115859049458, 14.243054298225754], [79.08615978992073, 14.236206060530675], [79.08618589922843, 14.233106490654498], [79.08513830521576, 14.231720413936236], [79.08231669182003, 14.231353355484158], [79.07805953813532, 14.233730065580076], [79.07591488787189, 14.236812557760208], [79.07344923239685, 14.23610383948126], [79.07167511493171, 14.237122769646927], [79.07129864910195, 14.23987506592863], [79.07199602814937, 14.240913951278323], [79.0762329555112, 14.240948137107504], [79.078333936615, 14.24303157099753], [79.08115859049458, 14.243054298225754]], [[79.07799834522582, 14.240962359037873], [79.07768607369903, 14.236137988239372], [79.08194909323745, 14.23307249975079], [79.0844205620407, 14.23309233689971], [79.08475040425927, 14.235850339677373], [79.08259709068597, 14.239966087753174], [79.08011099218182, 14.241668198613514], [79.07799834522582, 14.240962359037873]]], [[[79.11821835883717, 14.245071512487145], [79.12036827828598, 14.241299773694987], [79.1203882306469, 14.238888950273804], [79.11899871194554, 14.236122600929617], [79.11653001572947, 14.235758714744671], [79.1143801013723, 14.239530419205416], [79.11400413678402, 14.242282846396957], [79.11680598822896, 14.245060370735448], [79.11821835883717, 14.245071512487145]]], [[[79.03554013007644, 14.250949013555928], [79.0366291776813, 14.247513873873078], [79.03910966212598, 14.246501040001654], [79.0398247406424, 14.245473681792664], [79.03773901955564, 14.241668018523457], [79.03597366669133, 14.241653498239108], [79.03418744478843, 14.24404966533019], [79.03206004836434, 14.245065360902002], [79.03027674584823, 14.24711710443601], [79.03026180257916, 14.248839028483157], [79.0316681509471, 14.249539455419903], [79.03306256862246, 14.251617416362873], [79.03554013007644, 14.250949013555928]], [[79.0334604150932, 14.246454546198297], [79.03486676209809, 14.24715495376699], [79.03450175466527, 14.248529588185537], [79.0330924167534, 14.248173562985087], [79.0334604150932, 14.246454546198297]]], [[[79.1495877628404, 14.252205434244672], [79.15102826467518, 14.248772296647056], [79.15032766775767, 14.248078004482615], [79.14820623550241, 14.248405978891922], [79.14749159442616, 14.24943372182049], [79.14817813314792, 14.251850064247948], [79.1495877628404, 14.252205434244672]]], [[[79.09380307709863, 14.25107730793811], [79.08641128521512, 14.248262767623448], [79.08499601516107, 14.248595831222262], [79.08568767371504, 14.250323479269946], [79.08886552545012, 14.250348959927683], [79.09167580683994, 14.252093560349508], [79.09379439791398, 14.252110501047676], [79.09380307709863, 14.25107730793811]]], [[[79.10896049275837, 14.254297763647225], [79.10721220583139, 14.252217355756267], [79.10263052967035, 14.251147686601005], [79.10017037073709, 14.24975041739657], [79.0976986979178, 14.24973072066015], [79.09557145398966, 14.250747011689064], [79.09662207919561, 14.25178866115425], [79.10332521334765, 14.252530901239584], [79.10612990313344, 14.254964148235999], [79.10896049275837, 14.254297763647225]]], [[[79.15696392469489, 14.257084586850207], [79.15945252790885, 14.25503721604263], [79.15946929150041, 14.252970752320527], [79.15806522571019, 14.251926617543862], [79.15559344707114, 14.251907517589915], [79.15063586552664, 14.25359128563913], [79.15097775075049, 14.254971659267863], [79.1537858540115, 14.257060001700111], [79.15696392469489, 14.257084586850207]]], [[[79.02804154572235, 14.260530589186269], [79.0287627095181, 14.258814509097384], [79.02702119820533, 14.256044834396468], [79.02455556226504, 14.255335604427632], [79.02207192835726, 14.256692648188968], [79.0220509053966, 14.259103327882938], [79.02345127789235, 14.260492573724974], [79.0252107656334, 14.261195972272752], [79.02804154572235, 14.260530589186269]], [[79.02383138253299, 14.257396052775857], [79.02559984263743, 14.257066295060401], [79.02664413778716, 14.25879698293623], [79.02487266498778, 14.259471130173212], [79.02381937995807, 14.258773585480736], [79.02383138253299, 14.257396052775857]]], [[[79.04850358252169, 14.262765450493285], [79.05028984157772, 14.260369179149508], [79.04924534627528, 14.258638571089168], [79.04783887698481, 14.257938234206215], [79.04607338689839, 14.25792377245424], [79.04536125543804, 14.258606759378878], [79.04532860188453, 14.262395022668189], [79.04850358252169, 14.262765450493285]]], [[[79.08311707004823, 14.262013076241544], [79.08349346713261, 14.259260752706338], [79.08279307445079, 14.258566284081496], [79.08102754285994, 14.25855208044771], [79.0785441306088, 14.259909751037718], [79.0785324580722, 14.261287328479622], [79.07958303760977, 14.26232904852435], [79.08205190822744, 14.262693345098118], [79.08311707004823, 14.262013076241544]]], [[[79.12393886474136, 14.27921471276183], [79.12714567070195, 14.275795697487682], [79.12717698859835, 14.272007256615879], [79.12612897178052, 14.27062131111833], [79.12436330185616, 14.270607416796771], [79.12365133082713, 14.271290661622585], [79.12041311407333, 14.27849805773386], [79.12075482775285, 14.279878454184646], [79.12393886474136, 14.27921471276183]]], [[[79.10415986245036, 14.279402474961445], [79.10381825341616, 14.27802206717275], [79.10204966246354, 14.278352399022232], [79.10238837462667, 14.28007720665401], [79.10415986245036, 14.279402474961445]]], [[[79.16325582934937, 14.395249949285873], [79.16432991571462, 14.393536146779038], [79.16434961879118, 14.391125293821842], [79.16365140433741, 14.390086583545266], [79.16224090765948, 14.389731195144094], [79.16116682836517, 14.391444988943292], [79.16114709068017, 14.393855837514069], [79.16183684461402, 14.395927775868332], [79.16325582934937, 14.395249949285873]]], [[[79.16832216969821, 14.249938998871327], [79.17009883018049, 14.248574897023243], [79.17011271268609, 14.246852832703508], [79.16871418063701, 14.245119933448054], [79.16695422780072, 14.244417553686498], [79.16306454171482, 14.245076511262727], [79.1630478205135, 14.247142980536276], [79.16479385395367, 14.249567449105914], [79.16832216969821, 14.249938998871327]]], [[[79.2507314536597, 14.279146617911234], [79.25289033469055, 14.27399576022339], [79.24972516245484, 14.272250290246626], [79.24654405135583, 14.272571343345419], [79.24582706335131, 14.273943849168559], [79.24615356053243, 14.277390714162635], [79.24896559506666, 14.279133639181389], [79.2507314536597, 14.279146617911234]]], [[[79.18715340434656, 14.279704389602344], [79.18715891835932, 14.279015559141317], [79.18609944038714, 14.279007490772837], [79.18609392315614, 14.279696320828664], [79.18715340434656, 14.279704389602344]]], [[[79.19693767621268, 14.292867313560018], [79.19660645396279, 14.29010930312891], [79.1948405619527, 14.290095913102396], [79.19412870841725, 14.290779385913611], [79.19446814589384, 14.292504147517246], [79.19693767621268, 14.292867313560018]]], [[[79.27887019828835, 14.294507512505202], [79.27816379614163, 14.294502400653771], [79.27815330943618, 14.295880127667404], [79.27921553937628, 14.295543363498092], [79.27887019828835, 14.294507512505202]]], [[[79.18629527385743, 14.298641824783541], [79.18560547254506, 14.296569950167878], [79.18382847824724, 14.297934128881606], [79.184523795448, 14.299317178717667], [79.18629527385743, 14.298641824783541]]], [[[79.20564428549685, 14.308432884282034], [79.20777992800951, 14.30638236454001], [79.20887502309508, 14.301912909059208], [79.20959233103855, 14.300540553829041], [79.211722411651, 14.299178823120455], [79.21173330543907, 14.297801145723778], [79.20961687205063, 14.297440783426593], [79.20748952865756, 14.29845807734044], [79.20148524570423, 14.29841274647616], [79.20077338051318, 14.299096238015016], [79.20076515944723, 14.300129489739394], [79.2025256598351, 14.300831680076282], [79.20175899140547, 14.308403519678915], [79.20281313806507, 14.309100369229663], [79.20564428549685, 14.308432884282034]], [[79.20391929410728, 14.303253279765338], [79.20498436521882, 14.302572446247986], [79.20639169958618, 14.303271944632371], [79.20637530313648, 14.30533845365633], [79.20495154564892, 14.306705460962316], [79.20354145926254, 14.30635036984033], [79.20391929410728, 14.303253279765338]]], [[[79.22543491840717, 14.307203706671373], [79.22473661262339, 14.30616516694162], [79.22227227710935, 14.305113425750053], [79.21909341717631, 14.30508963261291], [79.21696331284032, 14.306451427443205], [79.21659651597236, 14.308170877797723], [79.21729478649507, 14.309209437677444], [79.22083233763523, 14.308547064517834], [79.22294077739609, 14.309940604174006], [79.22541328174158, 14.309959079739055], [79.22543491840717, 14.307203706671373]]], [[[79.26072720152935, 14.311253495464369], [79.26214804485217, 14.310230547289763], [79.26215864008213, 14.30885283362684], [79.25970201220284, 14.306768173522379], [79.25687362454231, 14.307091896106826], [79.25508892688053, 14.309489928243392], [79.25508094787688, 14.310523209551759], [79.25613529681029, 14.311219842386146], [79.26072720152935, 14.311253495464369]]], [[[79.26595152952704, 14.320936225809948], [79.2663259247379, 14.318183373669715], [79.26528209079773, 14.316109064129593], [79.26423033451846, 14.3150680377755], [79.26246418279715, 14.31505512743571], [79.26139388800026, 14.316425087329876], [79.26207119569946, 14.320218966347888], [79.26347355301125, 14.321607014969116], [79.26595152952704, 14.320936225809948]]], [[[79.23347260866282, 14.318285755859405], [79.232774234945, 14.317247232484718], [79.23135862639774, 14.317581139166496], [79.23169836989608, 14.319305881585604], [79.23275806314423, 14.319313768838931], [79.23347260866282, 14.318285755859405]]], [[[79.22320729606979, 14.32096471798731], [79.22321271673331, 14.32027587624677], [79.2217997938563, 14.320265301398187], [79.22108519206073, 14.321293272228626], [79.22320729606979, 14.32096471798731]]], [[[79.23662209151291, 14.322098035371836], [79.23520914695212, 14.322087538968848], [79.23554892317406, 14.323812279409951], [79.23696456873827, 14.32347835167518], [79.23662209151291, 14.322098035371836]]], [[[79.28413686940105, 14.298678978206583], [79.2819835989162, 14.30314129862377], [79.28155443510641, 14.313127274162916], [79.27764263938377, 14.316543452030727], [79.27691251742733, 14.31963820662784], [79.27584227760092, 14.321008238575185], [79.27442404549056, 14.321686836864718], [79.27054101746803, 14.321314141092337], [79.26912277112342, 14.321992705683394], [79.26481237324333, 14.331261338704337], [79.26545266671751, 14.339877209980136], [79.26402632921759, 14.341589011825004], [79.26365448684648, 14.34399741994007], [79.26258669543785, 14.345022939884698], [79.26046703414353, 14.345007399510632], [79.25872991756242, 14.341205739797116], [79.25593039777664, 14.337740710506317], [79.25524252112115, 14.335324530698154], [79.25244045415812, 14.332203898912182], [79.25245912845617, 14.329792916844145], [79.2535295457793, 14.328423012029793], [79.25355619833134, 14.32497874867266], [79.2514554107414, 14.322552166705172], [79.24907885822164, 14.310134617436963], [79.2441872991063, 14.303209628835585], [79.24173091441465, 14.301124807814007], [79.23929870743301, 14.295940145371986], [79.22944159666196, 14.291733663324743], [79.22558084541532, 14.288604920958115], [79.22559164647565, 14.287227231914983], [79.22454291404287, 14.28584164163489], [79.21712620581337, 14.285786202246438], [79.21292072575973, 14.281621378978295], [79.20975310391569, 14.280219821317171], [79.20835406555676, 14.278487099252104], [79.20307302714167, 14.276380673238021], [79.20097595894678, 14.273609332334582], [79.19745538575067, 14.272204964685264], [79.19325602271245, 14.2673510277703], [79.18938521533632, 14.26559946361262], [79.18799468166426, 14.262833401214271], [79.18449367241614, 14.25901796280851], [79.1820273011512, 14.258310297779293], [79.17990578162288, 14.258638548085159], [79.17777042167698, 14.260688848733459], [79.17740068313647, 14.26275263248539], [79.17809864508814, 14.263791273568813], [79.18127409063148, 14.2641599605346], [79.18340670016536, 14.262454044172467], [79.18446609918588, 14.262462115356374], [79.18726362874787, 14.26592777243141], [79.18725536599625, 14.266961019299664], [79.18583729074693, 14.26763910053684], [79.18336806277792, 14.267275853142658], [79.18161341315583, 14.26588472783919], [79.17772890087824, 14.26585505707491], [79.1766833401385, 14.264124885906163], [79.17245128778322, 14.263403605237276], [79.16612834381003, 14.25922184376339], [79.16259989321098, 14.258850244916628], [79.16011965078306, 14.259864414669604], [79.1572946591176, 14.259842596505107], [79.15554024551876, 14.258451304341342], [79.14989031679276, 14.258407530336834], [79.14848346046037, 14.257707749216697], [79.14603696512143, 14.254588870941879], [79.14250583656717, 14.254561394442417], [79.13860182235663, 14.256941955460615], [79.13471189323496, 14.257600413857276], [79.13225142893823, 14.256203443616155], [79.12553660439723, 14.256839607908029], [79.1234179301843, 14.25682294364349], [79.12095470560226, 14.25577026926202], [79.11494898471231, 14.256067295003353], [79.11249441445925, 14.253981334776226], [79.10931646811282, 14.253956162506762], [79.11035857104307, 14.256030963511675], [79.11211551431363, 14.257078151293562], [79.11705620613317, 14.257461642449487], [79.11776814567651, 14.256778413698857], [79.11953370124024, 14.256792343666763], [79.12303916726475, 14.259919794587388], [79.12975124198702, 14.259628117485324], [79.13291512740923, 14.261375053439986], [79.14387319530464, 14.260082911104638], [79.14915034648732, 14.262534950324996], [79.15796173647969, 14.264669795509034], [79.16397055789969, 14.264027295294802], [79.16642576662272, 14.266112794205002], [79.16889493299983, 14.266476212550339], [79.17522089627015, 14.270313515234829], [79.18192787337057, 14.270709225761935], [79.19003373185261, 14.27283756602695], [79.19354326919114, 14.275619705419453], [79.1959906706357, 14.27873819552451], [79.20338246945909, 14.281894030895202], [79.20582461652694, 14.285701279332667], [79.20828865411535, 14.286753159178629], [79.21144001885196, 14.290221262604883], [79.21706107986107, 14.29405229684306], [79.21704207694683, 14.296463239965947], [79.22270399055162, 14.295127847355504], [79.22692339427901, 14.297570432079116], [79.23291159105156, 14.299681658269412], [79.23395505280811, 14.301756070287096], [79.23956341014018, 14.307308767380517], [79.24234625724465, 14.312840474854797], [79.24260566822288, 14.324897946659764], [79.23901681157089, 14.332104669478891], [79.23580521787969, 14.336214130723885], [79.2354303996547, 14.33896688499088], [79.2336398034809, 14.342053539420503], [79.23325684135274, 14.34583955093987], [79.23002598458294, 14.352359844022336], [79.22825686452052, 14.352691066842445], [79.2254604476258, 14.348881297470843], [79.22194671368975, 14.34644388747914], [79.216710314139, 14.338482452022411], [79.21318865282367, 14.337078195517993], [79.21071313534868, 14.337403976371204], [79.207862459386, 14.34048240173816], [79.20538141979688, 14.34149695547753], [79.20217186082584, 14.345261455501657], [79.19933197678742, 14.346962088730017], [79.19895117964562, 14.350403560205645], [79.19964121192749, 14.352475420820838], [79.1981867754239, 14.3576309094781], [79.19640380086236, 14.359683957586995], [79.1953190901755, 14.362775615806866], [79.19212009989089, 14.365162263300414], [79.18890441024277, 14.369615337063943], [79.1825283003781, 14.371633072520883], [79.17757926944321, 14.371939454769425], [79.17402946830842, 14.373978687716608], [79.16943650400962, 14.373943208480737], [79.16732509747746, 14.372893577349869], [79.16378926560701, 14.373210603524406], [79.15845871911306, 14.376957907190706], [79.15738186376306, 14.379016095993277], [79.15348414288727, 14.380363420545129], [79.14992268601695, 14.383779868770059], [79.14884287961317, 14.386182409064205], [79.14528978730894, 14.388565554441355], [79.14420990453645, 14.390968063958073], [79.14136334826831, 14.393356681142768], [79.14028624848255, 14.39541476120776], [79.13920056390741, 14.398506041139916], [79.13987013683021, 14.402988837954203], [79.13771577522758, 14.407104959271946], [79.13696617120198, 14.412265411624501], [79.13590037180987, 14.412945847198245], [79.13307923519028, 14.41223470839221], [79.12671593768837, 14.412528728513765], [79.12422804059908, 14.41423108527103], [79.12279442373476, 14.416630641398728], [79.12067136489405, 14.416958168184593], [79.1156982471943, 14.420018301705996], [79.11390533424846, 14.423103758387592], [79.10928536964087, 14.426166552548928], [79.10957770795741, 14.433401694596505], [79.1085000954354, 14.435459564363056], [79.10458657968117, 14.438527894122632], [79.10105557449072, 14.438155055968497], [79.0974953164288, 14.441226096367803], [79.09783114903924, 14.443295306997006], [79.10343591588381, 14.449195582721677], [79.1034183940999, 14.45126194599987], [79.10127452522154, 14.454000007533097], [79.10088015159019, 14.458818662233394], [79.09802345172434, 14.46223976017868], [79.09800293174735, 14.46465050703882], [79.10326934684592, 14.468826018410534], [79.11241807778391, 14.473721459730582], [79.11630022441447, 14.47444142393948], [79.12092409042509, 14.471034216413805], [79.12701067386958, 14.461783390939862], [79.13019446764645, 14.46146428407092], [79.13335236649407, 14.464244728172318], [79.13547587890929, 14.463917140114972], [79.13584942935728, 14.461509140506516], [79.1351540527437, 14.460125941396397], [79.13198754642738, 14.458378722857034], [79.13058822716395, 14.45664550532877], [79.13026647968037, 14.452854308916441], [79.12922350290279, 14.450779494687213], [79.1295913202169, 14.449060306169928], [79.13101648975679, 14.447693929540666], [79.13314271650584, 14.447021943805607], [79.13741807230997, 14.442922703659793], [79.13814207670379, 14.440861883390221], [79.1431382975251, 14.435046083036683], [79.15130621380692, 14.43028830641349], [79.15626501351721, 14.428949418107106], [79.15731951296027, 14.429646513623618], [79.15730817985022, 14.43102413400552], [79.15338111475347, 14.435815386324464], [79.15371463227977, 14.43822898362573], [79.15476632347675, 14.439270498629053], [79.15652767357795, 14.43997313498484], [79.16430262034379, 14.44003381967862], [79.17350248133481, 14.438727575850427], [79.18019483197412, 14.441534786491797], [79.18300256440392, 14.443967469669358], [79.18471935145479, 14.450180467664522], [79.18682874991721, 14.451574441938366], [79.18855405128292, 14.4567541964309], [79.19031566979474, 14.457456607641102], [79.19241124632464, 14.460572598005456], [79.19096400869967, 14.464694664654706], [79.19342981822378, 14.465746904730699], [79.19447904658355, 14.467132688029368], [79.19516091423556, 14.470237812977192], [79.19476290509736, 14.475745677927403], [79.1950940984517, 14.478503679174414], [79.1964885158862, 14.480925407164218], [79.19609048802248, 14.486433271202504], [79.19679189460273, 14.487127519072176], [79.19996773453546, 14.487840733249588], [79.20633610708879, 14.487200562775849], [79.21200852379614, 14.485177181568664], [79.2166286512613, 14.482112363008214], [79.22233652529701, 14.475611297214002], [79.22485465889623, 14.470119320237176], [79.22528472702616, 14.460478309870185], [79.22459697282042, 14.45806205941991], [79.22354210363778, 14.457365226811476], [79.2161169957063, 14.45765352063016], [79.2139853172544, 14.459015103063036], [79.21221808205702, 14.459001688733004], [79.20940706181207, 14.456913712566873], [79.19916279350477, 14.45614671208121], [79.1967192693943, 14.45233924447338], [79.19638805507248, 14.449581241871124], [79.19464314752395, 14.446812410030075], [79.19465982144033, 14.444745939018537], [79.19820790004779, 14.443050929041938], [79.19822453653106, 14.440984453299974], [79.19682197262183, 14.439595991837376], [79.19117015368569, 14.439208252773318], [79.18694595695862, 14.437109205382724], [79.18414104565002, 14.434332162760695], [79.18310319217898, 14.431568715031252], [79.18028440604613, 14.430513686913267], [79.18065458517047, 14.428449955724691], [79.18637019952257, 14.420916463855379], [79.1874359149973, 14.420235787021166], [79.1909669475182, 14.42060731501328], [79.19238603128129, 14.41992932264157], [79.19241935333186, 14.41579637600594], [79.2002571806601, 14.40793426039848], [79.2023801253011, 14.407605993365134], [79.20483989487872, 14.409346881773345], [79.2069600987128, 14.40936298956789], [79.20802845477317, 14.40833778998573], [79.20804770959725, 14.405926881466991], [79.20629466368234, 14.40419139472762], [79.20630842666267, 14.402469318304766], [79.20986946210863, 14.399051959275415], [79.21273740024367, 14.393907106523441], [79.2159339166528, 14.39186462513827], [79.21773614700395, 14.387400518930079], [79.21916040617315, 14.386033493758475], [79.22164191687759, 14.385018848818387], [79.22236220206237, 14.38330206680421], [79.22413973510976, 14.381937659753007], [79.23158130772146, 14.379237878454017], [79.23373372323205, 14.375120659464887], [79.23691899573522, 14.374455526116336], [79.23904969375523, 14.373093619389921], [79.24119921590956, 14.369320730923452], [79.2454711809284, 14.365219105177214], [79.24762051126845, 14.361446135199243], [79.25187081431211, 14.360099761528803], [79.25437060859569, 14.356673742811527], [79.26004726625354, 14.353615479710463], [79.26289749228036, 14.35053636729643], [79.26537844966265, 14.349521193873658], [79.26751404782583, 14.347470125513473], [79.26824443055061, 14.344375431330645], [79.27002403390944, 14.342666180123969], [79.27110234782688, 14.340262904845737], [79.27147938103343, 14.33716561606619], [79.26973947206454, 14.333708449661863], [79.26975532215044, 14.33164187484142], [79.27190652212808, 14.327524162721444], [79.27227822989681, 14.325115725525418], [79.27901095652656, 14.322409022724305], [79.28328394142262, 14.317962090326239], [79.28436458813444, 14.315214288713571], [79.28442212425868, 14.307636775570108], [79.28622218636744, 14.303171888334688], [79.28555231555478, 14.298344734263392], [79.28627960980252, 14.295594360136352], [79.28523305160935, 14.293864558753443], [79.28413686940105, 14.298678978206583]], [[79.19454861208239, 14.458522405237945], [79.19068862042174, 14.455048448754896], [79.18860426977277, 14.450554808397754], [79.18614423359895, 14.448813718382238], [79.18547090239754, 14.444675353825508], [79.18407679060047, 14.442253593641105], [79.18056504267017, 14.439471059503015], [79.17668314964853, 14.438752201288391], [79.17422053145204, 14.437355419299838], [79.17068648283407, 14.43732802073674], [79.16855760468974, 14.438344777376093], [79.15618845184972, 14.438248347406262], [79.15514527121023, 14.43617362498902], [79.1579979683687, 14.43309608677258], [79.15907797088384, 14.430693528835793], [79.15909212314479, 14.428971501563227], [79.15768989687447, 14.427582843155074], [79.15450942110849, 14.427557980324076], [79.15025742149166, 14.42890237839308], [79.14102364498682, 14.434340569796184], [79.13851839292917, 14.438109465856499], [79.13673993084493, 14.439473108248265], [79.13565964711638, 14.44187552843229], [79.13245314061231, 14.444949942922959], [79.12961723517121, 14.445960713694054], [79.12712606905585, 14.44800745303907], [79.12531859444286, 14.45281497265344], [79.11896284336035, 14.452075451085587], [79.11402952848279, 14.450313899657544], [79.10803024789077, 14.449232530426087], [79.1020690238393, 14.44367389677318], [79.1017331511227, 14.441604687389567], [79.10633315066957, 14.440952859863478], [79.11025250713485, 14.437195712703035], [79.11205431518127, 14.433077118854282], [79.11102901262286, 14.428935876333975], [79.11139690885294, 14.427216725788764], [79.11459468989713, 14.42517578830624], [79.11780976954242, 14.421068414639562], [79.12100740830873, 14.419027371437632], [79.12384010059871, 14.41836106451797], [79.12527372050376, 14.415961502351761], [79.12740827245787, 14.41425633345118], [79.13517647038017, 14.415006673545891], [79.13730236649636, 14.414334609732622], [79.13872724697175, 14.412968150468943], [79.13912346387411, 14.407804904263973], [79.14163685885667, 14.403002742365082], [79.14096724998971, 14.398519946324246], [79.14205291134348, 14.395428655361185], [79.14561752343545, 14.391667961428247], [79.14633838879513, 14.389951482815302], [79.14989149573914, 14.38756832322825], [79.15133028476697, 14.38447972935342], [79.15382331151207, 14.382088207112847], [79.15772106227752, 14.380740880480031], [79.15986349213635, 14.378002122526674], [79.16448462719171, 14.374593716761789], [79.174724898446, 14.375361778504143], [79.17756531700682, 14.373661508207519], [79.18428647818537, 14.372679865091113], [79.19031207603236, 14.370314970270483], [79.19281562732583, 14.366545311757559], [79.1960146328617, 14.364158656563665], [79.19781419409712, 14.360039127279768], [79.19923836614548, 14.358672213004985], [79.20069003773105, 14.353861131956295], [79.20073954957789, 14.347661648436189], [79.2028674071764, 14.3466444766692], [79.20572371531819, 14.34287729606054], [79.2082047697648, 14.341862740438437], [79.21069947082329, 14.339126066400382], [79.21317500752068, 14.338800287930894], [79.21528637798039, 14.339849500686134], [79.2170308881661, 14.342618137011595], [79.21701726671043, 14.344340232242319], [79.2159438336685, 14.346054355152917], [79.21947653545774, 14.346080910279385], [79.22122657758175, 14.3481606865212], [79.22369135291905, 14.349212488656706], [79.22649587561229, 14.35198901415675], [79.22682475524313, 14.355091442756132], [79.22468331899616, 14.357830932803962], [79.22466702516711, 14.359897453028003], [79.22642535228772, 14.360943945631375], [79.2274906615172, 14.360263037868698], [79.22858576857341, 14.355793495726383], [79.23108042287562, 14.353056599383212], [79.23390669480862, 14.353077677379103], [79.2381272521701, 14.355520190033126], [79.2451930447499, 14.355572620675991], [79.25405469268082, 14.351849180963852], [79.25654102469174, 14.350145253984806], [79.2590379644444, 14.347063589481257], [79.26363591297155, 14.346408413540761], [79.26505963682305, 14.345041046401082], [79.26579269002197, 14.341601933933289], [79.26686045049053, 14.340576395797896], [79.26654159956364, 14.336096245211737], [79.26690544966591, 14.33472111182424], [79.26797052474342, 14.334039992655175], [79.26971833468443, 14.336463882170301], [79.26969454975979, 14.339563742942333], [79.26861622580928, 14.341967010642142], [79.26648069460468, 14.34401809683037], [79.26610622101664, 14.346770938894872], [79.26291076930906, 14.348814230337627], [79.25934867074488, 14.352577011169313], [79.25438395672744, 14.354951614580271], [79.25152821439289, 14.358719454081738], [79.2472779370904, 14.360065824474004], [79.24335134904159, 14.365203390248972], [79.24050606031868, 14.367593366952752], [79.23870986113373, 14.371368879223855], [79.23622046190586, 14.373416995826183], [79.23268188651663, 14.37407948329147], [79.23052946515439, 14.378196691989144], [79.22273187106856, 14.381238207892688], [79.22023404426174, 14.384319380930563], [79.21775253709743, 14.385334011304801], [79.21596673798685, 14.387731615136525], [79.21559425449111, 14.390139871435595], [79.21452328799798, 14.391509537923328], [79.21132676651973, 14.393551999383918], [79.20845880365543, 14.398696831943111], [79.20490051007819, 14.401769752903686], [79.20452786832774, 14.404177972619964], [79.20627814570108, 14.406257886087316], [79.20626988572661, 14.407291131624888], [79.20520703857476, 14.40762749309644], [79.20309788612784, 14.406233713178791], [79.20062435499206, 14.40621488246047], [79.19849312718377, 14.407576376054692], [79.1910114116159, 14.415096723811622], [79.19063024493235, 14.418538134732563], [79.18674029698568, 14.41885271310505], [79.18282242455615, 14.42261132904973], [79.18245786812001, 14.423986247824311], [79.17817243701025, 14.429464088820966], [79.17780223265352, 14.43152781306395], [79.18202902044608, 14.433282593217225], [79.18306686541317, 14.436046044675633], [79.18692922105616, 14.439175668889831], [79.19080282348453, 14.440927596704512], [79.19503824342753, 14.441648938849882], [79.19255042476213, 14.443352035957584], [79.19253095084126, 14.445762916235951], [79.19426470266204, 14.449909406627304], [79.19459032935569, 14.453356232388709], [79.19633527738841, 14.456125069011195], [79.19631860525081, 14.458191539946364], [79.19454861208239, 14.458522405237945]], [[79.23957809296229, 14.35070877125033], [79.24067558613116, 14.345894713640744], [79.2446259722749, 14.337657333992645], [79.24500871517797, 14.333871278227587], [79.24714698762395, 14.331475969985874], [79.24787221600191, 14.329070210791702], [79.24893463703681, 14.328733605694659], [79.2499836995494, 14.330119123500186], [79.24961174325358, 14.332527496976669], [79.25064746899652, 14.335635141688549], [79.25519721722587, 14.341179777974173], [79.25692095198521, 14.34670358885477], [79.25584512150014, 14.34876235173963], [79.2537120855267, 14.350468875667408], [79.24804615925139, 14.352149288698719], [79.24414391443239, 14.35418707437116], [79.23990715531937, 14.35381120242093], [79.23957809296229, 14.35070877125033]], [[79.26836343952837, 14.328876137196112], [79.26871140726855, 14.329567572070971], [79.2676463567594, 14.330248697437927], [79.26764900114524, 14.329904268609749], [79.26836343952837, 14.328876137196112]], [[79.24652076041558, 14.321137999524534], [79.2475965090785, 14.319079269084249], [79.24935733777272, 14.319781145044029], [79.249341314721, 14.321847699435388], [79.24827625529132, 14.322528735785301], [79.24721653808678, 14.322520916031527], [79.24652076041558, 14.321137999524534]], [[79.24693816095953, 14.312874398059565], [79.24622903969988, 14.313213610253865], [79.2462397342778, 14.311835908672224], [79.24659295638301, 14.311838515331214], [79.24693816095953, 14.312874398059565]], [[79.22308423381675, 14.29168626966669], [79.22485016560206, 14.291699451590006], [79.22554573401814, 14.293082409193596], [79.22342930687098, 14.29272217229879], [79.22308423381675, 14.29168626966669]]], [[[79.28563583266404, 14.287322872815997], [79.2814367641336, 14.282125816100354], [79.2789671076244, 14.281763524979723], [79.27404357744963, 14.278972279825139], [79.26946282191015, 14.27756123503803], [79.26630535675504, 14.274782675266525], [79.26277367997187, 14.274756943336147], [79.26030944481852, 14.27370561257518], [79.2592658260202, 14.271631298703442], [79.25680959171362, 14.26954665136335], [79.25543142156995, 14.26505874312356], [79.25545527262003, 14.261958886524395], [79.2565305988506, 14.259900064632667], [79.25620393537068, 14.2564531939174], [79.25409306324951, 14.255404405252795], [79.25126532617476, 14.255728134568677], [79.2533655766776, 14.258154660315348], [79.25299121259422, 14.260907498652113], [79.25156535924124, 14.262619282308723], [79.25154411030753, 14.265374704548174], [79.253644441103, 14.267801236507175], [79.25395779077529, 14.272970244991829], [79.25710976222184, 14.276437805811975], [79.26062558493201, 14.278530199042798], [79.26131606496638, 14.280601932089462], [79.26272612779684, 14.280956673259677], [79.26486102490107, 14.278905547083966], [79.26591263594398, 14.279946554991268], [79.26979231315374, 14.280663677418794], [79.27612330269777, 14.284154106161091], [79.2796499162359, 14.284868521317183], [79.28316088344496, 14.2876494841136], [79.28452664910228, 14.293859466014636], [79.28523566222991, 14.293520125673117], [79.28560452209139, 14.29145607210902], [79.28563583266404, 14.287322872815997]]], [[[79.16442118413346, 14.425568751210808], [79.17118609415411, 14.419421555977012], [79.17721310468433, 14.417057167840365], [79.18148990503367, 14.412612544639018], [79.18752777801363, 14.408870211625487], [79.19144808830615, 14.404767063699852], [79.1932426015031, 14.401336456063518], [79.1996499048932, 14.395529967564011], [79.20789497456019, 14.38078184283129], [79.20827848927382, 14.376995938990687], [79.21006974618533, 14.373909557101118], [79.2100971521913, 14.370465388054019], [79.20904545684263, 14.369424121505862], [79.20692562734014, 14.369408076029965], [79.1984104774226, 14.373821095821953], [79.19487185283947, 14.37448300404689], [79.19131382261794, 14.37755574940531], [79.1845146249475, 14.388181106534702], [79.18024398406503, 14.391937033674811], [79.17699407163177, 14.400522781754283], [79.17592843137203, 14.401203419780503], [79.17448982622638, 14.404292186772162], [79.16985972267022, 14.408733950256412], [79.16589672812555, 14.418002791695004], [79.1605678797502, 14.421405601424306], [79.15984415860721, 14.42346652589484], [79.16124355109422, 14.425199576489922], [79.16442118413346, 14.425568751210808]], [[79.16232911990252, 14.422108180925699], [79.1676607794937, 14.418360922958373], [79.17126754526589, 14.40943371658414], [79.17447021325742, 14.406703050767831], [79.17840187339402, 14.401222502546407], [79.18165174780628, 14.392636730438365], [79.18592238303502, 14.38888077686299], [79.1934364777587, 14.37722753000178], [79.1959234956249, 14.375524328302644], [79.19839944165865, 14.375198754314995], [79.20797456814176, 14.370793767407319], [79.20867569735603, 14.371487948718924], [79.2086592403498, 14.373554448483], [79.2068652223502, 14.376985234023874], [79.2064816841442, 14.380771132817989], [79.20433973983086, 14.38351037623521], [79.20289338400619, 14.387632624895447], [79.20146902641518, 14.38899953923404], [79.19931036858951, 14.39380520480194], [79.19325923355827, 14.399269978709876], [79.19003743764338, 14.404411825688932], [79.18505145279967, 14.409195625578228], [79.18186002336057, 14.41054880382484], [79.17758327395964, 14.414993439954696], [79.16942483807019, 14.418719041683719], [79.16514487411203, 14.423507808858307], [79.16231499952741, 14.423830212340333], [79.16232911990252, 14.422108180925699]]]]}}, {"type": "Feature", "properties": {"depth_class": 2, "depth_lo_m": 1.0, "t_s": 64800.23091438088}, "geometry": {"type": "MultiPolygon", "coordinates": [[[[79.02027459039152, 14.219826087145787], [79.02065159775512, 14.21707394186038], [79.01960750057071, 14.215343252802397], [79.01819839683871, 14.214987168333762], [79.01610126561869, 14.2125589214722], [79.01291806577964, 14.213221304854397], [79.01254398765876, 14.215629045399083], [79.01324101536012, 14.216668060368143], [79.01641525626744, 14.217038827487833], [79.01815339219868, 14.220152915754356], [79.02027459039152, 14.219826087145787]], [[79.01430610767282, 14.21598809505003], [79.013974124304, 14.213574486052321], [79.01644227872582, 14.213939381788796], [79.0164272670522, 14.215661296171254], [79.01430610767282, 14.21598809505003]]], [[[79.15890271052439, 14.235744762761133], [79.1578741660003, 14.231948073218977], [79.1561087649173, 14.231934450296858], [79.156100381072, 14.232967682060588], [79.15890271052439, 14.235744762761133]]], [[[79.081173141624, 14.241332321110304], [79.08331196512026, 14.238938571079752], [79.08475040425927, 14.235850339677373], [79.08476782352267, 14.233783961502166], [79.08371733209553, 14.232742275542826], [79.08194909323745, 14.23307249975079], [79.07768607369903, 14.236137988239372], [79.07799834522582, 14.240962359037873], [79.07940483298951, 14.241662517378431], [79.081173141624, 14.241332321110304]], [[79.07908962005953, 14.237182539962072], [79.0801575696389, 14.236157873678428], [79.0819229262152, 14.236172061922813], [79.08191129440726, 14.2375496448375], [79.08048444823977, 14.239260271119985], [79.07942522056187, 14.239251751550986], [79.07908962005953, 14.237182539962072]]], [[[79.03486676209809, 14.24715495376699], [79.0334604150932, 14.246454546198297], [79.0330924167534, 14.248173562985087], [79.03450175466527, 14.248529588185537], [79.03486676209809, 14.24715495376699]]], [[[79.02593195250584, 14.259479903876935], [79.02630303036523, 14.257416525317973], [79.02383138253299, 14.257396052775857], [79.02416947409795, 14.259120895213629], [79.02593195250584, 14.259479903876935]]], [[[79.19631860525081, 14.458191539946364], [79.19633527738841, 14.456125069011195], [79.19459032935569, 14.453356232388709], [79.19426470266204, 14.449909406627304], [79.19253095084126, 14.445762916235951], [79.19255042476213, 14.443352035957584], [79.19503824342753, 14.441648938849882], [79.19080282348453, 14.440927596704512], [79.18692922105616, 14.439175668889831], [79.18306686541317, 14.436046044675633], [79.18202902044608, 14.433282593217225], [79.17780223265352, 14.43152781306395], [79.17817243701025, 14.429464088820966], [79.18245786812001, 14.423986247824311], [79.18282242455615, 14.42261132904973], [79.18674029698568, 14.41885271310505], [79.19063024493235, 14.418538134732563], [79.1910114116159, 14.415096723811622], [79.19849312718377, 14.407576376054692], [79.20062435499206, 14.40621488246047], [79.20309788612784, 14.406233713178791], [79.20520703857476, 14.40762749309644], [79.20626988572661, 14.407291131624888], [79.20627814570108, 14.406257886087316], [79.20452786832774, 14.404177972619964], [79.20490051007819, 14.401769752903686], [79.20845880365543, 14.398696831943111], [79.21132676651973, 14.393551999383918], [79.21452328799798, 14.391509537923328], [79.21559425449111, 14.390139871435595], [79.21596673798685, 14.387731615136525], [79.21775253709743, 14.385334011304801], [79.22023404426174, 14.384319380930563], [79.22273187106856, 14.381238207892688], [79.23052946515439, 14.378196691989144], [79.23268188651663, 14.37407948329147], [79.23622046190586, 14.373416995826183], [79.23870986113373, 14.371368879223855], [79.24050606031868, 14.367593366952752], [79.24335134904159, 14.365203390248972], [79.2472779370904, 14.360065824474004], [79.25152821439289, 14.358719454081738], [79.25438395672744, 14.354951614580271], [79.25934867074488, 14.352577011169313], [79.26291076930906, 14.348814230337627], [79.26610622101664, 14.346770938894872], [79.26648069460468, 14.34401809683037], [79.26861622580928, 14.341967010642142], [79.26969454975979, 14.339563742942333], [79.26971833468443, 14.336463882170301], [79.26797052474342, 14.334039992655175], [79.26690544966591, 14.33472111182424], [79.26654159956364, 14.336096245211737], [79.26686045049053, 14.340576395797896], [79.26579269002197, 14.341601933933289], [79.26505963682305, 14.345041046401082], [79.26363591297155, 14.346408413540761], [79.2590379644444, 14.347063589481257], [79.25654102469174, 14.350145253984806], [79.25405469268082, 14.351849180963852], [79.2451930447499, 14.355572620675991], [79.2381272521701, 14.355520190033126], [79.23390669480862, 14.353077677379103], [79.23108042287562, 14.353056599383212], [79.22858576857341, 14.355793495726383], [79.2274906615172, 14.360263037868698], [79.22642535228772, 14.360943945631375], [79.22466702516711, 14.359897453028003], [79.22468331899616, 14.357830932803962], [79.22682475524313, 14.355091442756132], [79.22649587561229, 14.35198901415675], [79.22369135291905, 14.349212488656706], [79.22122657758175, 14.3481606865212], [79.21947653545774, 14.346080910279385], [79.2159438336685, 14.346054355152917], [79.21701726671043, 14.344340232242319], [79.2170308881661, 14.342618137011595], [79.21528637798039, 14.339849500686134], [79.21317500752068, 14.338800287930894], [79.21069947082329, 14.339126066400382], [79.2082047697648, 14.341862740438437], [79.20572371531819, 14.34287729606054], [79.2028674071764, 14.3466444766692], [79.20073954957789, 14.347661648436189], [79.20069003773105, 14.353861131956295], [79.19923836614548, 14.358672213004985], [79.19781419409712, 14.360039127279768], [79.1960146328617, 14.364158656563665], [79.19281562732583, 14.366545311757559], [79.19031207603236, 14.370314970270483], [79.18428647818537, 14.372679865091113], [79.17756531700682, 14.373661508207519], [79.174724898446, 14.375361778504143], [79.16448462719171, 14.374593716761789], [79.15986349213635, 14.378002122526674], [79.15772106227752, 14.380740880480031], [79.15382331151207, 14.382088207112847], [79.15133028476697, 14.38447972935342], [79.14989149573914, 14.38756832322825], [79.14633838879513, 14.389951482815302], [79.14561752343545, 14.391667961428247], [79.14205291134348, 14.395428655361185], [79.14096724998971, 14.398519946324246], [79.14163685885667, 14.403002742365082], [79.13912346387411, 14.407804904263973], [79.13872724697175, 14.412968150468943], [79.13730236649636, 14.414334609732622], [79.13517647038017, 14.415006673545891], [79.12740827245787, 14.41425633345118], [79.12527372050376, 14.415961502351761], [79.12384010059871, 14.41836106451797], [79.12100740830873, 14.419027371437632], [79.11780976954242, 14.421068414639562], [79.11459468989713, 14.42517578830624], [79.11139690885294, 14.427216725788764], [79.11102901262286, 14.428935876333975], [79.11205431518127, 14.433077118854282], [79.11025250713485, 14.437195712703035], [79.10633315066957, 14.440952859863478], [79.1017331511227, 14.441604687389567], [79.1020690238393, 14.44367389677318], [79.10803024789077, 14.449232530426087], [79.11402952848279, 14.450313899657544], [79.11896284336035, 14.452075451085587], [79.12531859444286, 14.45281497265344], [79.12712606905585, 14.44800745303907], [79.12961723517121, 14.445960713694054], [79.13245314061231, 14.444949942922959], [79.13565964711638, 14.44187552843229], [79.13673993084493, 14.439473108248265], [79.13851839292917, 14.438109465856499], [79.14102364498682, 14.434340569796184], [79.15025742149166, 14.42890237839308], [79.15450942110849, 14.427557980324076], [79.15768989687447, 14.427582843155074], [79.15909212314479, 14.428971501563227], [79.15907797088384, 14.430693528835793], [79.1579979683687, 14.43309608677258], [79.15514527121023, 14.43617362498902], [79.15618845184972, 14.438248347406262], [79.16855760468974, 14.438344777376093], [79.17068648283407, 14.43732802073674], [79.17422053145204, 14.437355419299838], [79.17668314964853, 14.438752201288391], [79.18056504267017, 14.439471059503015], [79.18407679060047, 14.442253593641105], [79.18547090239754, 14.444675353825508], [79.18614423359895, 14.448813718382238], [79.18860426977277, 14.450554808397754], [79.19068862042174, 14.455048448754896], [79.19454861208239, 14.458522405237945], [79.19631860525081, 14.458191539946364]], [[79.16194749307182, 14.425549490353507], [79.15984415860721, 14.42346652589484], [79.1605678797502, 14.421405601424306], [79.16589672812555, 14.418002791695004], [79.16985972267022, 14.408733950256412], [79.17448982622638, 14.404292186772162], [79.17592843137203, 14.401203419780503], [79.17699407163177, 14.400522781754283], [79.18024398406503, 14.391937033674811], [79.1845146249475, 14.388181106534702], [79.19131382261794, 14.37755574940531], [79.19487185283947, 14.37448300404689], [79.1984104774226, 14.373821095821953], [79.20692562734014, 14.369408076029965], [79.20904545684263, 14.369424121505862], [79.2100971521913, 14.370465388054019], [79.21006974618533, 14.373909557101118], [79.20827848927382, 14.376995938990687], [79.20789497456019, 14.38078184283129], [79.1996499048932, 14.395529967564011], [79.1932426015031, 14.401336456063518], [79.19216312641308, 14.403739235753799], [79.18895235121165, 14.407503408140757], [79.18539367187911, 14.410575985554761], [79.18148990503367, 14.412612544639018], [79.17721310468433, 14.417057167840365], [79.17118609415411, 14.419421555977012], [79.16548415828092, 14.42523259110906], [79.16194749307182, 14.425549490353507]], [[79.18252209555905, 14.416064811847885], [79.19070804757946, 14.408894598471331], [79.1950038243039, 14.402038786317124], [79.20176997219512, 14.395546106797095], [79.20428744529637, 14.390054268623738], [79.2064294623406, 14.387315034428921], [79.20715811063118, 14.384565065428411], [79.20894122202883, 14.38251195188437], [79.2096835305585, 14.378039885552566], [79.21183357067761, 14.374267327463649], [79.21151859457082, 14.369442817268007], [79.2094124666027, 14.36770470950031], [79.20693935083226, 14.367685993957956], [79.20197111104373, 14.370403809172], [79.1970082813655, 14.372432676676253], [79.19311636976096, 14.373091869227826], [79.1906293634345, 14.374795042400983], [79.18886004082206, 14.375125942973522], [79.18886836152254, 14.374092704570732], [79.19135537048665, 14.372389550469103], [79.19386169770978, 14.368275468265145], [79.19849045170737, 14.363833066713855], [79.20245643411624, 14.353874536819475], [79.2024949076183, 14.349052711908204], [79.2056962973569, 14.34632146483284], [79.20712854918236, 14.343921234538774], [79.20890034738147, 14.343245747363396], [79.21139232591429, 14.340853485169912], [79.21421568644783, 14.341219198748183], [79.2149085742295, 14.342946610820553], [79.2127671395169, 14.34568599241677], [79.21274801911913, 14.348096919419282], [79.21627256737928, 14.349156782117563], [79.21732421676973, 14.350198011162966], [79.22191681839116, 14.350232505585883], [79.22472675652243, 14.352320210359375], [79.22506104001815, 14.35473379814823], [79.2222021330923, 14.358845647952986], [79.22219125484999, 14.360223326165166], [79.2253491758237, 14.363002528081095], [79.22746896634858, 14.363018401725254], [79.22889300099344, 14.361651290726968], [79.22963209337642, 14.357523521699882], [79.23141748034712, 14.355125764604647], [79.23529824437695, 14.35584358096908], [79.23740719612813, 14.357237047837401], [79.24235059538083, 14.357618214079132], [79.24553023535775, 14.357641780624691], [79.24943253398295, 14.355603978051038], [79.25119899085183, 14.355617021264589], [79.25119096718984, 14.356650296414394], [79.25012305884054, 14.357675745946963], [79.24658475271107, 14.35833847495707], [79.2408862910522, 14.364151763533567], [79.23658997905464, 14.371353097187939], [79.23127674440104, 14.37303566358181], [79.22948034417308, 14.376811081463131], [79.22061736675978, 14.380533434851083], [79.21989980785428, 14.381905792951043], [79.21492041319671, 14.386001528841906], [79.2138302990435, 14.389782114498548], [79.20992162813985, 14.392508051779911], [79.20740975027375, 14.39731113037669], [79.20349535945016, 14.400725765262345], [79.20169823969897, 14.404500884179436], [79.19815635863985, 14.40550719854137], [79.18890229836921, 14.413702819947513], [79.18782548686178, 14.41576115362264], [79.18321488856748, 14.417792304924657], [79.18215476042099, 14.417784142178586], [79.18252209555905, 14.416064811847885]], [[79.16148914667139, 14.395236213730252], [79.16116682836517, 14.391444988943292], [79.16152861498942, 14.390414515703524], [79.16294756349181, 14.389736686648119], [79.16434961879118, 14.391125293821842], [79.16432991571462, 14.393536146779038], [79.16254351977528, 14.395933270892003], [79.16148914667139, 14.395236213730252]]], [[[79.22520065054563, 14.292046508478267], [79.22308423381675, 14.29168626966669], [79.2230788240424, 14.29237511301157], [79.22554573401814, 14.293082409193596], [79.22520065054563, 14.292046508478267]]], [[[79.20495154564892, 14.306705460962316], [79.20637530313648, 14.30533845365633], [79.20639169958618, 14.303271944632371], [79.20498436521882, 14.302572446247986], [79.20356061982518, 14.30393944657301], [79.20354145926254, 14.30635036984033], [79.20495154564892, 14.306705460962316]]], [[[79.24693816095953, 14.312874398059565], [79.24659295638301, 14.311838515331214], [79.2462397342778, 14.311835908672224], [79.24622903969988, 14.313213610253865], [79.24693816095953, 14.312874398059565]]], [[[79.248988076445, 14.321845095080596], [79.24935733777272, 14.319781145044029], [79.2475965090785, 14.319079269084249], [79.2465180854949, 14.321482424718628], [79.24721653808678, 14.322520916031527], [79.248988076445, 14.321845095080596]]], [[[79.26871669245749, 14.32887871397527], [79.26800754303312, 14.329217988815916], [79.2676463567594, 14.330248697437927], [79.26835286671526, 14.330253853087706], [79.26871669245749, 14.32887871397527]]]]}}, {"type": "Feature", "properties": {"depth_class": 3, "depth_lo_m": 2.0, "t_s": 64800.23091438088}, "geometry": {"type": "MultiPolygon", "coordinates": [[[[79.01360606965545, 14.215293465045868], [79.0164272670522, 14.215661296171254], [79.01644227872582, 14.213939381788796], [79.013974124304, 14.213574486052321], [79.01360606965545, 14.215293465045868]]], [[[79.07942522056187, 14.239251751550986], [79.08191129440726, 14.2375496448375], [79.0819229262152, 14.236172061922813], [79.0801575696389, 14.236157873678428], [79.07908962005953, 14.237182539962072], [79.07942522056187, 14.239251751550986]]], [[[79.18215476042099, 14.417784142178586], [79.18782548686178, 14.41576115362264], [79.18890229836921, 14.413702819947513], [79.19815635863985, 14.40550719854137], [79.20169823969897, 14.404500884179436], [79.20349535945016, 14.400725765262345], [79.20740975027375, 14.39731113037669], [79.20992162813985, 14.392508051779911], [79.2138302990435, 14.389782114498548], [79.21492041319671, 14.386001528841906], [79.21989980785428, 14.381905792951043], [79.22061736675978, 14.380533434851083], [79.22948034417308, 14.376811081463131], [79.23127674440104, 14.37303566358181], [79.23658997905464, 14.371353097187939], [79.2408862910522, 14.364151763533567], [79.24658475271107, 14.35833847495707], [79.25012305884054, 14.357675745946963], [79.25119096718984, 14.356650296414394], [79.25119899085183, 14.355617021264589], [79.24943253398295, 14.355603978051038], [79.24553023535775, 14.357641780624691], [79.24235059538083, 14.357618214079132], [79.23740719612813, 14.357237047837401], [79.23529824437695, 14.35584358096908], [79.23141748034712, 14.355125764604647], [79.22963209337642, 14.357523521699882], [79.22889300099344, 14.361651290726968], [79.22746896634858, 14.363018401725254], [79.2253491758237, 14.363002528081095], [79.22219125484999, 14.360223326165166], [79.2222021330923, 14.358845647952986], [79.22506104001815, 14.35473379814823], [79.22472675652243, 14.352320210359375], [79.22191681839116, 14.350232505585883], [79.21732421676973, 14.350198011162966], [79.21627256737928, 14.349156782117563], [79.21274801911913, 14.348096919419282], [79.2127671395169, 14.34568599241677], [79.2149085742295, 14.342946610820553], [79.21421568644783, 14.341219198748183], [79.21139232591429, 14.340853485169912], [79.20890034738147, 14.343245747363396], [79.20712854918236, 14.343921234538774], [79.2056962973569, 14.34632146483284], [79.2024949076183, 14.349052711908204], [79.20245643411624, 14.353874536819475], [79.19849045170737, 14.363833066713855], [79.19386169770978, 14.368275468265145], [79.19135537048665, 14.372389550469103], [79.18886836152254, 14.374092704570732], [79.18886004082206, 14.375125942973522], [79.1906293634345, 14.374795042400983], [79.19311636976096, 14.373091869227826], [79.1970082813655, 14.372432676676253], [79.20197111104373, 14.370403809172], [79.20693935083226, 14.367685993957956], [79.2094124666027, 14.36770470950031], [79.21151859457082, 14.369442817268007], [79.21183357067761, 14.374267327463649], [79.2096835305585, 14.378039885552566], [79.20894122202883, 14.38251195188437], [79.20715811063118, 14.384565065428411], [79.2064294623406, 14.387315034428921], [79.20428744529637, 14.390054268623738], [79.20176997219512, 14.395546106797095], [79.1950038243039, 14.402038786317124], [79.19070804757946, 14.408894598471331], [79.1828810509616, 14.41537871150552], [79.18215476042099, 14.417784142178586]]]]}}]}