{"type": "FeatureCollection", "features": [{"type": "Feature", "properties": {"depth_class": 1, "depth_lo_m": 0.3, "t_s": 49500.013773345534}, "geometry": {"type": "MultiPolygon", "coordinates": [[[[79.01317783846876, 14.223900083270717], [79.01637921620154, 14.22117142042738], [79.0195505306757, 14.221886537873932], [79.02168672354301, 14.21983777971867], [79.02171966913033, 14.216049556950844], [79.02102559621225, 14.214666178048029], [79.01646329169536, 14.211528701211513], [79.01293009436576, 14.211843776031177], [79.01150297172912, 14.213553947723556], [79.01148190310485, 14.215964620613429], [79.01217892634699, 14.21700363815606], [79.01144276519125, 14.220441583183506], [79.01317783846876, 14.223900083270717]], [[79.01815339219868, 14.220152915754356], [79.01641525626744, 14.217038827487833], [79.01324101536012, 14.216668060368143], [79.01254398765876, 14.215629045399083], [79.01291806577964, 14.213221304854397], [79.01610126561869, 14.2125589214722], [79.01819839683871, 14.214987168333762], [79.01995752948092, 14.215690560402804], [79.02064860126119, 14.217418325548406], [79.02027459039152, 14.219826087145787], [79.01815339219868, 14.220152915754356]]], [[[79.16026205439377, 14.242299461508665], [79.16141054658739, 14.231286456682], [79.16388767401897, 14.23061664514664], [79.16425466223365, 14.228897297796511], [79.16320934656169, 14.227167095131888], [79.16074340297509, 14.226459257530584], [79.15898919719153, 14.225068015579426], [79.15722384841197, 14.225054407334662], [79.15543614648841, 14.227796071131706], [79.15331770701934, 14.227779705115275], [79.15189701514774, 14.228802013680765], [79.15187180994066, 14.23190170211306], [79.15291145065518, 14.234320765836308], [79.15572493499282, 14.235720239400475], [79.15673947518127, 14.24123898722351], [79.15814347395816, 14.242283121995076], [79.16026205439377, 14.242299461508665]], [[79.15890271052439, 14.235744762761133], [79.156100381072, 14.232967682060588], [79.1561087649173, 14.231934450296858], [79.1582244551067, 14.232295207249601], [79.15890271052439, 14.235744762761133]]], [[[79.08115568003547, 14.243398693617339], [79.08436247938087, 14.239980261674615], [79.08651866394267, 14.235520096984269], [79.08618879987498, 14.232762093949129], [79.0847881424665, 14.231373186487032], [79.08089861923786, 14.232030803360244], [79.07805953813532, 14.233730065580076], [79.07591780487103, 14.236468163242238], [79.07203403165892, 14.236436833618454], [79.0709455740893, 14.23987221289199], [79.06811804726283, 14.240193762659128], [79.06916555973571, 14.241579905028624], [79.07023064506693, 14.240899685017869], [79.07304649183295, 14.241955686168486], [79.07622712047754, 14.24163692600318], [79.07833102187793, 14.243375965817137], [79.08115568003547, 14.243398693617339]], [[79.07869867410847, 14.241656834057089], [79.07730385182289, 14.239579093053658], [79.07804497150944, 14.235452040632822], [79.08265813278273, 14.232733774121671], [79.0840703986884, 14.232745108307421], [79.08511218427192, 14.234819982265698], [79.08223819679111, 14.240652042794586], [79.08081715168525, 14.241673877762336], [79.07869867410847, 14.241656834057089]]], [[[79.11821835883717, 14.245071512487145], [79.12036827828598, 14.241299773694987], [79.1203882306469, 14.238888950273804], [79.11829540661789, 14.235772633775452], [79.11653001572947, 14.235758714744671], [79.11401843811802, 14.240560836186502], [79.11400413678402, 14.242282846396957], [79.11680598822896, 14.245060370735448], [79.11821835883717, 14.245071512487145]]], [[[79.02839464380754, 14.260533509796982], [79.02876570278754, 14.258470124908133], [79.02702119820533, 14.256044834396468], [79.02420247308895, 14.255332679175918], [79.02207192835726, 14.256692648188968], [79.0220509053966, 14.259103327882938], [79.02345127789235, 14.260492573724974], [79.0252107656334, 14.261195972272752], [79.02839464380754, 14.260533509796982]], [[79.02383138253299, 14.257396052775857], [79.02559984263743, 14.257066295060401], [79.02664413778716, 14.25879698293623], [79.02487266498778, 14.259471130173212], [79.02381937995807, 14.258773585480736], [79.02383138253299, 14.257396052775857]]], [[[79.04850358252169, 14.262765450493285], [79.0502809583138, 14.261402344886147], [79.04994858448835, 14.25898873681769], [79.04713564590745, 14.257588063052104], [79.04572028911859, 14.257920878537409], [79.04463724186768, 14.260667293358344], [79.04497846673935, 14.262047739314534], [79.04567873810072, 14.262742305634553], [79.04850358252169, 14.262765450493285]]], [[[79.08205190822744, 14.262693345098118], [79.08347309294126, 14.26167152026909], [79.08349346713261, 14.259260752706338], [79.08279307445079, 14.258566284081496], [79.08067443677503, 14.258549238154322], [79.0785441306088, 14.259909751037718], [79.0785324580722, 14.261287328479622], [79.080286345286, 14.262679131955288], [79.08205190822744, 14.262693345098118]]], [[[79.09396800441786, 14.273465963502773], [79.09467426862636, 14.273471613981144], [79.094680061191, 14.272782819462263], [79.0939737991265, 14.272777169267746], [79.09396800441786, 14.273465963502773]]], [[[79.10381825341616, 14.27802206717275], [79.10276171529125, 14.277669229948954], [79.10204966246354, 14.278352399022232], [79.10203523060076, 14.280074391835095], [79.10415697921856, 14.279746873937343], [79.10381825341616, 14.27802206717275]]], [[[79.20082462739923, 14.469247897768122], [79.20616526540296, 14.46446659789275], [79.20760670782595, 14.461033232757483], [79.2076232790544, 14.45896674946368], [79.2051602207162, 14.457570245041572], [79.19916001934853, 14.456491124467535], [79.19706437268846, 14.453375186710112], [79.19638527795965, 14.449925653921039], [79.19463758896464, 14.44750123361601], [79.19466260016951, 14.444401527146283], [79.19785448114838, 14.443048226475133], [79.19821899132964, 14.441673278589567], [79.19752325240412, 14.440290223379682], [79.19435086010793, 14.439232640673543], [79.19081674222846, 14.439205540360456], [79.1872965757583, 14.437456333890257], [79.18448886334676, 14.435023704715473], [79.1823991915495, 14.431218858400484], [79.18028160800289, 14.43085809643896], [79.18029559747943, 14.429136048704764], [79.18601403055993, 14.421258158520581], [79.1874359149973, 14.420235787021166], [79.19132032967286, 14.420610023786008], [79.19274218934473, 14.41958761693658], [79.19277550400834, 14.415454669366092], [79.19990105335842, 14.408275981252423], [79.2020267614704, 14.407603303522547], [79.20554387420697, 14.409696668111792], [79.20802570379279, 14.408682205446253], [79.20840107195914, 14.405929561999042], [79.20629741642416, 14.403846979464118], [79.20630567421236, 14.402813733610408], [79.21058165620387, 14.398368479408418], [79.21237857302863, 14.394593268054164], [79.21664606903484, 14.391181121831993], [79.21773341506832, 14.387744936830806], [79.21915767669051, 14.386377911966797], [79.22128313273407, 14.385705029129523], [79.22378368585565, 14.382279426281071], [79.23193463264809, 14.379240518998927], [79.2337310182204, 14.375465080718804], [79.23904699727896, 14.37343804169246], [79.2404818192009, 14.370693171170162], [79.2451098182676, 14.366249758279139], [79.24868309103499, 14.361109549489473], [79.25222411305715, 14.360102368387542], [79.25507719635468, 14.356678947334357], [79.26040055637306, 14.35361807323313], [79.26325077810907, 14.350538956028371], [79.26573173436635, 14.34952377873026], [79.26786732971566, 14.347472706827512], [79.26823913795937, 14.345064288356136], [79.2703773087423, 14.342668756855096], [79.27145825959273, 14.3399210503151], [79.27148730041618, 14.336132328050313], [79.2700927328154, 14.333711025242874], [79.27011122056578, 14.331300020797956], [79.27189860962166, 14.328557451714449], [79.27262884181054, 14.325462725697143], [79.27936157625084, 14.322756013712535], [79.28115140294847, 14.319668921316628], [79.2832813231727, 14.318306522346594], [79.28472043815148, 14.31487240693638], [79.28477011888303, 14.308328189924763], [79.28657279202253, 14.303518867114224], [79.28625351241166, 14.299038691760979], [79.28697036722215, 14.297666048141114], [79.28803259736095, 14.29732924409275], [79.28769242722761, 14.295604534319146], [79.285942063941, 14.293525216189062], [79.28599424027114, 14.28663654984047], [79.2814393782925, 14.281781383369172], [79.27826598297118, 14.281069553532452], [79.27193503429744, 14.277579186923552], [79.2691149129762, 14.276869807143289], [79.26666116003962, 14.274440815332767], [79.26101577540814, 14.273710770079328], [79.25962163316072, 14.271289449846899], [79.25716539847231, 14.269204806169213], [79.25683608028112, 14.266102364957488], [79.25578987209644, 14.264372470755749], [79.25580312000083, 14.262650327875846], [79.25687579988343, 14.260935933395643], [79.25655972001509, 14.256111347035416], [79.25550825444728, 14.255070313284069], [79.2537452298549, 14.254712962866742], [79.25269908903928, 14.252983062199883], [79.25093343231454, 14.2529701212911], [79.25022185799801, 14.253653796956733], [79.24984747032569, 14.256406627833785], [79.25089625649116, 14.257792112031984], [79.25265664408732, 14.258493913802539], [79.25264337632179, 14.260216054381688], [79.25085640983266, 14.262958528417832], [79.25084046670264, 14.265025094315897], [79.25328863211847, 14.268143076125186], [79.25326474066496, 14.271242927526012], [79.25290626957964, 14.271929193607253], [79.25114046516974, 14.271916237408652], [79.24762750543988, 14.269479297775552], [79.24479425514797, 14.270491781565251], [79.24442775608719, 14.272211310860426], [79.24546856581179, 14.274630100841149], [79.24579238956814, 14.278421391930799], [79.24965862781472, 14.2808609670902], [79.25107132584439, 14.28087134823821], [79.25357276592315, 14.277100790214629], [79.25640077340968, 14.276777064073233], [79.25992188565084, 14.278180609771951], [79.2616639531028, 14.281293369133456], [79.26342984051733, 14.281306255629383], [79.26414411669651, 14.280278117733817], [79.26802642477583, 14.280650838663457], [79.27506374957976, 14.284146430807535], [79.27859035780214, 14.284860861281302], [79.2824545011036, 14.287644387391923], [79.28314781945168, 14.289371648379428], [79.28277371525652, 14.292124561732557], [79.28381502112693, 14.294543236798924], [79.28378888821788, 14.297987564264782], [79.2816303837479, 14.303138746074291], [79.2812012044151, 14.313124719232862], [79.27977254537771, 14.315181083269009], [79.27728677696282, 14.316885321662475], [79.27620340812378, 14.31997751085292], [79.27407606855621, 14.320995409329234], [79.27019041482278, 14.320967138804939], [79.26841892835263, 14.321643126021797], [79.26446176676224, 14.330914327481057], [79.26509939718127, 14.339874626407191], [79.26330651845906, 14.343305977683942], [79.26118155875781, 14.34397930006302], [79.25734079443946, 14.33809552145049], [79.25526116971827, 14.332913545646642], [79.2552904676471, 14.329124853815667], [79.25426002262826, 14.325328370895756], [79.25181665155979, 14.321521489062132], [79.25115285343385, 14.316005469377147], [79.2501065065007, 14.314275535759966], [79.25014118558582, 14.309797996084693], [79.24104325935127, 14.298708609780066], [79.24000509941783, 14.29594537311015], [79.23860304335, 14.29455721762785], [79.23402497502383, 14.292801057700988], [79.23086781123904, 14.29002205639943], [79.22769993780531, 14.288620712135703], [79.22490149308774, 14.285155431444803], [79.21890292538217, 14.284421738691693], [79.21504245319318, 14.281292854787099], [79.20413523334749, 14.27604424611561], [79.2027362639272, 14.274311498497896], [79.20276085178774, 14.27121173296778], [79.20135098484968, 14.270856654150188], [79.20063648127969, 14.271884574923375], [79.19816716510982, 14.271521472862021], [79.19502173589473, 14.267364408690575], [79.19185718990775, 14.265618231129814], [79.18835331968614, 14.262147253515764], [79.18697107481262, 14.258347940973986], [79.1852192174721, 14.25661243128179], [79.18310874925022, 14.255563052002628], [79.18100934710841, 14.253135997116976], [79.1750340509528, 14.249646003487449], [79.17328512652384, 14.24756601024375], [79.17081892483124, 14.246858247591161], [79.16801353289243, 14.244425687892592], [79.16236948844617, 14.243693428253106], [79.1616326116513, 14.247476513711241], [79.15951118873208, 14.247804591367622], [79.15914691030228, 14.249179510156322], [79.16197456129869, 14.248856879187944], [79.16478828393355, 14.250256272650756], [79.17150016669056, 14.249963378430783], [79.1732379977991, 14.25342103792563], [79.17606016616877, 14.253787071550773], [79.17922164618642, 14.25587784097554], [79.17599923690625, 14.261364173446157], [79.17282662238416, 14.26065100875725], [79.17107487074564, 14.25891540615437], [79.16544159486493, 14.256805528746744], [79.16402911324289, 14.256794657644907], [79.16154331575707, 14.258497667717872], [79.15801209535748, 14.258470413423842], [79.15766736612886, 14.25743445465033], [79.16087057883064, 14.254359291183638], [79.16404583731372, 14.25472818889743], [79.16441567257604, 14.252664437511871], [79.1605314241001, 14.252634513673915], [79.15877983217918, 14.250898838289993], [79.15666117328732, 14.250882475966396], [79.15453411448954, 14.251899324064704], [79.15100301074743, 14.251871978381333], [79.15102826467518, 14.248772296647056], [79.15032766775767, 14.248078004482615], [79.14856214887638, 14.248064310634124], [79.14785032105834, 14.248747646479444], [79.14746910277964, 14.252188988834359], [79.14675725755662, 14.252872319227361], [79.14180807395934, 14.253522671361328], [79.13826001330251, 14.255561573065545], [79.13401982768121, 14.255872860254795], [79.13226277104256, 14.254825822609286], [79.12343217529914, 14.255100926177619], [79.12202543984701, 14.254401001121584], [79.1149632933017, 14.254345285836745], [79.1128561136331, 14.252950924691543], [79.10862748378439, 14.251884159110688], [79.10370997107097, 14.248745311953558], [79.08712617496477, 14.247235241299384], [79.0839599977271, 14.245832159478132], [79.07972587311187, 14.24545370430395], [79.0719316844443, 14.248490607888815], [79.06694444727535, 14.253616491587414], [79.0616244828445, 14.256328632808806], [79.0559719636029, 14.25662703073565], [79.04966358298178, 14.25106491033542], [79.04543543241547, 14.249997065345648], [79.04298165446448, 14.24791047688871], [79.04300540679235, 14.245155376980955], [79.04371749672009, 14.244472391881905], [79.04338222711712, 14.242403171214832], [79.04161389228491, 14.242733079241043], [79.04089883145738, 14.243760445180795], [79.03948653331405, 14.243748847019711], [79.03844218633705, 14.242018209668831], [79.03562059635712, 14.241650592617704], [79.03418744478843, 14.24404966533019], [79.03027973426263, 14.246772719594972], [79.02991171163829, 14.248491728262412], [79.03201824632697, 14.249886753586578], [79.03305958337103, 14.251961801642706], [79.03447192713645, 14.251973444386309], [79.03625226001962, 14.250266056275514], [79.03698523567681, 14.247172392950986], [79.03981284554219, 14.246851229163397], [79.04051008529004, 14.247890190412711], [79.04048035029638, 14.251334059246066], [79.03761693876383, 14.25578785787142], [79.03405616610112, 14.259202627538386], [79.03122242128542, 14.260212471232629], [79.03050126923033, 14.261928560402566], [79.03226976259171, 14.261598756594335], [79.0340531807022, 14.259547012806038], [79.03759310253652, 14.258542946411392], [79.04151582893147, 14.254097854827817], [79.04257510199251, 14.254106551403165], [79.04470848981435, 14.252401992223257], [79.04647393550154, 14.252416458596402], [79.05136986308916, 14.25796711854905], [79.05312649034711, 14.259014708838617], [79.05947053366215, 14.260444087982068], [79.06370779410857, 14.260478542215422], [79.06477004996434, 14.260142752457474], [79.0669121659248, 14.257404805180164], [79.07009301189842, 14.257086155632607], [79.07505689851241, 14.254715359021962], [79.08106250429194, 14.254419340602249], [79.08602333927192, 14.252392689404314], [79.08814192612624, 14.252409680639351], [79.1018782316317, 14.256652456536388], [79.10361497420006, 14.260110498801197], [79.10501879386572, 14.261154929276213], [79.10749347590047, 14.260830165403858], [79.10856143914096, 14.259805371685976], [79.11103323728672, 14.259824969456849], [79.11348211760814, 14.262599752586015], [79.1180755309788, 14.262291638071266], [79.12053880532102, 14.263344348730978], [79.12866346727061, 14.263063848603819], [79.12901090605155, 14.263755429476166], [79.12758418791358, 14.265466357710647], [79.12685801302199, 14.267871634887653], [79.12330390081381, 14.270599073931178], [79.12007140354086, 14.27711766115199], [79.11581363563153, 14.27949497959666], [79.11579644128075, 14.281561387230411], [79.11649700976345, 14.282255778848391], [79.1214439796046, 14.281950442010775], [79.12677828717122, 14.277514938000259], [79.1274959661824, 14.27614287798408], [79.12684947381398, 14.268904846328931], [79.13040068032815, 14.266521750107508], [79.13077368780597, 14.264113687573074], [79.13184157661082, 14.26308877873293], [79.14596658107075, 14.263199067307674], [79.15760020810393, 14.265700295784127], [79.16325313363609, 14.265399497934661], [79.17521257597907, 14.271346754786595], [79.18227273051791, 14.271745163983503], [79.1882624727718, 14.273512974367291], [79.19246731309816, 14.277678165270686], [79.20090482826114, 14.282564197614322], [79.20475143794773, 14.287415382208415], [79.20897047508875, 14.28985824775604], [79.21177414680965, 14.292634853995434], [79.21494194891088, 14.294036405054099], [79.21493379557188, 14.295069665259216], [79.21315696417454, 14.296434085498468], [79.20962232481013, 14.296751945444276], [79.20784818099442, 14.297771901894622], [79.20149346245265, 14.297379494192747], [79.19795057996394, 14.298730427275753], [79.19371502847861, 14.29835385826527], [79.19440216022201, 14.300770134447928], [79.19580669525837, 14.301814106694655], [79.20075419700433, 14.301507158558648], [79.20180831045201, 14.302204008825056], [79.20105805845706, 14.30770933974112], [79.20210397906895, 14.309439443489508], [79.20386729154072, 14.309797214823273], [79.20563881597154, 14.309121720083809], [79.2081331342113, 14.306385027357825], [79.20994280186285, 14.300887631840345], [79.21455613696199, 14.298166794047342], [79.21809351432029, 14.297504441963314], [79.2198703296271, 14.296139982459767], [79.22269587200886, 14.296161111844965], [79.22691259317868, 14.298948120925079], [79.22758929267967, 14.302742031434727], [79.22616026104407, 14.304798026719249], [79.22087300310228, 14.303380751744557], [79.21769416995353, 14.303356942722871], [79.21555863849785, 14.305407565877259], [79.21552600546276, 14.309540603584805], [79.21657477004507, 14.3109262373617], [79.21798491407829, 14.311281256685968], [79.22082420259328, 14.309580326789964], [79.22539975648603, 14.311681187566307], [79.2260926706471, 14.313408570467537], [79.22571510160904, 14.316505726615635], [79.22393272362086, 14.318559055326409], [79.21932446538463, 14.320591195357952], [79.21960978062853, 14.329204345517322], [79.21637884831229, 14.335724443272909], [79.21531091108025, 14.336749730845112], [79.2110718548637, 14.33671780425039], [79.20715320168271, 14.340821479624346], [79.20467215588783, 14.34183602510649], [79.20288663121569, 14.344233562458387], [79.19897870880858, 14.346959405417248], [79.19860341384327, 14.349712044956718], [79.19928242873824, 14.353161567800331], [79.19855383584857, 14.35591152009875], [79.1946069813338, 14.363459059366232], [79.19247616118379, 14.364820546401162], [79.18997262740434, 14.368590203424397], [79.18784173189489, 14.369951639195056], [79.1825283003781, 14.371633072520883], [79.17793257240787, 14.371942174579791], [79.1743827737739, 14.373981413201555], [79.1690831995835, 14.373940475621724], [79.1652052844399, 14.372877154563152], [79.16201431213669, 14.374230115477365], [79.15702573052458, 14.379357750723596], [79.1538374542961, 14.380366177886044], [79.14991985091285, 14.384124273773587], [79.14884004236076, 14.38652681378699], [79.1452869441215, 14.38890995839987], [79.14420705919875, 14.391312467635272], [79.14064243255736, 14.395073138235132], [79.13955390097274, 14.398508823232019], [79.13986442780696, 14.40367764289678], [79.13771005789089, 14.407793763128497], [79.1373195294757, 14.4122681996586], [79.13625086885581, 14.41329303843169], [79.12741689980749, 14.41322313430734], [79.12564435478802, 14.413897912611475], [79.12349250085066, 14.417669457528653], [79.11993286900082, 14.420740918945956], [79.12129437170384, 14.426951344168364], [79.12407236763603, 14.432828619615048], [79.12791644826329, 14.438025501966804], [79.13318007069535, 14.442544744517882], [79.13565677812586, 14.442219928948996], [79.14279061518477, 14.434354495151387], [79.1463359646478, 14.43300469476895], [79.15024604557412, 14.430279993355875], [79.15485146050143, 14.42893836368782], [79.15732234605055, 14.429302108501687], [79.15659005758181, 14.432396229865262], [79.15481173829005, 14.43376002784612], [79.15337827426876, 14.436159790489127], [79.15371747267193, 14.437884579455789], [79.15547029442362, 14.439620435492547], [79.16394921288791, 14.440031066840357], [79.17385588862842, 14.43873031412698], [79.17596510816556, 14.440124366438603], [79.17984421988152, 14.441187648068128], [79.18335318580422, 14.444314604396215], [79.18437151519468, 14.449488924057343], [79.18753002804495, 14.4522687033352], [79.18855963229363, 14.456065375707631], [79.1917210731455, 14.458500703289054], [79.19276469184483, 14.460575311948196], [79.19202436418263, 14.464702813679837], [79.19484085153202, 14.466102166282653], [79.1965775409448, 14.469904244644082], [79.20082462739923, 14.469247897768122]], [[79.19245580341547, 14.455062021027345], [79.18896048738901, 14.450213115599109], [79.1865004514178, 14.448472029373157], [79.18582432144021, 14.444678075258613], [79.1840795851103, 14.441909183719133], [79.18091845253176, 14.439473787331186], [79.1777405701349, 14.439104809039087], [79.17457393672225, 14.43735815624587], [79.16467014679806, 14.438314540664006], [79.15654185494533, 14.438251111544007], [79.15548732116332, 14.437554008505149], [79.15550434520381, 14.435487581136554], [79.1590751402072, 14.431037934258566], [79.1590949533725, 14.428627096076967], [79.1576927289729, 14.427238437901002], [79.15486847980665, 14.426871935556361], [79.1527396529835, 14.427888553415173], [79.14955633706411, 14.428208026992836], [79.14458897358715, 14.430579979274306], [79.14211525498324, 14.430560503916151], [79.13862430083879, 14.425366614425679], [79.13584883294892, 14.41914507089696], [79.13586601529614, 14.417078663378481], [79.1394282520283, 14.413662525195335], [79.13983016731942, 14.40781047166387], [79.14198164958692, 14.404038730308713], [79.14131203322712, 14.399555934419963], [79.14240339511872, 14.395775835803319], [79.14596800825278, 14.39201513664305], [79.14668887251665, 14.390298656821026], [79.1498858238027, 14.388257132992486], [79.15132461850878, 14.38516853985891], [79.15488608138186, 14.381752070974816], [79.15842768804856, 14.380746382125466], [79.16306297030363, 14.375615975579507], [79.1651912363444, 14.374599195921087], [79.16906918008785, 14.37566252057723], [79.17401548663544, 14.375700737440555], [79.17685591410724, 14.374000476847955], [79.18428647818537, 14.372679865091113], [79.18960269881255, 14.3706539807256], [79.19246232990803, 14.366542615144233], [79.19566133856375, 14.364155965158995], [79.197460905911, 14.360036439312728], [79.19924387499302, 14.357983382501533], [79.20070104240872, 14.352483469245962], [79.20003025983604, 14.348000700928857], [79.20393819125665, 14.345274841477266], [79.20537045249543, 14.342874623012975], [79.20820750716902, 14.34151832300443], [79.21212069566559, 14.33810346618549], [79.21529183028737, 14.3391606630171], [79.22088418024765, 14.346780356983794], [79.22615073028992, 14.350953108818564], [79.22754487928984, 14.353374625288707], [79.22752861698021, 14.355441149503426], [79.2257486166736, 14.357150031622028], [79.22537904112116, 14.359213906966108], [79.2267894982566, 14.359568909011307], [79.22787919368149, 14.355788212547653], [79.23179510097516, 14.352028607383373], [79.23287115743372, 14.34996998105014], [79.23431126327554, 14.346536289932775], [79.23541961791493, 14.340344575401806], [79.24294550391575, 14.326622683071522], [79.2436787929362, 14.323183665319261], [79.24340057008517, 14.31353716085663], [79.24131875867329, 14.308699539453558], [79.23782150882941, 14.304195864413733], [79.23641404910961, 14.303496540322122], [79.23256377433442, 14.298990186991762], [79.22974357355744, 14.298280325266036], [79.22411946091624, 14.294793976900651], [79.21777288402836, 14.293368748664353], [79.20829683283392, 14.285719902017147], [79.20688686560598, 14.285364844815781], [79.2047924076755, 14.282249105792802], [79.19459450055555, 14.27666098904812], [79.18899354978166, 14.270418603231292], [79.18758647375326, 14.269719030408933], [79.18937421134109, 14.266977127743736], [79.19324778640998, 14.268384277950247], [79.1977975785157, 14.27358530637692], [79.20131544022503, 14.27533408963154], [79.20271440309659, 14.277066844925056], [79.20729185139604, 14.278823544530582], [79.2090413246886, 14.280903348207815], [79.21255668141609, 14.282996407663253], [79.21430080153333, 14.285765021764218], [79.21887311385623, 14.28821037023945], [79.21993265400936, 14.288218297825653], [79.22171208601512, 14.286509392255759], [79.22383115433053, 14.286525215602799], [79.22557274386456, 14.289638187630743], [79.22803693892044, 14.29068987819127], [79.23049038466813, 14.293119237968579], [79.23788592432034, 14.295929683609861], [79.24067398115729, 14.300772545631753], [79.24767132084085, 14.309435352162964], [79.24868291909533, 14.31564282824568], [79.2504117058355, 14.32047780568281], [79.25039035297893, 14.323233212851584], [79.25214588988757, 14.324623924820031], [79.25247779927942, 14.327381934263485], [79.25176329970749, 14.328410010313295], [79.24788558695079, 14.327348084561518], [79.24395162783932, 14.333519013469475], [79.24320755776348, 14.338335722294442], [79.24177839254942, 14.340391796235522], [79.23780899163066, 14.351040068545833], [79.23779282620701, 14.353106604657345], [79.2391925046815, 14.354839222338155], [79.24519841184932, 14.35488377274268], [79.24803812315282, 14.35318256240224], [79.25086709696075, 14.352859013334774], [79.25476926968729, 14.350821107175648], [79.2576168572997, 14.348086488196238], [79.25869532968359, 14.345683288232062], [79.26258138531072, 14.345711794800483], [79.2643583862425, 14.344347020134698], [79.26508349493925, 14.341941194687253], [79.26650982770683, 14.340229385877105], [79.26659188428569, 14.329552102745087], [79.26909107909476, 14.326125856912547], [79.27017458102513, 14.323033715955871], [79.27194080236329, 14.32304657599841], [79.27086787797163, 14.32476100953025], [79.27012970487637, 14.328889015840835], [79.26833964911776, 14.331975997717002], [79.26832907377486, 14.333353713232254], [79.27007688343427, 14.335777600073637], [79.27004253443779, 14.34025517758222], [79.26718724724815, 14.344023260796149], [79.26645685209762, 14.347117950304966], [79.2589900584352, 14.353263269422321], [79.25437861768734, 14.355640465904207], [79.25152553981066, 14.359063879112973], [79.24727525574652, 14.360410248680669], [79.24441395132445, 14.364866826545171], [79.2401419767683, 14.368968431890815], [79.23799244210036, 14.372741309221585], [79.23267918009904, 14.374423904379418], [79.23159485222386, 14.377515774632535], [79.23052675463228, 14.378541112555718], [79.22734141420769, 14.379206150810175], [79.22201977018223, 14.381921735839445], [79.2198752574515, 14.385005558777234], [79.21845920086473, 14.385339335361952], [79.2166788756464, 14.387048109982699], [79.21559151873022, 14.39048428885348], [79.21132402354007, 14.393896415897759], [79.20952709695543, 14.397671618036327], [79.20525386528547, 14.401772437384958], [79.20488122725283, 14.404180658097316], [79.20663150824048, 14.40626056932609], [79.20662049696222, 14.407638230289104], [79.20520428340609, 14.407971908043441], [79.20344849042542, 14.40658081582408], [79.20026823123311, 14.406556604297517], [79.19920261776095, 14.407237351953812], [79.19100863316113, 14.41544113584089], [79.1909864028766, 14.418196431695046], [79.19027408590375, 14.418879837096238], [79.1863841321871, 14.419194408835168], [79.18282242455615, 14.42261132904973], [79.1820988944584, 14.424672345281513], [79.17960560213648, 14.427064137655936], [79.177813440169, 14.430150176882297], [79.17815002632058, 14.432219361727446], [79.18167562013487, 14.43327986819635], [79.18271625589028, 14.435698910858513], [79.18763046537308, 14.439869926184032], [79.19327116382723, 14.44163539824571], [79.19219978873143, 14.443004913410036], [79.1921747459439, 14.446104616018786], [79.19390293051069, 14.45093993156503], [79.19386955113353, 14.455072869308204], [79.19245580341547, 14.455062021027345]], [[79.24344808219907, 14.352804143375288], [79.24241778223184, 14.349007626556896], [79.24350178290901, 14.345915667019216], [79.2435286225693, 14.342471427269452], [79.24532177649782, 14.339040258707472], [79.24606848441073, 14.333879113898453], [79.24749756518067, 14.331823003868887], [79.24855732621151, 14.331830827334276], [79.2513219403323, 14.339773457160604], [79.25552649909237, 14.344282212674948], [79.25621172971914, 14.347042819604292], [79.25407070751038, 14.34978262656512], [79.25053253280242, 14.350445430348715], [79.24561607117028, 14.346620208581498], [79.24524938508246, 14.348339715285189], [79.24664910097819, 14.350072292729264], [79.24663569847017, 14.351794414524559], [79.24485854182143, 14.35315903664938], [79.24344808219907, 14.352804143375288]], [[79.22931941990643, 14.352354566371378], [79.22335708537123, 14.346798900500058], [79.22231900127113, 14.344035596566972], [79.21916136025284, 14.341256384983861], [79.21883530501192, 14.337809537253117], [79.22349547050992, 14.329233459727009], [79.22350902758708, 14.327511356223113], [79.22210691218562, 14.326123095980254], [79.22248456215553, 14.323025955523592], [79.22745419604736, 14.31996312873934], [79.22889143267072, 14.31687387178107], [79.22820389183433, 14.314457649886016], [79.22894003779207, 14.310674273317767], [79.22754878256393, 14.30790836337246], [79.22756498855136, 14.305841830879762], [79.22934182694821, 14.304477302435195], [79.22971391346204, 14.302068974766852], [79.23113211776077, 14.301390643667942], [79.23288736528629, 14.30278146746023], [79.23358032029398, 14.304508833197096], [79.23674845042183, 14.305910127123319], [79.23884624679289, 14.308681230892782], [79.24161836364577, 14.315590643975549], [79.24160227469295, 14.317657190493058], [79.24083946009576, 14.324884866833417], [79.2386823805408, 14.32969108371047], [79.23761725479574, 14.33037206389091], [79.23730435949666, 14.32520309118788], [79.23801890783719, 14.32417506476874], [79.23804041310696, 14.321419676163824], [79.23595059922637, 14.317615285703058], [79.23527105140633, 14.314165805566637], [79.23456729601999, 14.313816134055264], [79.23277962497167, 14.316558386949598], [79.23136402087181, 14.31689229417913], [79.23134783658851, 14.31895882901564], [79.23416560160982, 14.320013123724978], [79.23308973225932, 14.322071778620087], [79.23342949190419, 14.323796520237105], [79.23448112562644, 14.324837670800031], [79.23329463375508, 14.341017641640594], [79.23291166975227, 14.344803652453702], [79.23039008900456, 14.350984796802065], [79.22931941990643, 14.352354566371378]], [[79.28011266564705, 14.316905798216169], [79.28117237505538, 14.316913468266916], [79.28116713244708, 14.317602331591974], [79.27939569680007, 14.318278407552867], [79.28011266564705, 14.316905798216169]], [[79.2035688304019, 14.302906193587084], [79.20499256847313, 14.301539192333818], [79.20710902701911, 14.301899599308632], [79.20708444365461, 14.304999364282386], [79.2060111643393, 14.306713460624032], [79.20423692379669, 14.3077333782753], [79.20318003963159, 14.307380952679216], [79.2035688304019, 14.302906193587084]], [[79.18194168849573, 14.268987153241506], [79.18088226048135, 14.268979067225409], [79.18088778923108, 14.268290238550358], [79.18159407235657, 14.268295629479558], [79.18194168849573, 14.268987153241506]], [[79.16045601217445, 14.261933603289267], [79.15974416686115, 14.262616972980206], [79.15974975723431, 14.261928152104781], [79.16045601217445, 14.261933603289267]], [[79.18059821952387, 14.260366011090051], [79.18201073648638, 14.260376786717439], [79.18200245315924, 14.261410031045386], [79.18058992976951, 14.261399254605278], [79.18059821952387, 14.260366011090051]], [[79.14284203228657, 14.256630588435554], [79.14531666040251, 14.256305418925365], [79.14565569858915, 14.258030204282921], [79.14318669028214, 14.257666560390701], [79.14284203228657, 14.256630588435554]], [[79.0750948800348, 14.250238238433562], [79.0789905566839, 14.248891968871385], [79.08075018630683, 14.249594968434508], [79.08109454243436, 14.250630994414546], [79.07896431896478, 14.25199152155011], [79.0757864627333, 14.251965906152854], [79.07508319481654, 14.251615814188417], [79.0750948800348, 14.250238238433562]], [[79.03274829138574, 14.247137495801057], [79.0345196473599, 14.24646327395949], [79.03485781723595, 14.248188111083739], [79.03379260985845, 14.248868154842537], [79.03273933689593, 14.248170651800082], [79.03274829138574, 14.247137495801057]], [[79.16552790737029, 14.246128761024632], [79.16764653248764, 14.246145039311449], [79.16798573911937, 14.24786981291174], [79.1662202042559, 14.247856249880241], [79.16552790737029, 14.246128761024632]]], [[[79.18857431143519, 14.27868189412621], [79.18716994550286, 14.277637898093694], [79.18434468954396, 14.277616374144287], [79.18397220081714, 14.280024583763257], [79.18502616140182, 14.280721491743845], [79.1882046194558, 14.280745699888282], [79.18857431143519, 14.27868189412621]]], [[[79.23902592470425, 14.285604790345893], [79.23761588778483, 14.285249909783897], [79.23761052475649, 14.285938758930335], [79.23866738504664, 14.28629102665441], [79.23902592470425, 14.285604790345893]]], [[[79.19622581848074, 14.29355079221826], [79.19764678599365, 14.29252824908574], [79.19731281127882, 14.290114655474696], [79.1955524111935, 14.28941243761729], [79.19307467177264, 14.29008250998727], [79.19305816949905, 14.292149006110566], [79.19410671651315, 14.293534715441423], [79.19622581848074, 14.29355079221826]]], [[[79.27956612260306, 14.295890350300757], [79.27922863917759, 14.293821203691172], [79.27781583918092, 14.293810980501263], [79.2777974839309, 14.296222002362633], [79.27885447425702, 14.296574103732544], [79.27956612260306, 14.295890350300757]]], [[[79.18664846377723, 14.298644518089409], [79.18666503241545, 14.296578030441044], [79.18596142135144, 14.296228229606417], [79.18490186353374, 14.296220146393313], [79.18383400972073, 14.297245300746917], [79.18417060489539, 14.29931448213339], [79.18593655839467, 14.29932795981591], [79.18664846377723, 14.298644518089409]]], [[[79.23494742682585, 14.310374525327335], [79.2339173823283, 14.306577997214566], [79.23321095946, 14.306572747587673], [79.23319211142827, 14.30898370936177], [79.23424099169969, 14.310369277399099], [79.23494742682585, 14.310374525327335]]], [[[79.2561299800642, 14.311908696887555], [79.26284919424175, 14.310924569264042], [79.26286243343056, 14.309202426616517], [79.25970466417427, 14.306423745471326], [79.2572321527871, 14.30640563094026], [79.25474368681607, 14.308454053418496], [79.25472506587238, 14.310865042756149], [79.2561299800642, 14.311908696887555]]], [[[79.26487328025975, 14.3233394856165], [79.26736449016781, 14.320946538538433], [79.26738298987459, 14.318535534998377], [79.26599913198316, 14.314736506035832], [79.26424356717737, 14.31334589446099], [79.26283065641763, 14.31333556853194], [79.26069538071556, 14.31538663196599], [79.26067150843703, 14.318486483354933], [79.2631097132374, 14.322982144565405], [79.26487328025975, 14.3233394856165]]], [[[79.16252942777166, 14.397655306321786], [79.1646832499922, 14.393538890383093], [79.16470013532091, 14.391472444612539], [79.16400754779987, 14.389744919949315], [79.16189039777052, 14.389384041430455], [79.16081913782848, 14.39075342664048], [79.16078247412287, 14.395230715815364], [79.16146940702336, 14.397647061967733], [79.16252942777166, 14.397655306321786]]], [[[79.16548415828092, 14.42523259110906], [79.17118609415411, 14.419421555977012], [79.17650355607387, 14.417396118035297], [79.18220222325652, 14.411929166219869], [79.1857498226898, 14.410234289658602], [79.19180699571851, 14.404080943851568], [79.19324537369579, 14.400992043197602], [79.20000877051169, 14.394843830101061], [79.2025262744322, 14.389352014472887], [79.20466830326758, 14.386612797801936], [79.20539696913286, 14.383862836311456], [79.20718008865067, 14.381809737154867], [79.2082867219079, 14.375962689671695], [79.20971369230445, 14.374251301664556], [79.20974384525371, 14.370462716504193], [79.20904271516669, 14.369768538289305], [79.2069228824233, 14.369752492412829], [79.19805440811749, 14.37416282079432], [79.1934503123048, 14.375505461879857], [79.1891689714087, 14.380639250832159], [79.18737460412427, 14.384069845281337], [79.18595296899285, 14.385092246166431], [79.18487351949233, 14.387494995685973], [79.18024677429491, 14.391592623024], [79.17699966545875, 14.399833962191027], [79.17378031730559, 14.404631133394627], [79.16915019359067, 14.409072880357789], [79.16554617317182, 14.417655638291203], [79.16164213537726, 14.41969183202692], [79.15950209167585, 14.422086146508589], [79.15948512097025, 14.424152580884982], [79.16053678427531, 14.42519406665209], [79.16265143744322, 14.42589940236578], [79.16548415828092, 14.42523259110906]], [[79.16197574111266, 14.422105428473465], [79.16694839949221, 14.419044249492597], [79.1712703528103, 14.409089308170767], [79.17518533009736, 14.405675284252363], [79.17840466832699, 14.400878092519559], [79.18056104629746, 14.396417091586152], [79.18129562276138, 14.39297842317867], [79.1862812749241, 14.38819466354165], [79.19272154435801, 14.378255374523762], [79.19556741998196, 14.375866048728838], [79.19804336989947, 14.375540478976761], [79.20584923325512, 14.371466543119757], [79.2079718245543, 14.371138183948473], [79.20866472630951, 14.372865615270367], [79.20687071516922, 14.376296401689311], [79.20648717964647, 14.380082300848489], [79.20289613865953, 14.387288209795356], [79.20111293431275, 14.389341266139091], [79.19895426508114, 14.394146927053823], [79.19219086641952, 14.40029510937843], [79.19075248035757, 14.40338400260838], [79.18861289221158, 14.40577863912869], [79.1843419394885, 14.409534603867732], [79.18186002336057, 14.41054880382484], [79.17758327395964, 14.414993439954696], [79.16942483807019, 14.418719041683719], [79.16478867212791, 14.423849467101745], [79.16231499952741, 14.423830212340333], [79.16197574111266, 14.422105428473465]]]]}}, {"type": "Feature", "properties": {"depth_class": 2, "depth_lo_m": 1.0, "t_s": 49500.013773345534}, "geometry": {"type": "MultiPolygon", "coordinates": [[[[79.02027459039152, 14.219826087145787], [79.02064860126119, 14.217418325548406], [79.01960750057071, 14.215343252802397], [79.01819839683871, 14.214987168333762], [79.01610126561869, 14.2125589214722], [79.01291806577964, 14.213221304854397], [79.01254398765876, 14.215629045399083], [79.01324101536012, 14.216668060368143], [79.01641525626744, 14.217038827487833], [79.01815339219868, 14.220152915754356], [79.02027459039152, 14.219826087145787]], [[79.01430610767282, 14.21598809505003], [79.013974124304, 14.213574486052321], [79.01644227872582, 14.213939381788796], [79.0164272670522, 14.215661296171254], [79.01430610767282, 14.21598809505003]]], [[[79.15890271052439, 14.235744762761133], [79.1578741660003, 14.231948073218977], [79.1561087649173, 14.231934450296858], [79.156100381072, 14.232967682060588], [79.15890271052439, 14.235744762761133]]], [[[79.08081715168525, 14.241673877762336], [79.08474750077714, 14.236194736003176], [79.08511508690931, 14.234475585826615], [79.0840703986884, 14.232745108307421], [79.08265813278273, 14.232733774121671], [79.07875693558165, 14.234768933188933], [79.07732425857802, 14.237168329790206], [79.07730385182289, 14.239579093053658], [79.07869867410847, 14.241656834057089], [79.08081715168525, 14.241673877762336]], [[79.07907214482483, 14.239248910651703], [79.08016048006886, 14.235813478280754], [79.08263488268973, 14.23548894176514], [79.08262325577907, 14.236866525335005], [79.0808346141494, 14.239607505369005], [79.07907214482483, 14.239248910651703]]], [[[79.03450175466527, 14.248529588185537], [79.03486974355957, 14.246810567973677], [79.0334604150932, 14.246454546198297], [79.03273933689593, 14.248170651800082], [79.03379260985845, 14.248868154842537], [79.03450175466527, 14.248529588185537]]], [[[79.14531666040251, 14.256305418925365], [79.1431979672098, 14.25628893095262], [79.14283639275193, 14.257319403016298], [79.14565569858915, 14.258030204282921], [79.14531666040251, 14.256305418925365]]], [[[79.02593195250584, 14.259479903876935], [79.02630303036523, 14.257416525317973], [79.02383138253299, 14.257396052775857], [79.02416947409795, 14.259120895213629], [79.02593195250584, 14.259479903876935]]], [[[79.15974416686115, 14.262616972980206], [79.16045601217445, 14.261933603289267], [79.15974975723431, 14.261928152104781], [79.15974416686115, 14.262616972980206]]], [[[79.16764653248764, 14.246145039311449], [79.16552790737029, 14.246128761024632], [79.16551955766946, 14.247161997049817], [79.1662202042559, 14.247856249880241], [79.16798573911937, 14.24786981291174], [79.16764653248764, 14.246145039311449]]], [[[79.18058992976951, 14.261399254605278], [79.18200245315924, 14.261410031045386], [79.18201073648638, 14.260376786717439], [79.18059821952387, 14.260366011090051], [79.18058992976951, 14.261399254605278]]], [[[79.18194168849573, 14.268987153241506], [79.18088778923108, 14.268290238550358], [79.18088226048135, 14.268979067225409], [79.18194168849573, 14.268987153241506]]], [[[79.20423692379669, 14.3077333782753], [79.20708444365461, 14.304999364282386], [79.20675855968071, 14.301552517470515], [79.20428343707968, 14.301878276459309], [79.203210155801, 14.303592359824725], [79.20318003963159, 14.307380952679216], [79.20423692379669, 14.3077333782753]]], [[[79.27939569680007, 14.318278407552867], [79.28117237505538, 14.316913468266916], [79.28011266564705, 14.316905798216169], [79.27939569680007, 14.318278407552867]]], [[[79.1935578448167, 14.449903986625568], [79.1921747459439, 14.446104616018786], [79.19219978873143, 14.443004913410036], [79.19327116382723, 14.44163539824571], [79.18763046537308, 14.439869926184032], [79.18271625589028, 14.435698910858513], [79.18167562013487, 14.43327986819635], [79.17815002632058, 14.432219361727446], [79.177813440169, 14.430150176882297], [79.17960560213648, 14.427064137655936], [79.1820988944584, 14.424672345281513], [79.18282242455615, 14.42261132904973], [79.1863841321871, 14.419194408835168], [79.19027408590375, 14.418879837096238], [79.1909864028766, 14.418196431695046], [79.19100863316113, 14.41544113584089], [79.19920261776095, 14.407237351953812], [79.20026823123311, 14.406556604297517], [79.20344849042542, 14.40658081582408], [79.20520428340609, 14.407971908043441], [79.20662049696222, 14.407638230289104], [79.20663150824048, 14.40626056932609], [79.20488122725283, 14.404180658097316], [79.20525386528547, 14.401772437384958], [79.20952709695543, 14.397671618036327], [79.21132402354007, 14.393896415897759], [79.21559151873022, 14.39048428885348], [79.2166788756464, 14.387048109982699], [79.21845920086473, 14.385339335361952], [79.2198752574515, 14.385005558777234], [79.22201977018223, 14.381921735839445], [79.22734141420769, 14.379206150810175], [79.23052675463228, 14.378541112555718], [79.23159485222386, 14.377515774632535], [79.23267918009904, 14.374423904379418], [79.23799244210036, 14.372741309221585], [79.2401419767683, 14.368968431890815], [79.24441395132445, 14.364866826545171], [79.24727525574652, 14.360410248680669], [79.25152553981066, 14.359063879112973], [79.25437861768734, 14.355640465904207], [79.2589900584352, 14.353263269422321], [79.26645685209762, 14.347117950304966], [79.26718724724815, 14.344023260796149], [79.27004253443779, 14.34025517758222], [79.27007688343427, 14.335777600073637], [79.26832907377486, 14.333353713232254], [79.26833964911776, 14.331975997717002], [79.27012970487637, 14.328889015840835], [79.27086787797163, 14.32476100953025], [79.27194080236329, 14.32304657599841], [79.27017458102513, 14.323033715955871], [79.26909107909476, 14.326125856912547], [79.26659188428569, 14.329552102745087], [79.26650982770683, 14.340229385877105], [79.26508349493925, 14.341941194687253], [79.2643583862425, 14.344347020134698], [79.26258138531072, 14.345711794800483], [79.25869532968359, 14.345683288232062], [79.2576168572997, 14.348086488196238], [79.25476926968729, 14.350821107175648], [79.25086709696075, 14.352859013334774], [79.24803812315282, 14.35318256240224], [79.24519841184932, 14.35488377274268], [79.2391925046815, 14.354839222338155], [79.23779282620701, 14.353106604657345], [79.23780899163066, 14.351040068545833], [79.24177839254942, 14.340391796235522], [79.24320755776348, 14.338335722294442], [79.24395162783932, 14.333519013469475], [79.24788558695079, 14.327348084561518], [79.2496518210416, 14.327361114178204], [79.25070355291557, 14.328402202982568], [79.25176329970749, 14.328410010313295], [79.25247779927942, 14.327381934263485], [79.25214588988757, 14.324623924820031], [79.25039035297893, 14.323233212851584], [79.2504117058355, 14.32047780568281], [79.24868291909533, 14.31564282824568], [79.24767132084085, 14.309435352162964], [79.24067398115729, 14.300772545631753], [79.23788592432034, 14.295929683609861], [79.23049038466813, 14.293119237968579], [79.22803693892044, 14.29068987819127], [79.22557274386456, 14.289638187630743], [79.22383115433053, 14.286525215602799], [79.22171208601512, 14.286509392255759], [79.21993265400936, 14.288218297825653], [79.21887311385623, 14.28821037023945], [79.21430080153333, 14.285765021764218], [79.21255668141609, 14.282996407663253], [79.2090413246886, 14.280903348207815], [79.20729185139604, 14.278823544530582], [79.20271440309659, 14.277066844925056], [79.20131544022503, 14.27533408963154], [79.1977975785157, 14.27358530637692], [79.19324778640998, 14.268384277950247], [79.18937421134109, 14.266977127743736], [79.18758647375326, 14.269719030408933], [79.18899354978166, 14.270418603231292], [79.19459450055555, 14.27666098904812], [79.2047924076755, 14.282249105792802], [79.20688686560598, 14.285364844815781], [79.20829683283392, 14.285719902017147], [79.21777288402836, 14.293368748664353], [79.22411946091624, 14.294793976900651], [79.22974357355744, 14.298280325266036], [79.23256377433442, 14.298990186991762], [79.23641404910961, 14.303496540322122], [79.23782150882941, 14.304195864413733], [79.24131875867329, 14.308699539453558], [79.24340057008517, 14.31353716085663], [79.2436787929362, 14.323183665319261], [79.24294550391575, 14.326622683071522], [79.23541961791493, 14.340344575401806], [79.23431126327554, 14.346536289932775], [79.23287115743372, 14.34996998105014], [79.23179510097516, 14.352028607383373], [79.22787919368149, 14.355788212547653], [79.2267894982566, 14.359568909011307], [79.22537904112116, 14.359213906966108], [79.2257486166736, 14.357150031622028], [79.22752861698021, 14.355441149503426], [79.22754487928984, 14.353374625288707], [79.22615073028992, 14.350953108818564], [79.22088418024765, 14.346780356983794], [79.21529183028737, 14.3391606630171], [79.21212069566559, 14.33810346618549], [79.20820750716902, 14.34151832300443], [79.20537045249543, 14.342874623012975], [79.20393819125665, 14.345274841477266], [79.20003025983604, 14.348000700928857], [79.20070104240872, 14.352483469245962], [79.19924387499302, 14.357983382501533], [79.197460905911, 14.360036439312728], [79.19566133856375, 14.364155965158995], [79.19246232990803, 14.366542615144233], [79.18960269881255, 14.3706539807256], [79.18428647818537, 14.372679865091113], [79.17685591410724, 14.374000476847955], [79.17401548663544, 14.375700737440555], [79.16906918008785, 14.37566252057723], [79.1651912363444, 14.374599195921087], [79.16306297030363, 14.375615975579507], [79.15842768804856, 14.380746382125466], [79.15488608138186, 14.381752070974816], [79.15132461850878, 14.38516853985891], [79.1498858238027, 14.388257132992486], [79.14668887251665, 14.390298656821026], [79.14596800825278, 14.39201513664305], [79.14240339511872, 14.395775835803319], [79.14131203322712, 14.399555934419963], [79.14198164958692, 14.404038730308713], [79.13983016731942, 14.40781047166387], [79.1394282520283, 14.413662525195335], [79.13586601529614, 14.417078663378481], [79.13584883294892, 14.41914507089696], [79.13862430083879, 14.425366614425679], [79.14211525498324, 14.430560503916151], [79.14458897358715, 14.430579979274306], [79.14955633706411, 14.428208026992836], [79.1527396529835, 14.427888553415173], [79.15486847980665, 14.426871935556361], [79.1576927289729, 14.427238437901002], [79.1590949533725, 14.428627096076967], [79.1590751402072, 14.431037934258566], [79.15550434520381, 14.435487581136554], [79.15583788596358, 14.437901178156848], [79.16467014679806, 14.438314540664006], [79.17457393672225, 14.43735815624587], [79.1777405701349, 14.439104809039087], [79.18091845253176, 14.439473787331186], [79.18196749311156, 14.440859605935737], [79.18372896576123, 14.441562050315445], [79.18582432144021, 14.444678075258613], [79.1865004514178, 14.448472029373157], [79.18896048738901, 14.450213115599109], [79.19105041575715, 14.454017931592816], [79.19245580341547, 14.455062021027345], [79.19386955113353, 14.455072869308204], [79.1935578448167, 14.449903986625568]], [[79.16053678427531, 14.42519406665209], [79.15948512097025, 14.424152580884982], [79.15950209167585, 14.422086146508589], [79.16164213537726, 14.41969183202692], [79.16554617317182, 14.417655638291203], [79.16915019359067, 14.409072880357789], [79.17378031730559, 14.404631133394627], [79.17699966545875, 14.399833962191027], [79.18024677429491, 14.391592623024], [79.18487351949233, 14.387494995685973], [79.1920259901703, 14.376872322918448], [79.19451577763625, 14.37482472292428], [79.19805440811749, 14.37416282079432], [79.2069228824233, 14.369752492412829], [79.20904271516669, 14.369768538289305], [79.20974384525371, 14.370462716504193], [79.20971369230445, 14.374251301664556], [79.2082867219079, 14.375962689671695], [79.20718008865067, 14.381809737154867], [79.20539696913286, 14.383862836311456], [79.20466830326758, 14.386612797801936], [79.2025262744322, 14.389352014472887], [79.20000877051169, 14.394843830101061], [79.19324537369579, 14.400992043197602], [79.19002354790297, 14.406133886353677], [79.1857498226898, 14.410234289658602], [79.18220222325652, 14.411929166219869], [79.17756927796141, 14.416715487140435], [79.17118609415411, 14.419421555977012], [79.16619374574651, 14.424893679172298], [79.16371159238271, 14.425907657224252], [79.16053678427531, 14.42519406665209]], [[79.17967553780893, 14.41845389682841], [79.18324837444806, 14.413659378597425], [79.18608647630619, 14.412303471565014], [79.1907163801588, 14.407861361952712], [79.19429711712125, 14.402033386079212], [79.20141938595927, 14.39519900365392], [79.20859338613667, 14.381820443753261], [79.20933844023061, 14.377003962183602], [79.21112420481063, 14.374606404674084], [79.2111598120204, 14.370128982381203], [79.20940698498548, 14.368393543295236], [79.20658055861185, 14.368372150929693], [79.19771213692525, 14.372782472518653], [79.19382021978012, 14.37344167616609], [79.18884339743535, 14.377192419494836], [79.18707683138824, 14.377178891744881], [79.18602800582185, 14.375793119961463], [79.18710459591368, 14.373734767374282], [79.19136367807738, 14.371356310397683], [79.19351392759567, 14.367583945130326], [79.19635688670337, 14.365539005501358], [79.19814267171702, 14.363141549275483], [79.1985125027534, 14.361077746782808], [79.20029547262926, 14.359024682066547], [79.20174987534315, 14.353869176452163], [79.20143509222247, 14.34904467338155], [79.20463374911967, 14.346657858726502], [79.20713402802512, 14.343232400186816], [79.20890582054278, 14.3425569123019], [79.21175378191104, 14.339822894454588], [79.21492493742672, 14.340880098652974], [79.21560965104749, 14.343640765580153], [79.2141856726043, 14.345007802521572], [79.21346275572043, 14.347068990145562], [79.21486765482507, 14.348112889587014], [79.22157169665725, 14.349196596164916], [79.22403376984269, 14.350592816276437], [79.22578388815242, 14.352672566988995], [79.22576489733021, 14.35508350970407], [79.22326200665111, 14.358853598971711], [79.22360171079346, 14.360578347321983], [79.22535732176942, 14.361969267902984], [79.22712380559535, 14.361982496264448], [79.22819182909606, 14.360957165107358], [79.22928692765969, 14.356487618760744], [79.23142559380467, 14.354092500336353], [79.23424917916222, 14.354457997664287], [79.23882574981924, 14.356558710851752], [79.24483170164086, 14.356603275766956], [79.25404668430924, 14.352882458021801], [79.25760087695751, 14.350153046807847], [79.259741864067, 14.347413203574709], [79.26221482792532, 14.347431342705574], [79.26184826345407, 14.349150889175753], [79.25935665462741, 14.351543731157362], [79.25332675474745, 14.354599379343172], [79.25047100140445, 14.358367204704708], [79.2479952531499, 14.358693353894601], [79.24586474651709, 14.36005536440999], [79.24478874253076, 14.362114056174322], [79.24016083275136, 14.366557473220128], [79.23800862875223, 14.3706747763042], [79.2362285640879, 14.372383730462932], [79.23233668999667, 14.373043581659045], [79.23090988410809, 14.374755127014511], [79.23018427489347, 14.377160787969125], [79.22132129146229, 14.380883167391389], [79.21882345164869, 14.38396432384255], [79.21562707796842, 14.386006861600293], [79.21453697528034, 14.389787451884118], [79.21098439642313, 14.392171659581313], [79.20811644770501, 14.397316489685634], [79.2042020661053, 14.400731137518054], [79.20275555826257, 14.404853366471919], [79.19992592103569, 14.405176255486541], [79.19815082743855, 14.406196025871001], [79.1896062598566, 14.414052652409461], [79.18817329481409, 14.41645268913313], [79.18569409762135, 14.417122510941871], [79.18142845137669, 14.420189568323936], [79.17966155437334, 14.42017594552214], [79.17967553780893, 14.41845389682841]], [[79.16146940702336, 14.397647061967733], [79.16081913782848, 14.39075342664048], [79.16189039777052, 14.389384041430455], [79.16330370727142, 14.389395024164664], [79.16470013532091, 14.391472444612539], [79.1646832499922, 14.393538890383093], [79.16252942777166, 14.397655306321786], [79.16146940702336, 14.397647061967733]], [[79.26829734099965, 14.33748685877422], [79.26794936524956, 14.336795422500364], [79.26830263049831, 14.336798001288468], [79.26829734099965, 14.33748685877422]]]]}}, {"type": "Feature", "properties": {"depth_class": 3, "depth_lo_m": 2.0, "t_s": 49500.013773345534}, "geometry": {"type": "MultiPolygon", "coordinates": [[[[79.01430610767282, 14.21598809505003], [79.0164272670522, 14.215661296171254], [79.01644227872582, 14.213939381788796], [79.013974124304, 14.213574486052321], [79.01360606965545, 14.215293465045868], [79.01430610767282, 14.21598809505003]]], [[[79.08083752428796, 14.23926310993337], [79.08262325577907, 14.236866525335005], [79.08263488268973, 14.23548894176514], [79.08016048006886, 14.235813478280754], [79.07909253232627, 14.23683814481039], [79.07907214482483, 14.239248910651703], [79.08083752428796, 14.23926310993337]]], [[[79.26829734099965, 14.33748685877422], [79.26794936524956, 14.336795422500364], [79.26794407467317, 14.337484279857081], [79.26829734099965, 14.33748685877422]]], [[[79.17966155437334, 14.42017594552214], [79.18284755414611, 14.419511636386773], [79.18569409762135, 14.417122510941871], [79.18817329481409, 14.41645268913313], [79.1896062598566, 14.414052652409461], [79.19815082743855, 14.406196025871001], [79.19992592103569, 14.405176255486541], [79.20275555826257, 14.404853366471919], [79.2042020661053, 14.400731137518054], [79.20811644770501, 14.397316489685634], [79.21098439642313, 14.392171659581313], [79.21453697528034, 14.389787451884118], [79.21562707796842, 14.386006861600293], [79.21882345164869, 14.38396432384255], [79.22132129146229, 14.380883167391389], [79.23018427489347, 14.377160787969125], [79.23090988410809, 14.374755127014511], [79.23233668999667, 14.373043581659045], [79.2362285640879, 14.372383730462932], [79.23800862875223, 14.3706747763042], [79.24016083275136, 14.366557473220128], [79.24478874253076, 14.362114056174322], [79.24586474651709, 14.36005536440999], [79.2479952531499, 14.358693353894601], [79.25047100140445, 14.358367204704708], [79.25332675474745, 14.354599379343172], [79.25935665462741, 14.351543731157362], [79.26184826345407, 14.349150889175753], [79.26221482792532, 14.347431342705574], [79.259741864067, 14.347413203574709], [79.25760087695751, 14.350153046807847], [79.25404668430924, 14.352882458021801], [79.24483170164086, 14.356603275766956], [79.23882574981924, 14.356558710851752], [79.23424917916222, 14.354457997664287], [79.23142559380467, 14.354092500336353], [79.22928692765969, 14.356487618760744], [79.22819182909606, 14.360957165107358], [79.22712380559535, 14.361982496264448], [79.22535732176942, 14.361969267902984], [79.22360171079346, 14.360578347321983], [79.22326200665111, 14.358853598971711], [79.22576489733021, 14.35508350970407], [79.22578388815242, 14.352672566988995], [79.22403376984269, 14.350592816276437], [79.22157169665725, 14.349196596164916], [79.21486765482507, 14.348112889587014], [79.21346275572043, 14.347068990145562], [79.2141856726043, 14.345007802521572], [79.21560965104749, 14.343640765580153], [79.21492493742672, 14.340880098652974], [79.21175378191104, 14.339822894454588], [79.20890582054278, 14.3425569123019], [79.20713402802512, 14.343232400186816], [79.20463374911967, 14.346657858726502], [79.20143509222247, 14.34904467338155], [79.20174987534315, 14.353869176452163], [79.20029547262926, 14.359024682066547], [79.1985125027534, 14.361077746782808], [79.19814267171702, 14.363141549275483], [79.19635688670337, 14.365539005501358], [79.19351392759567, 14.367583945130326], [79.19136367807738, 14.371356310397683], [79.18710459591368, 14.373734767374282], [79.18602800582185, 14.375793119961463], [79.18707683138824, 14.377178891744881], [79.18884339743535, 14.377192419494836], [79.19311083610906, 14.373780696520894], [79.19771213692525, 14.372782472518653], [79.20658055861185, 14.368372150929693], [79.20940698498548, 14.368393543295236], [79.21081198342802, 14.369437478254623], [79.21112420481063, 14.374606404674084], [79.20933844023061, 14.377003962183602], [79.20859338613667, 14.381820443753261], [79.20141938595927, 14.39519900365392], [79.19429711712125, 14.402033386079212], [79.1907163801588, 14.407861361952712], [79.18146476922426, 14.41571223676421], [79.17967553780893, 14.41845389682841], [79.17966155437334, 14.42017594552214]], [[79.23559215419914, 14.363423497101634], [79.23242867653937, 14.361333259589518], [79.23173290360602, 14.359950300657001], [79.23210242410597, 14.357886408972597], [79.24198116768815, 14.359682132580543], [79.24197309936535, 14.360715402257638], [79.23913594324218, 14.362072100166856], [79.23770926382309, 14.363783701885644], [79.23559215419914, 14.363423497101634]]]]}}, {"type": "Feature", "properties": {"depth_class": 4, "depth_lo_m": 3.0, "t_s": 49500.013773345534}, "geometry": {"type": "Polygon", "coordinates": [[[79.23629605720501, 14.363773182095052], [79.23242867653937, 14.361333259589518], [79.23173290360602, 14.359950300657001], [79.23210242410597, 14.357886408972597], [79.24198116768815, 14.359682132580543], [79.24161711148126, 14.361057203145224], [79.23913594324218, 14.362072100166856], [79.23770926382309, 14.363783701885644], [79.23629605720501, 14.363773182095052]]]}}]}