{"type": "FeatureCollection", "features": [{"type": "Feature", "properties": {"depth_class": 1, "depth_lo_m": 0.3, "t_s": 63900.62270976966}, "geometry": {"type": "MultiPolygon", "coordinates": [[[[79.01495505485937, 14.222537224894142], [79.01602618186206, 14.221168489959858], [79.01990356688542, 14.221889463281796], [79.02168672354301, 14.21983777971867], [79.02171966913033, 14.216049556950844], [79.02102559621225, 14.214666178048029], [79.01646329169536, 14.211528701211513], [79.01293009436576, 14.211843776031177], [79.01150297172912, 14.213553947723556], [79.01148190310485, 14.215964620613429], [79.01217892634699, 14.21700363815606], [79.01145480907574, 14.21906405642834], [79.01178676525986, 14.221477665450031], [79.01318385684436, 14.223211319384776], [79.01495505485937, 14.222537224894142]], [[79.01815339219868, 14.220152915754356], [79.01641525626744, 14.217038827487833], [79.01324101536012, 14.216668060368143], [79.01254398765876, 14.215629045399083], [79.01291806577964, 14.213221304854397], [79.01610126561869, 14.2125589214722], [79.01819839683871, 14.214987168333762], [79.02030755945819, 14.21603786761961], [79.02027459039152, 14.219826087145787], [79.01815339219868, 14.220152915754356]]], [[[79.16062073082857, 14.241613360551185], [79.16141054658739, 14.231286456682], [79.16388767401897, 14.23061664514664], [79.16425466223365, 14.228897297796511], [79.16320934656169, 14.227167095131888], [79.16074340297509, 14.226459257530584], [79.15898919719153, 14.225068015579426], [79.15722384841197, 14.225054407334662], [79.15543614648841, 14.227796071131706], [79.15331770701934, 14.227779705115275], [79.15189701514774, 14.228802013680765], [79.15187180994066, 14.23190170211306], [79.15291145065518, 14.234320765836308], [79.15572493499282, 14.235720239400475], [79.15708977487797, 14.241586124182863], [79.15814347395816, 14.242283121995076], [79.15990895746806, 14.242296739560603], [79.16062073082857, 14.241613360551185]], [[79.15890271052439, 14.235744762761133], [79.156100381072, 14.232967682060588], [79.1561087649173, 14.231934450296858], [79.1582244551067, 14.232295207249601], [79.15890271052439, 14.235744762761133]]], [[[79.08151167257954, 14.243057136781996], [79.08615978992073, 14.236206060530675], [79.08618589922843, 14.233106490654498], [79.08513830521576, 14.231720413936236], [79.08231669182003, 14.231353355484158], [79.07805953813532, 14.233730065580076], [79.07591488787189, 14.236812557760208], [79.07344923239685, 14.23610383948126], [79.07167511493171, 14.237122769646927], [79.07129864910195, 14.23987506592863], [79.07199602814937, 14.240913951278323], [79.0762329555112, 14.240948137107504], [79.078333936615, 14.24303157099753], [79.08151167257954, 14.243057136781996]], [[79.07799834522582, 14.240962359037873], [79.07768607369903, 14.236137988239372], [79.08194909323745, 14.23307249975079], [79.0844205620407, 14.23309233689971], [79.08475040425927, 14.235850339677373], [79.08259709068597, 14.239966087753174], [79.08011099218182, 14.241668198613514], [79.07799834522582, 14.240962359037873]]], [[[79.11821835883717, 14.245071512487145], [79.12036827828598, 14.241299773694987], [79.1203882306469, 14.238888950273804], [79.11899871194554, 14.236122600929617], [79.11653001572947, 14.235758714744671], [79.1143801013723, 14.239530419205416], [79.11400413678402, 14.242282846396957], [79.11680598822896, 14.245060370735448], [79.11821835883717, 14.245071512487145]]], [[[79.16832216969821, 14.249938998871327], [79.17009883018049, 14.248574897023243], [79.17011271268609, 14.246852832703508], [79.16871418063701, 14.245119933448054], [79.16695422780072, 14.244417553686498], [79.16306454171482, 14.245076511262727], [79.1630478205135, 14.247142980536276], [79.16479385395367, 14.249567449105914], [79.16832216969821, 14.249938998871327]]], [[[79.03554013007644, 14.250949013555928], [79.0366291776813, 14.247513873873078], [79.03910966212598, 14.246501040001654], [79.0398247406424, 14.245473681792664], [79.03773901955564, 14.241668018523457], [79.03597366669133, 14.241653498239108], [79.03418744478843, 14.24404966533019], [79.03206004836434, 14.245065360902002], [79.03027674584823, 14.24711710443601], [79.03026180257916, 14.248839028483157], [79.0316681509471, 14.249539455419903], [79.03306256862246, 14.251617416362873], [79.03554013007644, 14.250949013555928]], [[79.0334604150932, 14.246454546198297], [79.03486676209809, 14.24715495376699], [79.03450175466527, 14.248529588185537], [79.0330924167534, 14.248173562985087], [79.0334604150932, 14.246454546198297]]], [[[79.14994087311307, 14.252208173319229], [79.15102826467518, 14.248772296647056], [79.15032766775767, 14.248078004482615], [79.14820623550241, 14.248405978891922], [79.14749159442616, 14.24943372182049], [79.14817813314792, 14.251850064247948], [79.14994087311307, 14.252208173319229]]], [[[79.15484240863205, 14.257412611079138], [79.15802607964194, 14.25674836224274], [79.15945252790885, 14.25503721604263], [79.1598168184424, 14.253662298334193], [79.15912176647568, 14.252279206017063], [79.15559344707114, 14.251907517589915], [79.15063867272822, 14.253246876720594], [79.15097775075049, 14.254971659267863], [79.15237899057023, 14.256360243062014], [79.15484240863205, 14.257412611079138]]], [[[79.02804154572235, 14.260530589186269], [79.0287627095181, 14.258814509097384], [79.02702119820533, 14.256044834396468], [79.02455556226504, 14.255335604427632], [79.02207192835726, 14.256692648188968], [79.0220509053966, 14.259103327882938], [79.02345127789235, 14.260492573724974], [79.0252107656334, 14.261195972272752], [79.02804154572235, 14.260530589186269]], [[79.02383138253299, 14.257396052775857], [79.02559984263743, 14.257066295060401], [79.02664413778716, 14.25879698293623], [79.02487266498778, 14.259471130173212], [79.02381937995807, 14.258773585480736], [79.02383138253299, 14.257396052775857]]], [[[79.04850358252169, 14.262765450493285], [79.05028984157772, 14.260369179149508], [79.04924534627528, 14.258638571089168], [79.04783887698481, 14.257938234206215], [79.04607338689839, 14.25792377245424], [79.04536125543804, 14.258606759378878], [79.04532860188453, 14.262395022668189], [79.04850358252169, 14.262765450493285]]], [[[79.08311707004823, 14.262013076241544], [79.08349346713261, 14.259260752706338], [79.08279307445079, 14.258566284081496], [79.08067443677503, 14.258549238154322], [79.0785441306088, 14.259909751037718], [79.0785324580722, 14.261287328479622], [79.07958303760977, 14.26232904852435], [79.08205190822744, 14.262693345098118], [79.08311707004823, 14.262013076241544]]], [[[79.12110511773436, 14.280225643549965], [79.12571600230633, 14.277851005246333], [79.12714567070195, 14.275795697487682], [79.12717698859835, 14.272007256615879], [79.12612897178052, 14.27062131111833], [79.12436330185616, 14.270607416796771], [79.12329534370475, 14.271632283026035], [79.12184568702175, 14.276098385732121], [79.1204159723307, 14.278153655482233], [79.12040168028176, 14.279875666635345], [79.12110511773436, 14.280225643549965]]], [[[79.10415986245036, 14.279402474961445], [79.10381825341616, 14.27802206717275], [79.10204966246354, 14.278352399022232], [79.10238837462667, 14.28007720665401], [79.10415986245036, 14.279402474961445]]], [[[79.16325582934937, 14.395249949285873], [79.16432991571462, 14.393536146779038], [79.16434961879118, 14.391125293821842], [79.16365140433741, 14.390086583545266], [79.16224090765948, 14.389731195144094], [79.16116682836517, 14.391444988943292], [79.16114709068017, 14.393855837514069], [79.16183684461402, 14.395927775868332], [79.16325582934937, 14.395249949285873]]], [[[79.25108462559113, 14.27914921208764], [79.25324349900218, 14.273998350284726], [79.25007832344753, 14.272252884689003], [79.24689987706888, 14.272229515882422], [79.24582706335131, 14.273943849168559], [79.24650139593598, 14.27808216771395], [79.24896559506666, 14.279133639181389], [79.25108462559113, 14.27914921208764]]], [[[79.18680851639424, 14.278668455029576], [79.18574352209505, 14.27934921523604], [79.18715340434656, 14.279704389602344], [79.18680851639424, 14.278668455029576]]], [[[79.19693767621268, 14.292867313560018], [79.19660645396279, 14.29010930312891], [79.1948405619527, 14.290095913102396], [79.19411771305107, 14.292157050761265], [79.19481857981049, 14.292851243873615], [79.19693767621268, 14.292867313560018]]], [[[79.27887019828835, 14.294507512505202], [79.27816379614163, 14.294502400653771], [79.27815330943618, 14.295880127667404], [79.27921553937628, 14.295543363498092], [79.27887019828835, 14.294507512505202]]], [[[79.18629527385743, 14.298641824783541], [79.18560547254506, 14.296569950167878], [79.18383124402081, 14.2975897148195], [79.184523795448, 14.299317178717667], [79.18629527385743, 14.298641824783541]]], [[[79.20599749448762, 14.30843555064588], [79.20813859504698, 14.305696190453475], [79.20959233103855, 14.300540553829041], [79.21207833038515, 14.298837059373568], [79.21102964286314, 14.297451414136537], [79.209263679529, 14.297438124439502], [79.20748952865756, 14.29845807734044], [79.20290075311033, 14.298079008497385], [79.2004201871256, 14.299093565596968], [79.20041196444795, 14.300126817120292], [79.20252292187436, 14.301176097610767], [79.20175899140547, 14.308403519678915], [79.20245992865466, 14.309097698013634], [79.20599749448762, 14.30843555064588]], [[79.20391929410728, 14.303253279765338], [79.20498436521882, 14.302572446247986], [79.20639443207318, 14.302927526425067], [79.20637530313648, 14.30533845365633], [79.20495154564892, 14.306705460962316], [79.20354145926254, 14.30635036984033], [79.20391929410728, 14.303253279765338]]], [[[79.22612511965026, 14.309275510284424], [79.22578812930067, 14.307206343411737], [79.22473661262339, 14.30616516694162], [79.22121536675934, 14.304761078472447], [79.21803108331166, 14.305426112474521], [79.21660466950142, 14.307137617788522], [79.21729206936566, 14.309553857761003], [79.2204791256004, 14.308544420173183], [79.22505736117417, 14.310300863465896], [79.22612511965026, 14.309275510284424]]], [[[79.25613529681029, 14.311219842386146], [79.26072720152935, 14.311253495464369], [79.26214804485217, 14.310230547289763], [79.26215864008213, 14.30885283362684], [79.25970201220284, 14.306768173522379], [79.25687362454231, 14.307091896106826], [79.25508892688053, 14.309489928243392], [79.25508094787688, 14.310523209551759], [79.25613529681029, 14.311219842386146]]], [[[79.26595152952704, 14.320936225809948], [79.2663259247379, 14.318183373669715], [79.26563267837608, 14.316456072102692], [79.26423033451846, 14.3150680377755], [79.26246418279715, 14.31505512743571], [79.26139653925854, 14.316080659247323], [79.26137532721731, 14.318836083615189], [79.26241913285213, 14.320910407252855], [79.2631203124434, 14.32160443167203], [79.26595152952704, 14.320936225809948]]], [[[79.23347260866282, 14.318285755859405], [79.232774234945, 14.317247232484718], [79.23135862639774, 14.317581139166496], [79.23169836989608, 14.319305881585604], [79.23275806314423, 14.319313768838931], [79.23347260866282, 14.318285755859405]]], [[[79.22108247831974, 14.32163769267537], [79.22356594763282, 14.3202785186471], [79.22250896645042, 14.319926169118348], [79.22109061932616, 14.320604431303712], [79.22108247831974, 14.32163769267537]]], [[[79.23662209151291, 14.322098035371836], [79.23520914695212, 14.322087538968848], [79.23554892317406, 14.323812279409951], [79.23696456873827, 14.32347835167518], [79.23662209151291, 14.322098035371836]]], [[[79.20421793887364, 14.486839951849934], [79.21379250887286, 14.483124135156066], [79.22091713648038, 14.476289436816026], [79.22415320194334, 14.469425151298315], [79.22423531714885, 14.459092644878153], [79.22318591981956, 14.457706976535237], [79.21647044122378, 14.457656198460112], [79.2139853172544, 14.459015103063036], [79.21221808205702, 14.459001688733004], [79.20940706181207, 14.456913712566873], [79.19916279350477, 14.45614671208121], [79.1967192693943, 14.45233924447338], [79.19638805507248, 14.449581241871124], [79.19464314752395, 14.446812410030075], [79.19465982144033, 14.444745939018537], [79.19820790004779, 14.443050929041938], [79.19822453653106, 14.440984453299974], [79.19682197262183, 14.439595991837376], [79.19117015368569, 14.439208252773318], [79.18694595695862, 14.437109205382724], [79.18414104565002, 14.434332162760695], [79.18310319217898, 14.431568715031252], [79.18028440604613, 14.430513686913267], [79.18065458517047, 14.428449955724691], [79.18637019952257, 14.420916463855379], [79.1874359149973, 14.420235787021166], [79.1909669475182, 14.42060731501328], [79.19238603128129, 14.41992932264157], [79.19277550400834, 14.415454669366092], [79.2002571806601, 14.40793426039848], [79.2023801253011, 14.407605993365134], [79.20483989487872, 14.409346881773345], [79.2069600987128, 14.40936298956789], [79.20802845477317, 14.40833778998573], [79.20839557202822, 14.406618393190618], [79.20629466368234, 14.40419139472762], [79.20630842666267, 14.402469318304766], [79.21022555969762, 14.398710219677724], [79.21273740024367, 14.393907106523441], [79.21628999338489, 14.391522873820577], [79.21737734695827, 14.388086691370342], [79.21880434300346, 14.38637525105716], [79.22128585882707, 14.385360610502296], [79.22236220206237, 14.38330206680421], [79.22413973510976, 14.381937659753007], [79.23158130772146, 14.379237878454017], [79.23373372323205, 14.375120659464887], [79.23691899573522, 14.374455526116336], [79.23904969375523, 14.373093619389921], [79.24119921590956, 14.369320730923452], [79.24440051731051, 14.366588944125347], [79.24832979138085, 14.361106937172208], [79.25187081431211, 14.360099761528803], [79.25543582656783, 14.35599269715539], [79.26004726625354, 14.353615479710463], [79.26254155036546, 14.350878205334187], [79.26679953689506, 14.348498245773445], [79.26824443055061, 14.344375431330645], [79.27002403390944, 14.342666180123969], [79.27110234782688, 14.340262904845737], [79.27148202089784, 14.336821186738023], [79.26973947206454, 14.333708449661863], [79.26975532215044, 14.33164187484142], [79.27263411346925, 14.324773865933402], [79.27901095652656, 14.322409022724305], [79.28328394142262, 14.317962090326239], [79.28436458813444, 14.315214288713571], [79.28478841597853, 14.305917161655488], [79.28621957541192, 14.303516321314737], [79.28627960980252, 14.295594360136352], [79.28522783015963, 14.294553424882846], [79.28528786003741, 14.286631461878686], [79.2814367641336, 14.282125816100354], [79.27826336412261, 14.281413985707864], [79.27404357744963, 14.278972279825139], [79.26946282191015, 14.27756123503803], [79.26630535675504, 14.274782675266525], [79.26136365449331, 14.27440220663874], [79.26030944481852, 14.27370561257518], [79.25961634247075, 14.27197830793676], [79.25680959171362, 14.26954665136335], [79.25543407196949, 14.264714314654205], [79.25545527262003, 14.261958886524395], [79.2565305988506, 14.259900064632667], [79.25620393537068, 14.2564531939174], [79.25444619883794, 14.255406990234274], [79.25126798109069, 14.25538370659869], [79.2512573610017, 14.256761418416165], [79.2533655766776, 14.258154660315348], [79.25335231462223, 14.259876801597162], [79.25156535924124, 14.262619282308723], [79.25119627348178, 14.26468325813286], [79.253644441103, 14.267801236507175], [79.2539551365336, 14.273314672951113], [79.25710976222184, 14.276437805811975], [79.2595740067904, 14.277489171155139], [79.26201977397452, 14.280951518267454], [79.2634351232141, 14.280617396677824], [79.26415203678346, 14.279244828809064], [79.26521156084243, 14.27925255012415], [79.28140800378655, 14.285914575455987], [79.28350885040533, 14.288340897554578], [79.28348795036197, 14.291096360599719], [79.2848641819145, 14.295928610525827], [79.28485373491893, 14.297306342237333], [79.2819835989162, 14.30314129862377], [79.28155443510641, 14.313127274162916], [79.27764263938377, 14.316543452030727], [79.27619814919106, 14.320666372194708], [79.2751331625172, 14.321347538903328], [79.27054101746803, 14.321314141092337], [79.26876688773736, 14.322334559981114], [79.26481237324333, 14.331261338704337], [79.26545266671751, 14.339877209980136], [79.26402632921759, 14.341589011825004], [79.26329855745527, 14.34433926058718], [79.26258669543785, 14.345022939884698], [79.26082031084948, 14.345009990887256], [79.25976579941529, 14.34431336125904], [79.25907786862841, 14.34189718693905], [79.25662893844377, 14.338779183384704], [79.25489459024023, 14.334633080040804], [79.25278837422209, 14.332895352026952], [79.25245646091204, 14.330137342885251], [79.25352688013433, 14.32876743830798], [79.25355619833134, 14.32497874867266], [79.25145807834024, 14.322207740629302], [79.24907885822164, 14.310134617436963], [79.24453783289763, 14.303556662351872], [79.2420814411486, 14.301471844210749], [79.23998633838008, 14.2983563458879], [79.23929870743301, 14.295940145371986], [79.23824716742195, 14.294899026615592], [79.23049577217765, 14.292430391891692], [79.22593132739237, 14.288951976430587], [79.22454291404287, 14.28584164163489], [79.21747938167384, 14.2857888474514], [79.2136243456906, 14.281971100018582], [79.21080715882547, 14.280916624522796], [79.2073000299293, 14.27779028724847], [79.20272260145455, 14.276033590093265], [79.20097595894678, 14.273609332334582], [79.19710497536829, 14.271857874924889], [79.19395956347661, 14.267700798578083], [79.19008874360146, 14.265949244556703], [79.18484680021416, 14.259020651482178], [79.18308668000711, 14.258318372796444], [79.17919676428346, 14.258977570022124], [79.1774145246037, 14.261030563168395], [79.17739514603245, 14.263441460138985], [79.1780958774229, 14.264135687505181], [79.18162722580121, 14.264162654925178], [79.18305080743532, 14.262795767659622], [79.18446334145813, 14.262806530553664], [79.18726087457081, 14.266272188064617], [79.18654632933307, 14.267300061103878], [79.1837212032119, 14.267278545006777], [79.18090990128044, 14.265534923431781], [79.17808480602346, 14.26551334314606], [79.17668610994663, 14.263780472241285], [79.17174780066333, 14.263053776300193], [79.16648146829836, 14.259224559666741], [79.16224677007651, 14.258847523336051], [79.15976652656373, 14.259861689227272], [79.15764778281454, 14.259845325603893], [79.15483680520565, 14.258101430305405], [79.14918688744316, 14.258057640688701], [79.14603696512143, 14.254588870941879], [79.14215272412552, 14.254558643920747], [79.13718653299804, 14.257275331503108], [79.13365538046241, 14.257247718917691], [79.13154803986626, 14.255853505975125], [79.12907057477047, 14.256522935317872], [79.12271455630069, 14.256472981378662], [79.12166092575862, 14.255775832996612], [79.11565520334656, 14.256072876631308], [79.11179106985361, 14.253631343350037], [79.1086131297024, 14.253606162316624], [79.10615864991078, 14.251520146914611], [79.10333672795494, 14.251153302801402], [79.10052346716219, 14.249753229128471], [79.09239647917887, 14.250377222188446], [79.08923021884306, 14.248974201153834], [79.08499892090181, 14.248251435203082], [79.08533457946547, 14.250320645476238], [79.0881593356332, 14.250343301212633], [79.09202600926733, 14.252440782431284], [79.09414460401587, 14.252457720423605], [79.09450348762532, 14.251771745936612], [79.1022659096145, 14.252522475308346], [79.10577679745121, 14.254961343796651], [79.10931072793117, 14.25464496397637], [79.11246575866322, 14.257425348035428], [79.11705334709286, 14.257806044630298], [79.11776528785954, 14.257122816040852], [79.11988395797688, 14.257139530856069], [79.12233293364983, 14.259914233352312], [79.12904500655704, 14.259622576237572], [79.13220888526051, 14.261369520898434], [79.14457662034398, 14.260432816152314], [79.14879722030216, 14.26253220813857], [79.15760860520928, 14.264667065972189], [79.16361742643336, 14.264024574777844], [79.16642576662272, 14.266112794205002], [79.16959842462094, 14.266826050561178], [79.17522089627015, 14.270313515234829], [79.18157472794552, 14.270706530607404], [79.18933018361683, 14.272487782595345], [79.1959906706357, 14.27873819552451], [79.19881048035722, 14.279448417918994], [79.20373290424479, 14.282241114087354], [79.20617506068005, 14.286048359950007], [79.20758503040106, 14.286403421718246], [79.21179047878915, 14.290568336645125], [79.21671060613835, 14.293705229099322], [79.21704207694683, 14.296463239965947], [79.21952255925578, 14.295448497139576], [79.22411405306721, 14.295482820454344], [79.22833078314021, 14.29826980508567], [79.23220788257778, 14.299331984966495], [79.23991125925004, 14.308000231878854], [79.24268608381898, 14.314565211003423], [79.24260566822288, 14.324897946659764], [79.2383022379446, 14.333132695897763], [79.2358079120239, 14.33586970794542], [79.23289816743927, 14.346525762247953], [79.23002598458294, 14.352359844022336], [79.22825686452052, 14.352691066842445], [79.2254604476258, 14.348881297470843], [79.22194671368975, 14.34644388747914], [79.2163597803552, 14.338135377060842], [79.21318865282367, 14.337078195517993], [79.21142237761242, 14.337064885870417], [79.20964790108688, 14.338084816569355], [79.207862459386, 14.34048240173816], [79.20538141979688, 14.34149695547753], [79.20217186082584, 14.345261455501657], [79.19933197678742, 14.346962088730017], [79.19927692193757, 14.353850398598027], [79.1981867754239, 14.3576309094781], [79.19640380086236, 14.359683957586995], [79.1953190901755, 14.362775615806866], [79.19212009989089, 14.365162263300414], [79.18890441024277, 14.369615337063943], [79.1825283003781, 14.371633072520883], [79.17757926944321, 14.371939454769425], [79.17402946830842, 14.373978687716608], [79.16943650400962, 14.373943208480737], [79.16732509747746, 14.372893577349869], [79.16485198252765, 14.372874415588685], [79.16130488969576, 14.374569034471634], [79.15845871911306, 14.376957907190706], [79.15738186376306, 14.379016095993277], [79.15348414288727, 14.380363420545129], [79.14992268601695, 14.383779868770059], [79.14884287961317, 14.386182409064205], [79.14528978730894, 14.388565554441355], [79.14420990453645, 14.390968063958073], [79.14064528413546, 14.394728735366252], [79.13920056390741, 14.398506041139916], [79.13987013683021, 14.402988837954203], [79.13771577522758, 14.407104959271946], [79.13732238970736, 14.411923797942558], [79.13590037180987, 14.412945847198245], [79.13307923519028, 14.41223470839221], [79.12671593768837, 14.412528728513765], [79.12422804059908, 14.41423108527103], [79.12279442373476, 14.416630641398728], [79.12067136489405, 14.416958168184593], [79.11676413269696, 14.41933796926961], [79.11319279385442, 14.423786900802437], [79.10928536964087, 14.426166552548928], [79.10957770795741, 14.433401694596505], [79.10885639328552, 14.435118004038435], [79.10564967355276, 14.438192022455953], [79.10140896626353, 14.438157902718993], [79.0974953164288, 14.441226096367803], [79.09783114903924, 14.443295306997006], [79.10343883591125, 14.448851188804781], [79.1034154735327, 14.451606339842376], [79.10127160077619, 14.454344400866246], [79.10087429937307, 14.459507448449774], [79.09944302675532, 14.46156239529454], [79.09977888409279, 14.463631605713402], [79.10293930381745, 14.466068022325086], [79.11561075864303, 14.472369386869058], [79.11843835133871, 14.472392023853072], [79.12342716176224, 14.467609994951067], [79.12522905646651, 14.463491310575494], [79.12736699408674, 14.461441804971829], [79.1298439151228, 14.461117077229494], [79.13229780563232, 14.463547516691552], [79.13405924571494, 14.464250334219564], [79.1354787526756, 14.463572740266752], [79.13515117919177, 14.460470341281301], [79.13374894652941, 14.459081537996072], [79.13163411648048, 14.458375918101366], [79.13058534730231, 14.456989904415249], [79.13026360011133, 14.453198708050014], [79.12922062215954, 14.451123893675373], [79.1295913202169, 14.449060306169928], [79.13101648975679, 14.447693929540666], [79.13314271650584, 14.447021943805607], [79.13741807230997, 14.442922703659793], [79.13814207670379, 14.440861883390221], [79.14349454841009, 14.434704463865627], [79.15130621380692, 14.43028830641349], [79.15626501351721, 14.428949418107106], [79.15731951296027, 14.429646513623618], [79.15730817985022, 14.43102413400552], [79.15338111475347, 14.435815386324464], [79.15371463227977, 14.43822898362573], [79.15476632347675, 14.439270498629053], [79.15652767357795, 14.43997313498484], [79.16430262034379, 14.44003381967862], [79.17350248133481, 14.438727575850427], [79.18019483197412, 14.441534786491797], [79.18300256440392, 14.443967469669358], [79.18471935145479, 14.450180467664522], [79.18682874991721, 14.451574441938366], [79.18855405128292, 14.4567541964309], [79.19031566979474, 14.457456607641102], [79.19241124632464, 14.460572598005456], [79.19096400869967, 14.464694664654706], [79.19342981822378, 14.465746904730699], [79.19447904658355, 14.467132688029368], [79.19516091423556, 14.470237812977192], [79.1950940984517, 14.478503679174414], [79.19683364608761, 14.481961352343513], [79.19679746242105, 14.486438696979448], [79.20421793887364, 14.486839951849934]], [[79.19454861208239, 14.458522405237945], [79.19068862042174, 14.455048448754896], [79.18860426977277, 14.450554808397754], [79.18614423359895, 14.448813718382238], [79.18547090239754, 14.444675353825508], [79.18407679060047, 14.442253593641105], [79.18056504267017, 14.439471059503015], [79.17738716148251, 14.439102076515779], [79.17422053145204, 14.437355419299838], [79.17068648283407, 14.43732802073674], [79.1689110103996, 14.43834752299307], [79.15618845184972, 14.438248347406262], [79.15514527121023, 14.43617362498902], [79.15907797088384, 14.430693528835793], [79.15909212314479, 14.428971501563227], [79.15768989687447, 14.427582843155074], [79.15450942110849, 14.427557980324076], [79.15025742149166, 14.42890237839308], [79.14280204030162, 14.432976886498617], [79.13959862432326, 14.435707025979877], [79.13565964711638, 14.44187552843229], [79.13280942345797, 14.444608344029081], [79.12784154090392, 14.44697987516473], [79.12533591591257, 14.450748583489844], [79.121097815608, 14.45037039170745], [79.11299253060861, 14.447550240974515], [79.1062894339343, 14.4461187796414], [79.1041806755636, 14.444724149222848], [79.10243410576109, 14.442299167504853], [79.10668363457486, 14.441300094038834], [79.11024960004274, 14.437540108321462], [79.11205141172431, 14.43342151495199], [79.11139690885294, 14.427216725788764], [79.11459468989713, 14.42517578830624], [79.11780976954242, 14.421068414639562], [79.12100740830873, 14.419027371437632], [79.1234838526451, 14.418702653954444], [79.12527372050376, 14.415961502351761], [79.12740827245787, 14.41425633345118], [79.12987604602742, 14.414964741697595], [79.13552983261042, 14.415009464776514], [79.13872724697175, 14.412968150468943], [79.13912346387411, 14.407804904263973], [79.14163685885667, 14.403002742365082], [79.14096724998971, 14.398519946324246], [79.14205291134348, 14.395428655361185], [79.14561752343545, 14.391667961428247], [79.14633838879513, 14.389951482815302], [79.14989149573914, 14.38756832322825], [79.15133028476697, 14.38447972935342], [79.15382331151207, 14.382088207112847], [79.15772106227752, 14.380740880480031], [79.15986349213635, 14.378002122526674], [79.16448462719171, 14.374593716761789], [79.1662539587794, 14.374263002254], [79.16871867762264, 14.375315377948603], [79.174724898446, 14.375361778504143], [79.17756531700682, 14.373661508207519], [79.18428647818537, 14.372679865091113], [79.19031207603236, 14.370314970270483], [79.1924595634327, 14.366887028861282], [79.1960146328617, 14.364158656563665], [79.19959991408109, 14.357641652100439], [79.19997797475308, 14.35454459735308], [79.20069003773105, 14.353861131956295], [79.20073954957789, 14.347661648436189], [79.2028674071764, 14.3466444766692], [79.20501170457963, 14.34356078301086], [79.20856076841793, 14.341520991580452], [79.21069947082329, 14.339126066400382], [79.21317500752068, 14.338800287930894], [79.2149358447759, 14.339502423664786], [79.21703361224013, 14.34227371793398], [79.21629710352181, 14.346057013031237], [79.21912598651602, 14.345733837761413], [79.22122657758175, 14.3481606865212], [79.22544688437735, 14.350603399709145], [79.22684373473547, 14.352680498653426], [79.22682204359916, 14.35543586330026], [79.22468331899616, 14.357830932803962], [79.22466702516711, 14.359897453028003], [79.22536818202168, 14.360591587518524], [79.22713465505112, 14.360604814558352], [79.22822706176052, 14.356479695964126], [79.23108042287562, 14.353056599383212], [79.23355611145591, 14.352730622600282], [79.2381272521701, 14.355520190033126], [79.2451930447499, 14.355572620675991], [79.25511988687454, 14.35116813399173], [79.25939390433754, 14.346721756522115], [79.26399184555211, 14.346066572754152], [79.26542086616723, 14.344010346939099], [79.26543411762856, 14.342288206722635], [79.26686045049053, 14.340576395797896], [79.26690544966591, 14.33472111182424], [79.2672640030776, 14.334034834535325], [79.26832378568176, 14.334042570927146], [79.26972097710271, 14.336119453143345], [79.26969190663925, 14.339908171864717], [79.26897214390306, 14.341625160616143], [79.26719519024915, 14.342989975728864], [79.26610622101664, 14.346770938894872], [79.26291076930906, 14.348814230337627], [79.25934867074488, 14.352577011169313], [79.25438395672744, 14.354951614580271], [79.25152821439289, 14.358719454081738], [79.2472779370904, 14.360065824474004], [79.24370734191805, 14.364861587313667], [79.24086206122452, 14.367251569285303], [79.23870986113373, 14.371368879223855], [79.23622046190586, 14.373416995826183], [79.23268188651663, 14.37407948329147], [79.23017343107414, 14.378538470034725], [79.22769745326192, 14.378864377661186], [79.22273187106856, 14.381238207892688], [79.22023404426174, 14.384319380930563], [79.21739647328026, 14.385675766382846], [79.21487936599081, 14.391167788904339], [79.21132676651973, 14.393551999383918], [79.20881490250478, 14.398355094645876], [79.2045388896889, 14.402800312840123], [79.20626988572661, 14.407291131624888], [79.20520703857476, 14.40762749309644], [79.20309788612784, 14.406233713178791], [79.20097771636368, 14.406217574147039], [79.19849312718377, 14.407576376054692], [79.1913675629356, 14.414755019398697], [79.19063024493235, 14.418538134732563], [79.18674029698568, 14.41885271310505], [79.18282242455615, 14.42261132904973], [79.1820988944584, 14.424672345281513], [79.17817243701025, 14.429464088820966], [79.17780223265352, 14.43152781306395], [79.18202902044608, 14.433282593217225], [79.18306686541317, 14.436046044675633], [79.18692922105616, 14.439175668889831], [79.19080282348453, 14.440927596704512], [79.19503824342753, 14.441648938849882], [79.19255042476213, 14.443352035957584], [79.19253095084126, 14.445762916235951], [79.19426470266204, 14.449909406627304], [79.19493820363594, 14.454047765056885], [79.19633527738841, 14.456125069011195], [79.19631860525081, 14.458191539946364], [79.19454861208239, 14.458522405237945]], [[79.23955925243247, 14.35311973238037], [79.24175690325217, 14.343147186003321], [79.24462329124432, 14.338001758357624], [79.24536732964313, 14.333185041389923], [79.24714698762395, 14.331475969985874], [79.24786954159883, 14.329414636006353], [79.24928521390196, 14.329080636839938], [79.25029955264844, 14.334943685850082], [79.254846613622, 14.340832752739672], [79.25658632321817, 14.344290006917667], [79.25692095198521, 14.34670358885477], [79.25548917326105, 14.349104178339068], [79.2537120855267, 14.350468875667408], [79.24804615925139, 14.352149288698719], [79.24520646196416, 14.353850500764088], [79.24026044192941, 14.35381382599267], [79.23955925243247, 14.35311973238037]], [[79.26836608255599, 14.328531708197083], [79.2687087645687, 14.329912001103144], [79.26764371230327, 14.330593126255652], [79.26765428970602, 14.329215410922028], [79.26836608255599, 14.328531708197083]], [[79.24688469393624, 14.319762906280198], [79.24900944425097, 14.319089689663535], [79.249341314721, 14.321847699435388], [79.24862949450166, 14.322531341320213], [79.2465127354401, 14.322171275075434], [79.24688469393624, 14.319762906280198]], [[79.24588918624812, 14.311488876132584], [79.24694617855936, 14.311841121465779], [79.24693014271963, 14.313907674559264], [79.24587581551452, 14.313211002809119], [79.24588918624812, 14.311488876132584]], [[79.23681291317966, 14.29764395230059], [79.23645434371123, 14.298330181651147], [79.23610651710949, 14.29763871447692], [79.23681291317966, 14.29764395230059]], [[79.2230788240424, 14.29237511301157], [79.22308693859583, 14.291341847978568], [79.22449968173237, 14.29135239429988], [79.22624941151338, 14.29343209896246], [79.2230788240424, 14.29237511301157]]], [[[79.16442118413346, 14.425568751210808], [79.17118609415411, 14.419421555977012], [79.17721310468433, 14.417057167840365], [79.181846064687, 14.412270855766566], [79.18788392293835, 14.408528511764741], [79.19144808830615, 14.404767063699852], [79.19288647651734, 14.4016781664921], [79.20036487384456, 14.394502106220585], [79.20789772018531, 14.380437426584614], [79.20828123355795, 14.376651522561541], [79.21006974618533, 14.373909557101118], [79.21009441191777, 14.370809805006042], [79.20904545684263, 14.369424121505862], [79.20621627209114, 14.369747139574548], [79.1977010977168, 14.374160130600883], [79.19487185283947, 14.37448300404689], [79.19166990693456, 14.377214036497946], [79.1845146249475, 14.388181106534702], [79.18024398406503, 14.391937033674811], [79.17699407163177, 14.400522781754283], [79.17592843137203, 14.401203419780503], [79.17448982622638, 14.404292186772162], [79.16985972267022, 14.408733950256412], [79.16589672812555, 14.418002791695004], [79.1605678797502, 14.421405601424306], [79.15984415860721, 14.42346652589484], [79.16124355109422, 14.425199576489922], [79.16442118413346, 14.425568751210808]], [[79.16232911990252, 14.422108180925699], [79.1676607794937, 14.418360922958373], [79.17126754526589, 14.40943371658414], [79.17447021325742, 14.406703050767831], [79.17840187339402, 14.401222502546407], [79.18165174780628, 14.392636730438365], [79.18592238303502, 14.38888077686299], [79.1934364777587, 14.37722753000178], [79.19521410739208, 14.375863354511958], [79.19769005733735, 14.375537788514762], [79.20797456814176, 14.370793767407319], [79.20867569735603, 14.371487948718924], [79.2086592403498, 14.373554448483], [79.20722952215696, 14.375610246077487], [79.2064816841442, 14.380771132817989], [79.20398090899145, 14.384196524539837], [79.20289338400619, 14.387632624895447], [79.20146902641518, 14.38899953923404], [79.19931036858951, 14.39380520480194], [79.19325923355827, 14.399269978709876], [79.18968130291023, 14.404753530058967], [79.18540760161633, 14.408853929965106], [79.18186002336057, 14.41054880382484], [79.17758327395964, 14.414993439954696], [79.16942483807019, 14.418719041683719], [79.16514487411203, 14.423507808858307], [79.16231499952741, 14.423830212340333], [79.16232911990252, 14.422108180925699]]]]}}, {"type": "Feature", "properties": {"depth_class": 2, "depth_lo_m": 1.0, "t_s": 63900.62270976966}, "geometry": {"type": "MultiPolygon", "coordinates": [[[[79.02027459039152, 14.219826087145787], [79.02065159775512, 14.21707394186038], [79.01960750057071, 14.215343252802397], [79.01819839683871, 14.214987168333762], [79.01610126561869, 14.2125589214722], [79.01291806577964, 14.213221304854397], [79.01254398765876, 14.215629045399083], [79.01324101536012, 14.216668060368143], [79.01641525626744, 14.217038827487833], [79.01815339219868, 14.220152915754356], [79.02027459039152, 14.219826087145787]], [[79.01430610767282, 14.21598809505003], [79.013974124304, 14.213574486052321], [79.01644227872582, 14.213939381788796], [79.0164272670522, 14.215661296171254], [79.01430610767282, 14.21598809505003]]], [[[79.15890271052439, 14.235744762761133], [79.1578741660003, 14.231948073218977], [79.1561087649173, 14.231934450296858], [79.156100381072, 14.232967682060588], [79.15890271052439, 14.235744762761133]]], [[[79.07940483298951, 14.241662517378431], [79.08259709068597, 14.239966087753174], [79.08475040425927, 14.235850339677373], [79.08476782352267, 14.233783961502166], [79.08371733209553, 14.232742275542826], [79.08194909323745, 14.23307249975079], [79.07768607369903, 14.236137988239372], [79.07799834522582, 14.240962359037873], [79.07940483298951, 14.241662517378431]], [[79.07942522056187, 14.239251751550986], [79.0801575696389, 14.236157873678428], [79.0819229262152, 14.236172061922813], [79.08191129440726, 14.2375496448375], [79.08048444823977, 14.239260271119985], [79.07942522056187, 14.239251751550986]]], [[[79.03485781723595, 14.248188111083739], [79.03486676209809, 14.24715495376699], [79.0334604150932, 14.246454546198297], [79.0330924167534, 14.248173562985087], [79.03485781723595, 14.248188111083739]]], [[[79.02593195250584, 14.259479903876935], [79.02630303036523, 14.257416525317973], [79.02383138253299, 14.257396052775857], [79.02416947409795, 14.259120895213629], [79.02593195250584, 14.259479903876935]]], [[[79.19633527738841, 14.456125069011195], [79.19493820363594, 14.454047765056885], [79.19426470266204, 14.449909406627304], [79.19253095084126, 14.445762916235951], [79.19255042476213, 14.443352035957584], [79.19503824342753, 14.441648938849882], [79.19080282348453, 14.440927596704512], [79.18692922105616, 14.439175668889831], [79.18306686541317, 14.436046044675633], [79.18202902044608, 14.433282593217225], [79.17780223265352, 14.43152781306395], [79.17817243701025, 14.429464088820966], [79.1820988944584, 14.424672345281513], [79.18282242455615, 14.42261132904973], [79.18674029698568, 14.41885271310505], [79.19063024493235, 14.418538134732563], [79.1913675629356, 14.414755019398697], [79.19849312718377, 14.407576376054692], [79.20097771636368, 14.406217574147039], [79.20309788612784, 14.406233713178791], [79.20520703857476, 14.40762749309644], [79.20626988572661, 14.407291131624888], [79.2045388896889, 14.402800312840123], [79.20881490250478, 14.398355094645876], [79.21132676651973, 14.393551999383918], [79.21487936599081, 14.391167788904339], [79.21739647328026, 14.385675766382846], [79.22023404426174, 14.384319380930563], [79.22273187106856, 14.381238207892688], [79.22769745326192, 14.378864377661186], [79.23017343107414, 14.378538470034725], [79.23268188651663, 14.37407948329147], [79.23622046190586, 14.373416995826183], [79.23870986113373, 14.371368879223855], [79.24086206122452, 14.367251569285303], [79.24370734191805, 14.364861587313667], [79.2472779370904, 14.360065824474004], [79.25152821439289, 14.358719454081738], [79.25438395672744, 14.354951614580271], [79.25934867074488, 14.352577011169313], [79.26291076930906, 14.348814230337627], [79.26610622101664, 14.346770938894872], [79.26719519024915, 14.342989975728864], [79.26897214390306, 14.341625160616143], [79.26969190663925, 14.339908171864717], [79.26972097710271, 14.336119453143345], [79.26832378568176, 14.334042570927146], [79.2672640030776, 14.334034834535325], [79.26690544966591, 14.33472111182424], [79.26686045049053, 14.340576395797896], [79.26543411762856, 14.342288206722635], [79.26542086616723, 14.344010346939099], [79.26399184555211, 14.346066572754152], [79.25939390433754, 14.346721756522115], [79.25511988687454, 14.35116813399173], [79.2451930447499, 14.355572620675991], [79.2381272521701, 14.355520190033126], [79.23355611145591, 14.352730622600282], [79.23108042287562, 14.353056599383212], [79.22822706176052, 14.356479695964126], [79.22713465505112, 14.360604814558352], [79.22536818202168, 14.360591587518524], [79.22466702516711, 14.359897453028003], [79.22468331899616, 14.357830932803962], [79.22682204359916, 14.35543586330026], [79.22684373473547, 14.352680498653426], [79.22544688437735, 14.350603399709145], [79.22122657758175, 14.3481606865212], [79.21912598651602, 14.345733837761413], [79.21629710352181, 14.346057013031237], [79.21703361224013, 14.34227371793398], [79.2149358447759, 14.339502423664786], [79.21317500752068, 14.338800287930894], [79.21069947082329, 14.339126066400382], [79.20856076841793, 14.341520991580452], [79.20501170457963, 14.34356078301086], [79.2028674071764, 14.3466444766692], [79.20073954957789, 14.347661648436189], [79.20069003773105, 14.353861131956295], [79.19997797475308, 14.35454459735308], [79.19959991408109, 14.357641652100439], [79.1960146328617, 14.364158656563665], [79.1924595634327, 14.366887028861282], [79.19031207603236, 14.370314970270483], [79.18428647818537, 14.372679865091113], [79.17756531700682, 14.373661508207519], [79.174724898446, 14.375361778504143], [79.16871867762264, 14.375315377948603], [79.1662539587794, 14.374263002254], [79.16448462719171, 14.374593716761789], [79.15986349213635, 14.378002122526674], [79.15772106227752, 14.380740880480031], [79.15382331151207, 14.382088207112847], [79.15133028476697, 14.38447972935342], [79.14989149573914, 14.38756832322825], [79.14633838879513, 14.389951482815302], [79.14561752343545, 14.391667961428247], [79.14205291134348, 14.395428655361185], [79.14096724998971, 14.398519946324246], [79.14163685885667, 14.403002742365082], [79.13912346387411, 14.407804904263973], [79.13872724697175, 14.412968150468943], [79.13552983261042, 14.415009464776514], [79.12987604602742, 14.414964741697595], [79.12740827245787, 14.41425633345118], [79.12527372050376, 14.415961502351761], [79.1234838526451, 14.418702653954444], [79.12100740830873, 14.419027371437632], [79.11780976954242, 14.421068414639562], [79.11459468989713, 14.42517578830624], [79.11139690885294, 14.427216725788764], [79.11205141172431, 14.43342151495199], [79.11024960004274, 14.437540108321462], [79.10668363457486, 14.441300094038834], [79.10243410576109, 14.442299167504853], [79.1041806755636, 14.444724149222848], [79.1062894339343, 14.4461187796414], [79.11299253060861, 14.447550240974515], [79.121097815608, 14.45037039170745], [79.12533591591257, 14.450748583489844], [79.12784154090392, 14.44697987516473], [79.13280942345797, 14.444608344029081], [79.13565964711638, 14.44187552843229], [79.13959862432326, 14.435707025979877], [79.14280204030162, 14.432976886498617], [79.15025742149166, 14.42890237839308], [79.15450942110849, 14.427557980324076], [79.15768989687447, 14.427582843155074], [79.15909212314479, 14.428971501563227], [79.15907797088384, 14.430693528835793], [79.15514527121023, 14.43617362498902], [79.15618845184972, 14.438248347406262], [79.1689110103996, 14.43834752299307], [79.17068648283407, 14.43732802073674], [79.17422053145204, 14.437355419299838], [79.17738716148251, 14.439102076515779], [79.18056504267017, 14.439471059503015], [79.18407679060047, 14.442253593641105], [79.18547090239754, 14.444675353825508], [79.18614423359895, 14.448813718382238], [79.18860426977277, 14.450554808397754], [79.19068862042174, 14.455048448754896], [79.19454861208239, 14.458522405237945], [79.19631860525081, 14.458191539946364], [79.19633527738841, 14.456125069011195]], [[79.16194749307182, 14.425549490353507], [79.15984415860721, 14.42346652589484], [79.1605678797502, 14.421405601424306], [79.16589672812555, 14.418002791695004], [79.16985972267022, 14.408733950256412], [79.17448982622638, 14.404292186772162], [79.17592843137203, 14.401203419780503], [79.17699407163177, 14.400522781754283], [79.18024398406503, 14.391937033674811], [79.1845146249475, 14.388181106534702], [79.19166990693456, 14.377214036497946], [79.19487185283947, 14.37448300404689], [79.1977010977168, 14.374160130600883], [79.20621627209114, 14.369747139574548], [79.20904545684263, 14.369424121505862], [79.21009441191777, 14.370809805006042], [79.21006974618533, 14.373909557101118], [79.20828123355795, 14.376651522561541], [79.2075361592971, 14.381467998446722], [79.20539421899464, 14.384207251985185], [79.20502438577975, 14.386271064334707], [79.19929379878118, 14.395871690022394], [79.19288647651734, 14.4016781664921], [79.19144808830615, 14.404767063699852], [79.18788392293835, 14.408528511764741], [79.181846064687, 14.412270855766566], [79.17721310468433, 14.417057167840365], [79.17118609415411, 14.419421555977012], [79.16548415828092, 14.42523259110906], [79.16194749307182, 14.425549490353507]], [[79.18144242125761, 14.418467517935255], [79.18430848374553, 14.413667534151452], [79.18608090532551, 14.412992293891874], [79.18928903394867, 14.409572588907348], [79.18999576290676, 14.40957800689204], [79.19392436278963, 14.40444157572946], [79.19464770042897, 14.40238049956555], [79.20176997219512, 14.395546106797095], [79.20930277899713, 14.381481377408006], [79.20968627289892, 14.377695468888058], [79.21183630897626, 14.373922910283492], [79.21186368796917, 14.370478737903724], [79.21151859457082, 14.369442817268007], [79.20905916413156, 14.367702037430966], [79.20623000134847, 14.368025058223262], [79.19807096324934, 14.372096333205002], [79.19417905855784, 14.372755544301338], [79.18956388863786, 14.375475762490707], [79.18815064587262, 14.375464946908899], [79.18815897003584, 14.374431708942632], [79.1920702876689, 14.371361708142933], [79.19422052618498, 14.367589335075486], [79.19849045170737, 14.363833066713855], [79.19921908287625, 14.361083119435968], [79.20100479884103, 14.358685633081478], [79.2013828439708, 14.355588574301214], [79.20245918269782, 14.353530120822663], [79.20213888757439, 14.34939444899152], [79.20534028640718, 14.346663207869435], [79.20748455290497, 14.343579487921314], [79.20890034738147, 14.343245747363396], [79.21174831853565, 14.340511730750668], [79.21421568644783, 14.341219198748183], [79.21490584677638, 14.34329102947843], [79.21276440824913, 14.34603041059147], [79.21274801911913, 14.348096919419282], [79.21803077007013, 14.350203323781779], [79.22227009594461, 14.350235155321963], [79.2250773241238, 14.352667276582876], [79.22506104001815, 14.35473379814823], [79.22327831213514, 14.356787080146708], [79.22219397451883, 14.359878906627866], [79.2253491758237, 14.363002528081095], [79.22711566774777, 14.363015757433796], [79.22853699395183, 14.361993069479801], [79.22963209337642, 14.357523521699882], [79.23141748034712, 14.355125764604647], [79.23424107843897, 14.355491263481152], [79.2377604876337, 14.35723967574789], [79.24270388842638, 14.357620834688895], [79.24517694174187, 14.357639164224334], [79.24907924282233, 14.355601367830015], [79.25120166526385, 14.355272596193695], [79.25119096718984, 14.356650296414394], [79.25012305884054, 14.357675745946963], [79.24693804769119, 14.35834108938335], [79.24301686422018, 14.362789806104368], [79.24124228537492, 14.363809964513788], [79.23623396518448, 14.371694886834932], [79.23198608193748, 14.372696521828475], [79.23056198581473, 14.374063644370825], [79.22948034417308, 14.376811081463131], [79.22132674155336, 14.380194329832], [79.21990526270406, 14.38121695598511], [79.21918496826208, 14.382933729410308], [79.21492041319671, 14.386001528841906], [79.2138302990435, 14.389782114498548], [79.21027771406388, 14.392166310714995], [79.20776584807223, 14.396969394553569], [79.20313649224106, 14.401411907844855], [79.20240771630961, 14.404161848669773], [79.1978002328311, 14.405848916368186], [79.18746932901064, 14.416102851843613], [79.18499013462318, 14.416772666479082], [79.18285592934684, 14.418478405309017], [79.18144242125761, 14.418467517935255]], [[79.16114709068017, 14.393855837514069], [79.16152861498942, 14.390414515703524], [79.16224090765948, 14.389731195144094], [79.16365140433741, 14.390086583545266], [79.16434961879118, 14.391125293821842], [79.1636119825129, 14.39490828747037], [79.16183684461402, 14.395927775868332], [79.16114709068017, 14.393855837514069]]], [[[79.22624941151338, 14.29343209896246], [79.22449968173237, 14.29135239429988], [79.22273104767581, 14.291683631711111], [79.22377979077352, 14.29306923118422], [79.22624941151338, 14.29343209896246]]], [[[79.23681291317966, 14.29764395230059], [79.23645702944579, 14.297985757656145], [79.2368075428565, 14.298332800432402], [79.23681291317966, 14.29764395230059]]], [[[79.20495154564892, 14.306705460962316], [79.20637530313648, 14.30533845365633], [79.20639443207318, 14.302927526425067], [79.20498436521882, 14.302572446247986], [79.20356061982518, 14.30393944657301], [79.20354145926254, 14.30635036984033], [79.20495154564892, 14.306705460962316]]], [[[79.24659295638301, 14.311838515331214], [79.24588918624812, 14.311488876132584], [79.24622369198404, 14.313902460981964], [79.24693014271963, 14.313907674559264], [79.24659295638301, 14.311838515331214]]], [[[79.24862949450166, 14.322531341320213], [79.24900944425097, 14.319089689663535], [79.2475965090785, 14.319079269084249], [79.2465261100435, 14.320449149104972], [79.2465127354401, 14.322171275075434], [79.24862949450166, 14.322531341320213]]], [[[79.26871933494658, 14.328534284911738], [79.26765428970602, 14.329215410922028], [79.26764371230327, 14.330593126255652], [79.26835022333631, 14.330598282034476], [79.26871933494658, 14.328534284911738]]]]}}, {"type": "Feature", "properties": {"depth_class": 3, "depth_lo_m": 2.0, "t_s": 63900.62270976966}, "geometry": {"type": "MultiPolygon", "coordinates": [[[[79.01360606965545, 14.215293465045868], [79.0164272670522, 14.215661296171254], [79.01644227872582, 14.213939381788796], [79.013974124304, 14.213574486052321], [79.01360606965545, 14.215293465045868]]], [[[79.07942522056187, 14.239251751550986], [79.08191129440726, 14.2375496448375], [79.0819229262152, 14.236172061922813], [79.0801575696389, 14.236157873678428], [79.07908962005953, 14.237182539962072], [79.07942522056187, 14.239251751550986]]], [[[79.18144242125761, 14.418467517935255], [79.18746932901064, 14.416102851843613], [79.1978002328311, 14.405848916368186], [79.20240771630961, 14.404161848669773], [79.20313649224106, 14.401411907844855], [79.20776584807223, 14.396969394553569], [79.21027771406388, 14.392166310714995], [79.2138302990435, 14.389782114498548], [79.21492041319671, 14.386001528841906], [79.21918496826208, 14.382933729410308], [79.21990526270406, 14.38121695598511], [79.22132674155336, 14.380194329832], [79.22948034417308, 14.376811081463131], [79.23056198581473, 14.374063644370825], [79.23198608193748, 14.372696521828475], [79.23623396518448, 14.371694886834932], [79.24124228537492, 14.363809964513788], [79.24408482817938, 14.361764395476213], [79.24693804769119, 14.35834108938335], [79.25012305884054, 14.357675745946963], [79.25119096718984, 14.356650296414394], [79.25120166526385, 14.355272596193695], [79.24907924282233, 14.355601367830015], [79.24517694174187, 14.357639164224334], [79.2377604876337, 14.35723967574789], [79.23424107843897, 14.355491263481152], [79.23141748034712, 14.355125764604647], [79.22963209337642, 14.357523521699882], [79.22853699395183, 14.361993069479801], [79.22711566774777, 14.363015757433796], [79.2253491758237, 14.363002528081095], [79.22219397451883, 14.359878906627866], [79.22327831213514, 14.356787080146708], [79.22506104001815, 14.35473379814823], [79.2250773241238, 14.352667276582876], [79.22227009594461, 14.350235155321963], [79.21803077007013, 14.350203323781779], [79.21274801911913, 14.348096919419282], [79.21276440824913, 14.34603041059147], [79.21490584677638, 14.34329102947843], [79.21421568644783, 14.341219198748183], [79.21174831853565, 14.340511730750668], [79.20890034738147, 14.343245747363396], [79.20748455290497, 14.343579487921314], [79.20534028640718, 14.346663207869435], [79.20213888757439, 14.34939444899152], [79.20245918269782, 14.353530120822663], [79.2013828439708, 14.355588574301214], [79.20100479884103, 14.358685633081478], [79.19921908287625, 14.361083119435968], [79.19849045170737, 14.363833066713855], [79.19422052618498, 14.367589335075486], [79.1920702876689, 14.371361708142933], [79.18815897003584, 14.374431708942632], [79.18815064587262, 14.375464946908899], [79.18956388863786, 14.375475762490707], [79.19417905855784, 14.372755544301338], [79.19807096324934, 14.372096333205002], [79.20729265286688, 14.367688669186423], [79.210116332071, 14.368054469095544], [79.21151859457082, 14.369442817268007], [79.21183630897626, 14.373922910283492], [79.20968627289892, 14.377695468888058], [79.20930277899713, 14.381481377408006], [79.20176997219512, 14.395546106797095], [79.19464770042897, 14.40238049956555], [79.19392436278963, 14.40444157572946], [79.18999576290676, 14.40957800689204], [79.18288384188293, 14.415034301030117], [79.18144242125761, 14.418467517935255]]]]}}]}