{"type": "FeatureCollection", "features": [{"type": "Feature", "properties": {"depth_class": 1, "depth_lo_m": 0.3, "t_s": 72900.25092351099}, "geometry": {"type": "MultiPolygon", "coordinates": [[[[79.01353689374338, 14.223214254461691], [79.01602618186206, 14.221168489959858], [79.01990356688542, 14.221889463281796], [79.02168672354301, 14.21983777971867], [79.02171966913033, 14.216049556950844], [79.02102559621225, 14.214666178048029], [79.01646329169536, 14.211528701211513], [79.01293009436576, 14.211843776031177], [79.01150297172912, 14.213553947723556], [79.01148190310485, 14.215964620613429], [79.01217892634699, 14.21700363815606], [79.01145480907574, 14.21906405642834], [79.01178676525986, 14.221477665450031], [79.01353689374338, 14.223214254461691]], [[79.01815339219868, 14.220152915754356], [79.01641525626744, 14.217038827487833], [79.01324101536012, 14.216668060368143], [79.01254398765876, 14.215629045399083], [79.01291806577964, 14.213221304854397], [79.01610126561869, 14.2125589214722], [79.01819839683871, 14.214987168333762], [79.02030755945819, 14.21603786761961], [79.02027459039152, 14.219826087145787], [79.01815339219868, 14.220152915754356]]], [[[79.16062073082857, 14.241613360551185], [79.16141054658739, 14.231286456682], [79.16388767401897, 14.23061664514664], [79.16425466223365, 14.228897297796511], [79.16320934656169, 14.227167095131888], [79.16109368959671, 14.226806387010601], [79.15898919719153, 14.225068015579426], [79.15722384841197, 14.225054407334662], [79.15543614648841, 14.227796071131706], [79.15331770701934, 14.227779705115275], [79.15189701514774, 14.228802013680765], [79.15187180994066, 14.23190170211306], [79.15291145065518, 14.234320765836308], [79.15572493499282, 14.235720239400475], [79.15708977487797, 14.241586124182863], [79.15814347395816, 14.242283121995076], [79.15990895746806, 14.242296739560603], [79.16062073082857, 14.241613360551185]], [[79.15890271052439, 14.235744762761133], [79.156100381072, 14.232967682060588], [79.1561087649173, 14.231934450296858], [79.1582244551067, 14.232295207249601], [79.15890271052439, 14.235744762761133]]], [[[79.08115859049458, 14.243054298225754], [79.08615978992073, 14.236206060530675], [79.08618589922843, 14.233106490654498], [79.08443507785556, 14.231370355050153], [79.08231669182003, 14.231353355484158], [79.07770355755726, 14.234071618699938], [79.07591488787189, 14.236812557760208], [79.0723871015607, 14.236439684372865], [79.07131327157252, 14.238153098368386], [79.07129864910195, 14.23987506592863], [79.07305233664657, 14.24126689858418], [79.07623587291111, 14.24060374264391], [79.07693036170394, 14.241987011201704], [79.07868701807759, 14.243034413726718], [79.08115859049458, 14.243054298225754]], [[79.07800417460139, 14.24027356938424], [79.07768607369903, 14.236137988239372], [79.08301119914269, 14.23273660844995], [79.0840674948359, 14.23308950458502], [79.08476782352267, 14.233783961502166], [79.0847533076638, 14.235505943341071], [79.08224110502438, 14.240307647104727], [79.081173141624, 14.241332321110304], [79.07870158792157, 14.241312439113432], [79.07800417460139, 14.24027356938424]]], [[[79.11821835883717, 14.245071512487145], [79.12036827828598, 14.241299773694987], [79.1203882306469, 14.238888950273804], [79.11899871194554, 14.236122600929617], [79.11653001572947, 14.235758714744671], [79.1143801013723, 14.239530419205416], [79.11400413678402, 14.242282846396957], [79.11680598822896, 14.245060370735448], [79.11821835883717, 14.245071512487145]]], [[[79.16938705731988, 14.249258304748714], [79.17011271268609, 14.246852832703508], [79.16871418063701, 14.245119933448054], [79.16695422780072, 14.244417553686498], [79.16306732832118, 14.244732099680535], [79.16305060756646, 14.246798569016825], [79.16514696315588, 14.24957016518527], [79.16796905929223, 14.249936287421468], [79.16938705731988, 14.249258304748714]]], [[[79.03554013007644, 14.250949013555928], [79.0366291776813, 14.247513873873078], [79.0394686893612, 14.245815167890548], [79.03913643322558, 14.2434015593998], [79.03738594882373, 14.241665115509615], [79.03561761715916, 14.24199497871526], [79.03418744478843, 14.24404966533019], [79.03170398768316, 14.245406833998175], [79.03027674584823, 14.24711710443601], [79.03026180257916, 14.248839028483157], [79.0316681509471, 14.249539455419903], [79.03306256862246, 14.251617416362873], [79.03554013007644, 14.250949013555928]], [[79.03381349243577, 14.24645745597372], [79.03486676209809, 14.24715495376699], [79.03450175466527, 14.248529588185537], [79.0330924167534, 14.248173562985087], [79.03310435377429, 14.246796021339028], [79.03381349243577, 14.24645745597372]]], [[[79.15065832104086, 14.250836013997782], [79.15067796568138, 14.24842515076216], [79.14891525250266, 14.248067050447604], [79.14785032105834, 14.248747646479444], [79.14748316062173, 14.250466947029198], [79.14853124258536, 14.251852805341743], [79.14994368108526, 14.251863764496576], [79.15065832104086, 14.250836013997782]]], [[[79.15767296068954, 14.256745634283686], [79.15945532202726, 14.254692805448435], [79.15946649775496, 14.253315162967034], [79.15771211425199, 14.251923890545152], [79.15205392657627, 14.252913415243613], [79.15134209087852, 14.253596760684701], [79.15133086560505, 14.254974396804977], [79.15378865714396, 14.256715592266994], [79.15767296068954, 14.256745634283686]]], [[[79.1336440448054, 14.258625340743498], [79.13153952950819, 14.256886721234311], [79.12588402594902, 14.257531191348365], [79.12658171960635, 14.258569953336238], [79.12976544195378, 14.257906094160427], [79.13222306837885, 14.259647495399722], [79.13363554226842, 14.25965855700281], [79.1336440448054, 14.258625340743498]]], [[[79.02804154572235, 14.260530589186269], [79.0284185952044, 14.257778436996752], [79.02702119820533, 14.256044834396468], [79.02455556226504, 14.255335604427632], [79.02207192835726, 14.256692648188968], [79.0220509053966, 14.259103327882938], [79.02345127789235, 14.260492573724974], [79.0252107656334, 14.261195972272752], [79.02804154572235, 14.260530589186269]], [[79.02383138253299, 14.257396052775857], [79.02559984263743, 14.257066295060401], [79.02664413778716, 14.25879698293623], [79.02487266498778, 14.259471130173212], [79.02381937995807, 14.258773585480736], [79.02383138253299, 14.257396052775857]]], [[[79.04956882551404, 14.262085344424321], [79.04994562326007, 14.259333125376621], [79.04783887698481, 14.257938234206215], [79.04607338689839, 14.25792377245424], [79.04499925057591, 14.2596370268955], [79.04497846673935, 14.262047739314534], [79.04603184337627, 14.262745200570048], [79.04850358252169, 14.262765450493285], [79.04956882551404, 14.262085344424321]]], [[[79.08311707004823, 14.262013076241544], [79.08349346713261, 14.259260752706338], [79.08279307445079, 14.258566284081496], [79.07996530927423, 14.258887946705295], [79.07854121259146, 14.260254145413967], [79.0785324580722, 14.261287328479622], [79.07958303760977, 14.26232904852435], [79.08205190822744, 14.262693345098118], [79.08311707004823, 14.262013076241544]]], [[[79.12429771684636, 14.278528688930633], [79.12643083991121, 14.276823352878795], [79.12715421285748, 14.274762486466766], [79.12717129511866, 14.272696064141567], [79.12612612377445, 14.270965714719107], [79.12436045117038, 14.270951820048477], [79.12364847891735, 14.271635064713587], [79.12112511909496, 14.277814826955856], [79.12146683675391, 14.279195222864454], [79.12429771684636, 14.278528688930633]]], [[[79.10415986245036, 14.279402474961445], [79.10381825341616, 14.27802206717275], [79.1024056894136, 14.278010814823002], [79.10238837462667, 14.28007720665401], [79.10415986245036, 14.279402474961445]]], [[[79.20911978430486, 14.492732743730048], [79.21656808152804, 14.48968948907862], [79.21976604390758, 14.487647124507465], [79.2268961437874, 14.480123409280607], [79.22940877276164, 14.475320213566587], [79.23086087814507, 14.47050900440358], [79.2309208796022, 14.462931807042049], [79.22989051552358, 14.459135235759652], [79.22744367231115, 14.455672442074098], [79.22496956235125, 14.455653803915547], [79.22071453429004, 14.45734387465788], [79.21576355026136, 14.457650842270237], [79.21363187006962, 14.459012421257057], [79.21221808205702, 14.459001688733004], [79.20940706181207, 14.456913712566873], [79.19916279350477, 14.45614671208121], [79.1967192693943, 14.45233924447338], [79.1960401813088, 14.448889711383073], [79.19464036828099, 14.447156821828326], [79.19465982144033, 14.444745939018537], [79.19821067297813, 14.442706516444696], [79.1978738939245, 14.440637338542603], [79.19505768456511, 14.439238054385337], [79.19081674222846, 14.439205540360456], [79.1872965757583, 14.437456333890257], [79.18448886334676, 14.435023704715473], [79.1823991915495, 14.431218858400484], [79.18028160800289, 14.43085809643896], [79.18029559747943, 14.429136048704764], [79.18350965027874, 14.425027643618321], [79.1842331694779, 14.422966621731392], [79.18672636740071, 14.420574768515937], [79.191676490374, 14.420268320024492], [79.19238880852285, 14.419584910479994], [79.19277827975294, 14.41511025699996], [79.19419732251733, 14.414432248738526], [79.19919156010214, 14.408615007165453], [79.20061330687831, 14.407592538871826], [79.20273348920482, 14.407608682679687], [79.20519326200213, 14.409349567726036], [79.20731621848316, 14.409021257046053], [79.20804495912651, 14.406271297001284], [79.20594405774902, 14.403844296165254], [79.20595231716187, 14.402811050512067], [79.21058440121082, 14.398024063164781], [79.21202522773405, 14.39459059552828], [79.2162927282811, 14.391178456301311], [79.2173800795072, 14.387742273546543], [79.21880707302697, 14.386030832915196], [79.22128858484785, 14.385016191864546], [79.22343035771878, 14.382276773019914], [79.2283959585809, 14.379902930103409], [79.23087194788653, 14.379577016384198], [79.2322960813201, 14.378209896360238], [79.23338040443247, 14.375118022344687], [79.23762833152993, 14.374116367021996], [79.23940840211587, 14.372407402919347], [79.24191660311838, 14.367948287353908], [79.24476188382287, 14.36555829256559], [79.24619657835343, 14.362813372007444], [79.24833247124758, 14.360762512790677], [79.25151751563804, 14.360097154143785], [79.25543849457529, 14.355648271314097], [79.26040321633127, 14.35327364640989], [79.26360937287366, 14.349852689223475], [79.26715811749528, 14.347811971903818], [79.26788850664394, 14.344717279576576], [79.2700266770527, 14.342321751220808], [79.27110762982628, 14.339574046495969], [79.2711313953502, 14.33647418340437], [79.26938885377916, 14.333361444509425], [79.26940206470194, 14.331639299121894], [79.27119210364707, 14.328552307211728], [79.27192498218879, 14.325113154705374], [79.27406290350342, 14.32271756052116], [79.27159810548909, 14.321666285950265], [79.26982925579746, 14.321997854037585], [79.26553212374367, 14.329544360992905], [79.26545001705884, 14.340221638117594], [79.26258404040955, 14.345367367347825], [79.25940720444937, 14.344999622226483], [79.25732216104302, 14.340506508131462], [79.25591441399634, 14.339807269054075], [79.25763017230653, 14.346364355731938], [79.25513055667116, 14.349790430237048], [79.2452037786638, 14.354194924767434], [79.23884460290593, 14.354147751374038], [79.23815688638643, 14.3517315402923], [79.23925172571212, 14.347261916795947], [79.24391408381045, 14.33834095355417], [79.24466081918969, 14.333179816295042], [79.24644048184513, 14.331470750796536], [79.24788558695079, 14.327348084561518], [79.24894532719209, 14.327355903906604], [79.25104612369164, 14.329782509178267], [79.2528203804159, 14.328762239066446], [79.25320561976315, 14.324631723701968], [79.25110217096295, 14.322549565369002], [79.25112351407276, 14.319794156990374], [79.24904682697128, 14.314267728573464], [79.24872296888968, 14.310476440695425], [79.2448830195898, 14.304592546234053], [79.24102718492067, 14.30077515858477], [79.23894551154768, 14.295937530717179], [79.23331321607635, 14.29348466044701], [79.23049038466813, 14.293119237968579], [79.22909110487747, 14.291386611983407], [79.22522226156656, 14.289291131589534], [79.22523846680953, 14.287224598484098], [79.2238365595082, 14.285836371637945], [79.22136161459665, 14.2861623316854], [79.21957676438763, 14.288560076940154], [79.21852806684274, 14.28717446383877], [79.21430351850431, 14.28542060155698], [79.21361347597612, 14.283348780670753], [79.21221166947757, 14.281960495957163], [79.21009810248555, 14.281255735110555], [79.20764774021058, 14.278481783905148], [79.20377115041074, 14.27741925678567], [79.20131817486444, 14.2749896715803], [79.19780031815193, 14.273240888943926], [79.19430447495009, 14.268736725583357], [79.1911399178136, 14.26699053707408], [79.18866792926575, 14.266971760352998], [79.1865380624843, 14.268333307441539], [79.18406606561699, 14.268314481266737], [79.18195826421392, 14.26692066587181], [79.17736191720279, 14.267574425181929], [79.17454512320028, 14.266519560339459], [79.17244573538375, 14.26409243094603], [79.16647033034133, 14.260602206909246], [79.1611790238884, 14.259872587862496], [79.1572862635419, 14.260875826550928], [79.15553464378561, 14.259140123779586], [79.14917845604008, 14.259090866146472], [79.14567822186116, 14.255274941453585], [79.14214708335284, 14.255247458350505], [79.13965834426574, 14.257294629240409], [79.14000298774616, 14.258330604102659], [79.14705129047094, 14.260107633451199], [79.14950909418694, 14.261848875099236], [79.15691354227305, 14.263283965984039], [79.15902392748177, 14.264333570751786], [79.1639789249579, 14.262994061627372], [79.16713482196684, 14.265773815411304], [79.1703102587411, 14.26614264967312], [79.17592995567456, 14.269974510364774], [79.18969158836163, 14.27145721880245], [79.19390191649269, 14.274933550467747], [79.19599615739052, 14.278049361633258], [79.19916912017473, 14.2787622540753], [79.20479513840836, 14.281904687281436], [79.20653914979401, 14.284673346462448], [79.21004908566108, 14.287455285117138], [79.21144546319364, 14.289532423516746], [79.21671603582104, 14.293016388224856], [79.21811250747362, 14.295093497665926], [79.22446994882687, 14.295141035205106], [79.22833617924901, 14.297580960113672], [79.23326748248597, 14.29933985919143], [79.23466146091405, 14.301761315975643], [79.23747098567301, 14.303848822073965], [79.24061768913674, 14.308005462109735], [79.24340592626429, 14.312848311153672], [79.24369754851693, 14.320772692767756], [79.24295354781755, 14.325589409890158], [79.23686768538587, 14.335877585769499], [79.23613423046412, 14.339316562382457], [79.23434903504264, 14.341714378163541], [79.23361011419757, 14.345842182992326], [79.23144993030046, 14.35099270696506], [79.22931400525079, 14.35304340854118], [79.22089233706456, 14.345747097907623], [79.21600379807701, 14.338477139715092], [79.21389243557793, 14.33742793433618], [79.2114196460028, 14.337409304041005], [79.2075064616355, 14.340824149643367], [79.2046694130209, 14.342180441861869], [79.20252512676612, 14.345264133748096], [79.1993292247393, 14.34730650432321], [79.19895668606306, 14.349714729332002], [79.1996549742221, 14.35075334320229], [79.19963570649807, 14.353164251794718], [79.19818401949087, 14.357975324544272], [79.19675984674684, 14.359342232320492], [79.19496027433216, 14.36346175221551], [79.19176127018301, 14.365848393141947], [79.189969856708, 14.36893461660662], [79.18429759833803, 14.371302217084741], [79.17686987231625, 14.372278424141612], [79.1743827737739, 14.373981413201555], [79.16943650400962, 14.373943208480737], [79.16732509747746, 14.372893577349869], [79.16485198252765, 14.372874415588685], [79.16130488969576, 14.374569034471634], [79.15738186376306, 14.379016095993277], [79.15348414288727, 14.380363420545129], [79.14992268601695, 14.383779868770059], [79.1484838844029, 14.386868452470658], [79.14457460918712, 14.38959322205143], [79.14420990453645, 14.390968063958073], [79.14064528413546, 14.394728735366252], [79.13919770933335, 14.39885044361531], [79.13987013683021, 14.402988837954203], [79.13771577522758, 14.407104959271946], [79.13696617120198, 14.412265411624501], [79.13590037180987, 14.412945847198245], [79.13343259263054, 14.412237502235836], [79.12636258115, 14.412525924565854], [79.12387180053003, 14.414572676271698], [79.12315066891016, 14.416289052675626], [79.12067136489405, 14.416958168184593], [79.11605450786742, 14.419676725757943], [79.1135519636565, 14.423100933248259], [79.11035711129652, 14.424797463371826], [79.10892908836186, 14.426508115580901], [79.10959515033923, 14.43133532080772], [79.10885930201093, 14.434773608627488], [79.10565258785587, 14.437847627775326], [79.10105849585115, 14.437810662206656], [79.09714192061946, 14.441223243159268], [79.09747774989432, 14.44329245389234], [79.10308542683954, 14.448848343037756], [79.10306498122459, 14.451259099738062], [79.10092403337305, 14.453652764254624], [79.09981695123933, 14.45915449896672], [79.09518134248701, 14.463938852806034], [79.09164703383726, 14.463910218264191], [79.09058085667164, 14.464590399346553], [79.08704949575429, 14.464217304299549], [79.08562692401158, 14.465238977424146], [79.08453710124874, 14.468674244773766], [79.08519377560704, 14.474534622198943], [79.08901977006347, 14.481798440203374], [79.09392111818421, 14.487348873015117], [79.09919086199027, 14.491180132475447], [79.10166812188592, 14.490855747402376], [79.10593907630471, 14.487446051747506], [79.11200637353856, 14.480606518929942], [79.11448933160973, 14.479593191444565], [79.11662752846695, 14.477543816655995], [79.1177082269219, 14.475141536139414], [79.12377481930203, 14.468301608612522], [79.12593593001269, 14.463496940728673], [79.12771754273837, 14.461789015094286], [79.12983815117155, 14.46180587483703], [79.13299604927147, 14.464586323693757], [79.13511669065336, 14.464603139072008], [79.13582931839295, 14.463919940153435], [79.13620286510917, 14.461511939528593], [79.13550748616852, 14.460128741200542], [79.13410525289935, 14.458739939992627], [79.13199042441808, 14.458034323534454], [79.1309416541643, 14.456648311325818], [79.13061702159959, 14.453201513880153], [79.12957404015873, 14.45112670067633], [79.1299447350317, 14.449063112223088], [79.13670265613288, 14.443950317812027], [79.13849834464564, 14.440520273954746], [79.1427820455545, 14.435387701529729], [79.15130621380692, 14.43028830641349], [79.15626501351721, 14.428949418107106], [79.15731951296027, 14.429646513623618], [79.15730817985022, 14.43102413400552], [79.15337827426876, 14.436159790489127], [79.15371747267193, 14.437884579455789], [79.15547029442362, 14.439620435492547], [79.16359580550667, 14.440028313472856], [79.17385588862842, 14.43873031412698], [79.17596510816556, 14.440124366438603], [79.17984421988152, 14.441187648068128], [79.18265474106792, 14.443275924929086], [79.18404604612005, 14.446042102084714], [79.18471935145479, 14.450180467664522], [79.18717938843753, 14.451921572839362], [79.18820619472615, 14.45606265628207], [79.19031566979474, 14.457456607641102], [79.1924140316941, 14.460228187023688], [79.19240010411171, 14.461950241826695], [79.19096679712759, 14.464350254069531], [79.19447904658355, 14.467132688029368], [79.19516091423556, 14.470237812977192], [79.19475176519313, 14.477123321770325], [79.19648294932574, 14.48161422946159], [79.1946737529636, 14.486766823924272], [79.19464030152415, 14.490899750875261], [79.19639663010824, 14.492290969650488], [79.19921904150745, 14.49300148757328], [79.20416524887575, 14.493383786580972], [79.20911978430486, 14.492732743730048]], [[79.11419987245567, 14.472013660257735], [79.10226168244857, 14.46261838981542], [79.10302992280673, 14.455391824298276], [79.10517670585156, 14.452309351920325], [79.1055505414268, 14.44990143527771], [79.10451365442032, 14.447137752125139], [79.10030494521796, 14.443315263909838], [79.09996324165884, 14.441934840885821], [79.1013914397375, 14.440224265491503], [79.10634189193817, 14.439919675621125], [79.11026122795025, 14.43616252578407], [79.1117038331641, 14.432729892994075], [79.11104353228978, 14.427213896105204], [79.11531012809856, 14.42414824474157], [79.11781266156252, 14.420724017036177], [79.12136366014128, 14.418685786270025], [79.12348673545652, 14.41835825515644], [79.1270549130579, 14.414253530210646], [79.13623941976117, 14.41467064422993], [79.13872724697175, 14.412968150468943], [79.13912346387411, 14.407804904263973], [79.14163400709016, 14.403347145188032], [79.14096439812205, 14.398864349146125], [79.14205291134348, 14.395428655361185], [79.14561752343545, 14.391667961428247], [79.14633838879513, 14.389951482815302], [79.14989149573914, 14.38756832322825], [79.15097130005636, 14.385165777865074], [79.15346716807805, 14.382429855172907], [79.15843050942836, 14.380401975365954], [79.1627096645164, 14.375613232897496], [79.1648379317308, 14.374596456604806], [79.17295556257899, 14.37569255680465], [79.17507820622102, 14.375364503207628], [79.17898132858839, 14.373327974708449], [79.18180777402941, 14.37334970376166], [79.18959992713505, 14.370998393777239], [79.19209242937052, 14.36860639974489], [79.19281286139052, 14.366889725541943], [79.19601187229925, 14.36450307102709], [79.19817023872837, 14.359697399717486], [79.19959440645907, 14.35833048275907], [79.1999724695257, 14.355233428335], [79.20104606760157, 14.35351939825205], [79.20073404943014, 14.348350480106486], [79.20428871342682, 14.34562193367892], [79.20607697821377, 14.342879968582535], [79.20891402973955, 14.341523659630953], [79.21140598686591, 14.33913139473659], [79.21352553673545, 14.33914736713478], [79.2163325342636, 14.341579567295028], [79.21666944928563, 14.343648737819581], [79.21523183897469, 14.346737875068559], [79.21876455010072, 14.346764442037559], [79.22368863764476, 14.349556908784155], [79.22649316407671, 14.352333434729243], [79.2264687570166, 14.355433219409568], [79.22396858938434, 14.358858897019866], [79.22536275203964, 14.361280427731748], [79.2271292304672, 14.361293655432391], [79.22784124476682, 14.36061010169039], [79.22822164214182, 14.357168537486212], [79.23001245279966, 14.354081950027691], [79.2314310024174, 14.353403657438374], [79.23284414025497, 14.353414198803724], [79.23918173350452, 14.35621691370973], [79.2455436520109, 14.355919660700433], [79.25582645765117, 14.351173334330168], [79.25938858379824, 14.34741061016708], [79.26363060551584, 14.347097268761042], [79.26540496209029, 14.346076914853537], [79.26077246101117, 14.351209677793518], [79.25474258555083, 14.354265365283727], [79.25117491794892, 14.358716846431033], [79.24728061836313, 14.359721400256861], [79.24122344473334, 14.366220925148527], [79.23907126299116, 14.370338240591678], [79.23693249468468, 14.372733416625577], [79.23268459286246, 14.373735062193022], [79.23017614213678, 14.378194049534084], [79.22805349123506, 14.378522603842649], [79.22237854477021, 14.381235553248922], [79.2202367716881, 14.383974962460144], [79.21704314103675, 14.38567310296984], [79.21488210297878, 14.3908233716405], [79.2109734230666, 14.393549325475336], [79.20881765021842, 14.398010678735778], [79.20490326447582, 14.401425337833878], [79.20452511280509, 14.404522387538579], [79.20556591209743, 14.406941348127308], [79.20380460996677, 14.406239088632157], [79.19956150777213, 14.406551218150316], [79.19101418999715, 14.41475231177181], [79.19063580417587, 14.417849310988291], [79.18992348749717, 14.41853271535373], [79.18709646069989, 14.418511016700787], [79.18318139205562, 14.421925229731322], [79.17781624186271, 14.429805767810455], [79.17779943058949, 14.431872222082937], [79.18167562013487, 14.43327986819635], [79.18271625589028, 14.435698910858513], [79.18622519056979, 14.438825820410464], [79.18939195359822, 14.440572329433923], [79.19433141136717, 14.441643524196197], [79.19255320645689, 14.443007624446961], [79.19218865933861, 14.444382559119644], [79.19321276179598, 14.448868041465236], [79.19426192221498, 14.450253818263109], [79.19458754871803, 14.453700643986037], [79.19598461718039, 14.455777949450626], [79.19561172042948, 14.458186123073192], [79.19420073380331, 14.457830871574789], [79.19069140733356, 14.454704037940816], [79.18895490996955, 14.450901936817116], [79.18614702625102, 14.448469308255426], [79.18581873659818, 14.445366895599175], [79.18442741150513, 14.442600726697329], [79.18126906412994, 14.439820924084314], [79.1777405701349, 14.439104809039087], [79.17457393672225, 14.43735815624587], [79.16467014679806, 14.438314540664006], [79.15583788596358, 14.437901178156848], [79.15550434520381, 14.435487581136554], [79.15871325387916, 14.432068391264709], [79.15909212314479, 14.428971501563227], [79.15768989687447, 14.427582843155074], [79.15450942110849, 14.427557980324076], [79.14954780243455, 14.42924123788068], [79.14208954175943, 14.433660122567957], [79.13673706401386, 14.439817509047554], [79.13601305181407, 14.441878324024342], [79.13209398149965, 14.445635940852885], [79.12854548233592, 14.447329890165241], [79.12746794984564, 14.449387857423188], [79.12744776615543, 14.451798647973336], [79.12849361144785, 14.453529069728289], [79.12915434407067, 14.459045067473237], [79.12667455985839, 14.45971418888441], [79.12453952540064, 14.46141929195223], [79.12238130647621, 14.465879549413433], [79.11738671354199, 14.47135035086597], [79.11419987245567, 14.472013660257735]], [[79.26649128944504, 14.342640383902932], [79.26725341958286, 14.335412549025294], [79.26866647181598, 14.33542286419614], [79.26936242666615, 14.336805734500333], [79.2689827216806, 14.340247445588842], [79.26826559810397, 14.341620002810194], [79.26649128944504, 14.342640383902932]], [[79.24794172552753, 14.320115151538769], [79.24899876091634, 14.320467392455722], [79.24863751000265, 14.32149806462569], [79.24758047073493, 14.321145821643777], [79.24794172552753, 14.320115151538769]]], [[[79.16325301232953, 14.395594356550962], [79.16432991571462, 14.393536146779038], [79.16434961879118, 14.391125293821842], [79.16330089151991, 14.389739431609161], [79.16224090765948, 14.389731195144094], [79.16116964773569, 14.391100581962391], [79.16114427071211, 14.394200244410529], [79.16183402528017, 14.396272182838453], [79.16325301232953, 14.395594356550962]]], [[[79.181635512504, 14.263129411051285], [79.18307012498198, 14.260384862952822], [79.18201625833605, 14.259687957113206], [79.17989748976146, 14.25967179135062], [79.17811801667716, 14.261380375721407], [79.17846284683792, 14.262416316472981], [79.17986984542836, 14.263115934889223], [79.181635512504, 14.263129411051285]]], [[[79.28526959396876, 14.289042494680718], [79.28493206025827, 14.286973350337334], [79.28317394569771, 14.285927319587346], [79.28318178221394, 14.284894020746608], [79.28143414990502, 14.282470248821124], [79.27826074520422, 14.281758417872869], [79.27087288486712, 14.277915927327292], [79.26840330336778, 14.277553533525575], [79.26630272092905, 14.275127105441639], [79.26171417830967, 14.274749213557858], [79.2599562796295, 14.273703033038622], [79.25926318010376, 14.271975727678338], [79.25610592593249, 14.269197054402078], [79.25473837669122, 14.263331430332002], [79.25581636613771, 14.260928184735565], [79.25584550141761, 14.257139468910593], [79.25479403530379, 14.256098431924176], [79.25337883696314, 14.256432518773206], [79.25406125099249, 14.259537546452211], [79.25191585024886, 14.262966300194899], [79.25189726093456, 14.265377295073714], [79.25400024901559, 14.26745939622591], [79.25396840703415, 14.271592533050459], [79.25466411667689, 14.272975421063448], [79.25607146720937, 14.273674623619213], [79.25816662066376, 14.276789985596242], [79.26027770338955, 14.277838761169141], [79.26131606496638, 14.280601932089462], [79.26272612779684, 14.280956673259677], [79.2641573164895, 14.278555969473791], [79.26486366364603, 14.278561117281843], [79.2666189880955, 14.279951698084073], [79.26979494473927, 14.28031924676533], [79.27577274141896, 14.283807116590435], [79.27859559575238, 14.284171997000142], [79.2824675687243, 14.285922223505242], [79.28455537391777, 14.290070702963357], [79.28526959396876, 14.289042494680718]]], [[[79.25144843396885, 14.277774096372188], [79.25182818450921, 14.274332414439032], [79.25112717286814, 14.27363837465401], [79.24936667932167, 14.272936549538247], [79.24653605485085, 14.273604623117862], [79.24615622742353, 14.27704628776227], [79.2472077349474, 14.278087367708272], [79.25038094260867, 14.27879959608054], [79.25144843396885, 14.277774096372188]]], [[[79.1972936034678, 14.29252557322824], [79.19625327541445, 14.290106626170699], [79.19448463572184, 14.290437649842263], [79.19447089438155, 14.292159731264253], [79.19517176236126, 14.29285392346381], [79.1972936034678, 14.29252557322824]]], [[[79.27816117457, 14.294846832422817], [79.2788623365868, 14.295540808165784], [79.27886757779096, 14.294851944402485], [79.27816117457, 14.294846832422817]]], [[[79.18595313436131, 14.297261473103875], [79.18418719697677, 14.29724799744926], [79.18452656044182, 14.298972764562219], [79.18593932123972, 14.2989835453901], [79.18595313436131, 14.297261473103875]]], [[[79.20600022860349, 14.30809113266246], [79.20778265900121, 14.306037946159819], [79.20888047989185, 14.301224071615776], [79.21101602043746, 14.299173510242358], [79.21102419411052, 14.298140252610258], [79.2035989302396, 14.299117598499164], [79.20394118205688, 14.300497937557378], [79.20215329237895, 14.303239931995751], [79.20176447246655, 14.307714685307179], [79.20281587716511, 14.308755951869104], [79.20600022860349, 14.30809113266246]], [[79.20426975888743, 14.303600365542856], [79.20603576548798, 14.303613697924995], [79.20602209891082, 14.305335788418056], [79.20495428101353, 14.306361043127053], [79.20389740149534, 14.306008621303166], [79.20426975888743, 14.303600365542856]]], [[[79.22506277199183, 14.309612020414889], [79.22473120217059, 14.306854010069639], [79.22120994613287, 14.30544992036039], [79.21944119740104, 14.305781119595544], [79.21766429698731, 14.307145565753833], [79.21800664337857, 14.308525895080896], [79.22083504917154, 14.30820264373953], [79.222943485995, 14.309596183040178], [79.22506277199183, 14.309612020414889]]], [[[79.26179217279817, 14.310572392354768], [79.26181071796782, 14.308161393861278], [79.25970201220284, 14.306768173522379], [79.25687362454231, 14.307091896106826], [79.25508892688053, 14.309489928243392], [79.25578207386516, 14.311217250016881], [79.26108042546358, 14.311256080491736], [79.26179217279817, 14.310572392354768]]], [[[79.27936682633405, 14.322067151341288], [79.28328394142262, 14.317962090326239], [79.28436720414362, 14.314869856407505], [79.28442996748394, 14.306603477932107], [79.28586374730828, 14.303858207896875], [79.28589769219808, 14.299380579308561], [79.28519910721353, 14.298342187849437], [79.28378104698785, 14.299020862301292], [79.2819783640359, 14.303830163039501], [79.28155181514208, 14.313471706009484], [79.27764263938377, 14.316543452030727], [79.27690726078715, 14.32032706824731], [79.2754785123616, 14.322383395778298], [79.27936682633405, 14.322067151341288]]], [[[79.26595417470595, 14.320591797022404], [79.26631799208188, 14.319216660414149], [79.26492885848744, 14.316106484490632], [79.26246153336433, 14.31539955574383], [79.26174712014397, 14.316427672279707], [79.26172591184292, 14.319183097082039], [79.2627723722026, 14.320912991470143], [79.26488916292132, 14.321272914336435], [79.26595417470595, 14.320591797022404]]], [[[79.23312476835999, 14.317594282942515], [79.23135592905307, 14.31792556164448], [79.23169836989608, 14.319305881585604], [79.23311398931166, 14.318971974108608], [79.23312476835999, 14.317594282942515]]], [[[79.23661402068521, 14.323131305326468], [79.23555969116595, 14.322434586988372], [79.23590485353678, 14.323470480946286], [79.23661402068521, 14.323131305326468]]], [[[79.25417740784373, 14.336005587606307], [79.25207652434808, 14.333579000875918], [79.25173661314051, 14.331854269369813], [79.25067952078363, 14.331502034421616], [79.25031023930033, 14.33356598377218], [79.25135398940962, 14.33564034983715], [79.25275368932351, 14.33737288936714], [79.25486793939646, 14.33807734306992], [79.25417740784373, 14.336005587606307]]], [[[79.16548415828092, 14.42523259110906], [79.17082990752348, 14.419763225312105], [79.17792265134865, 14.416718215249698], [79.18255559001744, 14.411931886512225], [79.18468136700672, 14.411259375325287], [79.18859342883404, 14.408189521801024], [79.19216035200849, 14.40408364833334], [79.19431096996303, 14.40031132074011], [79.20036211386997, 14.394846520630482], [79.20323569940739, 14.389012970361344], [79.20501888332828, 14.386959895390548], [79.2061063724742, 14.383523780919592], [79.20753066645607, 14.382156830732866], [79.20863729360127, 14.376309780912896], [79.21042853930022, 14.373223394932447], [79.21044497966224, 14.371156893104109], [79.20939876201432, 14.36942679390879], [79.2065723226778, 14.369405399940932], [79.19805716748907, 14.373818406222398], [79.19451854255765, 14.374480309045413], [79.1920287593146, 14.376527909573918], [79.18487351949233, 14.387494995685973], [79.18024398406503, 14.391937033674811], [79.17735301215347, 14.399836688028767], [79.17413367091378, 14.404633864934295], [79.16985972267022, 14.408733950256412], [79.16589672812555, 14.418002791695004], [79.1605678797502, 14.421405601424306], [79.15984981442446, 14.422777714298885], [79.16053961151044, 14.424849660775175], [79.1630048223484, 14.425902154513961], [79.16548415828092, 14.42523259110906]], [[79.16232911990252, 14.422108180925699], [79.1676607794937, 14.418360922958373], [79.17126754526589, 14.40943371658414], [79.17589764052919, 14.404991924149554], [79.17733623303229, 14.40190314699944], [79.17840187339402, 14.401222502546407], [79.18165174780628, 14.392636730438365], [79.18556627035953, 14.389222477604363], [79.19308039577733, 14.37756924588024], [79.1959234956249, 14.375524328302644], [79.19839944165865, 14.375198754314995], [79.20691464723592, 14.370785741498326], [79.20832787525593, 14.370796441657038], [79.20865649726083, 14.373898865073542], [79.20722403071005, 14.376299078587724], [79.20684050106006, 14.380084979008709], [79.20397815661732, 14.384540939935482], [79.2032494706994, 14.387290894631404], [79.20182511743572, 14.388657811657106], [79.19895150301497, 14.39449134120593], [79.19218809274939, 14.400639522063413], [79.18825397226857, 14.406464752568935], [79.18469530289947, 14.409537320517458], [79.18150386678599, 14.410890493088843], [79.1772271037631, 14.415335121047002], [79.16942483807019, 14.418719041683719], [79.16478867212791, 14.423849467101745], [79.16231499952741, 14.423830212340333], [79.16232911990252, 14.422108180925699]]]]}}, {"type": "Feature", "properties": {"depth_class": 2, "depth_lo_m": 1.0, "t_s": 72900.25092351099}, "geometry": {"type": "MultiPolygon", "coordinates": [[[[79.02027459039152, 14.219826087145787], [79.02065159775512, 14.21707394186038], [79.01960750057071, 14.215343252802397], [79.01819839683871, 14.214987168333762], [79.01610126561869, 14.2125589214722], [79.01291806577964, 14.213221304854397], [79.01254398765876, 14.215629045399083], [79.01324101536012, 14.216668060368143], [79.01641525626744, 14.217038827487833], [79.01815339219868, 14.220152915754356], [79.02027459039152, 14.219826087145787]], [[79.01430610767282, 14.21598809505003], [79.013974124304, 14.213574486052321], [79.01644227872582, 14.213939381788796], [79.0164272670522, 14.215661296171254], [79.01430610767282, 14.21598809505003]]], [[[79.15890271052439, 14.235744762761133], [79.1582244551067, 14.232295207249601], [79.1561087649173, 14.231934450296858], [79.156100381072, 14.232967682060588], [79.15890271052439, 14.235744762761133]]], [[[79.08152913049344, 14.240990763783339], [79.0847533076638, 14.235505943341071], [79.08476782352267, 14.233783961502166], [79.08336426558029, 14.232739442257003], [79.07768607369903, 14.236137988239372], [79.07765109757193, 14.240270726184372], [79.07870158792157, 14.241312439113432], [79.08152913049344, 14.240990763783339]], [[79.07980158751471, 14.236499429781176], [79.08192001837978, 14.236516457667234], [79.08084043434876, 14.238918714487241], [79.07942813276097, 14.238907356390781], [79.07980158751471, 14.236499429781176]]], [[[79.03486676209809, 14.24715495376699], [79.034166569858, 14.24646036522745], [79.03310435377429, 14.246796021339028], [79.0330924167534, 14.248173562985087], [79.03450175466527, 14.248529588185537], [79.03486676209809, 14.24715495376699]]], [[[79.02593195250584, 14.259479903876935], [79.02630303036523, 14.257416525317973], [79.02383138253299, 14.257396052775857], [79.02416947409795, 14.259120895213629], [79.02593195250584, 14.259479903876935]]], [[[79.20389740149534, 14.306008621303166], [79.20602209891082, 14.305335788418056], [79.20603576548798, 14.303613697924995], [79.20462569530865, 14.30325861520478], [79.2039138213914, 14.303942115212626], [79.20389740149534, 14.306008621303166]]], [[[79.24899341882275, 14.321156243789078], [79.24864819634249, 14.320120362219912], [79.24758581713385, 14.320456970832431], [79.24793103488234, 14.321492853422537], [79.24899341882275, 14.321156243789078]]], [[[79.26755375896316, 14.342303699836663], [79.26934656702699, 14.338872307992938], [79.26866647181598, 14.33542286419614], [79.26725341958286, 14.335412549025294], [79.26688956992517, 14.336787682983617], [79.26756963898802, 14.340237128906791], [79.26649128944504, 14.342640383902932], [79.26755375896316, 14.342303699836663]]], [[[79.2221259611435, 14.368489391910096], [79.22390608580665, 14.366780552058755], [79.2235690941854, 14.364711384002522], [79.22074269214308, 14.364690165963813], [79.21932131764102, 14.365712800858828], [79.21930769083795, 14.367434894896173], [79.22035943106724, 14.36847612041084], [79.2221259611435, 14.368489391910096]]], [[[79.11596711306188, 14.472027822607833], [79.11738671354199, 14.47135035086597], [79.12238130647621, 14.465879549413433], [79.12453952540064, 14.46141929195223], [79.12667455985839, 14.45971418888441], [79.12915434407067, 14.459045067473237], [79.12849361144785, 14.453529069728289], [79.12744776615543, 14.451798647973336], [79.12746794984564, 14.449387857423188], [79.12854548233592, 14.447329890165241], [79.13209398149965, 14.445635940852885], [79.13601305181407, 14.441878324024342], [79.13673706401386, 14.439817509047554], [79.14208954175943, 14.433660122567957], [79.14954780243455, 14.42924123788068], [79.15450942110849, 14.427557980324076], [79.15768989687447, 14.427582843155074], [79.15909212314479, 14.428971501563227], [79.15871325387916, 14.432068391264709], [79.15550434520381, 14.435487581136554], [79.15583788596358, 14.437901178156848], [79.16467014679806, 14.438314540664006], [79.17457393672225, 14.43735815624587], [79.1777405701349, 14.439104809039087], [79.18126906412994, 14.439820924084314], [79.18442741150513, 14.442600726697329], [79.18581873659818, 14.445366895599175], [79.18614702625102, 14.448469308255426], [79.18895490996955, 14.450901936817116], [79.19069140733356, 14.454704037940816], [79.19420073380331, 14.457830871574789], [79.19561172042948, 14.458186123073192], [79.19598461718039, 14.455777949450626], [79.19458754871803, 14.453700643986037], [79.19426192221498, 14.450253818263109], [79.19321276179598, 14.448868041465236], [79.19218865933861, 14.444382559119644], [79.19255320645689, 14.443007624446961], [79.19433141136717, 14.441643524196197], [79.18939195359822, 14.440572329433923], [79.18622519056979, 14.438825820410464], [79.18271625589028, 14.435698910858513], [79.18167562013487, 14.43327986819635], [79.17779943058949, 14.431872222082937], [79.17781624186271, 14.429805767810455], [79.18318139205562, 14.421925229731322], [79.18709646069989, 14.418511016700787], [79.18992348749717, 14.41853271535373], [79.19063580417587, 14.417849310988291], [79.19101418999715, 14.41475231177181], [79.19956150777213, 14.406551218150316], [79.20380460996677, 14.406239088632157], [79.20556591209743, 14.406941348127308], [79.20452511280509, 14.404522387538579], [79.20490326447582, 14.401425337833878], [79.20881765021842, 14.398010678735778], [79.2109734230666, 14.393549325475336], [79.21488210297878, 14.3908233716405], [79.21704314103675, 14.38567310296984], [79.2202367716881, 14.383974962460144], [79.22237854477021, 14.381235553248922], [79.22805349123506, 14.378522603842649], [79.23017614213678, 14.378194049534084], [79.23268459286246, 14.373735062193022], [79.23693249468468, 14.372733416625577], [79.23907126299116, 14.370338240591678], [79.24122344473334, 14.366220925148527], [79.24728061836313, 14.359721400256861], [79.25117491794892, 14.358716846431033], [79.25474258555083, 14.354265365283727], [79.26077246101117, 14.351209677793518], [79.26540496209029, 14.346076914853537], [79.26363060551584, 14.347097268761042], [79.25938858379824, 14.34741061016708], [79.25582645765117, 14.351173334330168], [79.2455436520109, 14.355919660700433], [79.23918173350452, 14.35621691370973], [79.23284414025497, 14.353414198803724], [79.2314310024174, 14.353403657438374], [79.23001245279966, 14.354081950027691], [79.22822164214182, 14.357168537486212], [79.22784124476682, 14.36061010169039], [79.2271292304672, 14.361293655432391], [79.22536275203964, 14.361280427731748], [79.22396858938434, 14.358858897019866], [79.2264687570166, 14.355433219409568], [79.22649316407671, 14.352333434729243], [79.22368863764476, 14.349556908784155], [79.21876455010072, 14.346764442037559], [79.21523183897469, 14.346737875068559], [79.21666944928563, 14.343648737819581], [79.2163325342636, 14.341579567295028], [79.21352553673545, 14.33914736713478], [79.21140598686591, 14.33913139473659], [79.20891402973955, 14.341523659630953], [79.20607697821377, 14.342879968582535], [79.20428871342682, 14.34562193367892], [79.20073404943014, 14.348350480106486], [79.20104606760157, 14.35351939825205], [79.1999724695257, 14.355233428335], [79.19959440645907, 14.35833048275907], [79.19817023872837, 14.359697399717486], [79.19601187229925, 14.36450307102709], [79.19281286139052, 14.366889725541943], [79.19209242937052, 14.36860639974489], [79.18959992713505, 14.370998393777239], [79.18180777402941, 14.37334970376166], [79.17898132858839, 14.373327974708449], [79.17507820622102, 14.375364503207628], [79.17295556257899, 14.37569255680465], [79.1648379317308, 14.374596456604806], [79.1627096645164, 14.375613232897496], [79.15843050942836, 14.380401975365954], [79.15346716807805, 14.382429855172907], [79.15097130005636, 14.385165777865074], [79.14989149573914, 14.38756832322825], [79.14633838879513, 14.389951482815302], [79.14561752343545, 14.391667961428247], [79.14205291134348, 14.395428655361185], [79.14096439812205, 14.398864349146125], [79.14163400709016, 14.403347145188032], [79.13912346387411, 14.407804904263973], [79.13872724697175, 14.412968150468943], [79.13623941976117, 14.41467064422993], [79.1270549130579, 14.414253530210646], [79.12348673545652, 14.41835825515644], [79.12136366014128, 14.418685786270025], [79.11781266156252, 14.420724017036177], [79.11531012809856, 14.42414824474157], [79.11104353228978, 14.427213896105204], [79.1117038331641, 14.432729892994075], [79.11026122795025, 14.43616252578407], [79.10634189193817, 14.439919675621125], [79.1013914397375, 14.440224265491503], [79.09996324165884, 14.441934840885821], [79.10030494521796, 14.443315263909838], [79.10451365442032, 14.447137752125139], [79.1055505414268, 14.44990143527771], [79.10517670585156, 14.452309351920325], [79.10302992280673, 14.455391824298276], [79.1026092646333, 14.46331002615978], [79.1134958860834, 14.471663596345449], [79.11596711306188, 14.472027822607833]], [[79.16124355109422, 14.425199576489922], [79.15984133058645, 14.423810931676945], [79.1605678797502, 14.421405601424306], [79.16589672812555, 14.418002791695004], [79.16985972267022, 14.408733950256412], [79.17413367091378, 14.404633864934295], [79.17735301215347, 14.399836688028767], [79.18024398406503, 14.391937033674811], [79.18487351949233, 14.387494995685973], [79.1920287593146, 14.376527909573918], [79.19451854255765, 14.374480309045413], [79.19805716748907, 14.373818406222398], [79.2065723226778, 14.369405399940932], [79.20939876201432, 14.36942679390879], [79.21044497966224, 14.371156893104109], [79.21042853930022, 14.373223394932447], [79.20863729360127, 14.376309780912896], [79.20753066645607, 14.382156830732866], [79.2061063724742, 14.383523780919592], [79.20501888332828, 14.386959895390548], [79.20323569940739, 14.389012970361344], [79.20036211386997, 14.394846520630482], [79.19431096996303, 14.40031132074011], [79.18930571232985, 14.407506117520395], [79.18574703713672, 14.410578700823033], [79.18255559001744, 14.411931886512225], [79.17792265134865, 14.416718215249698], [79.17082990752348, 14.419763225312105], [79.16619374574651, 14.424893679172298], [79.16335820732823, 14.42590490613345], [79.16124355109422, 14.425199576489922]], [[79.19390218598662, 14.407196878594988], [79.19570499446164, 14.402733011043662], [79.20175893964083, 14.39692376531952], [79.20499136669646, 14.390404050038123], [79.20641571538991, 14.389037113168733], [79.20750594506777, 14.385256575499662], [79.21000668478675, 14.381831141918688], [79.21075170919096, 14.37701465239788], [79.21254019738306, 14.374272665182485], [79.21257303920822, 14.370139656728192], [79.21152680781971, 14.368409565454371], [79.20941794792913, 14.367015875663334], [79.20588219126546, 14.367333548867967], [79.19595388356744, 14.371735772329293], [79.19383681293216, 14.371375193289806], [79.19527766224374, 14.367941830268274], [79.19634032371209, 14.367605492274937], [79.19955033495755, 14.363841126514487], [79.19992290932596, 14.361432905280628], [79.20171137243058, 14.358690997428903], [79.20316299318121, 14.353879895082848], [79.20319595839857, 14.349746900820985], [79.20532931473527, 14.348040874775007], [79.20783234041059, 14.344270992547058], [79.20960414002141, 14.343595500203337], [79.21103086610306, 14.341884074865533], [79.21315317126496, 14.341555635246067], [79.21384332209924, 14.34362746800224], [79.21170460108124, 14.346022419608394], [79.21203600868326, 14.34878042774941], [79.21591111103736, 14.350187379614992], [79.21660948470782, 14.351225952718792], [79.22155810338404, 14.35091869471083], [79.22436804546696, 14.353006404227745], [79.22399846891604, 14.355070277429467], [79.22114226018306, 14.358837692198474], [79.22112865410342, 14.360559788943672], [79.22498772944103, 14.364033140516725], [79.22710752925236, 14.364049018508668], [79.22924087925695, 14.36234277372587], [79.23033867438363, 14.357528800277134], [79.23140936624338, 14.356159028778528], [79.23493955670568, 14.356529793706095], [79.23740180428497, 14.357925892741019], [79.2444622990198, 14.358667201085385], [79.24445155708324, 14.360044895925645], [79.24054106505032, 14.363115870471503], [79.23982099528463, 14.364832733899203], [79.2383996927349, 14.365855493193186], [79.23588605317713, 14.371003410521235], [79.23163818256675, 14.37200504063905], [79.22842309587465, 14.376458728343133], [79.21991344443653, 14.380183700457353], [79.2188398276661, 14.381897814391309], [79.21457255372944, 14.38531002695105], [79.2131263624997, 14.389432358030293], [79.20921769107026, 14.392158283459587], [79.20742074847901, 14.395933467614968], [79.20243530001487, 14.400717702920465], [79.201353161861, 14.403464950904382], [79.19781129681452, 14.404471261893182], [79.19531840303782, 14.406863270016654], [79.19390218598662, 14.407196878594988]], [[79.16183402528017, 14.396272182838453], [79.16116964773569, 14.391100581962391], [79.16224090765948, 14.389731195144094], [79.16330089151991, 14.389739431609161], [79.16434961879118, 14.391125293821842], [79.16396813459413, 14.394566624979968], [79.16183402528017, 14.396272182838453]]]]}}, {"type": "Feature", "properties": {"depth_class": 3, "depth_lo_m": 2.0, "t_s": 72900.25092351099}, "geometry": {"type": "MultiPolygon", "coordinates": [[[[79.01360606965545, 14.215293465045868], [79.0164272670522, 14.215661296171254], [79.01644227872582, 14.213939381788796], [79.013974124304, 14.213574486052321], [79.01360606965545, 14.215293465045868]]], [[[79.0808433443318, 14.238574319030608], [79.0819142024758, 14.237205249124571], [79.08156985474447, 14.23616922531665], [79.0794456043216, 14.23684098520907], [79.07942813276097, 14.238907356390781], [79.0808433443318, 14.238574319030608]]], [[[79.19390218598662, 14.407196878594988], [79.19781129681452, 14.404471261893182], [79.201353161861, 14.403464950904382], [79.20243530001487, 14.400717702920465], [79.20742074847901, 14.395933467614968], [79.20921769107026, 14.392158283459587], [79.2131263624997, 14.389432358030293], [79.21457255372944, 14.38531002695105], [79.2188398276661, 14.381897814391309], [79.21991344443653, 14.380183700457353], [79.22842309587465, 14.376458728343133], [79.23163818256675, 14.37200504063905], [79.23517672576719, 14.371342565296816], [79.23659807832678, 14.370319831438588], [79.23768499089745, 14.366883502418395], [79.24054106505032, 14.363115870471503], [79.24445155708324, 14.360044895925645], [79.2444622990198, 14.358667201085385], [79.23740180428497, 14.357925892741019], [79.23493955670568, 14.356529793706095], [79.23140936624338, 14.356159028778528], [79.23033867438363, 14.357528800277134], [79.22924087925695, 14.36234277372587], [79.22710752925236, 14.364049018508668], [79.22498772944103, 14.364033140516725], [79.22112865410342, 14.360559788943672], [79.22114226018306, 14.358837692198474], [79.22399846891604, 14.355070277429467], [79.22436804546696, 14.353006404227745], [79.22155810338404, 14.35091869471083], [79.21660948470782, 14.351225952718792], [79.21591111103736, 14.350187379614992], [79.21203600868326, 14.34878042774941], [79.21170460108124, 14.346022419608394], [79.21384332209924, 14.34362746800224], [79.21315317126496, 14.341555635246067], [79.21103086610306, 14.341884074865533], [79.20676432373598, 14.345296231703893], [79.20532931473527, 14.348040874775007], [79.20319595839857, 14.349746900820985], [79.20316299318121, 14.353879895082848], [79.20171137243058, 14.358690997428903], [79.19992290932596, 14.361432905280628], [79.19955033495755, 14.363841126514487], [79.19634032371209, 14.367605492274937], [79.19527766224374, 14.367941830268274], [79.19383681293216, 14.371375193289806], [79.19595388356744, 14.371735772329293], [79.20588219126546, 14.367333548867967], [79.20941794792913, 14.367015875663334], [79.21152680781971, 14.368409565454371], [79.21257303920822, 14.370139656728192], [79.21254019738306, 14.374272665182485], [79.21075170919096, 14.37701465239788], [79.21000668478675, 14.381831141918688], [79.20750594506777, 14.385256575499662], [79.20641571538991, 14.389037113168733], [79.20499136669646, 14.390404050038123], [79.20175893964083, 14.39692376531952], [79.19570499446164, 14.402733011043662], [79.19390218598662, 14.407196878594988]], [[79.22000884991061, 14.368129045643695], [79.21930769083795, 14.367434894896173], [79.21932131764102, 14.365712800858828], [79.22003336843544, 14.365029275182572], [79.2235690941854, 14.364711384002522], [79.22390608580665, 14.366780552058755], [79.22283529400043, 14.368150277406128], [79.22000884991061, 14.368129045643695]]]]}}]}