{"type": "FeatureCollection", "features": [{"type": "Feature", "properties": {"depth_class": 1, "depth_lo_m": 0.3, "t_s": 48600.61898209906}, "geometry": {"type": "MultiPolygon", "coordinates": [[[[79.01423695261022, 14.223908887382798], [79.01637921620154, 14.22117142042738], [79.0195505306757, 14.221886537873932], [79.02168672354301, 14.21983777971867], [79.02171966913033, 14.216049556950844], [79.02102559621225, 14.214666178048029], [79.01646329169536, 14.211528701211513], [79.01293009436576, 14.211843776031177], [79.01150297172912, 14.213553947723556], [79.01148190310485, 14.215964620613429], [79.01217892634699, 14.21700363815606], [79.01144276519125, 14.220441583183506], [79.01317783846876, 14.223900083270717], [79.01423695261022, 14.223908887382798]], [[79.01815339219868, 14.220152915754356], [79.01641525626744, 14.217038827487833], [79.01324101536012, 14.216668060368143], [79.01254398765876, 14.215629045399083], [79.01291806577964, 14.213221304854397], [79.01610126561869, 14.2125589214722], [79.01819839683871, 14.214987168333762], [79.01995752948092, 14.215690560402804], [79.02064860126119, 14.217418325548406], [79.02027459039152, 14.219826087145787], [79.01815339219868, 14.220152915754356]]], [[[79.16097382683375, 14.241616081318917], [79.16141054658739, 14.231286456682], [79.16424353546628, 14.230274946805665], [79.16390993123291, 14.22786134759165], [79.16250598243334, 14.22681725309217], [79.16074340297509, 14.226459257530584], [79.15898919719153, 14.225068015579426], [79.15722384841197, 14.225054407334662], [79.15543614648841, 14.227796071131706], [79.15331770701934, 14.227779705115275], [79.15189701514774, 14.228802013680765], [79.15221368698735, 14.233282073302131], [79.15572493499282, 14.235720239400475], [79.15673947518127, 14.24123898722351], [79.15814347395816, 14.242283121995076], [79.16061515139403, 14.242302182935042], [79.16097382683375, 14.241616081318917]], [[79.15890271052439, 14.235744762761133], [79.156100381072, 14.232967682060588], [79.1561087649173, 14.231934450296858], [79.1582244551067, 14.232295207249601], [79.15890271052439, 14.235744762761133]]], [[[79.0793873548928, 14.243728887678136], [79.08293272458654, 14.242035298481827], [79.08615398699949, 14.236894853721072], [79.08653026609687, 14.234142510108619], [79.0847881424665, 14.231373186487032], [79.08196362775256, 14.231350520399044], [79.07805953813532, 14.233730065580076], [79.07591780487103, 14.236468163242238], [79.07203403165892, 14.236436833618454], [79.07058957335707, 14.240213752670751], [79.06776497241947, 14.240190904857197], [79.06881248251904, 14.241577048503595], [79.07587404169905, 14.241634079909234], [79.0793873548928, 14.243728887678136]], [[79.07869867410847, 14.241656834057089], [79.07730385182289, 14.239579093053658], [79.07804497150944, 14.235452040632822], [79.08230506650045, 14.23273093927216], [79.0840703986884, 14.232745108307421], [79.08510928155698, 14.235164378694286], [79.08223819679111, 14.240652042794586], [79.08081715168525, 14.241673877762336], [79.07869867410847, 14.241656834057089]]], [[[79.11821835883717, 14.245071512487145], [79.12036827828598, 14.241299773694987], [79.1203882306469, 14.238888950273804], [79.11829540661789, 14.235772633775452], [79.11653001572947, 14.235758714744671], [79.11401843811802, 14.240560836186502], [79.11400413678402, 14.242282846396957], [79.11680598822896, 14.245060370735448], [79.11821835883717, 14.245071512487145]]], [[[79.02839464380754, 14.260533509796982], [79.02876570278754, 14.258470124908133], [79.02702119820533, 14.256044834396468], [79.02420247308895, 14.255332679175918], [79.02207192835726, 14.256692648188968], [79.0220509053966, 14.259103327882938], [79.02380137369316, 14.260839884221653], [79.02732935793105, 14.261213514052207], [79.02839464380754, 14.260533509796982]], [[79.02383138253299, 14.257396052775857], [79.02559984263743, 14.257066295060401], [79.02664413778716, 14.25879698293623], [79.02487266498778, 14.259471130173212], [79.02381937995807, 14.258773585480736], [79.02383138253299, 14.257396052775857]]], [[[79.04850358252169, 14.262765450493285], [79.0502809583138, 14.261402344886147], [79.04994858448835, 14.25898873681769], [79.04713564590745, 14.257588063052104], [79.04572028911859, 14.257920878537409], [79.04463724186768, 14.260667293358344], [79.04497846673935, 14.262047739314534], [79.04567873810072, 14.262742305634553], [79.04850358252169, 14.262765450493285]]], [[[79.08205190822744, 14.262693345098118], [79.08347309294126, 14.26167152026909], [79.08349346713261, 14.259260752706338], [79.08279307445079, 14.258566284081496], [79.08067443677503, 14.258549238154322], [79.07818518574358, 14.260595693401529], [79.080286345286, 14.262679131955288], [79.08205190822744, 14.262693345098118]]], [[[79.09396800441786, 14.273465963502773], [79.09467426862636, 14.273471613981144], [79.094680061191, 14.272782819462263], [79.0939737991265, 14.272777169267746], [79.09396800441786, 14.273465963502773]]], [[[79.10381825341616, 14.27802206717275], [79.10276171529125, 14.277669229948954], [79.10204966246354, 14.278352399022232], [79.10203523060076, 14.280074391835095], [79.10415697921856, 14.279746873937343], [79.10381825341616, 14.27802206717275]]], [[[79.1997753478605, 14.467862137313235], [79.2026168727223, 14.466161692582563], [79.20475698289026, 14.46376699012652], [79.20583669801637, 14.46136418223273], [79.20585605040853, 14.458953287432866], [79.2037464483981, 14.457559462707568], [79.19951068605077, 14.45683823997676], [79.19636861374272, 14.451992125998474], [79.19603740379921, 14.449234123386912], [79.19463758896464, 14.44750123361601], [79.19466260016951, 14.444401527146283], [79.19785448114838, 14.443048226475133], [79.19787112089055, 14.440981751136087], [79.19611514634505, 14.439590583283545], [79.19046333084478, 14.439202827418367], [79.1872965757583, 14.437456333890257], [79.18448886334676, 14.435023704715473], [79.1823991915495, 14.431218858400484], [79.18028160800289, 14.43085809643896], [79.18029559747943, 14.429136048704764], [79.18601403055993, 14.421258158520581], [79.1874359149973, 14.420235787021166], [79.19132032967286, 14.420610023786008], [79.19274218934473, 14.41958761693658], [79.19277550400834, 14.415454669366092], [79.19990105335842, 14.408275981252423], [79.2020267614704, 14.407603303522547], [79.20554387420697, 14.409696668111792], [79.20802570379279, 14.408682205446253], [79.20840107195914, 14.405929561999042], [79.20629741642416, 14.403846979464118], [79.20630567421236, 14.402813733610408], [79.21058165620387, 14.398368479408418], [79.21237857302863, 14.394593268054164], [79.21664606903484, 14.391181121831993], [79.21773341506832, 14.387744936830806], [79.21915767669051, 14.386377911966797], [79.22128313273407, 14.385705029129523], [79.22378368585565, 14.382279426281071], [79.23193463264809, 14.379240518998927], [79.2337310182204, 14.375465080718804], [79.23904699727896, 14.37343804169246], [79.2404818192009, 14.370693171170162], [79.24546581063427, 14.365907952612101], [79.24868309103499, 14.361109549489473], [79.25222411305715, 14.360102368387542], [79.25472123314049, 14.35702077101586], [79.26040055637306, 14.35361807323313], [79.26325077810907, 14.350538956028371], [79.26573173436635, 14.34952377873026], [79.26786732971566, 14.347472706827512], [79.26823913795937, 14.345064288356136], [79.2703773087423, 14.342668756855096], [79.27145825959273, 14.3399210503151], [79.27183000812752, 14.33751261904669], [79.2700927328154, 14.333711025242874], [79.27011122056578, 14.331300020797956], [79.27189860962166, 14.328557451714449], [79.27262884181054, 14.325462725697143], [79.27936157625084, 14.322756013712535], [79.28115140294847, 14.319668921316628], [79.2832813231727, 14.318306522346594], [79.28472043815148, 14.31487240693638], [79.28476750473392, 14.308672622492944], [79.28657279202253, 14.303518867114224], [79.28661194099571, 14.298352370361512], [79.28803259736095, 14.29732924409275], [79.28804302501709, 14.295951510083555], [79.28663803162439, 14.294908037890208], [79.28594467341787, 14.293180782970603], [79.28633699959781, 14.288016826894474], [79.28529568730953, 14.285598161950157], [79.2814393782925, 14.281781383369172], [79.27826598297118, 14.281069553532452], [79.27123131635913, 14.277229629424273], [79.2691149129762, 14.276869807143289], [79.26666116003962, 14.274440815332767], [79.26101577540814, 14.273710770079328], [79.25962163316072, 14.271289449846899], [79.25716539847231, 14.269204806169213], [79.25683608028112, 14.266102364957488], [79.25578987209644, 14.264372470755749], [79.25580312000083, 14.262650327875846], [79.25687579988343, 14.260935933395643], [79.25655972001509, 14.256111347035416], [79.25409836430168, 14.254715548240464], [79.25234861029554, 14.252636046813922], [79.25022185799801, 14.253653796956733], [79.24984481305512, 14.256751055511932], [79.25265664408732, 14.258493913802539], [79.25264337632179, 14.260216054381688], [79.25085640983266, 14.262958528417832], [79.25084046670264, 14.265025094315897], [79.25328597779577, 14.268487504100293], [79.25326474066496, 14.271242927526012], [79.25290626957964, 14.271929193607253], [79.25114046516974, 14.271916237408652], [79.24798066171788, 14.269481894833413], [79.2462148810384, 14.269468904315952], [79.24444109790167, 14.27048917960594], [79.24407726527289, 14.27186428188667], [79.24512607328629, 14.273249793929645], [79.24579238956814, 14.278421391930799], [79.25071549053197, 14.281213180869766], [79.25392593520306, 14.277103379815292], [79.25604760417089, 14.276774478199318], [79.25992188565084, 14.278180609771951], [79.2616639531028, 14.281293369133456], [79.26342984051733, 14.281306255629383], [79.26414411669651, 14.280278117733817], [79.26767324731085, 14.280648269342597], [79.27576749502148, 14.28449597986577], [79.27859035780214, 14.284860861281302], [79.28280246577734, 14.288335801624212], [79.28277110115496, 14.29246899440716], [79.28381240814923, 14.294887669592407], [79.28378888821788, 14.297987564264782], [79.2816303837479, 14.303138746074291], [79.2812012044151, 14.313124719232862], [79.27977254537771, 14.315181083269009], [79.27728677696282, 14.316885321662475], [79.27620340812378, 14.31997751085292], [79.27407606855621, 14.320995409329234], [79.27019041482278, 14.320967138804939], [79.2680630446391, 14.321984979215788], [79.26446176676224, 14.330914327481057], [79.26509939718127, 14.339874626407191], [79.26330651845906, 14.343305977683942], [79.26118155875781, 14.34397930006302], [79.25560643628609, 14.333949422199728], [79.25563040501972, 14.330849583220651], [79.25426002262826, 14.325328370895756], [79.25181665155979, 14.321521489062132], [79.25115285343385, 14.316005469377147], [79.2501065065007, 14.314275535759966], [79.25014385271085, 14.30945356988267], [79.24104325935127, 14.298708609780066], [79.24000509941783, 14.29594537311015], [79.22734945324959, 14.288273659006201], [79.22560514618218, 14.285505120375998], [79.21925609945728, 14.28442438101431], [79.21574607621127, 14.281642569824932], [79.21081804367805, 14.279538945708614], [79.20906583811282, 14.277803573640748], [79.20378480629651, 14.275697164395643], [79.20273899620315, 14.273967080147465], [79.20310853975867, 14.271903233812402], [79.20241043365905, 14.270864650214245], [79.20099783539236, 14.270853987749872], [79.20028333036005, 14.271881907276368], [79.19781675443515, 14.271174384126434], [79.19467133625605, 14.267017316535288], [79.1915067980638, 14.265271135160509], [79.18870370188687, 14.262494353068792], [79.18627308261027, 14.257309322598118], [79.18346187139929, 14.255565742089164], [79.18136246506816, 14.253138689862682], [79.17538716230546, 14.249648704429603], [79.17363823429609, 14.24756871338771], [79.17046859446526, 14.24651112744483], [79.16801353289243, 14.244425687892592], [79.16201638893408, 14.24369070916142], [79.16163540091877, 14.247132102475952], [79.15915808339682, 14.247801867279591], [79.15879659682197, 14.248832374637248], [79.15914411684217, 14.24952392084936], [79.16267798841182, 14.24920673029069], [79.16443517373547, 14.25025355591275], [79.17114705561707, 14.249960671678787], [79.1732379977991, 14.25342103792563], [79.17676363457153, 14.254136885379042], [79.17887128920881, 14.255530730231696], [79.17886022947675, 14.256908387460845], [79.17635513643586, 14.261022461450796], [79.17317975042417, 14.260653715008287], [79.17072452363111, 14.258568284443907], [79.16649538907264, 14.257502500378221], [79.16544438025447, 14.256461117041615], [79.16438502053258, 14.256452964703605], [79.16119019338157, 14.258494944638821], [79.15836521706173, 14.25847314120359], [79.15766736612886, 14.25743445465033], [79.16051467059103, 14.254700978692096], [79.16404305015459, 14.255072600381496], [79.16475485756565, 14.254389213041346], [79.16476878652044, 14.252667154728291], [79.16088453722547, 14.252637236633216], [79.1591329422557, 14.250901563516896], [79.1513561207847, 14.251874715298847], [79.15102826467518, 14.248772296647056], [79.15032766775767, 14.248078004482615], [79.14856214887638, 14.248064310634124], [79.14749440554417, 14.249089313396654], [79.14711318070334, 14.252530654366119], [79.14180807395934, 14.253522671361328], [79.13896906513233, 14.25522267891341], [79.1343729405288, 14.255875623063213], [79.13226277104256, 14.254825822609286], [79.12378528480129, 14.255103704511178], [79.12237854797432, 14.254403781403811], [79.11531639990422, 14.254348076560875], [79.11320921763618, 14.252953718267149], [79.10898058526337, 14.251886958739412], [79.10406306666002, 14.248748118254655], [79.09842220246738, 14.247669958624627], [79.08747926478719, 14.247238071842608], [79.08466617177429, 14.245837828864287], [79.08149130147662, 14.245467904802648], [79.07937278767228, 14.245450862639078], [79.0729967983083, 14.247810378938373], [79.06765650462552, 14.252933429654403], [79.06233362201104, 14.255989981217668], [79.05632506153198, 14.256629909220555], [79.04896332912051, 14.250370358129912], [79.0450853136869, 14.249649784233133], [79.04298462378298, 14.247566089437083], [79.04371749672009, 14.244472391881905], [79.04338222711712, 14.242403171214832], [79.04196993530701, 14.242391588824539], [79.04054575680246, 14.243757546422922], [79.03948653331405, 14.243748847019711], [79.03809209036704, 14.241670921015782], [79.03562059635712, 14.241650592617704], [79.03418744478843, 14.24404966533019], [79.03027973426263, 14.246772719594972], [79.02991171163829, 14.248491728262412], [79.03305958337103, 14.251961801642706], [79.03447192713645, 14.251973444386309], [79.03625226001962, 14.250266056275514], [79.03698523567681, 14.247172392950986], [79.03945976631245, 14.246848328183834], [79.04050711214795, 14.24823457734343], [79.040121314932, 14.252019931855763], [79.03441523288934, 14.258516768265151], [79.02980105258226, 14.261233955699307], [79.02872079535788, 14.263635886639715], [79.0322667739578, 14.261943141422023], [79.03369411083885, 14.26023287112784], [79.0379461995618, 14.258545852483527], [79.04115976456886, 14.25443934181244], [79.0450615787934, 14.252404886541756], [79.04717418623626, 14.253111017836995], [79.0520701456207, 14.258661667193156], [79.06088000760795, 14.260799971844106], [79.06441400528223, 14.260484277275989], [79.06655612889479, 14.257746334224453], [79.0711552455026, 14.256750334116774], [79.07576309649129, 14.254721058220541], [79.08176870384793, 14.25442502190784], [79.08566733613262, 14.252734251740591], [79.08884522157894, 14.252759736885206], [79.1015251241951, 14.25664964547842], [79.10466567877678, 14.261152122000338], [79.10749060163789, 14.261174565581834], [79.10891455293192, 14.259808172934404], [79.11032700886209, 14.259819372705206], [79.11173373072755, 14.260519366217157], [79.11312613246105, 14.26294135881673], [79.1173692919996, 14.262286061230311], [79.1208890726197, 14.263691535693974], [79.12654473112292, 14.263047205008004], [79.12865778202344, 14.263752657232702], [79.1268608592728, 14.267527231052913], [79.1229479144556, 14.270940694902762], [79.12043026247466, 14.276431644066589], [79.11865024952561, 14.278139711640385], [79.1158165010893, 14.279150578287595], [79.11544615864855, 14.281214190831456], [79.11720044661337, 14.282605767408288], [79.12215313785372, 14.281611611790803], [79.12677828717122, 14.277514938000259], [79.1274959661824, 14.27614287798408], [79.12720545144187, 14.268563218357876], [79.13075664907475, 14.266180115652368], [79.13148561474718, 14.263430415685088], [79.1473762739485, 14.263554458183444], [79.15724707530092, 14.265697565518904], [79.16290000017572, 14.265396776099056], [79.17485943088502, 14.271344049563217], [79.18191958341107, 14.271742469148661], [79.18861287023415, 14.273860075801506], [79.19211415474497, 14.277675484453678], [79.20055166064319, 14.282561528412968], [79.20439826201535, 14.287412717826857], [79.20791638855229, 14.289161432708717], [79.21107049925732, 14.29228512424976], [79.2149392312036, 14.294380825132931], [79.21280377253886, 14.296431431949484], [79.20926913336278, 14.296749286590565], [79.20749498829888, 14.297769240221582], [79.20114027160503, 14.29737682315745], [79.19865970807489, 14.298391361917679], [79.19266096090944, 14.297656976922248], [79.19300314286815, 14.299037323799245], [79.19545349859581, 14.30181142640451], [79.20040099985593, 14.30150448567146], [79.20180831045201, 14.302204008825056], [79.20105531688783, 14.308053756798241], [79.20210397906895, 14.309439443489508], [79.20386729154072, 14.309797214823273], [79.20563881597154, 14.309121720083809], [79.20777446580803, 14.30707120126898], [79.21029872596955, 14.300545871431773], [79.21242335797442, 14.299872972804836], [79.21384702762434, 14.298505909704694], [79.2184467086529, 14.29750708785423], [79.22022352217229, 14.296142625466231], [79.2223426789587, 14.296158472505134], [79.22690989272381, 14.299292543110434], [79.22723338770527, 14.30308382031021], [79.22616296372455, 14.304453604833322], [79.21840329102989, 14.303017816814053], [79.21663184322969, 14.303693417077575], [79.21556135744696, 14.305063146000265], [79.21552328557267, 14.309885023325727], [79.21692526702004, 14.311273307903123], [79.21833812990896, 14.311283905231491], [79.21976184842852, 14.309916812124154], [79.2218811337576, 14.309932678209698], [79.2243455168131, 14.310984428918426], [79.22574756483864, 14.312372668355701], [79.22571510160904, 14.316505726615635], [79.22428866022318, 14.318217275209708], [79.21968312731013, 14.319905003160079], [79.21932446538463, 14.320591195357952], [79.21960978062853, 14.329204345517322], [79.21602287031249, 14.33606620646571], [79.21495765599686, 14.336747073184952], [79.21213434832559, 14.336381374666416], [79.21000662498503, 14.337398646599935], [79.20715320168271, 14.340821479624346], [79.20467215588783, 14.34183602510649], [79.20288663121569, 14.344233562458387], [79.20004951611261, 14.345589790764064], [79.19897870880858, 14.346959405417248], [79.19860341384327, 14.349712044956718], [79.19928242873824, 14.353161567800331], [79.19855383584857, 14.35591152009875], [79.1946069813338, 14.363459059366232], [79.19247616118379, 14.364820546401162], [79.18997262740434, 14.368590203424397], [79.18784173189489, 14.369951639195056], [79.1825283003781, 14.371633072520883], [79.17793257240787, 14.371942174579791], [79.1743827737739, 14.373981413201555], [79.1687298952317, 14.373937742236], [79.16802889727067, 14.373243456237823], [79.1652052844399, 14.372877154563152], [79.16201431213669, 14.374230115477365], [79.15702573052458, 14.379357750723596], [79.1538374542961, 14.380366177886044], [79.14991985091285, 14.384124273773587], [79.14884004236076, 14.38652681378699], [79.14564310996603, 14.388568325560033], [79.14420705919875, 14.391312467635272], [79.14100146651136, 14.394387111637185], [79.13955390097274, 14.398508823232019], [79.13986157318197, 14.404022045352205], [79.13807198353987, 14.406763343195479], [79.13731666916836, 14.412612601364062], [79.13518792628084, 14.413629068623573], [79.1270606657842, 14.413564730931572], [79.12564147621922, 14.414242311966465], [79.12240933271694, 14.420416215271855], [79.12550609756738, 14.43042906970078], [79.13039598161362, 14.437356336923948], [79.13425751297646, 14.440486739710533], [79.13708759931683, 14.44016470349334], [79.14208096932555, 14.434693328594545], [79.14740184141685, 14.432324220748573], [79.14953642187557, 14.43061885224959], [79.15449807243495, 14.428935598761], [79.15697179047478, 14.42895494214395], [79.15730817985022, 14.43102413400552], [79.15374019310744, 14.435129345715067], [79.15337543370897, 14.436504194643206], [79.1551197279014, 14.439273265089684], [79.15723448542381, 14.4399786623597], [79.16359580550667, 14.440028313472856], [79.17385588862842, 14.43873031412698], [79.17772655092615, 14.44082685286502], [79.17984421988152, 14.441187648068128], [79.18300536091247, 14.44362306000335], [79.18472214657572, 14.449836057850517], [79.18683154207223, 14.451230031761009], [79.18856242268849, 14.455720965330121], [79.19276747667037, 14.460230900899063], [79.1920271509783, 14.464358402892461], [79.19484363426865, 14.465757754998965], [79.19658866379558, 14.468526598566644], [79.1997753478605, 14.467862137313235]], [[79.19210793607036, 14.454370485454563], [79.1875579368821, 14.448824599945954], [79.1865004514178, 14.448472029373157], [79.18617215680113, 14.445369616638049], [79.18443020554561, 14.442256316718268], [79.18091845253176, 14.439473787331186], [79.17703655760971, 14.438754934802182], [79.17457393672225, 14.43735815624587], [79.16467014679806, 14.438314540664006], [79.15654185494533, 14.438251111544007], [79.15549015869084, 14.43720960397019], [79.15550434520381, 14.435487581136554], [79.1590723094557, 14.43138233967075], [79.1590949533725, 14.428627096076967], [79.15839667009092, 14.427588362412397], [79.1541617102588, 14.426866405999165], [79.14601108054438, 14.429557887725545], [79.14389075804245, 14.429541210084594], [79.14318969398921, 14.428846841900292], [79.13727375547576, 14.417778625675933], [79.13800051051369, 14.415373390359596], [79.13978446974014, 14.41332090765048], [79.13982731178756, 14.408154873992379], [79.14234354819583, 14.40300830043489], [79.14165396787034, 14.400936325205352], [79.14240054601986, 14.396120238986713], [79.1463298629713, 14.390984695154149], [79.15024198236188, 14.387915492242234], [79.1516807696622, 14.384826896009288], [79.15559553512743, 14.38141317528543], [79.15842768804856, 14.380746382125466], [79.16306297030363, 14.375615975579507], [79.16554454103252, 14.374601934710636], [79.16906918008785, 14.37566252057723], [79.17401548663544, 14.375700737440555], [79.1779186226727, 14.373664228357331], [79.18180777402941, 14.37334970376166], [79.18960269881255, 14.3706539807256], [79.19246232990803, 14.366542615144233], [79.19566133856375, 14.364155965158995], [79.197460905911, 14.360036439312728], [79.19924387499302, 14.357983382501533], [79.20070104240872, 14.352483469245962], [79.20001099997948, 14.35041161057899], [79.20038903073191, 14.347314551308367], [79.20358217981159, 14.345616581783158], [79.20537045249543, 14.342874623012975], [79.20820750716902, 14.34151832300443], [79.21105819375856, 14.338439894717709], [79.21282720905562, 14.33810878991869], [79.21529183028737, 14.3391606630171], [79.22123473364746, 14.347127427372108], [79.22615073028992, 14.350953108818564], [79.22754487928984, 14.353374625288707], [79.22752861698021, 14.355441149503426], [79.2257486166736, 14.357150031622028], [79.22537904112116, 14.359213906966108], [79.2267894982566, 14.359568909011307], [79.22823790013474, 14.355102012794037], [79.23251247432039, 14.350656190659135], [79.23431126327554, 14.346536289932775], [79.23542231345729, 14.340000152814795], [79.24294818528763, 14.3262782586882], [79.24372969281772, 14.316639595772724], [79.24096822336737, 14.308352500983498], [79.23221057497395, 14.298987561792012], [79.2293903758454, 14.298277696006787], [79.2237662697262, 14.294791339920648], [79.21847383527418, 14.29406288089464], [79.20829410666705, 14.286064321081431], [79.20653369245717, 14.285362183975682], [79.20443923979245, 14.282246442414237], [79.19529532682783, 14.277355176138883], [79.18934119230948, 14.271110119133404], [79.18688018383767, 14.269713656711534], [79.18867068144635, 14.266627344470784], [79.1911399178136, 14.26699053707408], [79.19360093050773, 14.268386955381487], [79.19744716567197, 14.273238216845602], [79.20061459879466, 14.27463991872121], [79.20341799025594, 14.277416592773985], [79.20834589141488, 14.279520357072208], [79.2164144265904, 14.286469751447008], [79.21887853478368, 14.287521528233919], [79.22135890821485, 14.286506753199221], [79.22383115433053, 14.286525215602799], [79.22592592736024, 14.289640821000726], [79.22874061416684, 14.291039560239906], [79.22978939479927, 14.292425137186155], [79.23541893024401, 14.2952225076068], [79.23753541234335, 14.29558264259466], [79.23997561621668, 14.299734044388202], [79.24802186911504, 14.309782382078085], [79.25039302233446, 14.32288878699209], [79.2524938000767, 14.325315377357825], [79.25247513223168, 14.327726360377817], [79.25035030412687, 14.328399599488854], [79.25000239725598, 14.327708144184793], [79.24823883362681, 14.327350691534905], [79.24431024464174, 14.332832778513572], [79.243566186117, 14.337649489859999], [79.24069709293516, 14.343139326115939], [79.23780360344223, 14.351728913958272], [79.23884190982231, 14.354492174188023], [79.24519841184932, 14.35488377274268], [79.24768483605357, 14.353179950533738], [79.25086709696075, 14.352859013334774], [79.25476926968729, 14.350821107175648], [79.2576168572997, 14.348086488196238], [79.25869532968359, 14.345683288232062], [79.26329059581704, 14.345372543396225], [79.26650982770683, 14.340229385877105], [79.26659188428569, 14.329552102745087], [79.26944960948693, 14.325439573563068], [79.26981869721779, 14.323375571796854], [79.27088370741511, 14.322694431919652], [79.27194080236329, 14.32304657599841], [79.27012970487637, 14.328889015840835], [79.26833964911776, 14.331975997717002], [79.26832907377486, 14.333353713232254], [79.27007688343427, 14.335777600073637], [79.27004253443779, 14.34025517758222], [79.26718724724815, 14.344023260796149], [79.26681278214677, 14.346776104945306], [79.2589900584352, 14.353263269422321], [79.25437861768734, 14.355640465904207], [79.25116956763394, 14.359405696352727], [79.24727525574652, 14.360410248680669], [79.24476994218354, 14.364525021758341], [79.2401419767683, 14.368968431890815], [79.23799244210036, 14.372741309221585], [79.23338852065822, 14.374084758717359], [79.23052675463228, 14.378541112555718], [79.22840410052446, 14.378869669685656], [79.22201977018223, 14.381921735839445], [79.2198752574515, 14.385005558777234], [79.21845920086473, 14.385339335361952], [79.2166788756464, 14.387048109982699], [79.21559151873022, 14.39048428885348], [79.21132402354007, 14.393896415897759], [79.20952709695543, 14.397671618036327], [79.20525386528547, 14.401772437384958], [79.20488122725283, 14.404180658097316], [79.20663150824048, 14.40626056932609], [79.20662049696222, 14.407638230289104], [79.20520428340609, 14.407971908043441], [79.20344849042542, 14.40658081582408], [79.20026823123311, 14.406556604297517], [79.19920261776095, 14.407237351953812], [79.19100863316113, 14.41544113584089], [79.1909864028766, 14.418196431695046], [79.19027408590375, 14.418879837096238], [79.1863841321871, 14.419194408835168], [79.18282242455615, 14.42261132904973], [79.1820988944584, 14.424672345281513], [79.17960560213648, 14.427064137655936], [79.177813440169, 14.430150176882297], [79.17779943058949, 14.431872222082937], [79.18167562013487, 14.43327986819635], [79.18306407052958, 14.43639045457428], [79.1855267454546, 14.437787149445748], [79.18692643148111, 14.439520079437346], [79.19291496726976, 14.441977100157153], [79.19182967328987, 14.445068669940449], [79.19355506328266, 14.450248398126755], [79.19352724390254, 14.453692512556865], [79.1931682432662, 14.454378623645335], [79.19210793607036, 14.454370485454563]], [[79.24380136790427, 14.352806761490447], [79.24277911959713, 14.347976974390525], [79.24349372962065, 14.34694893873985], [79.24352325520759, 14.343160275303216], [79.24531909626012, 14.339384683161326], [79.24606848441073, 14.333879113898453], [79.24714163559679, 14.332164819997065], [79.24855732621151, 14.331830827334276], [79.25097401692425, 14.339082001581595], [79.25236839217014, 14.341503396371207], [79.25552649909237, 14.344282212674948], [79.25621172971914, 14.347042819604292], [79.25407070751038, 14.34978262656512], [79.25088581615458, 14.35044803748776], [79.24842622178178, 14.348707652833303], [79.24667858023264, 14.34628362385754], [79.24491220080819, 14.34627055526999], [79.24489610610439, 14.348337100123924], [79.246298499846, 14.349725255019496], [79.24663837911412, 14.351449990186461], [79.2452145114379, 14.35281722869116], [79.24380136790427, 14.352806761490447]], [[79.22861285551744, 14.352349286616583], [79.22335708537123, 14.346798900500058], [79.22231900127113, 14.344035596566972], [79.21916136025284, 14.341256384983861], [79.21883258457282, 14.338153956799], [79.2216966701015, 14.333353277239375], [79.22242759608214, 14.330258787169662], [79.22349547050992, 14.329233459727009], [79.22350902758708, 14.327511356223113], [79.22210691218562, 14.326123095980254], [79.22248185020662, 14.323370376182924], [79.22390834129416, 14.321658844491258], [79.22745419604736, 14.31996312873934], [79.22889143267072, 14.31687387178107], [79.22894543692416, 14.309985428834807], [79.22755958684314, 14.306530675085837], [79.22969503433234, 14.304479932881417], [79.23006442089032, 14.302416026912525], [79.23112942325065, 14.301735066571656], [79.23322980398007, 14.304161785301197], [79.23251261675645, 14.30553422677023], [79.2324856813201, 14.308978456716513], [79.23422753330264, 14.312091393415956], [79.23349416016171, 14.315530372665917], [79.23100539822049, 14.317578508837391], [79.2309973043571, 14.318611776042289], [79.23204890427981, 14.319652933752138], [79.23381236909246, 14.320010497132479], [79.23307894948324, 14.323449469241943], [79.23413057997575, 14.324490621016189], [79.23406858895919, 14.332412342658767], [79.23334590096503, 14.334473618591991], [79.23255029587828, 14.345834285257817], [79.2300313967933, 14.35167100154677], [79.22861285551744, 14.352349286616583]], [[79.23804310094398, 14.321075252541123], [79.23595328950513, 14.317270862359281], [79.23463187568555, 14.305549974466604], [79.23639523945425, 14.30590750689709], [79.23814787083235, 14.307642723096198], [79.24161300094686, 14.316279492856552], [79.24084214434113, 14.32454044279071], [79.23833182103444, 14.329344038665148], [79.23762801530437, 14.328994370688408], [79.23804310094398, 14.321075252541123]], [[79.28011266564705, 14.316905798216169], [79.28117499625493, 14.316569036588731], [79.28116713244708, 14.317602331591974], [79.27939569680007, 14.318278407552867], [79.28011266564705, 14.316905798216169]], [[79.20283778734104, 14.30600061260757], [79.20392750263473, 14.302220026515876], [79.2053485003043, 14.301197440349972], [79.20711175814047, 14.301555180925872], [79.20672304244465, 14.306029954761618], [79.20459013142104, 14.307736046602407], [79.20353050876652, 14.307728040048394], [79.20283778734104, 14.30600061260757]], [[79.18018427173658, 14.267940431312674], [79.18194997668645, 14.267953909603722], [79.18300111717338, 14.268995234553076], [79.18052635293596, 14.269320785095347], [79.17982283313066, 14.268970976504804], [79.18018427173658, 14.267940431312674]], [[79.16750466039016, 14.263710059830881], [79.16891718782932, 14.263720915499945], [79.16996824400518, 14.26476228885129], [79.16820257574248, 14.264748724773606], [79.16750466039016, 14.263710059830881]], [[79.15904629873845, 14.26157828851423], [79.16081472661755, 14.261247506769513], [79.16151260267266, 14.26228618693319], [79.1608007589055, 14.262969560011886], [79.15903511370705, 14.262955929716759], [79.15904629873845, 14.26157828851423]], [[79.18024785410711, 14.260018901418992], [79.18272251511719, 14.259693341521778], [79.1834260134472, 14.260043138918906], [79.18341773676819, 14.261076384090295], [79.18199693057271, 14.262098860545079], [79.1805844028979, 14.262088083563157], [79.17988090404687, 14.261738277599253], [79.18024785410711, 14.260018901418992]], [[79.14424040726206, 14.258363622627376], [79.14213580090397, 14.256625087084332], [79.14284767152013, 14.25594177381291], [79.14531947623415, 14.255961011125045], [79.14602007723217, 14.25665531866664], [79.14600600192487, 14.258377358149295], [79.14424040726206, 14.258363622627376]], [[79.07580398413998, 14.249899541660659], [79.07969382426263, 14.249242049080232], [79.08074144865944, 14.2506281537647], [79.07967342463837, 14.25165281327601], [79.07719884250153, 14.251977295993408], [79.07543628895061, 14.251618663403727], [79.07580398413998, 14.249899541660659]], [[79.03275127605626, 14.24679311044698], [79.0345196473599, 14.24646327395949], [79.03485483545599, 14.248532496834923], [79.03308943229895, 14.248517948370273], [79.03275127605626, 14.24679311044698]], [[79.16552790737029, 14.246128761024632], [79.16694310476313, 14.245795203000755], [79.16834162549115, 14.24752811142924], [79.16727674409547, 14.248208801572812], [79.16586709750607, 14.24785353570824], [79.16552790737029, 14.246128761024632]]], [[[79.18857431143519, 14.27868189412621], [79.1861132321777, 14.27728541545014], [79.1839915328802, 14.277613681296852], [79.18362180295311, 14.279677475380279], [79.18467299976358, 14.280718799334128], [79.18784870089154, 14.281087427505597], [79.18855778182927, 14.280748387066215], [79.18857431143519, 14.27868189412621]]], [[[79.24821928318207, 14.284294843873807], [79.24751025819167, 14.28463407111163], [79.24715174462311, 14.285320323382049], [79.24785810645356, 14.285325524025078], [79.24821928318207, 14.284294843873807]]], [[[79.23937910448225, 14.28560740303323], [79.2376185691918, 14.284905485195017], [79.23725734479896, 14.28593614356025], [79.23902056582666, 14.286293639996353], [79.23937910448225, 14.28560740303323]]], [[[79.19622581848074, 14.29355079221826], [79.19800819772877, 14.291497673613833], [79.19696237680166, 14.289767562766922], [79.19413970261176, 14.28940172089847], [79.1927214939564, 14.290079827793615], [79.19375353310812, 14.293532034145748], [79.19622581848074, 14.29355079221826]]], [[[79.27956612260306, 14.295890350300757], [79.27922863917759, 14.293821203691172], [79.27817166043747, 14.293469105284087], [79.27746001685021, 14.29415285505595], [79.27744690327167, 14.295875013207592], [79.27814806566445, 14.296568991111675], [79.27956612260306, 14.295890350300757]]], [[[79.18593655839467, 14.29932795981591], [79.18700717586985, 14.297958381562141], [79.18631460743782, 14.296230922963252], [79.18419272708142, 14.29655916913739], [79.18382018048459, 14.298967371005046], [79.18593655839467, 14.29932795981591]]], [[[79.25577675604349, 14.311906104388367], [79.26284919424175, 14.310924569264042], [79.26251450862785, 14.308510987596867], [79.25900088497217, 14.306074144580384], [79.25616984876253, 14.30674228710844], [79.25438514746482, 14.309140313490364], [79.25437716544725, 14.310173594440029], [79.25577675604349, 14.311906104388367]]], [[[79.26522652387102, 14.323342066612607], [79.26736449016781, 14.320946538538433], [79.26669766386048, 14.315774948376356], [79.26459679504339, 14.313348474631983], [79.26283065641763, 14.31333556853194], [79.26069538071556, 14.31538663196599], [79.2606688556088, 14.318830911234791], [79.26346030651884, 14.323329156383169], [79.26522652387102, 14.323342066612607]]], [[[79.1628827681704, 14.397658053384577], [79.1646832499922, 14.393538890383093], [79.16470294928146, 14.391128036947183], [79.1636570348332, 14.389397768529971], [79.1615370705819, 14.389381294428663], [79.16082195759058, 14.390409019706988], [79.16077401147473, 14.396263936140832], [79.16181992749094, 14.397994217530691], [79.1628827681704, 14.397658053384577]]], [[[79.16548415828092, 14.42523259110906], [79.17118609415411, 14.419421555977012], [79.17721310468433, 14.417057167840365], [79.18220222325652, 14.411929166219869], [79.1857498226898, 14.410234289658602], [79.19180699571851, 14.404080943851568], [79.19324537369579, 14.400992043197602], [79.20000877051169, 14.394843830101061], [79.2025262744322, 14.389352014472887], [79.20466830326758, 14.386612797801936], [79.20539696913286, 14.383862836311456], [79.20718008865067, 14.381809737154867], [79.20792517243375, 14.376993263539292], [79.20971369230445, 14.374251301664556], [79.20974384525371, 14.370462716504193], [79.20904271516669, 14.369768538289305], [79.2069228824233, 14.369752492412829], [79.19805440811749, 14.37416282079432], [79.1934503123048, 14.375505461879857], [79.1891689714087, 14.380639250832159], [79.18737460412427, 14.384069845281337], [79.18595296899285, 14.385092246166431], [79.18487351949233, 14.387494995685973], [79.18024677429491, 14.391592623024], [79.17735860460151, 14.399147868287464], [79.1730680024962, 14.405314486503396], [79.16950917355797, 14.40838680347007], [79.1655489911732, 14.417311231223367], [79.16235453187285, 14.41900852371317], [79.15950209167585, 14.422086146508589], [79.15948512097025, 14.424152580884982], [79.16053678427531, 14.42519406665209], [79.16229805261271, 14.425896649688905], [79.16548415828092, 14.42523259110906]], [[79.1616167123023, 14.422791487816305], [79.16340054516895, 14.420738808967574], [79.16552644507497, 14.42006648747009], [79.16730740554942, 14.418358179185528], [79.1712703528103, 14.409089308170767], [79.17482917325663, 14.406016963292073], [79.17840466832699, 14.400878092519559], [79.18056104629746, 14.396417091586152], [79.18129562276138, 14.39297842317867], [79.1862812749241, 14.38819466354165], [79.19272154435801, 14.378255374523762], [79.19556741998196, 14.375866048728838], [79.19804336989947, 14.375540478976761], [79.20584923325512, 14.371466543119757], [79.2079718245543, 14.371138183948473], [79.20866472630951, 14.372865615270367], [79.20687071516922, 14.376296401689311], [79.20648717964647, 14.380082300848489], [79.20434249144546, 14.383165960741083], [79.20289613865953, 14.387288209795356], [79.20111293431275, 14.389341266139091], [79.19895426508114, 14.394146927053823], [79.19219086641952, 14.40029510937843], [79.19075248035757, 14.40338400260838], [79.18861289221158, 14.40577863912869], [79.1843419394885, 14.409534603867732], [79.18186002336057, 14.41054880382484], [79.17758327395964, 14.414993439954696], [79.16942483807019, 14.418719041683719], [79.16478867212791, 14.423849467101745], [79.16301893954, 14.424180122731942], [79.16196161802597, 14.423827459545683], [79.1616167123023, 14.422791487816305]]]]}}, {"type": "Feature", "properties": {"depth_class": 2, "depth_lo_m": 1.0, "t_s": 48600.61898209906}, "geometry": {"type": "MultiPolygon", "coordinates": [[[[79.02027459039152, 14.219826087145787], [79.02064860126119, 14.217418325548406], [79.01960750057071, 14.215343252802397], [79.01819839683871, 14.214987168333762], [79.01610126561869, 14.2125589214722], [79.01291806577964, 14.213221304854397], [79.01254398765876, 14.215629045399083], [79.01324101536012, 14.216668060368143], [79.01641525626744, 14.217038827487833], [79.01815339219868, 14.220152915754356], [79.02027459039152, 14.219826087145787]], [[79.01430610767282, 14.21598809505003], [79.013974124304, 14.213574486052321], [79.01644227872582, 14.213939381788796], [79.0164272670522, 14.215661296171254], [79.01430610767282, 14.21598809505003]]], [[[79.15890271052439, 14.235744762761133], [79.1578741660003, 14.231948073218977], [79.1561087649173, 14.231934450296858], [79.156100381072, 14.232967682060588], [79.15890271052439, 14.235744762761133]]], [[[79.08081715168525, 14.241673877762336], [79.08366794696201, 14.238597009622111], [79.08510928155698, 14.235164378694286], [79.0840703986884, 14.232745108307421], [79.08230506650045, 14.23273093927216], [79.08088116703641, 14.234097177139159], [79.07875693558165, 14.234768933188933], [79.07732425857802, 14.237168329790206], [79.07730385182289, 14.239579093053658], [79.07869867410847, 14.241656834057089], [79.08081715168525, 14.241673877762336]], [[79.07872780873683, 14.238212884147963], [79.0794514275527, 14.236152194731181], [79.08263488268973, 14.23548894176514], [79.08262325577907, 14.236866525335005], [79.0808346141494, 14.239607505369005], [79.07942230828496, 14.239596146700691], [79.07872780873683, 14.238212884147963]]], [[[79.03486974355957, 14.246810567973677], [79.03310733783029, 14.24645163590118], [79.03273933689593, 14.248170651800082], [79.03379260985845, 14.248868154842537], [79.03485483545599, 14.248532496834923], [79.03486974355957, 14.246810567973677]]], [[[79.14566977619779, 14.256308165093126], [79.14284767152013, 14.25594177381291], [79.14213015922778, 14.257313901388402], [79.14600600192487, 14.258377358149295], [79.14566977619779, 14.256308165093126]]], [[[79.02593195250584, 14.259479903876935], [79.02630303036523, 14.257416525317973], [79.02383138253299, 14.257396052775857], [79.02416947409795, 14.259120895213629], [79.02593195250584, 14.259479903876935]]], [[[79.1608007589055, 14.262969560011886], [79.16151818754045, 14.26159736535187], [79.16081472661755, 14.261247506769513], [79.15869037538354, 14.261919971409817], [79.15903511370705, 14.262955929716759], [79.1608007589055, 14.262969560011886]]], [[[79.16798573911937, 14.24786981291174], [79.16834718362114, 14.246839286351703], [79.16764653248764, 14.246145039311449], [79.16552790737029, 14.246128761024632], [79.16586709750607, 14.24785353570824], [79.16798573911937, 14.24786981291174]]], [[[79.1805844028979, 14.262088083563157], [79.18341773676819, 14.261076384090295], [79.1834260134472, 14.260043138918906], [79.18272251511719, 14.259693341521778], [79.17989196148501, 14.260360620141986], [79.17988090404687, 14.261738277599253], [79.1805844028979, 14.262088083563157]]], [[[79.16996824400518, 14.26476228885129], [79.16891718782932, 14.263720915499945], [79.16750466039016, 14.263710059830881], [79.16820257574248, 14.264748724773606], [79.16996824400518, 14.26476228885129]]], [[[79.18300387836952, 14.268650819814555], [79.18194997668645, 14.267953909603722], [79.1798283650959, 14.268282148236334], [79.18052635293596, 14.269320785095347], [79.18264521240141, 14.269336955965668], [79.18300387836952, 14.268650819814555]]], [[[79.20459013142104, 14.307736046602407], [79.20708444365461, 14.304999364282386], [79.20711175814047, 14.301555180925872], [79.20640809341693, 14.301205435231518], [79.20463937044998, 14.301536525734498], [79.203210155801, 14.303592359824725], [79.20318003963159, 14.307380952679216], [79.20459013142104, 14.307736046602407]]], [[[79.28081389483177, 14.317599775304988], [79.28117499625493, 14.316569036588731], [79.27975680589567, 14.3172476718948], [79.27939569680007, 14.318278407552867], [79.28081389483177, 14.317599775304988]]], [[[79.19355506328266, 14.450248398126755], [79.19182967328987, 14.445068669940449], [79.19291496726976, 14.441977100157153], [79.18692643148111, 14.439520079437346], [79.1855267454546, 14.437787149445748], [79.18306407052958, 14.43639045457428], [79.18167562013487, 14.43327986819635], [79.17779943058949, 14.431872222082937], [79.177813440169, 14.430150176882297], [79.17960560213648, 14.427064137655936], [79.1820988944584, 14.424672345281513], [79.18282242455615, 14.42261132904973], [79.1863841321871, 14.419194408835168], [79.19027408590375, 14.418879837096238], [79.1909864028766, 14.418196431695046], [79.19100863316113, 14.41544113584089], [79.19920261776095, 14.407237351953812], [79.20026823123311, 14.406556604297517], [79.20344849042542, 14.40658081582408], [79.20520428340609, 14.407971908043441], [79.20662049696222, 14.407638230289104], [79.20663150824048, 14.40626056932609], [79.20488122725283, 14.404180658097316], [79.20525386528547, 14.401772437384958], [79.20952709695543, 14.397671618036327], [79.21132402354007, 14.393896415897759], [79.21559151873022, 14.39048428885348], [79.2166788756464, 14.387048109982699], [79.21845920086473, 14.385339335361952], [79.2198752574515, 14.385005558777234], [79.22201977018223, 14.381921735839445], [79.22840410052446, 14.378869669685656], [79.23052675463228, 14.378541112555718], [79.23338852065822, 14.374084758717359], [79.23799244210036, 14.372741309221585], [79.2401419767683, 14.368968431890815], [79.24476994218354, 14.364525021758341], [79.24727525574652, 14.360410248680669], [79.25116956763394, 14.359405696352727], [79.25437861768734, 14.355640465904207], [79.2589900584352, 14.353263269422321], [79.26681278214677, 14.346776104945306], [79.26718724724815, 14.344023260796149], [79.27004253443779, 14.34025517758222], [79.27007688343427, 14.335777600073637], [79.26832907377486, 14.333353713232254], [79.26833964911776, 14.331975997717002], [79.27012970487637, 14.328889015840835], [79.27194080236329, 14.32304657599841], [79.27088370741511, 14.322694431919652], [79.26981869721779, 14.323375571796854], [79.26944960948693, 14.325439573563068], [79.26659188428569, 14.329552102745087], [79.26650982770683, 14.340229385877105], [79.26329059581704, 14.345372543396225], [79.25869532968359, 14.345683288232062], [79.2576168572997, 14.348086488196238], [79.25476926968729, 14.350821107175648], [79.25086709696075, 14.352859013334774], [79.24768483605357, 14.353179950533738], [79.24519841184932, 14.35488377274268], [79.23884190982231, 14.354492174188023], [79.23780360344223, 14.351728913958272], [79.24069709293516, 14.343139326115939], [79.243566186117, 14.337649489859999], [79.24431024464174, 14.332832778513572], [79.24823883362681, 14.327350691534905], [79.25000239725598, 14.327708144184793], [79.25035030412687, 14.328399599488854], [79.25247513223168, 14.327726360377817], [79.2524938000767, 14.325315377357825], [79.25039302233446, 14.32288878699209], [79.24802186911504, 14.309782382078085], [79.23997561621668, 14.299734044388202], [79.23753541234335, 14.29558264259466], [79.23541893024401, 14.2952225076068], [79.22978939479927, 14.292425137186155], [79.22874061416684, 14.291039560239906], [79.22592592736024, 14.289640821000726], [79.22383115433053, 14.286525215602799], [79.22135890821485, 14.286506753199221], [79.21993807171621, 14.287529455422224], [79.2164144265904, 14.286469751447008], [79.20834589141488, 14.279520357072208], [79.20341799025594, 14.277416592773985], [79.20061459879466, 14.27463991872121], [79.19744716567197, 14.273238216845602], [79.19360093050773, 14.268386955381487], [79.1911399178136, 14.26699053707408], [79.18867068144635, 14.266627344470784], [79.18688018383767, 14.269713656711534], [79.18934119230948, 14.271110119133404], [79.19529532682783, 14.277355176138883], [79.20443923979245, 14.282246442414237], [79.20653369245717, 14.285362183975682], [79.20829410666705, 14.286064321081431], [79.21847383527418, 14.29406288089464], [79.2237662697262, 14.294791339920648], [79.2293903758454, 14.298277696006787], [79.23221057497395, 14.298987561792012], [79.23395774301942, 14.301411646856732], [79.2388704012743, 14.30558141324803], [79.24096822336737, 14.308352500983498], [79.243395213621, 14.314226010517768], [79.2433094714246, 14.32524759940646], [79.23542231345729, 14.340000152814795], [79.23431126327554, 14.346536289932775], [79.23251247432039, 14.350656190659135], [79.22823790013474, 14.355102012794037], [79.2267894982566, 14.359568909011307], [79.22537904112116, 14.359213906966108], [79.2257486166736, 14.357150031622028], [79.22752861698021, 14.355441149503426], [79.22754487928984, 14.353374625288707], [79.22615073028992, 14.350953108818564], [79.22123473364746, 14.347127427372108], [79.21529183028737, 14.3391606630171], [79.21212069566559, 14.33810346618549], [79.20820750716902, 14.34151832300443], [79.20537045249543, 14.342874623012975], [79.20358217981159, 14.345616581783158], [79.20038903073191, 14.347314551308367], [79.20001099997948, 14.35041161057899], [79.20070104240872, 14.352483469245962], [79.19924387499302, 14.357983382501533], [79.197460905911, 14.360036439312728], [79.19566133856375, 14.364155965158995], [79.19246232990803, 14.366542615144233], [79.18960269881255, 14.3706539807256], [79.18180777402941, 14.37334970376166], [79.1779186226727, 14.373664228357331], [79.17401548663544, 14.375700737440555], [79.16906918008785, 14.37566252057723], [79.16660445554373, 14.374610147918858], [79.16448181626848, 14.374938124865015], [79.16306297030363, 14.375615975579507], [79.15842768804856, 14.380746382125466], [79.15452993996034, 14.382093720901533], [79.1516807696622, 14.384826896009288], [79.15024198236188, 14.387915492242234], [79.1463298629713, 14.390984695154149], [79.14240054601986, 14.396120238986713], [79.14167107416627, 14.39886990766502], [79.14234354819583, 14.40300830043489], [79.13982731178756, 14.408154873992379], [79.13978446974014, 14.41332090765048], [79.13800051051369, 14.415373390359596], [79.13727375547576, 14.417778625675933], [79.14039977230992, 14.42434734343704], [79.14389075804245, 14.429541210084594], [79.14601108054438, 14.429557887725545], [79.1541617102588, 14.426866405999165], [79.15698879024947, 14.426888511538676], [79.15874722626565, 14.427935526697329], [79.1590723094557, 14.43138233967075], [79.15550434520381, 14.435487581136554], [79.15549015869084, 14.43720960397019], [79.15654185494533, 14.438251111544007], [79.16467014679806, 14.438314540664006], [79.17457393672225, 14.43735815624587], [79.17703655760971, 14.438754934802182], [79.18091845253176, 14.439473787331186], [79.1833783474984, 14.441214916507231], [79.18617215680113, 14.445369616638049], [79.1865004514178, 14.448472029373157], [79.18931112773308, 14.450560243499394], [79.19210793607036, 14.454370485454563], [79.1931682432662, 14.454378623645335], [79.19352724390254, 14.453692512556865], [79.19355506328266, 14.450248398126755]], [[79.16053678427531, 14.42519406665209], [79.15948512097025, 14.424152580884982], [79.15986112516153, 14.42140009098008], [79.16235453187285, 14.41900852371317], [79.1655489911732, 14.417311231223367], [79.16950917355797, 14.40838680347007], [79.1730680024962, 14.405314486503396], [79.17735860460151, 14.399147868287464], [79.18024677429491, 14.391592623024], [79.18487351949233, 14.387494995685973], [79.1920259901703, 14.376872322918448], [79.19451577763625, 14.37482472292428], [79.19805440811749, 14.37416282079432], [79.2069228824233, 14.369752492412829], [79.20904271516669, 14.369768538289305], [79.20974384525371, 14.370462716504193], [79.20971369230445, 14.374251301664556], [79.20792517243375, 14.376993263539292], [79.20718008865067, 14.381809737154867], [79.20539696913286, 14.383862836311456], [79.20466830326758, 14.386612797801936], [79.2025262744322, 14.389352014472887], [79.20000877051169, 14.394843830101061], [79.19324537369579, 14.400992043197602], [79.19002354790297, 14.406133886353677], [79.1857498226898, 14.410234289658602], [79.18220222325652, 14.411929166219869], [79.17721310468433, 14.417057167840365], [79.17118609415411, 14.419421555977012], [79.16619374574651, 14.424893679172298], [79.16371159238271, 14.425907657224252], [79.16053678427531, 14.42519406665209]], [[79.18003171027384, 14.418112212268381], [79.18288942350407, 14.414345480047631], [79.18608647630619, 14.412303471565014], [79.1907163801588, 14.407861361952712], [79.19429711712125, 14.402033386079212], [79.20141938595927, 14.39519900365392], [79.2060816289965, 14.386623522902319], [79.20645145367358, 14.384559707897889], [79.20859338613667, 14.381820443753261], [79.20933844023061, 14.377003962183602], [79.21112694426262, 14.374261987637716], [79.2111598120204, 14.370128982381203], [79.20940698498548, 14.368393543295236], [79.20658055861185, 14.368372150929693], [79.19771213692525, 14.372782472518653], [79.19382021978012, 14.37344167616609], [79.18849008407877, 14.377189714998568], [79.18707683138824, 14.377178891744881], [79.1863785388578, 14.3761402401616], [79.18674851166718, 14.3740764733361], [79.19065152829836, 14.372039737001097], [79.19351392759567, 14.367583945130326], [79.19635688670337, 14.365539005501358], [79.19814267171702, 14.363141549275483], [79.1985125027534, 14.361077746782808], [79.20065701668594, 14.357994119078588], [79.2006735285233, 14.355927625706585], [79.20174987534315, 14.353869176452163], [79.20143509222247, 14.34904467338155], [79.20463374911967, 14.346657858726502], [79.20713402802512, 14.343232400186816], [79.20890582054278, 14.3425569123019], [79.21175378191104, 14.339822894454588], [79.21316681946868, 14.339833543252759], [79.21527547249723, 14.341227175898325], [79.21560965104749, 14.343640765580153], [79.2141856726043, 14.345007802521572], [79.21346275572043, 14.347068990145562], [79.21522092769642, 14.348115549441406], [79.22157169665725, 14.349196596164916], [79.22403376984269, 14.350592816276437], [79.22578388815242, 14.352672566988995], [79.22576489733021, 14.35508350970407], [79.22326200665111, 14.358853598971711], [79.22360171079346, 14.360578347321983], [79.22535732176942, 14.361969267902984], [79.22712380559535, 14.361982496264448], [79.22819182909606, 14.360957165107358], [79.22928692765969, 14.356487618760744], [79.23142559380467, 14.354092500336353], [79.23424917916222, 14.354457997664287], [79.23882574981924, 14.356558710851752], [79.24483170164086, 14.356603275766956], [79.25511188378334, 14.352201411697756], [79.259741864067, 14.347413203574709], [79.26221482792532, 14.347431342705574], [79.26184826345407, 14.349150889175753], [79.25935665462741, 14.351543731157362], [79.2543919647561, 14.353918337515784], [79.25047100140445, 14.358367204704708], [79.2479952531499, 14.358693353894601], [79.24586474651709, 14.36005536440999], [79.24514472803159, 14.361772250188652], [79.24016083275136, 14.366557473220128], [79.23800862875223, 14.3706747763042], [79.2362285640879, 14.372383730462932], [79.23233668999667, 14.373043581659045], [79.23090988410809, 14.374755127014511], [79.23018427489347, 14.377160787969125], [79.22132129146229, 14.380883167391389], [79.21882345164869, 14.38396432384255], [79.21562707796842, 14.386006861600293], [79.21453697528034, 14.389787451884118], [79.21098439642313, 14.392171659581313], [79.20811644770501, 14.397316489685634], [79.2042020661053, 14.400731137518054], [79.20275555826257, 14.404853366471919], [79.19992592103569, 14.405176255486541], [79.19815082743855, 14.406196025871001], [79.18925010742566, 14.41439435399974], [79.18817329481409, 14.41645268913313], [79.18569409762135, 14.417122510941871], [79.1817846245809, 14.419847881174439], [79.18001772991897, 14.419834261354037], [79.18003171027384, 14.418112212268381]], [[79.1611188876383, 14.397299906003607], [79.16082195759058, 14.390409019706988], [79.1615370705819, 14.389381294428663], [79.1636570348332, 14.389397768529971], [79.16470294928146, 14.391128036947183], [79.1646832499922, 14.393538890383093], [79.1628827681704, 14.397658053384577], [79.16181992749094, 14.397994217530691], [79.1611188876383, 14.397299906003607]], [[79.2682946961449, 14.337831287501412], [79.26795201043232, 14.336450993806316], [79.26830527514221, 14.336453572529901], [79.2682946961449, 14.337831287501412]]]]}}, {"type": "Feature", "properties": {"depth_class": 3, "depth_lo_m": 2.0, "t_s": 48600.61898209906}, "geometry": {"type": "MultiPolygon", "coordinates": [[[[79.01430610767282, 14.21598809505003], [79.0164272670522, 14.215661296171254], [79.01644227872582, 14.213939381788796], [79.013974124304, 14.213574486052321], [79.01360606965545, 14.215293465045868], [79.01430610767282, 14.21598809505003]]], [[[79.08083752428796, 14.23926310993337], [79.08262325577907, 14.236866525335005], [79.08263488268973, 14.23548894176514], [79.0790954445152, 14.236493749648208], [79.07907214482483, 14.239248910651703], [79.08083752428796, 14.23926310993337]]], [[[79.2682946961449, 14.337831287501412], [79.26795201043232, 14.336450993806316], [79.26794142927953, 14.337828708519757], [79.2682946961449, 14.337831287501412]]], [[[79.18178741808877, 14.419503471039512], [79.186403634822, 14.416783531363413], [79.18817329481409, 14.41645268913313], [79.18925010742566, 14.41439435399974], [79.19815082743855, 14.406196025871001], [79.19992592103569, 14.405176255486541], [79.20275555826257, 14.404853366471919], [79.2042020661053, 14.400731137518054], [79.20811644770501, 14.397316489685634], [79.21098439642313, 14.392171659581313], [79.21453697528034, 14.389787451884118], [79.21562707796842, 14.386006861600293], [79.21882345164869, 14.38396432384255], [79.22132129146229, 14.380883167391389], [79.23018427489347, 14.377160787969125], [79.23090988410809, 14.374755127014511], [79.23233668999667, 14.373043581659045], [79.2362285640879, 14.372383730462932], [79.23800862875223, 14.3706747763042], [79.24016083275136, 14.366557473220128], [79.24514472803159, 14.361772250188652], [79.24586474651709, 14.36005536440999], [79.2479952531499, 14.358693353894601], [79.25047100140445, 14.358367204704708], [79.2543919647561, 14.353918337515784], [79.25935665462741, 14.351543731157362], [79.26184826345407, 14.349150889175753], [79.26221482792532, 14.347431342705574], [79.259741864067, 14.347413203574709], [79.25511188378334, 14.352201411697756], [79.24483170164086, 14.356603275766956], [79.23882574981924, 14.356558710851752], [79.23424917916222, 14.354457997664287], [79.23142559380467, 14.354092500336353], [79.22928692765969, 14.356487618760744], [79.22819182909606, 14.360957165107358], [79.22712380559535, 14.361982496264448], [79.22535732176942, 14.361969267902984], [79.22360171079346, 14.360578347321983], [79.22326200665111, 14.358853598971711], [79.22576489733021, 14.35508350970407], [79.22578388815242, 14.352672566988995], [79.22403376984269, 14.350592816276437], [79.22157169665725, 14.349196596164916], [79.21522092769642, 14.348115549441406], [79.21346275572043, 14.347068990145562], [79.2141856726043, 14.345007802521572], [79.21560965104749, 14.343640765580153], [79.21527547249723, 14.341227175898325], [79.21316681946868, 14.339833543252759], [79.21175378191104, 14.339822894454588], [79.20890582054278, 14.3425569123019], [79.20713402802512, 14.343232400186816], [79.20463374911967, 14.346657858726502], [79.20143509222247, 14.34904467338155], [79.20174987534315, 14.353869176452163], [79.2006735285233, 14.355927625706585], [79.20065701668594, 14.357994119078588], [79.1985125027534, 14.361077746782808], [79.19814267171702, 14.363141549275483], [79.19635688670337, 14.365539005501358], [79.19351392759567, 14.367583945130326], [79.19065152829836, 14.372039737001097], [79.18674851166718, 14.3740764733361], [79.1863785388578, 14.3761402401616], [79.18707683138824, 14.377178891744881], [79.18849008407877, 14.377189714998568], [79.19311083610906, 14.373780696520894], [79.19771213692525, 14.372782472518653], [79.20658055861185, 14.368372150929693], [79.20940698498548, 14.368393543295236], [79.21081198342802, 14.369437478254623], [79.21112694426262, 14.374261987637716], [79.20933844023061, 14.377003962183602], [79.20859338613667, 14.381820443753261], [79.20645145367358, 14.384559707897889], [79.2060816289965, 14.386623522902319], [79.20141938595927, 14.39519900365392], [79.19429711712125, 14.402033386079212], [79.1907163801588, 14.407861361952712], [79.18182093442026, 14.415370548596577], [79.18003171027384, 14.418112212268381], [79.18001772991897, 14.419834261354037], [79.18178741808877, 14.419503471039512]], [[79.23451604200166, 14.36548212906759], [79.23206185470292, 14.363052729614916], [79.23136878603165, 14.361325348231519], [79.23139313609734, 14.358225556843026], [79.23210512815865, 14.357541987512501], [79.234224875057, 14.357557794831678], [79.23704042185103, 14.358956531252765], [79.24163325115146, 14.358990664152588], [79.24268776018468, 14.35968737511203], [79.24232639719735, 14.360718023982974], [79.24019853421362, 14.361735554336338], [79.23663586640934, 14.365497923359182], [79.23451604200166, 14.36548212906759]]]]}}, {"type": "Feature", "properties": {"depth_class": 4, "depth_lo_m": 3.0, "t_s": 48600.61898209906}, "geometry": {"type": "Polygon", "coordinates": [[[79.23521994900754, 14.365831817748324], [79.23171396643428, 14.362361249682083], [79.23139313609734, 14.358225556843026], [79.23210512815865, 14.357541987512501], [79.234224875057, 14.357557794831678], [79.23704042185103, 14.358956531252765], [79.24163325115146, 14.358990664152588], [79.24268776018468, 14.35968737511203], [79.24232639719735, 14.360718023982974], [79.24019853421362, 14.361735554336338], [79.23663586640934, 14.365497923359182], [79.23521994900754, 14.365831817748324]]]}}]}