{"type": "FeatureCollection", "features": [{"type": "Feature", "properties": {"depth_class": 1, "depth_lo_m": 0.3, "t_s": 59400.13143512882}, "geometry": {"type": "MultiPolygon", "coordinates": [[[[79.01459600492306, 14.223223056567745], [79.01637921620154, 14.22117142042738], [79.0195505306757, 14.221886537873932], [79.02168672354301, 14.21983777971867], [79.02171966913033, 14.216049556950844], [79.02102559621225, 14.214666178048029], [79.01646329169536, 14.211528701211513], [79.01293009436576, 14.211843776031177], [79.01150297172912, 14.213553947723556], [79.01148190310485, 14.215964620613429], [79.01217892634699, 14.21700363815606], [79.01145480907574, 14.21906405642834], [79.01178676525986, 14.221477665450031], [79.01318385684436, 14.223211319384776], [79.01459600492306, 14.223223056567745]], [[79.01815339219868, 14.220152915754356], [79.01641525626744, 14.217038827487833], [79.01324101536012, 14.216668060368143], [79.01254398765876, 14.215629045399083], [79.01291806577964, 14.213221304854397], [79.01610126561869, 14.2125589214722], [79.01819839683871, 14.214987168333762], [79.02030755945819, 14.21603786761961], [79.02027459039152, 14.219826087145787], [79.01815339219868, 14.220152915754356]]], [[[79.16062073082857, 14.241613360551185], [79.16141054658739, 14.231286456682], [79.16388767401897, 14.23061664514664], [79.16425466223365, 14.228897297796511], [79.16320934656169, 14.227167095131888], [79.16074340297509, 14.226459257530584], [79.15898919719153, 14.225068015579426], [79.15722384841197, 14.225054407334662], [79.15543614648841, 14.227796071131706], [79.15331770701934, 14.227779705115275], [79.15189701514774, 14.228802013680765], [79.15187180994066, 14.23190170211306], [79.15291145065518, 14.234320765836308], [79.15572493499282, 14.235720239400475], [79.15708977487797, 14.241586124182863], [79.15814347395816, 14.242283121995076], [79.15990895746806, 14.242296739560603], [79.16062073082857, 14.241613360551185]], [[79.15890271052439, 14.235744762761133], [79.156100381072, 14.232967682060588], [79.1561087649173, 14.231934450296858], [79.1582244551067, 14.232295207249601], [79.15890271052439, 14.235744762761133]]], [[[79.0818676640541, 14.242715579271671], [79.08615688849888, 14.236550457131123], [79.08618589922843, 14.233106490654498], [79.08443507785556, 14.231370355050153], [79.08231669182003, 14.231353355484158], [79.07805953813532, 14.233730065580076], [79.07591488787189, 14.236812557760208], [79.0730961627953, 14.236100990362662], [79.07131619583222, 14.237808704824829], [79.07129572437343, 14.240219459409161], [79.07234618164124, 14.241261196630225], [79.07446172736482, 14.241622690317866], [79.07587987780204, 14.240945291156827], [79.07692744506164, 14.242331405766516], [79.07939026810347, 14.243384492654442], [79.0818676640541, 14.242715579271671]], [[79.07834850913248, 14.241309596741957], [79.07730968271382, 14.238890303602314], [79.07804497150944, 14.235452040632822], [79.08265813278273, 14.232733774121671], [79.0844205620407, 14.23309233689971], [79.08475040425927, 14.235850339677373], [79.08259709068597, 14.239966087753174], [79.08046407189465, 14.241671038448708], [79.07834850913248, 14.241309596741957]]], [[[79.11821835883717, 14.245071512487145], [79.12036827828598, 14.241299773694987], [79.1203882306469, 14.238888950273804], [79.11899871194554, 14.236122600929617], [79.11653001572947, 14.235758714744671], [79.11401843811802, 14.240560836186502], [79.11400413678402, 14.242282846396957], [79.11680598822896, 14.245060370735448], [79.11821835883717, 14.245071512487145]]], [[[79.16867528017843, 14.249941709799206], [79.17045193889119, 14.248577605068666], [79.1704658187216, 14.246855540408271], [79.1683638562298, 14.244772810868238], [79.1644825185203, 14.244398555610323], [79.16306454171482, 14.245076511262727], [79.16304503338608, 14.247487392045276], [79.16409042174111, 14.249217603729903], [79.16549728852979, 14.249917292656956], [79.16867528017843, 14.249941709799206]], [[79.16657887470876, 14.247170139156092], [79.16728786707269, 14.246831152278242], [79.16728508643978, 14.247175564617564], [79.16657887470876, 14.247170139156092]]], [[[79.03482799585316, 14.251631968121599], [79.03698523567681, 14.247172392950986], [79.03981879325114, 14.246162455499089], [79.03983366113368, 14.244440521154072], [79.03773901955564, 14.241668018523457], [79.03597366669133, 14.241653498239108], [79.03418744478843, 14.24404966533019], [79.03206004836434, 14.245065360902002], [79.03027674584823, 14.24711710443601], [79.03026180257916, 14.248839028483157], [79.0316681509471, 14.249539455419903], [79.03306256862246, 14.251617416362873], [79.03482799585316, 14.251631968121599]], [[79.03274829138574, 14.247137495801057], [79.0345196473599, 14.24646327395949], [79.03485781723595, 14.248188111083739], [79.03344251277102, 14.248520859106744], [79.03274829138574, 14.247137495801057]]], [[[79.04365813095258, 14.251360143723193], [79.0429727460332, 14.248943639180427], [79.04156338559173, 14.248587662035789], [79.04188972466541, 14.25169004468305], [79.04365813095258, 14.251360143723193]]], [[[79.02697625901483, 14.261210591727911], [79.0287627095181, 14.258814509097384], [79.02702119820533, 14.256044834396468], [79.02455556226504, 14.255335604427632], [79.02207192835726, 14.256692648188968], [79.0220509053966, 14.259103327882938], [79.02345127789235, 14.260492573724974], [79.0252107656334, 14.261195972272752], [79.02697625901483, 14.261210591727911]], [[79.02381937995807, 14.258773585480736], [79.02418747474859, 14.257054595714866], [79.02559984263743, 14.257066295060401], [79.02665013066988, 14.258108215428424], [79.02593195250584, 14.259479903876935], [79.02381937995807, 14.258773585480736]]], [[[79.04956882551404, 14.262085344424321], [79.05029280250766, 14.260024790549565], [79.04889520938893, 14.258291293364268], [79.04607338689839, 14.25792377245424], [79.04536125543804, 14.258606759378878], [79.04532860188453, 14.262395022668189], [79.04850358252169, 14.262765450493285], [79.04956882551404, 14.262085344424321]]], [[[79.08311707004823, 14.262013076241544], [79.08349346713261, 14.259260752706338], [79.08279307445079, 14.258566284081496], [79.08067443677503, 14.258549238154322], [79.0785441306088, 14.259909751037718], [79.0785324580722, 14.261287328479622], [79.080286345286, 14.262679131955288], [79.08311707004823, 14.262013076241544]]], [[[79.12287085929464, 14.28023957118476], [79.12714282316492, 14.276140101140326], [79.12751874006385, 14.273387647911132], [79.12613181971062, 14.270276907507055], [79.12436615246592, 14.270263013534562], [79.12329819615051, 14.271287880004907], [79.12005710995375, 14.278839672112618], [79.11828279705605, 14.279858930355065], [79.11827707326712, 14.280547733902358], [79.11933365735499, 14.280900506784697], [79.12287085929464, 14.28023957118476]]], [[[79.10415986245036, 14.279402474961445], [79.10346799622013, 14.277674855982553], [79.10204966246354, 14.278352399022232], [79.10238837462667, 14.28007720665401], [79.10415986245036, 14.279402474961445]]], [[[79.20425397472809, 14.482362589040836], [79.21170747489609, 14.47863062583475], [79.21740987813381, 14.472818514687622], [79.21992808684145, 14.467326599484915], [79.22033915244151, 14.46009653382124], [79.21823217966073, 14.458358411548085], [79.2125687748763, 14.459348787501712], [79.20905361883575, 14.4569110242712], [79.19916279350477, 14.45614671208121], [79.1967192693943, 14.45233924447338], [79.19638805507248, 14.449581241871124], [79.19464314752395, 14.446812410030075], [79.19465982144033, 14.444745939018537], [79.19820790004779, 14.443050929041938], [79.19822453653106, 14.440984453299974], [79.19682197262183, 14.439595991837376], [79.19117015368569, 14.439208252773318], [79.18694595695862, 14.437109205382724], [79.18414104565002, 14.434332162760695], [79.18310319217898, 14.431568715031252], [79.18028440604613, 14.430513686913267], [79.18065458517047, 14.428449955724691], [79.18601403055993, 14.421258158520581], [79.1874359149973, 14.420235787021166], [79.19132032967286, 14.420610023786008], [79.19274218934473, 14.41958761693658], [79.19277550400834, 14.415454669366092], [79.2002571806601, 14.40793426039848], [79.2023801253011, 14.407605993365134], [79.20448652782824, 14.409344195292542], [79.2069600987128, 14.40936298956789], [79.20802845477317, 14.40833778998573], [79.20839832203009, 14.406273977600101], [79.20664527069887, 14.404538492885205], [79.20630842666267, 14.402469318304766], [79.21022555969762, 14.398710219677724], [79.21202248561882, 14.394935012143804], [79.21628999338489, 14.391522873820577], [79.21773614700395, 14.387400518930079], [79.21880434300346, 14.38637525105716], [79.22092979969493, 14.385702371515931], [79.22307430691474, 14.382618538284724], [79.22874928394182, 14.379905575523187], [79.23122527321011, 14.379579658048995], [79.23408704210335, 14.375123296058248], [79.23727231417062, 14.374458157836823], [79.23940570632293, 14.372751825308484], [79.24084051874279, 14.370006951462203], [79.24511250406157, 14.365905334642813], [79.24832979138085, 14.361106937172208], [79.25187081431211, 14.360099761528803], [79.25507986504344, 14.356334521579019], [79.25969131509672, 14.35395731234488], [79.26360671847621, 14.350197116734169], [79.26715546891391, 14.348156400123539], [79.26824178429014, 14.344719859848624], [79.27037995134647, 14.342324327887503], [79.27146354037383, 14.33923219181562], [79.27148466069208, 14.336476757399396], [79.26974211392107, 14.333364020551262], [79.269752680645, 14.331986304004294], [79.27263147767493, 14.325118295820495], [79.27936420132735, 14.32241158253213], [79.28079553973912, 14.32001079616564], [79.28292546520534, 14.318648401025799], [79.28436197205566, 14.315558721009204], [79.28478318858483, 14.306606026927426], [79.28621696438688, 14.303860754284358], [79.28590552396558, 14.29834728015339], [79.28697558455139, 14.296977181560914], [79.28698341002413, 14.295943881612452], [79.28558364281423, 14.294211537470945], [79.28564105011952, 14.286634006121336], [79.28108619655931, 14.28177883374064], [79.2775596229765, 14.281064444588882], [79.274396753494, 14.278974839405793], [79.26911228101946, 14.27721423777203], [79.26595482505216, 14.274435674306195], [79.26101313174945, 14.274055199315693], [79.25926847186604, 14.271286869718129], [79.25716010112426, 14.269893663476033], [79.25648292759158, 14.266099781619438], [79.25543672229831, 14.26436988617443], [79.25544997288166, 14.26264774361934], [79.25652265523085, 14.26093335103145], [79.25620658293145, 14.2561087650578], [79.25198221231538, 14.254355600032826], [79.2505643671754, 14.255034098862204], [79.25090156817375, 14.257103256336817], [79.25301243701738, 14.258152073246602], [79.25299651912486, 14.260218642363222], [79.25120955656719, 14.262961119532758], [79.25119361665203, 14.265027685821629], [79.25364178738708, 14.268145664557746], [79.253609937274, 14.27227880035181], [79.25325146515684, 14.272965066828382], [79.25183881476981, 14.272954704226033], [79.24902416368214, 14.271556245624902], [79.24690520650233, 14.271540662497214], [79.24583772978964, 14.272566143348687], [79.24580039227722, 14.277388112988266], [79.24720240388588, 14.278776220827789], [79.25037295996741, 14.279832877442558], [79.25179362833047, 14.27880997147925], [79.25287439725153, 14.276062326464263], [79.2550013628741, 14.275044577084339], [79.25710711209935, 14.276782234251753], [79.2599245317648, 14.277836180854997], [79.26166659716905, 14.280948939986441], [79.26307930481366, 14.280959249970882], [79.26415203678346, 14.279244828809064], [79.26485838608576, 14.279249976875663], [79.26626317510421, 14.280293556818114], [79.2701428599207, 14.281010674307549], [79.27577011825518, 14.284151548233313], [79.27859297681216, 14.284516429145935], [79.28105481561333, 14.285912025059273], [79.28315565805651, 14.288338349851186], [79.2845083652912, 14.296270496390816], [79.2816225297104, 14.304172042490249], [79.28155705500103, 14.312782842305912], [79.28048425651109, 14.314497334354481], [79.27728677696282, 14.316885321662475], [79.27691514564256, 14.319293775802441], [79.2758449077104, 14.320663807984173], [79.27407343568571, 14.321339839588505], [79.2698345346661, 14.321308995095265], [79.26876952889172, 14.321990130719035], [79.26481767098426, 14.330572482133624], [79.26545531630575, 14.339532781832215], [79.26330121119369, 14.343994832963231], [79.26258935039563, 14.344678512411113], [79.26082296850318, 14.344665563737463], [79.25524784964578, 14.33463567787861], [79.25314696450629, 14.332209100505585], [79.25390144896775, 14.326014626102353], [79.25286303945998, 14.323251419442615], [79.25146074586813, 14.321863314542977], [79.24943207820668, 14.31013721957443], [79.24593997881225, 14.304944792378734], [79.24068737938093, 14.299050421981562], [79.23930138836997, 14.295595720778792], [79.23049846582478, 14.29208596883757], [79.22944968178976, 14.290700394661672], [79.22628450988631, 14.288954609144874], [79.22559704657411, 14.28653838733073], [79.22454561545031, 14.28549721950451], [79.21854162021984, 14.285452358921493], [79.2171343436294, 14.284752939998507], [79.21608839094152, 14.283022898881695], [79.21080988014744, 14.280572204834929], [79.20765319142069, 14.277792945573104], [79.20377934416068, 14.276386001383012], [79.20133458116958, 14.272923163053377], [79.1985121002399, 14.272557396406098], [79.19396230776574, 14.267356381706437], [79.19044463256974, 14.26560750996991], [79.18485506914185, 14.257987405311198], [79.18062308480496, 14.25726627997982], [79.1777759565279, 14.26000002077682], [79.1766916493412, 14.263091644880152], [79.17140022433925, 14.262362242119888], [79.16789396699467, 14.259235418056793], [79.16613391341366, 14.258533020215934], [79.16224956073157, 14.258503112309077], [79.15800370389097, 14.259503644006907], [79.15624368819803, 14.258801176552371], [79.15554864755786, 14.257418075105464], [79.15802607964194, 14.25674836224274], [79.15944973371586, 14.25538162662636], [79.15982240493736, 14.252973476914583], [79.15771491037509, 14.251579480199636], [79.15028836836183, 14.252899729623392], [79.14994087311307, 14.252208173319229], [79.15101423546459, 14.250494342159639], [79.15102826467518, 14.248772296647056], [79.15032766775767, 14.248078004482615], [79.14820623550241, 14.248405978891922], [79.14748034920345, 14.250811355411162], [79.14887873286726, 14.25254436313487], [79.14886749350589, 14.253921997452002], [79.15027713726457, 14.254277365001114], [79.15307961690455, 14.257054532588787], [79.15272088876141, 14.257740615671993], [79.14883938985118, 14.257366082511986], [79.14709911793283, 14.254252695512282], [79.14215554439893, 14.254214236690158], [79.13683624631119, 14.256928166486986], [79.13401132856562, 14.256906076974095], [79.13155087650084, 14.255509100867773], [79.12907341530395, 14.256178530718824], [79.12342362845838, 14.256134136688596], [79.12096041091431, 14.25508146322314], [79.11530781658557, 14.25538128230286], [79.11285038461517, 14.253639727630798], [79.109322207988, 14.253267360995189], [79.10721795136207, 14.251528554985061], [79.10264204732854, 14.249770088560014], [79.09946994611619, 14.249055994556343], [79.09134877777565, 14.248991159935171], [79.08394837005258, 14.247209742930023], [79.08392801863317, 14.249620513566494], [79.08497567280325, 14.251006603062443], [79.0881535327741, 14.25103209439688], [79.0923733172538, 14.253132401499826], [79.10190416533926, 14.25355286349124], [79.10436725318947, 14.254605721086081], [79.10541506310427, 14.255991738603788], [79.10930211708406, 14.255678166102086], [79.11034422574589, 14.257752967847956], [79.11386961085746, 14.258469729563462], [79.11562086778959, 14.260205699245482], [79.11809553835666, 14.25988082206789], [79.12161528943017, 14.261286282036167], [79.12338088398755, 14.261300187827892], [79.1251550226766, 14.260280869473696], [79.12868620522549, 14.260308613668833], [79.1329094557743, 14.262063863844253], [79.14492129015572, 14.261468786947326], [79.14808815518214, 14.262871130351817], [79.15196974442776, 14.263245686820415], [79.15760580624882, 14.265011475919975], [79.16326150480182, 14.264366264803147], [79.17557126700976, 14.270660632993891], [79.1822782561592, 14.27105633493408], [79.18438885499106, 14.272105736928037], [79.18897428107404, 14.272829513854235], [79.19283695855364, 14.275614347208242], [79.19598792714856, 14.279082612454452], [79.20337700362846, 14.282582867372394], [79.20546598206646, 14.286387453905208], [79.20793002461335, 14.287439338086992], [79.21213821844917, 14.291259829925192], [79.21600694603575, 14.29335551271749], [79.21670517616639, 14.294394069931954], [79.21597978326504, 14.296799715238272], [79.21809894129686, 14.296815600787781], [79.2198757506546, 14.295451140537226], [79.22340766861089, 14.295477545705957], [79.22762438836267, 14.298264541852124], [79.23185198974663, 14.299673782275148], [79.23990589431327, 14.30868908056465], [79.24233017817042, 14.314907022660087], [79.24225242645478, 14.324895331744342], [79.2379489841094, 14.333130073108165], [79.2347454435457, 14.336206247974566], [79.23472387488205, 14.338961628247374], [79.23328653656631, 14.342050908091949], [79.23290086804533, 14.34618134031007], [79.22931671261455, 14.352698987461524], [79.22861014714663, 14.352693707574776], [79.2254604476258, 14.348881297470843], [79.22265054068943, 14.346793604981245], [79.21671576155572, 14.337793613737823], [79.21424841882072, 14.337086175002257], [79.21035988013055, 14.337401311748252], [79.20821845605865, 14.340140653163457], [79.20538141979688, 14.34149695547753], [79.2028838851432, 14.344577978805715], [79.19933472876247, 14.34661767312632], [79.19927967537444, 14.353505983204432], [79.1981867754239, 14.3576309094781], [79.19676260513131, 14.358997817564966], [79.19496303629452, 14.363117337922219], [79.1917640375181, 14.365503979528038], [79.18890441024277, 14.369615337063943], [79.18642852517758, 14.369940817399984], [79.18394429512425, 14.371299506889436], [79.17757926944321, 14.371939454769425], [79.17402946830842, 14.373978687716608], [79.16943650400962, 14.373943208480737], [79.16732509747746, 14.372893577349869], [79.16485198252765, 14.372874415588685], [79.16130488969576, 14.374569034471634], [79.15738186376306, 14.379016095993277], [79.15348414288727, 14.380363420545129], [79.14992268601695, 14.383779868770059], [79.1484838844029, 14.386868452470658], [79.1449307771952, 14.38925159056368], [79.14420990453645, 14.390968063958073], [79.14064528413546, 14.394728735366252], [79.13919770933335, 14.39885044361531], [79.13986728235636, 14.403333240430777], [79.13771577522758, 14.407104959271946], [79.13732238970736, 14.411923797942558], [79.13590037180987, 14.412945847198245], [79.12600634696543, 14.412867519556983], [79.12243817747536, 14.416972229443058], [79.12031511522218, 14.417299752558552], [79.11640787357366, 14.41967954649564], [79.1146178703044, 14.422420613253983], [79.1099979289446, 14.425483424444563], [79.109279557041, 14.426855344031713], [79.1099369073287, 14.432715736301265], [79.10885348448325, 14.435462399438773], [79.10529045093176, 14.43887797124275], [79.10140020334781, 14.439191084153046], [79.0985496523767, 14.441923439127475], [79.09924182108104, 14.44365110736077], [79.1041485731497, 14.448512484681485], [79.10482037233588, 14.452650902187843], [79.10657286958774, 14.454387088444502], [79.11501428219194, 14.459276684705289], [79.12241603365362, 14.461746782259278], [79.12453663522875, 14.46176368970375], [79.13021175486827, 14.459397890639034], [79.12887872892671, 14.44974349040739], [79.13066307688727, 14.44769112535475], [79.13385528667091, 14.446338743904903], [79.1367055238729, 14.443605917139969], [79.14100362912743, 14.436751382107213], [79.14917734040674, 14.431304886029062], [79.15626501351721, 14.428949418107106], [79.15731951296027, 14.429646513623618], [79.15730817985022, 14.43102413400552], [79.15338111475347, 14.435815386324464], [79.15336691157927, 14.437537407041907], [79.15476632347675, 14.439270498629053], [79.15652767357795, 14.43997313498484], [79.16430262034379, 14.44003381967862], [79.17350248133481, 14.438727575850427], [79.18019483197412, 14.441534786491797], [79.18300256440392, 14.443967469669358], [79.18471935145479, 14.450180467664522], [79.18682874991721, 14.451574441938366], [79.18855405128292, 14.4567541964309], [79.19031566979474, 14.457456607641102], [79.19241124632464, 14.460572598005456], [79.19240010411171, 14.461950241826695], [79.19096679712759, 14.464350254069531], [79.19448183008463, 14.466788276844724], [79.19550602755135, 14.471273758372803], [79.19510523735231, 14.477126035231866], [79.1961433883665, 14.479889461762076], [79.19823922499113, 14.483005428373954], [79.20425397472809, 14.482362589040836]], [[79.19490205478003, 14.458525115596679], [79.19068862042174, 14.455048448754896], [79.18860426977277, 14.450554808397754], [79.18614423359895, 14.448813718382238], [79.18442461739083, 14.44294513666581], [79.18091565365135, 14.439818196717594], [79.17738716148251, 14.439102076515779], [79.17422053145204, 14.437355419299838], [79.17068648283407, 14.43732802073674], [79.1689110103996, 14.43834752299307], [79.15618845184972, 14.438248347406262], [79.15513675744889, 14.43720683845121], [79.1551481089807, 14.435829220480445], [79.15764173974462, 14.433437730855374], [79.15907797088384, 14.430693528835793], [79.15909212314479, 14.428971501563227], [79.15768989687447, 14.427582843155074], [79.15557241437601, 14.427221867851204], [79.14990403440137, 14.428899606591928], [79.14528434320071, 14.43196314978856], [79.14244864828196, 14.432974102762415], [79.13924522864151, 14.43570423692858], [79.13352773107104, 14.443236344100152], [79.12926958445085, 14.445269109433468], [79.12679860849524, 14.444905055218966], [79.12223610391922, 14.441080107983566], [79.11344464727188, 14.43584360358915], [79.11210076005698, 14.427566779847915], [79.11637024613401, 14.424156711277902], [79.11673519584804, 14.422781943145866], [79.11851650613376, 14.421074050863508], [79.1213578877844, 14.419374582994712], [79.1234809697574, 14.419047052741858], [79.1266957996195, 14.414939525539037], [79.13588319491642, 14.415012255478898], [79.13836816956986, 14.413654168183024], [79.13908632197928, 14.412282131906966], [79.13912060725892, 14.408149306453833], [79.14163400709016, 14.403347145188032], [79.14096439812205, 14.398864349146125], [79.14241194196258, 14.394742626189732], [79.14454616084316, 14.393037259462005], [79.14669455509149, 14.389609848425332], [79.14989149573914, 14.38756832322825], [79.15168643468883, 14.384138085344944], [79.15382331151207, 14.382088207112847], [79.15772106227752, 14.380740880480031], [79.1630657835373, 14.375271567771009], [79.16448462719171, 14.374593716761789], [79.174724898446, 14.375361778504143], [79.17827471796731, 14.37332253717811], [79.1828704747457, 14.373013431771916], [79.18960269881255, 14.3706539807256], [79.1924595634327, 14.366887028861282], [79.19637344705832, 14.363472518349171], [79.1978169510088, 14.359694712343794], [79.1992411206058, 14.358327797758516], [79.20069278901003, 14.353516716294466], [79.20074229954223, 14.347317232585286], [79.20357943452564, 14.34596099822236], [79.20465569759318, 14.343902525481303], [79.2089167659931, 14.341179242052982], [79.21034621291089, 14.33912340144413], [79.21282447938364, 14.338453208324218], [79.21563963798594, 14.339852158419236], [79.21738415284544, 14.342620792648658], [79.21772107810224, 14.34468996280243], [79.21913142942446, 14.345044998987946], [79.22122929634251, 14.347816266815327], [79.22404462921513, 14.349215135564927], [79.2261480184309, 14.35129752935645], [79.22719430647317, 14.35302756217326], [79.2271780413581, 14.355094086054697], [79.225036608996, 14.357833579787934], [79.22502031840527, 14.359900100408778], [79.22678407302499, 14.360257749816213], [79.22930317507692, 14.3544210927549], [79.23320823046815, 14.35203914559116], [79.23428697400759, 14.349636089270906], [79.23461596278062, 14.352738519550513], [79.23812994654739, 14.355175767381844], [79.24413317404353, 14.355564769494983], [79.25370140653241, 14.351846578297794], [79.25725558490568, 14.349117170662145], [79.25868734616911, 14.346716568388889], [79.26328528770576, 14.34606139854992], [79.2647090109936, 14.344694033471331], [79.26686574556625, 14.339887539016715], [79.26694249254773, 14.329899110988434], [79.26837401121722, 14.327498421137278], [79.26979229585434, 14.326819865463635], [79.26977909253984, 14.328542011905155], [79.2676251991419, 14.33300412768701], [79.26972361945077, 14.33577502410593], [79.27005574699449, 14.338533032595768], [79.26932806091872, 14.341283309925114], [79.26683397089124, 14.344020679076102], [79.26645950154652, 14.346773522182984], [79.26326405244083, 14.34881681874603], [79.26005790782071, 14.352237772613917], [79.25473724787336, 14.354954216779623], [79.25117224282693, 14.359061271397115], [79.24763123491168, 14.36006843817433], [79.24370465417783, 14.365206010719843], [79.2408593686643, 14.367595992094147], [79.23835115280492, 14.372055094638348], [79.23657377857697, 14.373419628403168], [79.23303520355155, 14.37408212126781], [79.2319671299517, 14.375107468595592], [79.23088278824387, 14.378199333917259], [79.22237582116607, 14.381579972201086], [79.21987798556324, 14.384661140394163], [79.21810586894489, 14.38533667359698], [79.21632554138432, 14.38704544524945], [79.21523544290156, 14.390826039214376], [79.21168285241137, 14.39321025617398], [79.20917100027143, 14.398013356676937], [79.20489775560765, 14.402114167962957], [79.20487847227177, 14.404525073082823], [79.20628089888015, 14.405913470887041], [79.20626713225602, 14.407635546783004], [79.20485367416016, 14.407624807478168], [79.20239116258094, 14.406228335613479], [79.19955874415518, 14.406895632057228], [79.19278660654615, 14.414077019838235], [79.1913675629356, 14.414755019398697], [79.1909864028766, 14.418196431695046], [79.19027408590375, 14.418879837096238], [79.18815659519672, 14.418519157658935], [79.1863841321871, 14.419194408835168], [79.18282242455615, 14.42261132904973], [79.1820988944584, 14.424672345281513], [79.17852863107257, 14.429122409156282], [79.17780223265352, 14.43152781306395], [79.18202902044608, 14.433282593217225], [79.18306686541317, 14.436046044675633], [79.18552953683295, 14.437442739115742], [79.18692922105616, 14.439175668889831], [79.19080282348453, 14.440927596704512], [79.19503824342753, 14.441648938849882], [79.19255042476213, 14.443352035957584], [79.19253095084126, 14.445762916235951], [79.19632138412378, 14.457847128150284], [79.19490205478003, 14.458525115596679]], [[79.24028734654013, 14.350369594547915], [79.24283013747161, 14.341432921651618], [79.24497655397835, 14.338004372083068], [79.24572058497667, 14.333187653149501], [79.24821744356339, 14.330106093899737], [79.24927719694186, 14.3301139132354], [79.2506421260381, 14.336323992753181], [79.25553716106651, 14.342904507822547], [79.25658099504129, 14.344978859670862], [79.2565650088122, 14.347045417679162], [79.25335880160692, 14.350466272735645], [79.24769555286733, 14.351802252502518], [79.24449988681772, 14.353845267823392], [79.24061641885388, 14.353472025875535], [79.24028734654013, 14.350369594547915]], [[79.23681920893642, 14.342077197726786], [79.23932166960607, 14.338306912797199], [79.2414519872729, 14.33694493982531], [79.24035995331047, 14.341070164411855], [79.23608033043645, 14.346205015179788], [79.23681920893642, 14.342077197726786]], [[79.2425627536647, 14.33040873515952], [79.24398915790064, 14.328697071332869], [79.24581963900562, 14.320443931996197], [79.24796043141981, 14.317704172839557], [79.24971057289073, 14.319783748482772], [79.24969455306803, 14.321850303265363], [79.2468499251144, 14.324240434380483], [79.24433168665226, 14.330077382567405], [79.24183746456904, 14.332814470917786], [79.2425627536647, 14.33040873515952]], [[79.25002376180285, 14.324952738625214], [79.25143406739654, 14.325307574935646], [79.25107281677158, 14.326338250796784], [79.2500184210922, 14.32564159007787], [79.25002376180285, 14.324952738625214]], [[79.24655552791044, 14.316660471049627], [79.24378859738819, 14.309062247370944], [79.24028056402899, 14.305936300554848], [79.23888918409274, 14.303170443383406], [79.23572913596892, 14.300735909269559], [79.23468834905812, 14.298317079886324], [79.2248339515235, 14.293765983483665], [79.22236433126096, 14.293403100853762], [79.22167419661223, 14.291331293279285], [79.2227418685074, 14.290305945160673], [79.22626561227294, 14.291365565419953], [79.22941733740119, 14.294833468749689], [79.23329976716988, 14.295206778038269], [79.23470447850787, 14.296250537731098], [79.23752736126127, 14.296615915358716], [79.23821497384117, 14.29903211893354], [79.2403100554525, 14.302147630624676], [79.24276643525232, 14.304232465935907], [79.2448535995421, 14.308381224720161], [79.24765529444085, 14.31150190647887], [79.24761521724439, 14.316668290622333], [79.24655552791044, 14.316660471049627]], [[79.18407710293981, 14.266936821354488], [79.18196931321881, 14.265543007416174], [79.18197759919873, 14.264509763464638], [79.18375155648044, 14.26348998024436], [79.18550620447921, 14.264881089418859], [79.18584556036984, 14.266605854541712], [79.18407710293981, 14.266936821354488]]], [[[79.16183402528017, 14.396272182838453], [79.16432991571462, 14.393536146779038], [79.16434961879118, 14.391125293821842], [79.16330089151991, 14.389739431609161], [79.16224090765948, 14.389731195144094], [79.16116964773569, 14.391100581962391], [79.16114427071211, 14.394200244410529], [79.16183402528017, 14.396272182838453]]], [[[79.18751483419018, 14.278673832237532], [79.1853958816846, 14.278657694336475], [79.18573800364418, 14.28003804513582], [79.18750380831015, 14.280051493429621], [79.18751483419018, 14.278673832237532]]], [[[79.1972936034678, 14.29252557322824], [79.19765776017667, 14.291150581592266], [79.19660645396279, 14.29010930312891], [79.19413145707574, 14.290434969675527], [79.19446539733292, 14.292848563759772], [79.19622856450327, 14.29320637566061], [79.1972936034678, 14.29252557322824]]], [[[79.27887019828835, 14.294507512505202], [79.277810595173, 14.29449984394235], [79.27850389130943, 14.296227115903005], [79.27921291920664, 14.295887795428202], [79.27887019828835, 14.294507512505202]]], [[[79.18629251162315, 14.29898623928739], [79.18595865909495, 14.296572644116049], [79.18418996206591, 14.296903583298562], [79.18383124402081, 14.2975897148195], [79.184523795448, 14.299317178717667], [79.18629251162315, 14.29898623928739]]], [[[79.20564155077058, 14.308777302188156], [79.20813586466548, 14.306040608910887], [79.20958960389638, 14.300884972710323], [79.21243152563602, 14.298839714436253], [79.21208922173437, 14.297459381668645], [79.20113479277137, 14.298065657889543], [79.19935786496961, 14.299429962183236], [79.20005328629709, 14.300812978139708], [79.20216698632757, 14.301517844867526], [79.20175625076551, 14.308747936849072], [79.20316360891307, 14.309447457338422], [79.20564155077058, 14.308777302188156]], [[79.20392203035595, 14.302908862025989], [79.20604669743997, 14.302236025342085], [79.20674490066, 14.30327460894571], [79.20673123982093, 14.30499670015918], [79.20494881021149, 14.307049878787113], [79.20353872174783, 14.306694787408055], [79.20392203035595, 14.302908862025989]]], [[[79.22649184858503, 14.307556037188078], [79.2233318983855, 14.305121347361125], [79.2190988441081, 14.304400791499562], [79.21661553986078, 14.305759937629725], [79.21623514954925, 14.309201486943918], [79.21693613870097, 14.309895627981069], [79.21870220673868, 14.309908872002945], [79.21906084951755, 14.30922267841401], [79.22082962602676, 14.308891485285677], [79.22329128395312, 14.310287666302987], [79.22646752088113, 14.3106558335321], [79.22649184858503, 14.307556037188078]]], [[[79.26214804485217, 14.310230547289763], [79.26181071796782, 14.308161393861278], [79.25970201220284, 14.306768173522379], [79.25687362454231, 14.307091896106826], [79.25509158640683, 14.309145501119707], [79.25507828806742, 14.310867636633658], [79.25578207386516, 14.311217250016881], [79.26108042546358, 14.311256080491736], [79.26214804485217, 14.310230547289763]]], [[[79.2648838689824, 14.32196177147159], [79.2666606538093, 14.32059695430709], [79.2666765169476, 14.318530380587482], [79.2652873812672, 14.315420206509977], [79.26423298119109, 14.314723609133488], [79.26175772260197, 14.315049959627792], [79.2610273958875, 14.318144641787613], [79.26206854467107, 14.320563394434553], [79.26311766274762, 14.32194885991105], [79.2648838689824, 14.32196177147159]]], [[[79.23346991440295, 14.318630178711505], [79.23312746294286, 14.317249860124832], [79.23135862639774, 14.317581139166496], [79.23169836989608, 14.319305881585604], [79.23346991440295, 14.318630178711505]]], [[[79.22072110250201, 14.322668307415473], [79.22462564076372, 14.320286442699718], [79.22463105683407, 14.319597600388036], [79.22251167767817, 14.319581748354295], [79.22038415753292, 14.320599138499613], [79.22072110250201, 14.322668307415473]]], [[[79.23731780728185, 14.32348097420175], [79.23662747170697, 14.321409188683093], [79.23485591099089, 14.322084913556077], [79.2355462309971, 14.324156702489182], [79.23731780728185, 14.32348097420175]]], [[[79.22103090352714, 14.328181679173335], [79.2210227577568, 14.329214939853596], [79.22172924675411, 14.329220233871336], [79.2217401033292, 14.327842552413333], [79.22103090352714, 14.328181679173335]]], [[[79.22028366654416, 14.333342683922732], [79.22064778382754, 14.33196765287988], [79.21994400416898, 14.331617934717455], [79.21886522507127, 14.334020921556398], [79.22028366654416, 14.333342683922732]]], [[[79.16584036179718, 14.424890931987376], [79.17047653074093, 14.419760486022293], [79.17756927796141, 14.416715487140435], [79.18220222325652, 14.411929166219869], [79.18539367187911, 14.410575985554761], [79.18859620953734, 14.40784511002234], [79.19395761918896, 14.400308620165868], [79.20036487384456, 14.394502106220585], [79.20753890560844, 14.381123582287866], [79.20828123355795, 14.376651522561541], [79.21007248711301, 14.373565140243725], [79.20939602087853, 14.369771210758952], [79.20727893207528, 14.36941075159241], [79.2001825402274, 14.373145705938022], [79.19380639013647, 14.375163744940263], [79.19166990693456, 14.377214036497946], [79.1845146249475, 14.388181106534702], [79.18024398406503, 14.391937033674811], [79.17735301215347, 14.399836688028767], [79.17413367091378, 14.404633864934295], [79.16985972267022, 14.408733950256412], [79.16554053694544, 14.418344452395166], [79.16234888529108, 14.419697336501077], [79.15984981442446, 14.422777714298885], [79.15984133058645, 14.423810931676945], [79.16194749307182, 14.425549490353507], [79.16584036179718, 14.424890931987376]], [[79.16232911990252, 14.422108180925699], [79.1676607794937, 14.418360922958373], [79.17126754526589, 14.40943371658414], [79.17447021325742, 14.406703050767831], [79.17733623303229, 14.40190314699944], [79.17840187339402, 14.401222502546407], [79.18165174780628, 14.392636730438365], [79.18592238303502, 14.38888077686299], [79.19272154435801, 14.378255374523762], [79.19521410739208, 14.375863354511958], [79.19875275382672, 14.375201443656264], [79.20655859466461, 14.371127481416053], [79.20832513220869, 14.371140858264953], [79.2086592403498, 14.373554448483], [79.20686796879612, 14.376640817861853], [79.20648443193176, 14.380426716838498], [79.20398090899145, 14.384196524539837], [79.20325222473888, 14.386946479453831], [79.20182787393081, 14.38831339678954], [79.19931036858951, 14.39380520480194], [79.19254698988189, 14.399953399828537], [79.1893251670939, 14.405095233755631], [79.18576374934949, 14.408512233678143], [79.18186002336057, 14.41054880382484], [79.17758327395964, 14.414993439954696], [79.1697810247225, 14.418377374498853], [79.16514487411203, 14.423507808858307], [79.16231499952741, 14.423830212340333], [79.16232911990252, 14.422108180925699]]]]}}, {"type": "Feature", "properties": {"depth_class": 2, "depth_lo_m": 1.0, "t_s": 59400.13143512882}, "geometry": {"type": "MultiPolygon", "coordinates": [[[[79.02027459039152, 14.219826087145787], [79.02065159775512, 14.21707394186038], [79.01960750057071, 14.215343252802397], [79.01819839683871, 14.214987168333762], [79.01610126561869, 14.2125589214722], [79.01291806577964, 14.213221304854397], [79.01254398765876, 14.215629045399083], [79.01324101536012, 14.216668060368143], [79.01641525626744, 14.217038827487833], [79.01815339219868, 14.220152915754356], [79.02027459039152, 14.219826087145787]], [[79.01430610767282, 14.21598809505003], [79.013974124304, 14.213574486052321], [79.01644227872582, 14.213939381788796], [79.0164272670522, 14.215661296171254], [79.01430610767282, 14.21598809505003]]], [[[79.15890271052439, 14.235744762761133], [79.1578741660003, 14.231948073218977], [79.1561087649173, 14.231934450296858], [79.156100381072, 14.232967682060588], [79.15890271052439, 14.235744762761133]]], [[[79.07905175351007, 14.241659675978543], [79.08259709068597, 14.239966087753174], [79.08475040425927, 14.235850339677373], [79.08477072646167, 14.233439565102909], [79.08371733209553, 14.232742275542826], [79.08194909323745, 14.23307249975079], [79.07768607369903, 14.236137988239372], [79.07730968271382, 14.238890303602314], [79.07799834522582, 14.240962359037873], [79.07905175351007, 14.241659675978543]], [[79.07907505755851, 14.238904515563013], [79.0798044985569, 14.236155034465481], [79.08227890498691, 14.2358305021813], [79.08083752428796, 14.23926310993337], [79.07907505755851, 14.238904515563013]]], [[[79.16728786707269, 14.246831152278242], [79.16657887470876, 14.247170139156092], [79.16728508643978, 14.247175564617564], [79.16728786707269, 14.246831152278242]]], [[[79.03450175466527, 14.248529588185537], [79.0345196473599, 14.24646327395949], [79.0334604150932, 14.246454546198297], [79.03274232180557, 14.247826266477611], [79.03450175466527, 14.248529588185537]]], [[[79.02593195250584, 14.259479903876935], [79.02630303036523, 14.257416525317973], [79.02383138253299, 14.257396052775857], [79.02416947409795, 14.259120895213629], [79.02593195250584, 14.259479903876935]]], [[[79.24730207266008, 14.31149930145845], [79.24345679574995, 14.306304236890004], [79.24276643525232, 14.304232465935907], [79.2403100554525, 14.302147630624676], [79.23821497384117, 14.29903211893354], [79.23752736126127, 14.296615915358716], [79.23470447850787, 14.296250537731098], [79.23329976716988, 14.295206778038269], [79.22941733740119, 14.294833468749689], [79.22626561227294, 14.291365565419953], [79.22415460491307, 14.290316492782475], [79.2227418685074, 14.290305945160673], [79.22167419661223, 14.291331293279285], [79.22236433126096, 14.293403100853762], [79.2248339515235, 14.293765983483665], [79.23468834905812, 14.298317079886324], [79.23572913596892, 14.300735909269559], [79.23888918409274, 14.303170443383406], [79.24028056402899, 14.305936300554848], [79.24378859738819, 14.309062247370944], [79.24483219773285, 14.311136626461217], [79.2455038656192, 14.31561937129052], [79.24655552791044, 14.316660471049627], [79.24761521724439, 14.316668290622333], [79.24730207266008, 14.31149930145845]]], [[[79.20494881021149, 14.307049878787113], [79.20673123982093, 14.30499670015918], [79.20604669743997, 14.302236025342085], [79.20427796602128, 14.302567112124137], [79.20356335675694, 14.303595028921507], [79.20353872174783, 14.306694787408055], [79.20494881021149, 14.307049878787113]]], [[[79.24183746456904, 14.332814470917786], [79.24612203130604, 14.326990616868299], [79.2468499251144, 14.324240434380483], [79.24969455306803, 14.321850303265363], [79.24971057289073, 14.319783748482772], [79.24796043141981, 14.317704172839557], [79.24581963900562, 14.320443931996197], [79.24398915790064, 14.328697071332869], [79.24220413660092, 14.331094967439675], [79.24183746456904, 14.332814470917786]]], [[[79.25142873085083, 14.325996426888677], [79.25108349201648, 14.32496054715129], [79.25002376180285, 14.324952738625214], [79.25071957114255, 14.326335648219073], [79.25142873085083, 14.325996426888677]]], [[[79.23608033043645, 14.346205015179788], [79.24035995331047, 14.341070164411855], [79.2414519872729, 14.33694493982531], [79.24038951891968, 14.337281505500025], [79.23753651450554, 14.340704757568803], [79.23609919870358, 14.343794057177545], [79.23608033043645, 14.346205015179788]]], [[[79.19560894039552, 14.458530534724225], [79.19633249888217, 14.456469480860164], [79.19459032935569, 14.453356232388709], [79.19426470266204, 14.449909406627304], [79.19253095084126, 14.445762916235951], [79.19255042476213, 14.443352035957584], [79.19503824342753, 14.441648938849882], [79.19080282348453, 14.440927596704512], [79.18692922105616, 14.439175668889831], [79.18552953683295, 14.437442739115742], [79.18306686541317, 14.436046044675633], [79.18202902044608, 14.433282593217225], [79.17780223265352, 14.43152781306395], [79.17852863107257, 14.429122409156282], [79.1820988944584, 14.424672345281513], [79.18282242455615, 14.42261132904973], [79.1863841321871, 14.419194408835168], [79.18815659519672, 14.418519157658935], [79.19027408590375, 14.418879837096238], [79.1909864028766, 14.418196431695046], [79.1913675629356, 14.414755019398697], [79.19278660654615, 14.414077019838235], [79.19955874415518, 14.406895632057228], [79.20239116258094, 14.406228335613479], [79.20485367416016, 14.407624807478168], [79.20626713225602, 14.407635546783004], [79.20628089888015, 14.405913470887041], [79.20487847227177, 14.404525073082823], [79.20489775560765, 14.402114167962957], [79.20917100027143, 14.398013356676937], [79.21168285241137, 14.39321025617398], [79.21523544290156, 14.390826039214376], [79.21632554138432, 14.38704544524945], [79.21810586894489, 14.38533667359698], [79.21987798556324, 14.384661140394163], [79.22237582116607, 14.381579972201086], [79.23088278824387, 14.378199333917259], [79.2319671299517, 14.375107468595592], [79.23303520355155, 14.37408212126781], [79.23657377857697, 14.373419628403168], [79.23835115280492, 14.372055094638348], [79.2408593686643, 14.367595992094147], [79.24370465417783, 14.365206010719843], [79.24763123491168, 14.36006843817433], [79.25117224282693, 14.359061271397115], [79.25473724787336, 14.354954216779623], [79.26005790782071, 14.352237772613917], [79.26326405244083, 14.34881681874603], [79.26645950154652, 14.346773522182984], [79.26683397089124, 14.344020679076102], [79.26932806091872, 14.341283309925114], [79.27005574699449, 14.338533032595768], [79.26972361945077, 14.33577502410593], [79.2676251991419, 14.33300412768701], [79.26977909253984, 14.328542011905155], [79.26979229585434, 14.326819865463635], [79.26837401121722, 14.327498421137278], [79.26694249254773, 14.329899110988434], [79.26686574556625, 14.339887539016715], [79.2647090109936, 14.344694033471331], [79.26328528770576, 14.34606139854992], [79.25868734616911, 14.346716568388889], [79.25725558490568, 14.349117170662145], [79.25370140653241, 14.351846578297794], [79.24413317404353, 14.355564769494983], [79.23812994654739, 14.355175767381844], [79.23461596278062, 14.352738519550513], [79.23428697400759, 14.349636089270906], [79.23320823046815, 14.35203914559116], [79.22930317507692, 14.3544210927549], [79.22678407302499, 14.360257749816213], [79.22502031840527, 14.359900100408778], [79.225036608996, 14.357833579787934], [79.2271780413581, 14.355094086054697], [79.22719430647317, 14.35302756217326], [79.2261480184309, 14.35129752935645], [79.22404462921513, 14.349215135564927], [79.22122929634251, 14.347816266815327], [79.21913142942446, 14.345044998987946], [79.21772107810224, 14.34468996280243], [79.21738415284544, 14.342620792648658], [79.21563963798594, 14.339852158419236], [79.21282447938364, 14.338453208324218], [79.21034621291089, 14.33912340144413], [79.2089167659931, 14.341179242052982], [79.20465569759318, 14.343902525481303], [79.20357943452564, 14.34596099822236], [79.20074229954223, 14.347317232585286], [79.20069278901003, 14.353516716294466], [79.1992411206058, 14.358327797758516], [79.1978169510088, 14.359694712343794], [79.19637344705832, 14.363472518349171], [79.1924595634327, 14.366887028861282], [79.18960269881255, 14.3706539807256], [79.1828704747457, 14.373013431771916], [79.17827471796731, 14.37332253717811], [79.174724898446, 14.375361778504143], [79.16871867762264, 14.375315377948603], [79.16766437072499, 14.374618356386444], [79.16448462719171, 14.374593716761789], [79.1630657835373, 14.375271567771009], [79.15772106227752, 14.380740880480031], [79.15382331151207, 14.382088207112847], [79.15168643468883, 14.384138085344944], [79.14989149573914, 14.38756832322825], [79.14669455509149, 14.389609848425332], [79.14454616084316, 14.393037259462005], [79.14241194196258, 14.394742626189732], [79.14096439812205, 14.398864349146125], [79.14163400709016, 14.403347145188032], [79.13912060725892, 14.408149306453833], [79.13908632197928, 14.412282131906966], [79.13836816956986, 14.413654168183024], [79.13588319491642, 14.415012255478898], [79.1266957996195, 14.414939525539037], [79.1234809697574, 14.419047052741858], [79.1213578877844, 14.419374582994712], [79.11851650613376, 14.421074050863508], [79.11673519584804, 14.422781943145866], [79.11637024613401, 14.424156711277902], [79.11210076005698, 14.427566779847915], [79.11344464727188, 14.43584360358915], [79.12223610391922, 14.441080107983566], [79.12679860849524, 14.444905055218966], [79.12926958445085, 14.445269109433468], [79.13352773107104, 14.443236344100152], [79.13924522864151, 14.43570423692858], [79.14244864828196, 14.432974102762415], [79.14528434320071, 14.43196314978856], [79.14990403440137, 14.428899606591928], [79.15557241437601, 14.427221867851204], [79.15768989687447, 14.427582843155074], [79.15909212314479, 14.428971501563227], [79.15907797088384, 14.430693528835793], [79.15764173974462, 14.433437730855374], [79.1551481089807, 14.435829220480445], [79.15513675744889, 14.43720683845121], [79.15618845184972, 14.438248347406262], [79.1689110103996, 14.43834752299307], [79.17068648283407, 14.43732802073674], [79.17422053145204, 14.437355419299838], [79.17738716148251, 14.439102076515779], [79.18021163288253, 14.439468331145614], [79.18442461739083, 14.44294513666581], [79.18614423359895, 14.448813718382238], [79.18860426977277, 14.450554808397754], [79.19068862042174, 14.455048448754896], [79.19419795166746, 14.458175282967304], [79.19560894039552, 14.458530534724225]], [[79.16194749307182, 14.425549490353507], [79.15984133058645, 14.423810931676945], [79.1605678797502, 14.421405601424306], [79.16234888529108, 14.419697336501077], [79.16554053694544, 14.418344452395166], [79.16985972267022, 14.408733950256412], [79.17413367091378, 14.404633864934295], [79.17735301215347, 14.399836688028767], [79.18024398406503, 14.391937033674811], [79.1845146249475, 14.388181106534702], [79.19166990693456, 14.377214036497946], [79.19380639013647, 14.375163744940263], [79.2001825402274, 14.373145705938022], [79.20727893207528, 14.36941075159241], [79.20939602087853, 14.369771210758952], [79.21007248711301, 14.373565140243725], [79.20864278072486, 14.375620947868523], [79.20753890560844, 14.381123582287866], [79.20503538980785, 14.384893402096717], [79.20466555146453, 14.386957213257707], [79.20288236466293, 14.389010285190539], [79.20036487384456, 14.394502106220585], [79.19395761918896, 14.400308620165868], [79.1910919548302, 14.405108770373268], [79.18539367187911, 14.410575985554761], [79.18220222325652, 14.411929166219869], [79.17756927796141, 14.416715487140435], [79.17047653074093, 14.419760486022293], [79.16584036179718, 14.424890931987376], [79.16442118413346, 14.425568751210808], [79.16194749307182, 14.425549490353507]], [[79.17894640188723, 14.421203721384373], [79.1789631896262, 14.419137263924485], [79.18217709853221, 14.41502885975458], [79.18643984442053, 14.412306186114938], [79.19071360270587, 14.408205774136134], [79.19321210253885, 14.405124996892747], [79.19429434633281, 14.402377799115412], [79.2014166274621, 14.395543418243852], [79.20393410871009, 14.390051584834183], [79.20607612964443, 14.387312354338263], [79.20680478211595, 14.384562386926731], [79.2089467106901, 14.38182311908521], [79.20969175736165, 14.377006635527492], [79.2114802574338, 14.374264657814072], [79.21151311870844, 14.370131651757879], [79.20940972583044, 14.368049126403028], [79.20587395274634, 14.368366797572856], [79.19700552066584, 14.372777091088796], [79.19417629346276, 14.37309995816555], [79.18813677079575, 14.377187009975437], [79.1863757611404, 14.37648465243723], [79.18638964899091, 14.374762590953802], [79.19029268082363, 14.372725862428688], [79.19350286685426, 14.368961600617038], [79.19386722685365, 14.36758664036616], [79.1981371574369, 14.36383037906092], [79.2021031546932, 14.353871856898813], [79.20178561523647, 14.349391769415648], [79.20498701772699, 14.346660533560824], [79.20713128864013, 14.343576817368042], [79.21210431007914, 14.340169975662217], [79.21491948331744, 14.34156893608413], [79.21525911209943, 14.343293688401916], [79.21311767745019, 14.3460330732011], [79.21310402271928, 14.347755164250048], [79.21768294248639, 14.349511829765603], [79.22227281352053, 14.349890735480303], [79.22508003788921, 14.352322856285257], [79.2254143252335, 14.354736444010978], [79.22291415192197, 14.358162109724386], [79.22289512280692, 14.360573047559503], [79.22570518891186, 14.362660754889378], [79.22818369675478, 14.36199042696545], [79.22927880298063, 14.35752088162202], [79.23142018490476, 14.354781343192371], [79.23530094314262, 14.35549915885381], [79.23776318290827, 14.356895253214693], [79.24305986879413, 14.357279031266463], [79.24695145426281, 14.35661896825719], [79.24979117828451, 14.35491773811511], [79.25191092069107, 14.354933384454435], [79.25082964813508, 14.357680963488425], [79.24693536616337, 14.358685513577129], [79.24123690269151, 14.364498810461889], [79.236231264672, 14.372039308654188], [79.2323393966675, 14.372699160594934], [79.2305592761549, 14.374408065063465], [79.22947763231696, 14.377155501873888], [79.22061464059688, 14.380877853492956], [79.21953829661356, 14.382936389129252], [79.21527374554631, 14.38600419548471], [79.21418363712564, 14.389784783455017], [79.21027496975155, 14.39251072707095], [79.20811919628296, 14.396972073877444], [79.20384871274125, 14.400728451654087], [79.20240495753742, 14.40450626318674], [79.1981535930758, 14.405851612211457], [79.18925288836982, 14.414049942276018], [79.18781991982755, 14.416449976413983], [79.1853407220664, 14.41711979438899], [79.1800065443038, 14.421211900432432], [79.17894640188723, 14.421203721384373]], [[79.16183402528017, 14.396272182838453], [79.16116964773569, 14.391100581962391], [79.16224090765948, 14.389731195144094], [79.16330089151991, 14.389739431609161], [79.16434961879118, 14.391125293821842], [79.16432991571462, 14.393536146779038], [79.16254070152384, 14.39627767799907], [79.16183402528017, 14.396272182838453]], [[79.25759022198147, 14.351530752339471], [79.25973388434608, 14.348446484158151], [79.26114701259903, 14.348456853308289], [79.25900602964916, 14.351196709818959], [79.25759022198147, 14.351530752339471]]]]}}, {"type": "Feature", "properties": {"depth_class": 3, "depth_lo_m": 2.0, "t_s": 59400.13143512882}, "geometry": {"type": "MultiPolygon", "coordinates": [[[[79.01430610767282, 14.21598809505003], [79.0164272670522, 14.215661296171254], [79.01644227872582, 14.213939381788796], [79.013974124304, 14.213574486052321], [79.01360606965545, 14.215293465045868], [79.01430610767282, 14.21598809505003]]], [[[79.08084043434876, 14.238918714487241], [79.08190838626102, 14.23789404053993], [79.08227890498691, 14.2358305021813], [79.0798044985569, 14.236155034465481], [79.07908962005953, 14.237182539962072], [79.07907505755851, 14.238904515563013], [79.08084043434876, 14.238918714487241]]], [[[79.25759022198147, 14.351530752339471], [79.26078575492735, 14.349487542882045], [79.26079638878952, 14.3481098347644], [79.25795416118758, 14.350155643363717], [79.25759022198147, 14.351530752339471]]], [[[79.17894640188723, 14.421203721384373], [79.18178183099913, 14.420192291298813], [79.1853407220664, 14.41711979438899], [79.18781991982755, 14.416449976413983], [79.18925288836982, 14.414049942276018], [79.1981535930758, 14.405851612211457], [79.20240495753742, 14.40450626318674], [79.20384871274125, 14.400728451654087], [79.20811919628296, 14.396972073877444], [79.21027496975155, 14.39251072707095], [79.21418363712564, 14.389784783455017], [79.21527374554631, 14.38600419548471], [79.21953829661356, 14.382936389129252], [79.22061464059688, 14.380877853492956], [79.22947763231696, 14.377155501873888], [79.2305592761549, 14.374408065063465], [79.2323393966675, 14.372699160594934], [79.236231264672, 14.372039308654188], [79.24123690269151, 14.364498810461889], [79.24693536616337, 14.358685513577129], [79.25082964813508, 14.357680963488425], [79.25191092069107, 14.354933384454435], [79.24979117828451, 14.35491773811511], [79.24447303981603, 14.357289506077354], [79.23776318290827, 14.356895253214693], [79.23530094314262, 14.35549915885381], [79.23142018490476, 14.354781343192371], [79.22927880298063, 14.35752088162202], [79.22818369675478, 14.36199042696545], [79.22570518891186, 14.362660754889378], [79.22289512280692, 14.360573047559503], [79.22291415192197, 14.358162109724386], [79.2254143252335, 14.354736444010978], [79.22508003788921, 14.352322856285257], [79.22227281352053, 14.349890735480303], [79.21768294248639, 14.349511829765603], [79.21310402271928, 14.347755164250048], [79.21311767745019, 14.3460330732011], [79.21525911209943, 14.343293688401916], [79.21491948331744, 14.34156893608413], [79.21210431007914, 14.340169975662217], [79.20713128864013, 14.343576817368042], [79.20498701772699, 14.346660533560824], [79.20178561523647, 14.349391769415648], [79.2021031546932, 14.353871856898813], [79.1981371574369, 14.36383037906092], [79.19386722685365, 14.36758664036616], [79.19350286685426, 14.368961600617038], [79.19029268082363, 14.372725862428688], [79.18638964899091, 14.374762590953802], [79.1863757611404, 14.37648465243723], [79.18813677079575, 14.377187009975437], [79.19417629346276, 14.37309995816555], [79.19700552066584, 14.372777091088796], [79.20587395274634, 14.368366797572856], [79.20940972583044, 14.368049126403028], [79.21151311870844, 14.370131651757879], [79.2114802574338, 14.374264657814072], [79.20969175736165, 14.377006635527492], [79.2089467106901, 14.38182311908521], [79.20680478211595, 14.384562386926731], [79.20607612964443, 14.387312354338263], [79.20393410871009, 14.390051584834183], [79.2014166274621, 14.395543418243852], [79.19429434633281, 14.402377799115412], [79.19321210253885, 14.405124996892747], [79.19071360270587, 14.408205774136134], [79.18643984442053, 14.412306186114938], [79.18217709853221, 14.41502885975458], [79.1789631896262, 14.419137263924485], [79.17894640188723, 14.421203721384373]]]]}}]}