{"type": "FeatureCollection", "features": [{"type": "Feature", "properties": {"depth_class": 1, "depth_lo_m": 0.3, "t_s": 80100.27316766967}, "geometry": {"type": "MultiPolygon", "coordinates": [[[[79.01424296778274, 14.223220123053174], [79.01602618186206, 14.221168489959858], [79.01813838663901, 14.221874831035088], [79.02096866992005, 14.221209469120577], [79.02168672354301, 14.21983777971867], [79.02171966913033, 14.216049556950844], [79.02067556682104, 14.2143188719775], [79.01891644127093, 14.213615486208635], [79.0178693710617, 14.212229176129327], [79.0139921575822, 14.211508191486345], [79.01150297172912, 14.213553947723556], [79.01148190310485, 14.215964620613429], [79.01217892634699, 14.21700363815606], [79.01144276519125, 14.220441583183506], [79.01283382962676, 14.222864001902288], [79.01424296778274, 14.223220123053174]], [[79.01815339219868, 14.220152915754356], [79.01641525626744, 14.217038827487833], [79.01324101536012, 14.216668060368143], [79.01254398765876, 14.215629045399083], [79.01291806577964, 14.213221304854397], [79.01610126561869, 14.2125589214722], [79.01819839683871, 14.214987168333762], [79.02030755945819, 14.21603786761961], [79.02063661448385, 14.2187958601953], [79.01991855910141, 14.220167546157368], [79.01815339219868, 14.220152915754356]]], [[[79.16062073082857, 14.241613360551185], [79.16141333288863, 14.230942045023951], [79.16388767401897, 14.23061664514664], [79.16425188065335, 14.229241710064466], [79.16320934656169, 14.227167095131888], [79.16109368959671, 14.226806387010601], [79.15898919719153, 14.225068015579426], [79.15722384841197, 14.225054407334662], [79.15543614648841, 14.227796071131706], [79.15331770701934, 14.227779705115275], [79.15189701514774, 14.228802013680765], [79.15187180994066, 14.23190170211306], [79.15291425045393, 14.233976355919092], [79.15572493499282, 14.235720239400475], [79.15708977487797, 14.241586124182863], [79.15814347395816, 14.242283121995076], [79.15990895746806, 14.242296739560603], [79.16062073082857, 14.241613360551185]], [[79.15890271052439, 14.235744762761133], [79.156100381072, 14.232967682060588], [79.1561087649173, 14.231934450296858], [79.1582244551067, 14.232295207249601], [79.15890271052439, 14.235744762761133]]], [[[79.08222365445923, 14.242374021086396], [79.08616269126503, 14.23586166391974], [79.08618589922843, 14.233106490654498], [79.08513830521576, 14.231720413936236], [79.08160765648091, 14.231692080612673], [79.08089280214834, 14.232719594661859], [79.07770355755726, 14.234071618699938], [79.07591488787189, 14.236812557760208], [79.07203110878068, 14.236781227347615], [79.07130157375234, 14.239530672437589], [79.07234910500024, 14.240916802965831], [79.07411156974005, 14.241275447603545], [79.07623587291111, 14.24060374264391], [79.07693036170394, 14.241987011201704], [79.07868701807759, 14.243034413726718], [79.08115859049458, 14.243054298225754], [79.08222365445923, 14.242374021086396]], [[79.07800708917237, 14.239929174541674], [79.07804205795068, 14.23579643561188], [79.08230215997636, 14.233075335192929], [79.0840674948359, 14.23308950458502], [79.08476782352267, 14.233783961502166], [79.0847533076638, 14.235505943341071], [79.08224110502438, 14.240307647104727], [79.08082006229033, 14.241329482389697], [79.07870158792157, 14.241312439113432], [79.07800708917237, 14.239929174541674]]], [[[79.11821835883717, 14.245071512487145], [79.12036827828598, 14.241299773694987], [79.1203882306469, 14.238888950273804], [79.11899871194554, 14.236122600929617], [79.11653001572947, 14.235758714744671], [79.1143801013723, 14.239530419205416], [79.11400413678402, 14.242282846396957], [79.11680598822896, 14.245060370735448], [79.11821835883717, 14.245071512487145]]], [[[79.03554013007644, 14.250949013555928], [79.0366291776813, 14.247513873873078], [79.03947166355192, 14.245470781105054], [79.03878930883116, 14.24270988467011], [79.03738594882373, 14.241665115509615], [79.03561761715916, 14.24199497871526], [79.03418744478843, 14.24404966533019], [79.03170398768316, 14.245406833998175], [79.03027674584823, 14.24711710443601], [79.03026180257916, 14.248839028483157], [79.03341565390926, 14.251620327758394], [79.03554013007644, 14.250949013555928]], [[79.03381349243577, 14.24645745597372], [79.03486676209809, 14.24715495376699], [79.03450175466527, 14.248529588185537], [79.0330924167534, 14.248173562985087], [79.03310435377429, 14.246796021339028], [79.03381349243577, 14.24645745597372]]], [[[79.15065832104086, 14.250836013997782], [79.15067796568138, 14.24842515076216], [79.14891525250266, 14.248067050447604], [79.14785032105834, 14.248747646479444], [79.14748316062173, 14.250466947029198], [79.14818094372106, 14.25150565575944], [79.1495905713478, 14.251861025490921], [79.15065832104086, 14.250836013997782]]], [[[79.15838479078947, 14.256062268996695], [79.15911617813806, 14.252968027204378], [79.15806243004766, 14.252271027947508], [79.15523753619165, 14.252249196791407], [79.15169520366683, 14.25359949742433], [79.15168398053454, 14.254977133819937], [79.15414177527428, 14.256718325970553], [79.15731984181178, 14.256742905802403], [79.15838479078947, 14.256062268996695]]], [[[79.14741285264257, 14.259077153437646], [79.14672912403447, 14.25631640046321], [79.14532229199062, 14.255616603314254], [79.14214144227898, 14.255936272738365], [79.14107363198822, 14.256961238090607], [79.14177139953043, 14.257999963914893], [79.1456444351495, 14.259407835446243], [79.14741285264257, 14.259077153437646]]], [[[79.02804154572235, 14.260530589186269], [79.0284185952044, 14.257778436996752], [79.02702119820533, 14.256044834396468], [79.02455556226504, 14.255335604427632], [79.02207192835726, 14.256692648188968], [79.0220509053966, 14.259103327882938], [79.02345127789235, 14.260492573724974], [79.0252107656334, 14.261195972272752], [79.02804154572235, 14.260530589186269]], [[79.02383138253299, 14.257396052775857], [79.02559984263743, 14.257066295060401], [79.02664413778716, 14.25879698293623], [79.02487266498778, 14.259471130173212], [79.02381937995807, 14.258773585480736], [79.02383138253299, 14.257396052775857]]], [[[79.14952314647302, 14.260126832691576], [79.14986783951916, 14.261162799033523], [79.15163346160756, 14.261176495527332], [79.15093563726734, 14.260137792194387], [79.14952314647302, 14.260126832691576]]], [[[79.15622968828592, 14.260523225703842], [79.15411935240316, 14.259473601692315], [79.1530543757068, 14.260154215778032], [79.15269003004775, 14.261529116245613], [79.1537437980456, 14.26222614194058], [79.15621568650559, 14.262245274593598], [79.15622968828592, 14.260523225703842]]], [[[79.04956882551404, 14.262085344424321], [79.04959548423233, 14.258985848426631], [79.04783887698481, 14.257938234206215], [79.04607338689839, 14.25792377245424], [79.04499925057591, 14.2596370268955], [79.04497846673935, 14.262047739314534], [79.04603184337627, 14.262745200570048], [79.04850358252169, 14.262765450493285], [79.04956882551404, 14.262085344424321]]], [[[79.08311707004823, 14.262013076241544], [79.08349346713261, 14.259260752706338], [79.08279307445079, 14.258566284081496], [79.07996530927423, 14.258887946705295], [79.07854121259146, 14.260254145413967], [79.0785324580722, 14.261287328479622], [79.08063945771873, 14.262681975628587], [79.08311707004823, 14.262013076241544]]], [[[79.16150422481209, 14.263319419226665], [79.16328940384854, 14.260922153684412], [79.160467187741, 14.260555960864679], [79.15798412118949, 14.261914515001031], [79.15797292943188, 14.263292155338792], [79.15937985464758, 14.263991887818346], [79.16150422481209, 14.263319419226665]]], [[[79.12465371483188, 14.278187067356129], [79.12679252829656, 14.275792920190746], [79.1268238520898, 14.27200448008619], [79.12577298910166, 14.27096293683045], [79.12471358553918, 14.270954600028075], [79.1236456269315, 14.271979467794093], [79.12148111999707, 14.277473210556689], [79.12182283964556, 14.278853606194145], [79.12465371483188, 14.278187067356129]]], [[[79.10416851168465, 14.278369277970683], [79.1024056894136, 14.278010814823002], [79.10203811712721, 14.27972999329355], [79.10344780716592, 14.280085647972415], [79.10416851168465, 14.278369277970683]]], [[[79.16253788319776, 14.396622085095585], [79.16432710069114, 14.39388055430214], [79.16435243321816, 14.390780886214312], [79.1636542196226, 14.389742176042896], [79.16188757985529, 14.38972844860112], [79.1611724670315, 14.390756174970933], [79.16148068727034, 14.396269434466804], [79.16253788319776, 14.396622085095585]]], [[[79.16938705731988, 14.249258304748714], [79.17010993633328, 14.247197245588358], [79.16871418063701, 14.245119933448054], [79.166601126252, 14.244414841240927], [79.16306732832118, 14.244732099680535], [79.16305060756646, 14.246798569016825], [79.16514696315588, 14.24957016518527], [79.16796905929223, 14.249936287421468], [79.16938705731988, 14.249258304748714]]], [[[79.18235282347014, 14.26175713867209], [79.1816576071352, 14.260374093594185], [79.17989196148501, 14.260360620141986], [79.17918017302733, 14.261044055582728], [79.17952224276266, 14.262424409600815], [79.18164103660399, 14.262440581749743], [79.18235282347014, 14.26175713867209]]], [[[79.16996824400518, 14.26476228885129], [79.1692731008587, 14.263379215864369], [79.1668039665096, 14.263015805312786], [79.1671403911804, 14.265084991851845], [79.16890327911754, 14.265442976234928], [79.16996824400518, 14.26476228885129]]], [[[79.18476131585533, 14.269697523073154], [79.18124922172085, 14.267259690982074], [79.17841303252597, 14.268615767701467], [79.1745340282987, 14.267897212970903], [79.1755823578476, 14.26928297988176], [79.18158025528867, 14.270017701766035], [79.18369912251218, 14.270033864039215], [79.18476131585533, 14.269697523073154]]], [[[79.28213006240881, 14.283853078055088], [79.28037721753341, 14.282118165452715], [79.27790756409884, 14.281755863534462], [79.27087025538192, 14.278260358246945], [79.26840067019786, 14.277897964004527], [79.26735432387126, 14.276168106058952], [79.26559638393708, 14.275121963110692], [79.26171153551203, 14.275093642892468], [79.26030415528568, 14.274394470778383], [79.25891001780737, 14.271973146896993], [79.2564511340307, 14.270232924402347], [79.25540491368503, 14.268503027244146], [79.25437992519383, 14.264017700999492], [79.25512067724962, 14.259545302169757], [79.25405594795895, 14.260226403172998], [79.252268997196, 14.262968889742112], [79.25225306692548, 14.26503545720292], [79.25470655776283, 14.267464570217125], [79.25432156780494, 14.271595121087667], [79.2567751460111, 14.274024222133322], [79.25746823009673, 14.27575153301104], [79.2606282300437, 14.278185770006681], [79.26131606496638, 14.280601932089462], [79.26308194666336, 14.280614820554575], [79.26415995623697, 14.278211539790522], [79.265219475468, 14.278219260523944], [79.26662162436911, 14.279607267990258], [79.26909385535714, 14.279625251881528], [79.27612592532488, 14.283809674454002], [79.27789184590273, 14.283822455920932], [79.28141061871199, 14.285570142839372], [79.28247279528503, 14.28523335787766], [79.28213006240881, 14.283853078055088]]], [[[79.25038360334722, 14.27845516893901], [79.25146704489633, 14.275363104575554], [79.25041818649315, 14.27397761515023], [79.24724237991849, 14.273609821414608], [79.2465307234921, 14.274293476247358], [79.24616156099239, 14.276357434930256], [79.24685723136669, 14.277740341462566], [79.24861775047324, 14.278442188245178], [79.25038360334722, 14.27845516893901]]], [[[79.19729634766011, 14.292181156437705], [79.19730457979843, 14.291147906003298], [79.19625327541445, 14.290106626170699], [79.1944818876002, 14.290782066147592], [79.19517176236126, 14.29285392346381], [79.19729634766011, 14.292181156437705]]], [[[79.18629803601814, 14.298297410269214], [79.18560270967792, 14.29691436459946], [79.18418443181397, 14.297592411589477], [79.18452656044182, 14.298972764562219], [79.18629803601814, 14.298297410269214]]], [[[79.20600022860349, 14.30809113266246], [79.2077853899202, 14.305693527769156], [79.20852182373454, 14.30191024815711], [79.21031508085093, 14.298479357124265], [79.20536216788844, 14.299475349897058], [79.2025119693023, 14.30255376764399], [79.20178091389923, 14.305648181940578], [79.20211493962422, 14.308061774561947], [79.20316908611079, 14.308758622493919], [79.20600022860349, 14.30809113266246]], [[79.20426975888743, 14.303600365542856], [79.2053320968013, 14.30326394854799], [79.20603303231809, 14.303958116044546], [79.20531022138762, 14.3060192922257], [79.20390013832682, 14.305664203647591], [79.20426975888743, 14.303600365542856]]], [[[79.22472308595131, 14.307887274683207], [79.22261735931501, 14.306149330390792], [79.22014490040246, 14.3061308305643], [79.21872392512387, 14.30715350900116], [79.22259298097892, 14.309249120564509], [79.22471226331744, 14.30926496068816], [79.22472308595131, 14.307887274683207]]], [[[79.26179217279817, 14.310572392354768], [79.26181071796782, 14.308161393861278], [79.25970201220284, 14.306768173522379], [79.25687362454231, 14.307091896106826], [79.25508626728343, 14.309834355356626], [79.25613529681029, 14.311219842386146], [79.26072720152935, 14.311253495464369], [79.26179217279817, 14.310572392354768]]], [[[79.27830446713448, 14.322403901534042], [79.28328394142262, 14.317962090326239], [79.28436982008319, 14.314525424091007], [79.2844325817532, 14.306259045365248], [79.28586374730828, 14.303858207896875], [79.28589247067212, 14.300069445359894], [79.28484328681031, 14.298684073782074], [79.28377843310528, 14.299365294959285], [79.28197574649121, 14.304174595231727], [79.28191028522419, 14.312785396647444], [79.28012577901757, 14.315183640681555], [79.27764263938377, 14.316543452030727], [79.27692302986877, 14.318260483263598], [79.2765408741898, 14.322046658695538], [79.27830446713448, 14.322403901534042]]], [[[79.2656009352598, 14.32058921759288], [79.2659726889883, 14.318180795217085], [79.26527680004672, 14.316797921707428], [79.26352122579962, 14.315407303715528], [79.26245888386103, 14.315743984041505], [79.26174446935318, 14.316772100416568], [79.26242443390309, 14.320221550960511], [79.26347620209836, 14.321262586654953], [79.2656009352598, 14.32058921759288]]], [[[79.23171185464673, 14.317583768970971], [79.23134783658851, 14.31895882901564], [79.23275806314423, 14.319313768838931], [79.23312476835999, 14.317594282942515], [79.23171185464673, 14.317583768970971]]], [[[79.25101675310651, 14.33357119218947], [79.25137534978387, 14.332884944117525], [79.25102209385167, 14.332882340827068], [79.25101675310651, 14.33357119218947]]], [[[79.09168240659939, 14.501107270036174], [79.09346753175332, 14.499055287134642], [79.09383574448614, 14.497336204280293], [79.09561493335727, 14.495972980241746], [79.1005695583225, 14.495324273033026], [79.10199521467419, 14.493958134662083], [79.10308495263884, 14.490522775527191], [79.10557390580264, 14.488820775125586], [79.10879603936866, 14.48402488899581], [79.11128487777944, 14.482322813090677], [79.11235983465797, 14.480609357402063], [79.11555552733894, 14.478912902586513], [79.11806458350178, 14.474799968920896], [79.12126884636734, 14.472070230098037], [79.12736122236892, 14.462130601581709], [79.12948471624249, 14.461803066204965], [79.13370005271464, 14.464936330409149], [79.1358264450948, 14.46426434006052], [79.13585804720489, 14.460475940498586], [79.1309416541643, 14.456648311325818], [79.1306199006251, 14.452857114676906], [79.12957404015873, 14.45112670067633], [79.1299447350317, 14.449063112223088], [79.13385241397876, 14.446683143936193], [79.13705893151344, 14.443608711491358], [79.13849834464564, 14.440520273954746], [79.1431382975251, 14.435046083036683], [79.14988696681843, 14.430966028558991], [79.15555823685939, 14.42894389195506], [79.15731951296027, 14.429646513623618], [79.15730534638546, 14.431368539074537], [79.15373735331566, 14.435473749969713], [79.15371747267193, 14.437884579455789], [79.1551197279014, 14.439273265089684], [79.1692531494296, 14.439727896713054], [79.17102863235928, 14.438708393097139], [79.17385588862842, 14.43873031412698], [79.18054824502016, 14.441537515256059], [79.18335318580422, 14.444314604396215], [79.18437151519468, 14.449488924057343], [79.18717938843753, 14.451921572839362], [79.1885568418251, 14.456409786074557], [79.19066910997898, 14.457459324157169], [79.1924140316941, 14.460228187023688], [79.19131746045376, 14.46469738152662], [79.19448183008463, 14.466788276844724], [79.19516091423556, 14.470237812977192], [79.19475455027933, 14.47677891082548], [79.19613782115674, 14.48057828398856], [79.19611554938248, 14.483333572470709], [79.19468211417086, 14.485733591948025], [79.19358539934488, 14.490202778580771], [79.19180956006947, 14.491222412500296], [79.19001972748165, 14.493964078875774], [79.18610883854038, 14.49668935355691], [79.18539062129256, 14.49806152610039], [79.18608361395427, 14.499789031575187], [79.19810287177003, 14.499881575801835], [79.20198591618224, 14.500600208300735], [79.20375902245947, 14.499924913404117], [79.21401084323784, 14.500003115959926], [79.22038232321111, 14.499018185218816], [79.22144835533005, 14.498337389602234], [79.22325708391858, 14.493184533439196], [79.23220930973153, 14.478785667241832], [79.23402303450798, 14.472943836911133], [79.23443912200973, 14.465024861613376], [79.23307157271128, 14.459159133501498], [79.2295779759614, 14.453966306160229], [79.22781076563172, 14.453953013386807], [79.22674224637007, 14.454978284298829], [79.22071453429004, 14.45734387465788], [79.21576355026136, 14.457650842270237], [79.21363187006962, 14.459012421257057], [79.21221808205702, 14.459001688733004], [79.20940706181207, 14.456913712566873], [79.19986690019768, 14.456496530070373], [79.19671649223838, 14.452683656505906], [79.19638527795965, 14.449925653921039], [79.19464036828099, 14.447156821828326], [79.19465982144033, 14.444745939018537], [79.19821067297813, 14.442706516444696], [79.1978738939245, 14.440637338542603], [79.19470427229983, 14.43923534779406], [79.19081674222846, 14.439205540360456], [79.1872965757583, 14.437456333890257], [79.18413825276417, 14.434676572915262], [79.18345100323661, 14.432260257794601], [79.18028160800289, 14.43085809643896], [79.17993660739613, 14.429822140842488], [79.1842331694779, 14.422966621731392], [79.18708253419435, 14.420233072502272], [79.19203264999065, 14.419926615589135], [79.19242212969196, 14.415451963717706], [79.1999038167262, 14.407931567320608], [79.20308685318156, 14.4076113714662], [79.20554662919847, 14.409352253150626], [79.2076750886921, 14.408335108458248], [79.20803945796663, 14.40696012803825], [79.20594405774902, 14.403844296165254], [79.2059550701537, 14.402466635273264], [79.21022830531861, 14.398365803511298], [79.21238405595884, 14.393904434658308], [79.21593665216254, 14.391520207696006], [79.21738281198371, 14.387397855712232], [79.21916313558347, 14.385689075539634], [79.22093525289037, 14.385013534383509], [79.22378640744145, 14.381935007085117], [79.2280426332919, 14.37990028415662], [79.23122798286663, 14.37923523738211], [79.23373642817197, 14.374776238200466], [79.23727501356333, 14.374113735893989], [79.23905239016, 14.37274919707688], [79.2419192941297, 14.367603864359], [79.24440857793272, 14.365555673608712], [79.24584327649805, 14.362810755679263], [79.2479791722044, 14.360759900012368], [79.2518734885675, 14.35975533646388], [79.25508520220846, 14.355645670036912], [79.26004992675128, 14.353271052952037], [79.26716076600633, 14.347467543673625], [79.26789115344359, 14.34437285112312], [79.27074643498304, 14.340604758711553], [79.27112875501709, 14.336818612678597], [79.26904352208791, 14.332325580934581], [79.27264992676325, 14.322707286391449], [79.27017985923844, 14.322344856947344], [79.26588802412527, 14.329202513575833], [79.26516033229382, 14.331952777845089], [79.26580593632413, 14.339879793027565], [79.2647381752943, 14.34090532630192], [79.26400776256972, 14.34400000639123], [79.26293731807804, 14.345369955634887], [79.25869799071371, 14.345338861492184], [79.25441865357888, 14.3504740799532], [79.24591035517425, 14.354200155734723], [79.23813533508738, 14.354486922047823], [79.2370835606508, 14.353445772403383], [79.2371051231803, 14.350690391971973], [79.24249297856836, 14.339363760755896], [79.24320219103487, 14.339024570448704], [79.24394626526183, 14.33420786217864], [79.24608990658514, 14.33112371558875], [79.24718176886539, 14.326998443892803], [79.24789360866696, 14.32631480869785], [79.24895067184342, 14.326667052949798], [79.2506982129387, 14.329091054486701], [79.25211121311118, 14.329101463731968], [79.25318162857744, 14.327731560279013], [79.25320295435935, 14.324976150030139], [79.25075426853516, 14.321858111606383], [79.25077561481488, 14.319102703581661], [79.24903881756047, 14.315301006122406], [79.24836974850898, 14.310473837443979], [79.24487232238734, 14.30597024764803], [79.2445298091309, 14.304589938325933], [79.2410218262064, 14.301464008102753], [79.23824180253966, 14.295587875439718], [79.22978131020538, 14.2934584058903], [79.22873522186214, 14.291728405741008], [79.22521685924315, 14.289979975874417], [79.2252357661156, 14.287569020694455], [79.2241870347234, 14.286183428951924], [79.22206796919589, 14.286167609142584], [79.22135620176093, 14.286851174702592], [79.2213345475331, 14.289606546353358], [79.22062276606133, 14.290290108020477], [79.21850366621291, 14.290274252031386], [79.21675946286905, 14.287505659723555], [79.21324127612264, 14.28575707044726], [79.21255396226914, 14.283340827610967], [79.21150261126682, 14.282299610566232], [79.20974221204517, 14.281597499247892], [79.20729185139604, 14.278823544530582], [79.20271167016487, 14.277411263181408], [79.20096228379802, 14.275331422360335], [79.1977948388064, 14.273929723799462], [79.19535019680718, 14.270466837195434], [79.19219110167136, 14.268031826005961], [79.18936870890313, 14.26766595974657], [79.187238838509, 14.269027512753865], [79.18511721846284, 14.269355798196415], [79.18511170213392, 14.270044628432673], [79.18616562421558, 14.270741526838535], [79.1907537830664, 14.271120850878322], [79.1960016438528, 14.27736052770017], [79.19987818061209, 14.278423176987015], [79.2012798832768, 14.27981152334627], [79.20480059965571, 14.281215850227339], [79.2068977778423, 14.283987169480337], [79.21040770915815, 14.286769102267735], [79.21215182447874, 14.289537731617282], [79.21496640501877, 14.290936623874025], [79.21847112293717, 14.294407301637657], [79.22376897407975, 14.294446918194268], [79.22869207308064, 14.297239168244984], [79.23186545405518, 14.297951666679735], [79.23782687835939, 14.303507016243325], [79.24411504954072, 14.312509107732598], [79.24476796496288, 14.319402827669803], [79.2433255536457, 14.323181052305767], [79.24294550391575, 14.326622683071522], [79.23793284100027, 14.335196612489028], [79.23684075688737, 14.339321815053715], [79.23434094227501, 14.342747645144172], [79.23216459916007, 14.3499647127364], [79.23002327836998, 14.352704265244387], [79.22825415553832, 14.353035487724144], [79.22580829973823, 14.349572782742793], [79.22229183453157, 14.347479796294905], [79.2201939560303, 14.344708536653387], [79.21878632604779, 14.344009087474484], [79.21705267873219, 14.339862784096981], [79.21565054015461, 14.33847448277331], [79.21177290143875, 14.33741196708785], [79.20821571894531, 14.34048507063944], [79.20573468046362, 14.341499628257704], [79.20287839277935, 14.345266811468878], [79.19932647261808, 14.347650919905899], [79.19963295367373, 14.353508667265896], [79.19854281529881, 14.357289180779066], [79.19640104179176, 14.360028372254307], [79.1953163288263, 14.36312003017791], [79.19211733316916, 14.365506676992203], [79.18961378478743, 14.369276328413813], [79.18288160383702, 14.371635784890419], [79.17793257240787, 14.371942174579791], [79.1743827737739, 14.373981413201555], [79.1690831995835, 14.373940475621724], [79.16697179511841, 14.372890841535432], [79.16485198252765, 14.372874415588685], [79.16094876957632, 14.374910696780026], [79.15702573052458, 14.379357750723596], [79.15312800206549, 14.380705068406145], [79.15027883656956, 14.38343822698657], [79.1484838844029, 14.386868452470658], [79.1449307771952, 14.38925159056368], [79.14420990453645, 14.390968063958073], [79.14064528413546, 14.394728735366252], [79.13919770933335, 14.39885044361531], [79.13986728235636, 14.403333240430777], [79.13771577522758, 14.407104959271946], [79.13732238970736, 14.411923797942558], [79.13590037180987, 14.412945847198245], [79.13343259263054, 14.412237502235836], [79.12636258115, 14.412525924565854], [79.12387180053003, 14.414572676271698], [79.12315066891016, 14.416289052675626], [79.11960838979284, 14.417294123160348], [79.11853674107842, 14.418663266435551], [79.11605450786742, 14.419676725757943], [79.1135519636565, 14.423100933248259], [79.11035711129652, 14.424797463371826], [79.10892908836186, 14.426508115580901], [79.10958352239201, 14.432712903376029], [79.10850300478045, 14.435115169033198], [79.10565258785587, 14.437847627775326], [79.10105849585115, 14.437810662206656], [79.0975011713216, 14.440537310441284], [79.09747774989432, 14.44329245389234], [79.10203688811859, 14.44746222791707], [79.10308250626878, 14.449192736883964], [79.10306790225809, 14.450914705955624], [79.100564766246, 14.454338700184103], [79.10053843297878, 14.457438238430063], [79.0998198789405, 14.458810106065599], [79.09518427834112, 14.463594460975568], [79.08917596749988, 14.463545751924531], [79.08851034735649, 14.458718543548715], [79.08464632008025, 14.455931824486251], [79.08146557549362, 14.455905927456945], [79.07861457249282, 14.458637981265241], [79.0757486726159, 14.463091931061276], [79.07356278363092, 14.470651104881101], [79.07349443821151, 14.478572008978453], [79.07451913294095, 14.482713341223413], [79.07903400182212, 14.492049410741672], [79.08322830252068, 14.497594275075066], [79.08425914669127, 14.501046814487761], [79.09168240659939, 14.501107270036174]], [[79.10778236474202, 14.478506052508033], [79.0979882723005, 14.466372468762547], [79.09836222689503, 14.463964578573128], [79.10228800167039, 14.459518849821215], [79.10267942598907, 14.45504458307431], [79.10518545963282, 14.451276169365038], [79.10451073640817, 14.44748214630713], [79.10065249862666, 14.444006899811825], [79.09996616549743, 14.441590447453178], [79.10210115022434, 14.439885564343731], [79.10598849637164, 14.439916835925041], [79.10990493010497, 14.436504088263327], [79.11134173421651, 14.433760250584248], [79.11104643599288, 14.426869500027626], [79.11459758771622, 14.42483139146182], [79.11781266156252, 14.420724017036177], [79.12136366014128, 14.418685786270025], [79.12348673545652, 14.41835825515644], [79.1270549130579, 14.414253530210646], [79.1365927816767, 14.41467343380638], [79.13872724697175, 14.412968150468943], [79.13912060725892, 14.408149306453833], [79.14163400709016, 14.403347145188032], [79.14096439812205, 14.398864349146125], [79.14205006177892, 14.395773058485927], [79.14525850810378, 14.392353997404038], [79.14597937893471, 14.390637520573161], [79.15024765306637, 14.38722668231903], [79.15097130005636, 14.385165777865074], [79.1545327675859, 14.381749314939738], [79.15807437512564, 14.380743631566228], [79.16235354441478, 14.375954897349768], [79.1648379317308, 14.374596456604806], [79.16695776052973, 14.37461288460146], [79.16942248721557, 14.375665253777271], [79.17401548663544, 14.375700737440555], [79.17827192841258, 14.37366694798043], [79.18393039204794, 14.373021566532813], [79.1903093055087, 14.370659383467514], [79.19208966191475, 14.368950813331471], [79.19316892481703, 14.366548007844425], [79.19708003386083, 14.36347789825793], [79.19780868005427, 14.36072795712018], [79.19959165253843, 14.358674898072618], [79.20140484644712, 14.35283324806043], [79.2010873199312, 14.34835316105873], [79.20464198034375, 14.34562460883829], [79.20643024118219, 14.342882640578958], [79.2121125031989, 14.339136720971059], [79.2145798581866, 14.33984418364353], [79.2163270841766, 14.342268405215997], [79.21631618313386, 14.343646080932048], [79.21488948053619, 14.34535754120537], [79.21487584001017, 14.347079634022604], [79.22192769041926, 14.348854826421215], [79.22438976278012, 14.350251042695147], [79.22649045246912, 14.35267785529125], [79.22647418131172, 14.354744378442943], [79.22397402267536, 14.358170057188804], [79.22395772193701, 14.360236576556028], [79.22536003694056, 14.361624847822613], [79.22712651806727, 14.361638075853667], [79.22783853359046, 14.36095452226473], [79.22857764108792, 14.356826758254735], [79.23107501332747, 14.353745442170375], [79.23565962775766, 14.354812945199054], [79.2377685732428, 14.35620640811683], [79.24554096882271, 14.356264084706256], [79.25582379110384, 14.351517760372639], [79.25938592342263, 14.347755036973863], [79.26291873468011, 14.34778094803672], [79.2600632281805, 14.351548919002798], [79.25368004514114, 14.354601983055714], [79.25082162157594, 14.358714238254102], [79.24692732115282, 14.359718786095566], [79.24443544204013, 14.36211143787144], [79.24015813925386, 14.36690189591885], [79.23728850945314, 14.37239162602233], [79.23233127643965, 14.37373242375574], [79.22982281919103, 14.37819140655208], [79.22770016818032, 14.378519957632953], [79.22202521854406, 14.381232898078107], [79.22023949904218, 14.383630543979208], [79.21846739168946, 14.384306081008965], [79.21597494168992, 14.386698362399358], [79.21488483989421, 14.39047895436614], [79.21133225226107, 14.392863166324654], [79.20917649439781, 14.397324524691667], [79.20454715494385, 14.401767067894598], [79.20417175341136, 14.404519701466409], [79.20521530364326, 14.4065942481922], [79.20098047766768, 14.405873159950803], [79.19885201990344, 14.406890243663849], [79.19065803820897, 14.415094015589025], [79.19028242650582, 14.417846601697953], [79.1863869184989, 14.418849997799452], [79.18246904091616, 14.422608607186294], [79.18174550771195, 14.424669621954413], [79.17960840045116, 14.426719728149626], [79.17744883594379, 14.431525082034723], [79.1792046202159, 14.43291636899017], [79.18132221989755, 14.43327714264648], [79.18271346053768, 14.436043320700021], [79.18657581048244, 14.439172950126222], [79.18974258140824, 14.440919455278916], [79.19362457960045, 14.4416381074252], [79.19219700649347, 14.443349324853296], [79.19218031152228, 14.445415793290849], [79.19528330002666, 14.455083709111602], [79.19526661942196, 14.457150179026852], [79.19350220018016, 14.456792214639574], [79.1906941941718, 14.45435962711616], [79.18895769871611, 14.450557526213402], [79.18649765930915, 14.44881643956756], [79.18582152905607, 14.44502248543418], [79.1840795851103, 14.441909183719133], [79.18021443277502, 14.439123921884237], [79.1784473876619, 14.43911027249806], [79.17351653089848, 14.437005535786364], [79.16431674198253, 14.438311788696982], [79.15619128844132, 14.437903942755028], [79.15550150805116, 14.435831985724459], [79.15799513554005, 14.433440491915398], [79.15943985259032, 14.42966307069358], [79.15839383900263, 14.427932767793173], [79.15557241437601, 14.427221867851204], [79.14883818143285, 14.429580094966662], [79.14244579157325, 14.43331850487228], [79.1395957626679, 14.436051427450794], [79.13494135718673, 14.443247537107665], [79.13209398149965, 14.445635940852885], [79.12996776650436, 14.446307918396071], [79.12782712974409, 14.448701869188229], [79.12745641676517, 14.450765452086957], [79.1288412692327, 14.45422067593306], [79.12950489254789, 14.45939227488068], [79.1273814220487, 14.459719813261254], [79.12489295871963, 14.461422107934697], [79.12237551754433, 14.466568343790351], [79.11309587163733, 14.477171083043647], [79.10954965015765, 14.478520269289874], [79.10778236474202, 14.478506052508033]], [[79.22609105275731, 14.358530358228451], [79.22644163122114, 14.358877423613054], [79.22608833931403, 14.358874778535492], [79.22609105275731, 14.358530358228451]], [[79.26830791971584, 14.33610914376088], [79.26899858623925, 14.33818087273411], [79.26793349267683, 14.338861994445024], [79.26759874579272, 14.336448414557335], [79.26830791971584, 14.33610914376088]]], [[[79.16406497751183, 14.425910407786352], [79.17153947054312, 14.419424294141749], [79.17721030464637, 14.41740157716735], [79.18113095110857, 14.413298643037221], [79.18752499546424, 14.409214623169975], [79.1918014456058, 14.40476976884428], [79.1935959537547, 14.401339157895203], [79.20035935382226, 14.395190935029845], [79.20251800731634, 14.390385259351163], [79.20537496598627, 14.386618161406608], [79.20610362349032, 14.383868196737547], [79.2078867372481, 14.381815091508184], [79.20863180618669, 14.376998613915202], [79.21042031813819, 14.374256645704682], [79.21045045920157, 14.370468059077218], [79.20975206725873, 14.369429465785132], [79.20692837218418, 14.36906365963659], [79.1977038576287, 14.373815716096104], [79.1938091562119, 14.374819331206476], [79.19131659298999, 14.377211336216583], [79.18773348234805, 14.383383728069965], [79.18559686307732, 14.385433947767265], [79.18487351949233, 14.387494995685973], [79.17988785838135, 14.392278724190904], [79.17915326450594, 14.39571738614832], [79.1769968685823, 14.400178371977933], [79.17377751451805, 14.404975542421914], [79.16950355327472, 14.409075619646764], [79.16625573513859, 14.41731672311468], [79.16234888529108, 14.419697336501077], [79.1598526422209, 14.422433308485047], [79.15983850249086, 14.424155337448482], [79.16229805261271, 14.425896649688905], [79.16406497751183, 14.425910407786352]], [[79.16232629597687, 14.422452587229778], [79.16375392208845, 14.420741559031896], [79.16587982135755, 14.420069234226732], [79.1676607794937, 14.418360922958373], [79.17126754526589, 14.40943371658414], [79.17554148585486, 14.405333604538175], [79.17876081125951, 14.400536406344777], [79.18165174780628, 14.392636730438365], [79.1862812749241, 14.38819466354165], [79.18700460916587, 14.386133610179813], [79.18914122459783, 14.384083377146945], [79.19272431271501, 14.37791096108665], [79.19557018350213, 14.375521634679803], [79.19804612956374, 14.375196064446936], [79.2065613404129, 14.370783065142055], [79.20832787525593, 14.370796441657038], [79.20902352139882, 14.372179455479042], [79.20865375409913, 14.374243281653573], [79.20722128487739, 14.376643494827066], [79.20683775388592, 14.380429395065534], [79.20433698814334, 14.383854791718814], [79.20360555631086, 14.386949163695673], [79.20146626923305, 14.38934395401355], [79.19930760713767, 14.394149619031687], [79.19254421682659, 14.400297812591413], [79.18896625054786, 14.405781348698902], [79.18469530289947, 14.409537320517458], [79.18114770912774, 14.411232181678633], [79.17687093248253, 14.4156768014646], [79.17013439918769, 14.418380114572823], [79.16478867212791, 14.423849467101745], [79.16231499952741, 14.423830212340333], [79.16232629597687, 14.422452587229778]]]]}}, {"type": "Feature", "properties": {"depth_class": 2, "depth_lo_m": 1.0, "t_s": 80100.27316766967}, "geometry": {"type": "MultiPolygon", "coordinates": [[[[79.02027459039152, 14.219826087145787], [79.02065159775512, 14.21707394186038], [79.01960750057071, 14.215343252802397], [79.01819839683871, 14.214987168333762], [79.01610126561869, 14.2125589214722], [79.01291806577964, 14.213221304854397], [79.01254398765876, 14.215629045399083], [79.01324101536012, 14.216668060368143], [79.01641525626744, 14.217038827487833], [79.01815339219868, 14.220152915754356], [79.02027459039152, 14.219826087145787]], [[79.01430610767282, 14.21598809505003], [79.013974124304, 14.213574486052321], [79.01644227872582, 14.213939381788796], [79.0164272670522, 14.215661296171254], [79.01430610767282, 14.21598809505003]]], [[[79.15890271052439, 14.235744762761133], [79.1582244551067, 14.232295207249601], [79.1561087649173, 14.231934450296858], [79.156100381072, 14.232967682060588], [79.15890271052439, 14.235744762761133]]], [[[79.08152913049344, 14.240990763783339], [79.0847533076638, 14.235505943341071], [79.08476782352267, 14.233783961502166], [79.0840674948359, 14.23308950458502], [79.08159311890579, 14.233414059554859], [79.07911000429254, 14.234771773679837], [79.07768315945009, 14.236482383125871], [79.07800125995254, 14.240617964216305], [79.07870158792157, 14.241312439113432], [79.08152913049344, 14.240990763783339]], [[79.0794456043216, 14.23684098520907], [79.0815669463746, 14.236513620989646], [79.08048735883516, 14.238915875745315], [79.07943104488227, 14.238562961220072], [79.0794456043216, 14.23684098520907]]], [[[79.03450175466527, 14.248529588185537], [79.034166569858, 14.24646036522745], [79.03310435377429, 14.246796021339028], [79.03344251277102, 14.248520859106744], [79.03450175466527, 14.248529588185537]]], [[[79.02628804568184, 14.259138443746428], [79.02630303036523, 14.257416525317973], [79.02383138253299, 14.257396052775857], [79.02416947409795, 14.259120895213629], [79.02628804568184, 14.259138443746428]]], [[[79.2056661606867, 14.30567754065602], [79.20603303231809, 14.303958116044546], [79.20497889601857, 14.303261282138413], [79.20391108492419, 14.304286532920559], [79.20390013832682, 14.305664203647591], [79.2056661606867, 14.30567754065602]]], [[[79.26899858623925, 14.33818087273411], [79.26865853992238, 14.336456150728095], [79.26795465554478, 14.336106565101812], [79.26793349267683, 14.338861994445024], [79.26899858623925, 14.33818087273411]]], [[[79.10778236474202, 14.478506052508033], [79.11309587163733, 14.477171083043647], [79.11595549020218, 14.473405405506709], [79.11951609965655, 14.470334125157652], [79.12095306372497, 14.46759024828597], [79.12237551754433, 14.466568343790351], [79.12489295871963, 14.461422107934697], [79.1273814220487, 14.459719813261254], [79.12950489254789, 14.45939227488068], [79.1288412692327, 14.45422067593306], [79.12745641676517, 14.450765452086957], [79.12818630724078, 14.448015880102217], [79.13494135718673, 14.443247537107665], [79.13673706401386, 14.439817509047554], [79.14244579157325, 14.43331850487228], [79.14883818143285, 14.429580094966662], [79.1541560352871, 14.427555215143565], [79.15698595714095, 14.427232916666009], [79.15874439564503, 14.428279932136137], [79.15943985259032, 14.42966307069358], [79.15799513554005, 14.433440491915398], [79.15550150805116, 14.435831985724459], [79.15619128844132, 14.437903942755028], [79.16431674198253, 14.438311788696982], [79.17351653089848, 14.437005535786364], [79.1784473876619, 14.43911027249806], [79.18021443277502, 14.439123921884237], [79.1840795851103, 14.441909183719133], [79.18582152905607, 14.44502248543418], [79.18649765930915, 14.44881643956756], [79.18895769871611, 14.450557526213402], [79.1906941941718, 14.45435962711616], [79.19350220018016, 14.456792214639574], [79.19526661942196, 14.457150179026852], [79.19528330002666, 14.455083709111602], [79.19218031152228, 14.445415793290849], [79.19219700649347, 14.443349324853296], [79.19362457960045, 14.4416381074252], [79.18974258140824, 14.440919455278916], [79.18657581048244, 14.439172950126222], [79.18271346053768, 14.436043320700021], [79.18132221989755, 14.43327714264648], [79.1792046202159, 14.43291636899017], [79.17744883594379, 14.431525082034723], [79.17960840045116, 14.426719728149626], [79.18174550771195, 14.424669621954413], [79.18246904091616, 14.422608607186294], [79.1863869184989, 14.418849997799452], [79.19028242650582, 14.417846601697953], [79.19065803820897, 14.415094015589025], [79.19885201990344, 14.406890243663849], [79.20098047766768, 14.405873159950803], [79.20521530364326, 14.4065942481922], [79.20417175341136, 14.404519701466409], [79.20454715494385, 14.401767067894598], [79.20917649439781, 14.397324524691667], [79.21133225226107, 14.392863166324654], [79.21488483989421, 14.39047895436614], [79.21597494168992, 14.386698362399358], [79.21846739168946, 14.384306081008965], [79.22023949904218, 14.383630543979208], [79.22202521854406, 14.381232898078107], [79.22770016818032, 14.378519957632953], [79.22982281919103, 14.37819140655208], [79.23233127643965, 14.37373242375574], [79.23728850945314, 14.37239162602233], [79.24015813925386, 14.36690189591885], [79.24443544204013, 14.36211143787144], [79.24692732115282, 14.359718786095566], [79.25082162157594, 14.358714238254102], [79.25368004514114, 14.354601983055714], [79.2600632281805, 14.351548919002798], [79.26291873468011, 14.34778094803672], [79.25938592342263, 14.347755036973863], [79.25582379110384, 14.351517760372639], [79.24554096882271, 14.356264084706256], [79.2377685732428, 14.35620640811683], [79.23565962775766, 14.354812945199054], [79.23107501332747, 14.353745442170375], [79.22857764108792, 14.356826758254735], [79.22783853359046, 14.36095452226473], [79.22712651806727, 14.361638075853667], [79.22536003694056, 14.361624847822613], [79.22395772193701, 14.360236576556028], [79.22397402267536, 14.358170057188804], [79.22647418131172, 14.354744378442943], [79.22649045246912, 14.35267785529125], [79.22438976278012, 14.350251042695147], [79.22192769041926, 14.348854826421215], [79.21487584001017, 14.347079634022604], [79.21488948053619, 14.34535754120537], [79.21631618313386, 14.343646080932048], [79.2163270841766, 14.342268405215997], [79.2145798581866, 14.33984418364353], [79.2121125031989, 14.339136720971059], [79.20643024118219, 14.342882640578958], [79.20464198034375, 14.34562460883829], [79.2010873199312, 14.34835316105873], [79.20140484644712, 14.35283324806043], [79.19959165253843, 14.358674898072618], [79.19780868005427, 14.36072795712018], [79.19708003386083, 14.36347789825793], [79.19316892481703, 14.366548007844425], [79.19208966191475, 14.368950813331471], [79.1903093055087, 14.370659383467514], [79.18393039204794, 14.373021566532813], [79.17827192841258, 14.37366694798043], [79.17401548663544, 14.375700737440555], [79.16942248721557, 14.375665253777271], [79.16695776052973, 14.37461288460146], [79.1648379317308, 14.374596456604806], [79.16235354441478, 14.375954897349768], [79.15807437512564, 14.380743631566228], [79.1545327675859, 14.381749314939738], [79.15097130005636, 14.385165777865074], [79.15024765306637, 14.38722668231903], [79.14597937893471, 14.390637520573161], [79.14525850810378, 14.392353997404038], [79.14205006177892, 14.395773058485927], [79.14096439812205, 14.398864349146125], [79.14163400709016, 14.403347145188032], [79.13912060725892, 14.408149306453833], [79.13872724697175, 14.412968150468943], [79.1365927816767, 14.41467343380638], [79.1270549130579, 14.414253530210646], [79.12348673545652, 14.41835825515644], [79.12136366014128, 14.418685786270025], [79.11781266156252, 14.420724017036177], [79.11459758771622, 14.42483139146182], [79.11104643599288, 14.426869500027626], [79.11134173421651, 14.433760250584248], [79.10990493010497, 14.436504088263327], [79.10598849637164, 14.439916835925041], [79.10210115022434, 14.439885564343731], [79.09996616549743, 14.441590447453178], [79.10065249862666, 14.444006899811825], [79.10451073640817, 14.44748214630713], [79.10518545963282, 14.451276169365038], [79.10267942598907, 14.45504458307431], [79.10228800167039, 14.459518849821215], [79.09836222689503, 14.463964578573128], [79.0979882723005, 14.466372468762547], [79.10427704571337, 14.475033646420034], [79.10778236474202, 14.478506052508033]], [[79.16229805261271, 14.425896649688905], [79.15983850249086, 14.424155337448482], [79.16021167538864, 14.421747252380573], [79.16625573513859, 14.41731672311468], [79.16950355327472, 14.409075619646764], [79.17377751451805, 14.404975542421914], [79.1769968685823, 14.400178371977933], [79.17915326450594, 14.39571738614832], [79.17988785838135, 14.392278724190904], [79.18487351949233, 14.387494995685973], [79.18559686307732, 14.385433947767265], [79.18773348234805, 14.383383728069965], [79.19131659298999, 14.377211336216583], [79.1938091562119, 14.374819331206476], [79.1977038576287, 14.373815716096104], [79.20692837218418, 14.36906365963659], [79.20975206725873, 14.369429465785132], [79.21045045920157, 14.370468059077218], [79.21042031813819, 14.374256645704682], [79.20863180618669, 14.376998613915202], [79.2078867372481, 14.381815091508184], [79.20610362349032, 14.383868196737547], [79.20537496598627, 14.386618161406608], [79.20251800731634, 14.390385259351163], [79.20035935382226, 14.395190935029845], [79.1935959537547, 14.401339157895203], [79.1918014456058, 14.40476976884428], [79.18823728546094, 14.40853122293098], [79.18113095110857, 14.413298643037221], [79.17721030464637, 14.41740157716735], [79.17153947054312, 14.419424294141749], [79.16583754269811, 14.425235338890987], [79.16406497751183, 14.425910407786352], [79.16229805261271, 14.425896649688905]], [[79.16148068727034, 14.396269434466804], [79.1611724670315, 14.390756174970933], [79.16188757985529, 14.38972844860112], [79.1636542196226, 14.389742176042896], [79.16435243321816, 14.390780886214312], [79.16432710069114, 14.39388055430214], [79.16253788319776, 14.396622085095585], [79.16148068727034, 14.396269434466804]], [[79.22811047654756, 14.371289779436346], [79.22706139887426, 14.36990416281463], [79.22708582343066, 14.366804380913027], [79.23028723382718, 14.364072799964397], [79.23136608010978, 14.361669769444436], [79.2313904308217, 14.358569978150388], [79.23210242410597, 14.357886408972597], [79.23422217424243, 14.357902216686716], [79.236684430467, 14.359298324234791], [79.24162787154694, 14.359679510525421], [79.24161980160476, 14.360712780006006], [79.23913594324218, 14.362072100166856], [79.23841586756149, 14.363788958622518], [79.2359238583885, 14.366181504575637], [79.23448361418883, 14.369615188528543], [79.23165442670589, 14.369938514698344], [79.22917041209857, 14.37129771074585], [79.22811047654756, 14.371289779436346]]]]}}, {"type": "Feature", "properties": {"depth_class": 3, "depth_lo_m": 2.0, "t_s": 80100.27316766967}, "geometry": {"type": "MultiPolygon", "coordinates": [[[[79.01360606965545, 14.215293465045868], [79.0164272670522, 14.215661296171254], [79.01644227872582, 14.213939381788796], [79.013974124304, 14.213574486052321], [79.01360606965545, 14.215293465045868]]], [[[79.08049026935277, 14.238571480360143], [79.0815582207986, 14.237546807945652], [79.0815669463746, 14.236513620989646], [79.0794456043216, 14.23684098520907], [79.07943104488227, 14.238562961220072], [79.08049026935277, 14.238571480360143]]], [[[79.22811047654756, 14.371289779436346], [79.23448361418883, 14.369615188528543], [79.2359238583885, 14.366181504575637], [79.23841586756149, 14.363788958622518], [79.23913594324218, 14.362072100166856], [79.24161980160476, 14.360712780006006], [79.24162787154694, 14.359679510525421], [79.236684430467, 14.359298324234791], [79.23422217424243, 14.357902216686716], [79.23210242410597, 14.357886408972597], [79.2313904308217, 14.358569978150388], [79.23136608010978, 14.361669769444436], [79.23028723382718, 14.364072799964397], [79.22708582343066, 14.366804380913027], [79.22706139887426, 14.36990416281463], [79.22811047654756, 14.371289779436346]]]]}}]}