{"type": "FeatureCollection", "features": [{"type": "Feature", "properties": {"depth_class": 1, "depth_lo_m": 0.3, "t_s": 1800.2429069436666}, "geometry": {"type": "MultiPolygon", "coordinates": [[[[79.20884237636692, 14.394910935070957], [79.21488483989421, 14.39047895436614], [79.21597220719468, 14.387042779988935], [79.21988071360266, 14.384316722000577], [79.22131039041332, 14.382260842384005], [79.23052675463228, 14.378541112555718], [79.23303249767433, 14.374426542421599], [79.23728041213398, 14.373424891976827], [79.23906047894525, 14.371715930074778], [79.24050606031868, 14.367593366952752], [79.24691659347567, 14.361096482640022], [79.25187616275191, 14.359410911388478], [79.25473457892834, 14.355298642511858], [79.25969663724193, 14.35326845896816], [79.26396796526923, 14.349166421592038], [79.26538375271146, 14.348832338153372], [79.26716606281738, 14.34677868718185], [79.2682550148896, 14.342997717154116], [79.2700346060612, 14.341288464448589], [79.27041694043392, 14.337502321242932], [79.26972890393624, 14.335086165999732], [79.2672719399603, 14.333001548558062], [79.26619363114634, 14.335404807130947], [79.26615655742046, 14.340226803816138], [79.2647302222393, 14.341938610200957], [79.26400245717905, 14.344688861887402], [79.26293731807804, 14.345369955634887], [79.2604696923364, 14.344662972425633], [79.2552505138019, 14.33429125145314], [79.25349755336214, 14.332556126677575], [79.25390411350742, 14.325670199675441], [79.25146341332508, 14.32151888844619], [79.24908419576894, 14.309445765434564], [79.24069005881158, 14.298705997220182], [79.23860036155311, 14.294901642121193], [79.23190852779545, 14.292440895018686], [79.22664039128671, 14.288612818902761], [79.22489879228895, 14.285499853651745], [79.21890021560456, 14.284766159793742], [79.21503973816404, 14.28163727525273], [79.211165767369, 14.280230438696712], [79.20906311468946, 14.278147993078894], [79.20343164882311, 14.275694500718465], [79.20203268712838, 14.273961749801545], [79.19816442637493, 14.271865890414393], [79.19431819408226, 14.267014640941147], [79.19255797681058, 14.266312421873215], [79.18905133432163, 14.263185868288438], [79.18627032866361, 14.257653738290067], [79.18134866153773, 14.254860764110713], [79.17959963916805, 14.252780806370788], [79.17608231339389, 14.25103176051613], [79.17328235483811, 14.247910423720418], [79.1704658187216, 14.246855540408271], [79.16766043112094, 14.244422977012334], [79.16271980111476, 14.244040558368194], [79.16198850570575, 14.24713482277384], [79.15951118873208, 14.247804591367622], [79.15879100890615, 14.24952119589667], [79.15984754047345, 14.249873780008507], [79.16268077644649, 14.248862318902384], [79.16549450455281, 14.250261704560797], [79.16761316819431, 14.250277987763093], [79.17115260622425, 14.249271845657153], [79.17255395373319, 14.250660322079266], [79.17324077066927, 14.253076624616202], [79.17711952038147, 14.253795170557812], [79.17957753181166, 14.255536122415624], [79.17671103489427, 14.26068074878674], [79.1738860067263, 14.260659125943171], [79.17002105388907, 14.258218452383684], [79.16614505172907, 14.257155372995479], [79.16544716556965, 14.25611670532603], [79.16438780745392, 14.256108553193021], [79.16225235131213, 14.25815870127163], [79.15871833884063, 14.258475868461039], [79.15802048615211, 14.257437182746576], [79.16015876128078, 14.25504266553094], [79.16228025302142, 14.254714590321742], [79.16439338107347, 14.255419730140476], [79.16510797426082, 14.25439193007735], [79.16441845867911, 14.252320025886231], [79.16088732868086, 14.252292825691747], [79.15913573601422, 14.250557152865706], [79.1418108945421, 14.25317826416851], [79.13897189037411, 14.254878272326925], [79.13472888526864, 14.255533979616468], [79.13261871670754, 14.254484182472467], [79.11567236700132, 14.254006464757767], [79.11321208149525, 14.252609316711524], [79.11074322635515, 14.252245350137677], [79.10406594351173, 14.248403718404212], [79.09313739162525, 14.24625009644638], [79.08748506808163, 14.246549278712138], [79.08220329193121, 14.244784790253933], [79.07477976341383, 14.245758267550357], [79.06838907826256, 14.24983961703069], [79.06133317894384, 14.24909354963944], [79.05283546700387, 14.25177965078831], [79.05038159366687, 14.249693127655481], [79.04404980248988, 14.246886000224263], [79.04477672627256, 14.244481072944408], [79.04409727259785, 14.241375795733445], [79.0426879549158, 14.241019830810998], [79.04055764476615, 14.24237999808948], [79.03914535549544, 14.242368399009699], [79.03774497129747, 14.240979245419581], [79.03597962377928, 14.240964725866148], [79.02992366823341, 14.247114189297], [79.02991171163829, 14.248491728262412], [79.03166516403404, 14.249883840469908], [79.03200032638377, 14.25195306410504], [79.03339774441557, 14.253686639718746], [79.03302375413695, 14.256094424178862], [79.02378636627002, 14.262561799549031], [79.02024033109788, 14.264254409016086], [79.01493777641797, 14.264899114944043], [79.01351329715114, 14.266264869365592], [79.01138863265365, 14.266935959380636], [79.00963823117316, 14.265199318865623], [79.00681947872567, 14.264486950800165], [79.00684067184835, 14.262076294541147], [79.010770043827, 14.25694303531344], [79.01258074253687, 14.251792043499023], [79.0119047503307, 14.248342349361659], [79.00769203010148, 14.245551963243225], [78.9978060911915, 14.24546921560785], [78.99675600366385, 14.244427191932099], [78.99713337264511, 14.241675131586643], [78.9999851676142, 14.238599409112508], [79.00353996542633, 14.235873926452346], [79.01275555384487, 14.231817927484423], [79.01560401391428, 14.229086354471365], [79.02062462642395, 14.22017339467386], [79.02104057200701, 14.21294425871359], [79.01999349011145, 14.211557956589925], [79.01470119969657, 14.21116967139719], [79.01150899061135, 14.21286518394602], [79.01109876768066, 14.219405500745733], [79.00894138914894, 14.223864819949856], [79.00609595445626, 14.226251932300501], [79.00255950611927, 14.226911201293776], [79.00042005921523, 14.229304135152567], [78.99758661076908, 14.230313610522908], [78.9911770190069, 14.236459035885545], [78.98938127211002, 14.239887941705625], [78.98932637937901, 14.24608671612155], [78.990017266688, 14.247814547488968], [78.99281746412977, 14.250593342705212], [78.99738921000703, 14.252698188461716], [79.0023323276542, 14.252739642594127], [79.0033976300056, 14.25205975420354], [79.00515697343542, 14.252763284743247], [79.00478572095969, 14.254826607163611], [79.0019367827355, 14.257557986405274], [78.99870428838649, 14.263730136004016], [78.99867084318706, 14.26751829049742], [79.00040900979633, 14.270632514394705], [79.0025155145982, 14.27202780131377], [79.01133725595118, 14.272790423267189], [79.01381810973369, 14.271777905012762], [79.01805546567368, 14.271813197791813], [79.02089240795766, 14.270459155755322], [79.02513576005187, 14.269805553364264], [79.03081548266964, 14.266408475640048], [79.03224286201565, 14.264698219663943], [79.03507666272205, 14.263688370803433], [79.03793130201197, 14.260267782843856], [79.04077395361416, 14.258224695575132], [79.04185108409828, 14.256167076247685], [79.04433758999588, 14.254465422798447], [79.04715640005404, 14.255177346618932], [79.0499515456376, 14.258644348248227], [79.05240845809624, 14.260386497138095], [79.05699290187968, 14.261112734871412], [79.05910269023353, 14.262163165297265], [79.06510258446998, 14.262556359851265], [79.06723298241947, 14.261195980735076], [79.06795973586523, 14.258790960070648], [79.07008129046075, 14.258463726527424], [79.07540123222978, 14.255751390519249], [79.08635610353923, 14.25480629560897], [79.08989582011804, 14.253801413144846], [79.10081025878083, 14.257677218652479], [79.10465992145294, 14.26184092119642], [79.10995093034657, 14.262571778871566], [79.1134649232151, 14.264666160358253], [79.12299925374666, 14.264741439797268], [79.12830750126832, 14.263405480227268], [79.15019848599927, 14.263920807954607], [79.15371855638449, 14.265325824953996], [79.16290000017572, 14.265396776099056], [79.17626923973482, 14.271699280686693], [79.18191958341107, 14.271742469148661], [79.18650223182767, 14.27281070715048], [79.19001997432966, 14.27455964574096], [79.19563202182118, 14.27942435345167], [79.20196159638188, 14.282916620033967], [79.20545779003089, 14.287420709401173], [79.20932638107945, 14.289516486650173], [79.21107594554323, 14.291596285420361], [79.21740884063746, 14.294743784718877], [79.22305177084698, 14.29581932910877], [79.22832268843811, 14.29930307246526], [79.23149609584094, 14.300015578917685], [79.23429480738123, 14.303480810717287], [79.23850645365442, 14.3069564928057], [79.24059623627906, 14.310760857650749], [79.24198231313166, 14.314215560023023], [79.24225510854686, 14.324550907439628], [79.2379489841094, 14.333130073108165], [79.23581060609652, 14.335525285156486], [79.2336452006004, 14.341364694998461], [79.23290086804533, 14.34618134031007], [79.23037926702897, 14.352362482058878], [79.22788190377867, 14.355443791815897], [79.2271373672351, 14.360260394105586], [79.22642535228772, 14.360943945631375], [79.22501217213708, 14.36093336057749], [79.22360986332275, 14.359545087915622], [79.22362344942917, 14.357822988695068], [79.22576489733021, 14.35508350970407], [79.2261344580557, 14.353019631888541], [79.22262609060678, 14.349893384624291], [79.21626166054457, 14.350534456994193], [79.21379691557976, 14.34948258000985], [79.21167180079625, 14.350155434488556], [79.20491017644315, 14.356304196499062], [79.20276573501651, 14.359387871805586], [79.20167835854527, 14.362823985198117], [79.20199037788473, 14.367992900974075], [79.20304203084741, 14.369034194430832], [79.20622725564269, 14.368369474514546], [79.20834433201168, 14.368729941788763], [79.21009441191777, 14.370809805006042], [79.21006974618533, 14.373909557101118], [79.20827025598491, 14.378029188215018], [79.20788948309158, 14.381470675293071], [79.2057475466777, 14.384209932528655], [79.20501062910427, 14.38799314189536], [79.20357801804148, 14.390393315667012], [79.20426266501097, 14.39315400579702], [79.2070756515507, 14.394897540454748], [79.20884237636692, 14.394910935070957]], [[79.22771917059382, 14.376109017141143], [79.22453930039285, 14.376085181704687], [79.22349566884121, 14.37401071100429], [79.22282441228344, 14.369527955013929], [79.2242512358661, 14.367816460957112], [79.22497958057846, 14.365066400307478], [79.22746354183678, 14.363707242584418], [79.22889300099344, 14.361651290726968], [79.2289200947652, 14.35820708274111], [79.23071631766538, 14.354431647535527], [79.23319202167622, 14.354105676386576], [79.23811647394571, 14.356897880533381], [79.24129609649967, 14.356921502725159], [79.24270388842638, 14.357620834688895], [79.24588352904485, 14.35764439649887], [79.24978850178512, 14.355262162935777], [79.25190824742924, 14.355277809666088], [79.25154158623926, 14.356997328768342], [79.25047367746389, 14.358022779847989], [79.24693536616337, 14.358685513577129], [79.24372884127274, 14.362106199686641], [79.24053298810692, 14.364149139047633], [79.23803560078153, 14.367230553935483], [79.23658997905464, 14.371353097187939], [79.23127945269283, 14.372691242715335], [79.22913787240039, 14.375430756206917], [79.22771917059382, 14.376109017141143]], [[79.24519572833522, 14.355228196714581], [79.24060565745332, 14.354849718464033], [79.2395538687808, 14.353808578323163], [79.24174615689084, 14.344524880635793], [79.24390603684408, 14.339374226162445], [79.24461524772516, 14.339035031389749], [79.24571790648822, 14.333532077846701], [79.24785884327555, 14.330792336760295], [79.24892127274396, 14.330455732694313], [79.24994629369694, 14.334941080592795], [79.25168588911734, 14.338398358694299], [79.25728222066583, 14.345672906435075], [79.25726357637649, 14.348083891503972], [79.25512522191451, 14.350479282135332], [79.24909263035987, 14.35387924432647], [79.24519572833522, 14.355228196714581]], [[79.25724226437279, 14.35083930238299], [79.25973920423066, 14.347757630446326], [79.26185623389073, 14.348117607488856], [79.25971260198203, 14.351201898586627], [79.25723427120413, 14.35187258128982], [79.25724226437279, 14.35083930238299]], [[79.21813963440738, 14.291649290637956], [79.22133184043005, 14.289950967762671], [79.2217039680472, 14.287542656933242], [79.22347527286422, 14.28686700158749], [79.22486367535456, 14.289977341391207], [79.22767835800023, 14.291376092890715], [79.2294281200129, 14.293455777554211], [79.23717953319274, 14.295924449585913], [79.2480085162927, 14.311504510974869], [79.24797646226959, 14.315637619261016], [79.25005046109585, 14.321508480734371], [79.24932796022455, 14.323569827807255], [79.24755373447414, 14.324590075072944], [79.24467957792658, 14.330768844494287], [79.24217998300746, 14.33419478401554], [79.2421558236358, 14.337294599743306], [79.24071590763982, 14.340728361481675], [79.23643360439364, 14.34620764309222], [79.23610189388395, 14.343449634563875], [79.24003625819064, 14.337278885075179], [79.24149763389417, 14.331089733676373], [79.24400255810923, 14.326974948644077], [79.24619694913589, 14.317346713995152], [79.24479473360157, 14.315958577898169], [79.24377521301375, 14.310784372452035], [79.24203054976645, 14.308015916280146], [79.23957414073607, 14.305931070062115], [79.23853060975883, 14.303856675280976], [79.23502004220136, 14.301075090768125], [79.2336260630214, 14.29865363599925], [79.2283415750704, 14.296892115099862], [79.22482854625473, 14.2944548273646], [79.21919105774386, 14.292690486170759], [79.21813963440738, 14.291649290637956]], [[79.21708279313904, 14.291296932646622], [79.21251044606078, 14.288851545352705], [79.20444470225839, 14.281557605514784], [79.20197800631266, 14.280850112146128], [79.19952228159988, 14.278764924632032], [79.19529807102185, 14.277010759291045], [79.19004748754121, 14.271115486051492], [79.18758647375326, 14.269719030408933], [79.18830652974819, 14.268002323255185], [79.18901831854856, 14.267318860248906], [79.19184070598031, 14.267684730093789], [79.19499979239441, 14.270119744984765], [79.19744442549958, 14.27358263421147], [79.2013127055127, 14.275678507672325], [79.20341525832399, 14.27776101115373], [79.20728912507292, 14.27916796360372], [79.21219807142239, 14.283682595415113], [79.21288538194052, 14.286098838892126], [79.21605039142085, 14.287844786509217], [79.21673775165911, 14.29026102430876], [79.21814505892702, 14.290960449106894], [79.21708279313904, 14.291296932646622]], [[79.25142339402132, 14.326685278799868], [79.2493119324847, 14.32563638150834], [79.24932261792873, 14.324258679082792], [79.25073558681429, 14.324269093079009], [79.25178464385333, 14.325654602314865], [79.25142339402132, 14.326685278799868]], [[79.01170548008118, 14.271071469890694], [79.00323387507156, 14.270656208368704], [79.00113041410829, 14.268916550645034], [79.00010148546811, 14.265463881718102], [79.00334307124406, 14.258258575680024], [79.00655416895388, 14.254496991726985], [79.0065723238866, 14.252430713573675], [79.00446898327444, 14.25069110154079], [79.00198834477975, 14.251703548687413], [78.99775140605661, 14.251668019254812], [78.99352970406487, 14.249910529594926], [78.99038253267427, 14.246440015985517], [78.99044044530159, 14.239896861047683], [78.99187703573311, 14.237153730065724], [78.99722142631313, 14.23168816392301], [79.00112008891357, 14.229998803422294], [79.00361257843512, 14.22760881393552], [79.00679599567393, 14.22694658512981], [79.00964143385498, 14.22455946474122], [79.01179880797584, 14.220100138525106], [79.01220600642452, 14.213904200440556], [79.01433916679575, 14.212199888053355], [79.01751335010138, 14.212570632834975], [79.01996052664111, 14.21534617680958], [79.01992755346873, 14.219134395756436], [79.01633414985122, 14.226337159470415], [79.01276458844276, 14.230784782588312], [79.00248383053973, 14.235520688318175], [78.99750465514653, 14.239611825232869], [78.99571808532747, 14.24200765396051], [78.99569376489445, 14.244762675490112], [78.996740809181, 14.246149081216922], [78.99885315233183, 14.246855614097932], [79.00697681885303, 14.24657920623979], [79.00943624322267, 14.247977360011808], [79.01118350994838, 14.250058367652207], [79.01116540013655, 14.252124652031192], [79.01009407521467, 14.2534933390204], [79.00936071174273, 14.256586868074063], [79.0065117961353, 14.259318305940399], [79.00471906733398, 14.262402948740876], [79.00468875729392, 14.265846738677377], [79.00573594172675, 14.267233122474702], [79.00960798965254, 14.26864311834556], [79.01278595342723, 14.268669645431382], [79.0163321028183, 14.266977163695614], [79.02128460780703, 14.265985118402629], [79.0283826661915, 14.261911045944036], [79.03620158719572, 14.256120616512336], [79.03940918886498, 14.252702901389114], [79.04121327544226, 14.248240376234103], [79.04053683999611, 14.244790707562487], [79.04196102586951, 14.243424750965545], [79.04266717482408, 14.243430543641121], [79.04265232952238, 14.245152481061199], [79.04194023440544, 14.245835462259516], [79.04192538097969, 14.247557398582284], [79.04262560298315, 14.248251967754213], [79.04896036826271, 14.250714746734158], [79.05105818722323, 14.253142788042933], [79.05352096535407, 14.25419614092115], [79.0556188657526, 14.256624151728639], [79.05737845684436, 14.257327321841135], [79.06055635350842, 14.257353191914302], [79.0637460155786, 14.256001453855525], [79.06835682993383, 14.253627935061708], [79.0715610378507, 14.250554113680561], [79.07297340531241, 14.250565527426314], [79.07331480114141, 14.251945953836707], [79.07472133442246, 14.252646145941913], [79.0747125673823, 14.253679327338054], [79.07400344950955, 14.254018019071633], [79.07223503612352, 14.25434814809089], [79.06974870223567, 14.256050119372487], [79.06621183547296, 14.256710294820229], [79.06264847793662, 14.2604699357076], [79.05947053366215, 14.260444087982068], [79.05736075811276, 14.259393662484092], [79.0538326925173, 14.259020474654692], [79.04752431320895, 14.253458296876707], [79.04435243262623, 14.252743484978422], [79.04151880181792, 14.253753467857301], [79.04008263854837, 14.256496958542272], [79.03687796561505, 14.25957029029078], [79.0315516022344, 14.262970464561192], [79.02941203378397, 14.265363647354768], [79.02657819496426, 14.266373422737875], [79.02444454695515, 14.268077783293894], [79.02055433676507, 14.268734311240948], [79.01700818107523, 14.270426856153653], [79.0127708537504, 14.270391548107732], [79.01170548008118, 14.271071469890694]], [[79.18299835590358, 14.269339649281136], [79.17876340644399, 14.268962881079705], [79.17876894162477, 14.268274053218052], [79.18089331768584, 14.267601409833471], [79.183006639492, 14.268306405065571], [79.18299835590358, 14.269339649281136]], [[79.17664732590721, 14.268602262597652], [79.16819700989207, 14.265437548763401], [79.16398171382846, 14.26264965038396], [79.15832326104379, 14.263639294205602], [79.15339628092806, 14.261534588189587], [79.14951190479415, 14.261504466638646], [79.1403532817707, 14.258677765277703], [79.13786731531113, 14.260380504123003], [79.13291796311319, 14.261030648222132], [79.13010152013047, 14.259975292028903], [79.12410421575872, 14.259239325477058], [79.12304771822163, 14.258886584632101], [79.1230534184792, 14.258197777942808], [79.12624282974275, 14.256845158485305], [79.12942368762874, 14.256525705575948], [79.13189547975857, 14.256545082761134], [79.1354124621876, 14.258294749165252], [79.13964986994282, 14.25832784916416], [79.14179114888127, 14.25558911429831], [79.14567822186116, 14.255274941453585], [79.14846940276725, 14.259429790956982], [79.15164188311421, 14.260143268811683], [79.15588216507682, 14.259831674886483], [79.1572862635419, 14.260875826550928], [79.16682067290668, 14.260949334416082], [79.16821927151179, 14.262682252553073], [79.17314645154995, 14.264786671270425], [79.17665286737117, 14.267913435529419], [79.17664732590721, 14.268602262597652]], [[79.11352222715429, 14.257778132981562], [79.1103499640945, 14.25706416614492], [79.10931072793117, 14.25464496397637], [79.11248868391198, 14.25467013751199], [79.11459015046859, 14.256753306858956], [79.11352222715429, 14.257778132981562]], [[79.05986488174291, 14.255625493308859], [79.05739910178262, 14.254916590612146], [79.05776399058554, 14.25354190542389], [79.06095655066302, 14.251845808626868], [79.06342525384241, 14.252210280348335], [79.06341643566408, 14.253243454873884], [79.06163625378854, 14.254951068575222], [79.05986488174291, 14.255625493308859]], [[79.1068303665928, 14.255658555968768], [79.10331657658516, 14.253564099958032], [79.09944398769797, 14.252155584374027], [79.09097540519592, 14.251399115014909], [79.08391057153143, 14.25168688798811], [79.08321019775698, 14.250992422942499], [79.08323346725614, 14.248237257936626], [79.08641418873844, 14.247918371308655], [79.09134298516649, 14.24967995448372], [79.09911108192378, 14.249741979069478], [79.10086791750994, 14.25078923782474], [79.10474912544629, 14.251164528938732], [79.10861025865606, 14.253950562926338], [79.10824853883801, 14.254980963907908], [79.1068303665928, 14.255658555968768]], [[79.15557384963861, 14.254318386832622], [79.15698910683032, 14.25398489601157], [79.15733662691399, 14.254676444862966], [79.15556824969947, 14.25500720652207], [79.15557384963861, 14.254318386832622]], [[79.03695544877823, 14.250616254692561], [79.03732938125526, 14.248208456507921], [79.03874170530185, 14.248220070985806], [79.03872682502707, 14.249942003656685], [79.03695544877823, 14.250616254692561]], [[79.03520493500164, 14.248879790776352], [79.0327333668375, 14.248859422413435], [79.03239819841795, 14.24679019903323], [79.03381945816946, 14.245768684773553], [79.03558484072892, 14.245783225093545], [79.03520493500164, 14.248879790776352]], [[79.16763263199815, 14.247867101349243], [79.16551955766946, 14.247161997049817], [79.16588101137076, 14.246131475377023], [79.1679968575194, 14.246492163029512], [79.16763263199815, 14.247867101349243]], [[79.03841540847276, 14.245117689335293], [79.03558782080233, 14.2454388391118], [79.03559974030011, 14.244061295079534], [79.03631482411299, 14.243033948251075], [79.03737404224744, 14.243042661298785], [79.03841540847276, 14.245117689335293]]], [[[79.22576649693613, 14.30996171700815], [79.22614404345026, 14.306864557815159], [79.22403560688056, 14.30547104728278], [79.21944662354679, 14.305092278391395], [79.21696059575186, 14.306795847544091], [79.21729478649507, 14.309209437677444], [79.22083233763523, 14.308547064517834], [79.22329399208644, 14.309943245113443], [79.22576649693613, 14.30996171700815]]], [[[79.26727987621014, 14.331968262486688], [79.26906201918372, 14.329914577550655], [79.26871669245749, 14.32887871397527], [79.26729574681133, 14.32990169006166], [79.26727987621014, 14.331968262486688]]]]}}, {"type": "Feature", "properties": {"depth_class": 2, "depth_lo_m": 1.0, "t_s": 1800.2429069436666}, "geometry": {"type": "MultiPolygon", "coordinates": [[[[79.00464327707105, 14.271012421601506], [79.01170548008118, 14.271071469890694], [79.0127708537504, 14.270391548107732], [79.01700818107523, 14.270426856153653], [79.02055433676507, 14.268734311240948], [79.02515376595366, 14.267739254503677], [79.02657819496426, 14.266373422737875], [79.02941203378397, 14.265363647354768], [79.0315516022344, 14.262970464561192], [79.03687796561505, 14.25957029029078], [79.04008263854837, 14.256496958542272], [79.04151880181792, 14.253753467857301], [79.04435243262623, 14.252743484978422], [79.04752431320895, 14.253458296876707], [79.0538326925173, 14.259020474654692], [79.05736075811276, 14.259393662484092], [79.05947053366215, 14.260444087982068], [79.06264847793662, 14.2604699357076], [79.06621183547296, 14.256710294820229], [79.06974870223567, 14.256050119372487], [79.07223503612352, 14.25434814809089], [79.07400344950955, 14.254018019071633], [79.0747125673823, 14.253679327338054], [79.07472133442246, 14.252646145941913], [79.07331480114141, 14.251945953836707], [79.07297340531241, 14.250565527426314], [79.0715610378507, 14.250554113680561], [79.06835682993383, 14.253627935061708], [79.0637460155786, 14.256001453855525], [79.06055635350842, 14.257353191914302], [79.05737845684436, 14.257327321841135], [79.0556188657526, 14.256624151728639], [79.05352096535407, 14.25419614092115], [79.05105818722323, 14.253142788042933], [79.04896036826271, 14.250714746734158], [79.04262560298315, 14.248251967754213], [79.04192538097969, 14.247557398582284], [79.04266717482408, 14.243430543641121], [79.04196102586951, 14.243424750965545], [79.04053683999611, 14.244790707562487], [79.04121327544226, 14.248240376234103], [79.03940918886498, 14.252702901389114], [79.03620158719572, 14.256120616512336], [79.0283826661915, 14.261911045944036], [79.02128460780703, 14.265985118402629], [79.0163321028183, 14.266977163695614], [79.01278595342723, 14.268669645431382], [79.00960798965254, 14.26864311834556], [79.00573594172675, 14.267233122474702], [79.00468875729392, 14.265846738677377], [79.00471906733398, 14.262402948740876], [79.0065117961353, 14.259318305940399], [79.00936071174273, 14.256586868074063], [79.01009407521467, 14.2534933390204], [79.01116540013655, 14.252124652031192], [79.01118350994838, 14.250058367652207], [79.00943624322267, 14.247977360011808], [79.00697681885303, 14.24657920623979], [78.99885315233183, 14.246855614097932], [78.996740809181, 14.246149081216922], [78.99569376489445, 14.244762675490112], [78.99571808532747, 14.24200765396051], [78.99750465514653, 14.239611825232869], [79.00248383053973, 14.235520688318175], [79.01276458844276, 14.230784782588312], [79.01633414985122, 14.226337159470415], [79.01992755346873, 14.219134395756436], [79.01996052664111, 14.21534617680958], [79.01751335010138, 14.212570632834975], [79.01433916679575, 14.212199888053355], [79.01220600642452, 14.213904200440556], [79.01179880797584, 14.220100138525106], [79.00964143385498, 14.22455946474122], [79.00679599567393, 14.22694658512981], [79.00361257843512, 14.22760881393552], [79.00112008891357, 14.229998803422294], [78.99722142631313, 14.23168816392301], [78.99187703573311, 14.237153730065724], [78.99044044530159, 14.239896861047683], [78.99038253267427, 14.246440015985517], [78.99352970406487, 14.249910529594926], [78.99775140605661, 14.251668019254812], [79.00198834477975, 14.251703548687413], [79.0037628280873, 14.25068519293904], [79.00622529516077, 14.251739002973085], [79.00655416895388, 14.254496991726985], [79.00334307124406, 14.258258575680024], [79.00046673559675, 14.264089332379319], [79.0000923702338, 14.266497015623962], [79.00253069398164, 14.270305909658461], [79.00464327707105, 14.271012421601506]], [[79.0079876712691, 14.252098133449591], [79.00553729664031, 14.249666821820528], [79.00306576443619, 14.249646145101169], [79.00164436446761, 14.2506674546102], [78.99811359824722, 14.250637848983759], [78.99424193972068, 14.24922771375767], [78.99109476416938, 14.245757209178096], [78.99114046862572, 14.240591558298787], [78.99293619780715, 14.237162636664749], [78.99792448549188, 14.232038462644676], [79.00075795556451, 14.231028986020172], [79.00360350435626, 14.228641953332117], [79.00749905982067, 14.22729685579025], [79.00998844345456, 14.225251167791535], [79.01250487160272, 14.220106010992328], [79.01290904349517, 14.214254451361333], [79.01539222040631, 14.212897445386565], [79.01855442118855, 14.214645711029819], [79.0192244886985, 14.218784162259048], [79.0141978461471, 14.22838585449873], [79.01099633269631, 14.231114469919056], [79.00320204524782, 14.234149076474873], [78.99822898425325, 14.237551477683486], [78.9946588988546, 14.241998756737608], [78.99498154888457, 14.245445498313819], [78.99672865213381, 14.247526592454799], [79.00696472351926, 14.247956726065189], [79.00976515747915, 14.250735349521788], [79.00904691349899, 14.252106977673694], [79.0079876712691, 14.252098133449591]]], [[[79.03806233223487, 14.245114786634081], [79.03807423644159, 14.243737240513086], [79.03631482411299, 14.243033948251075], [79.03558782080233, 14.2454388391118], [79.0366440712198, 14.245791943025512], [79.03806233223487, 14.245114786634081]]], [[[79.03484887165719, 14.249221268305698], [79.03558484072892, 14.245783225093545], [79.03381945816946, 14.245768684773553], [79.03239819841795, 14.24679019903323], [79.03238625711815, 14.248167740093324], [79.03343654469286, 14.249209629991963], [79.03484887165719, 14.249221268305698]]], [[[79.10753945367092, 14.255319761128757], [79.10861025865606, 14.253950562926338], [79.10474912544629, 14.251164528938732], [79.10086791750994, 14.25078923782474], [79.09911108192378, 14.249741979069478], [79.09134298516649, 14.24967995448372], [79.08641418873844, 14.247918371308655], [79.08323346725614, 14.248237257936626], [79.08321019775698, 14.250992422942499], [79.08391057153143, 14.25168688798811], [79.09097540519592, 14.251399115014909], [79.09944398769797, 14.252155584374027], [79.10331657658516, 14.253564099958032], [79.10541793942821, 14.255647338691421], [79.10753945367092, 14.255319761128757]]], [[[79.15733942416966, 14.254332034669766], [79.15592976371755, 14.253976707515228], [79.15556824969947, 14.25500720652207], [79.15698071345741, 14.2550181263853], [79.15733942416966, 14.254332034669766]]], [[[79.11352222715429, 14.257778132981562], [79.11424276638363, 14.256061711286776], [79.11248868391198, 14.25467013751199], [79.10931072793117, 14.25464496397637], [79.11070020538457, 14.25741136514615], [79.11352222715429, 14.257778132981562]]], [[[79.17664732590721, 14.268602262597652], [79.17314645154995, 14.264786671270425], [79.16821927151179, 14.262682252553073], [79.16682067290668, 14.260949334416082], [79.1572862635419, 14.260875826550928], [79.15588216507682, 14.259831674886483], [79.15164188311421, 14.260143268811683], [79.14846940276725, 14.259429790956982], [79.14567822186116, 14.255274941453585], [79.14179114888127, 14.25558911429831], [79.13964986994282, 14.25832784916416], [79.1354124621876, 14.258294749165252], [79.13189547975857, 14.256545082761134], [79.12624282974275, 14.256845158485305], [79.1230534184792, 14.258197777942808], [79.12304771822163, 14.258886584632101], [79.12410421575872, 14.259239325477058], [79.13010152013047, 14.259975292028903], [79.13291796311319, 14.261030648222132], [79.13786731531113, 14.260380504123003], [79.1403532817707, 14.258677765277703], [79.14951190479415, 14.261504466638646], [79.15339628092806, 14.261534588189587], [79.15832326104379, 14.263639294205602], [79.16398171382846, 14.26264965038396], [79.16679004246872, 14.264737864105594], [79.1727766604315, 14.266850441360871], [79.17453125438831, 14.268241626102602], [79.17664732590721, 14.268602262597652]]], [[[79.1679968575194, 14.246492163029512], [79.16588101137076, 14.246131475377023], [79.16551955766946, 14.247161997049817], [79.16763263199815, 14.247867101349243], [79.1679968575194, 14.246492163029512]]], [[[79.183006639492, 14.268306405065571], [79.1794779902729, 14.26793503633747], [79.17876340644399, 14.268962881079705], [79.18299835590358, 14.269339649281136], [79.183006639492, 14.268306405065571]]], [[[79.21814234670333, 14.291304869877653], [79.22130205753601, 14.293739602575249], [79.22482854625473, 14.2944548273646], [79.2283415750704, 14.296892115099862], [79.2336260630214, 14.29865363599925], [79.23502004220136, 14.301075090768125], [79.23853060975883, 14.303856675280976], [79.23957414073607, 14.305931070062115], [79.24203054976645, 14.308015916280146], [79.24377521301375, 14.310784372452035], [79.24479473360157, 14.315958577898169], [79.24619694913589, 14.317346713995152], [79.24400255810923, 14.326974948644077], [79.24149763389417, 14.331089733676373], [79.24003625819064, 14.337278885075179], [79.23610189388395, 14.343449634563875], [79.23643360439364, 14.34620764309222], [79.24071590763982, 14.340728361481675], [79.2421558236358, 14.337294599743306], [79.24217998300746, 14.33419478401554], [79.24467957792658, 14.330768844494287], [79.24755373447414, 14.324590075072944], [79.24932796022455, 14.323569827807255], [79.25005046109585, 14.321508480734371], [79.24797646226959, 14.315637619261016], [79.2480085162927, 14.311504510974869], [79.23717953319274, 14.295924449585913], [79.2294281200129, 14.293455777554211], [79.22767835800023, 14.291376092890715], [79.22486367535456, 14.289977341391207], [79.22347527286422, 14.28686700158749], [79.2217039680472, 14.287542656933242], [79.22062005774028, 14.290634529276367], [79.21814234670333, 14.291304869877653]]], [[[79.21708822073552, 14.290608091492956], [79.21605039142085, 14.287844786509217], [79.21393675556921, 14.287140052306988], [79.21288538194052, 14.286098838892126], [79.21219807142239, 14.283682595415113], [79.20728912507292, 14.27916796360372], [79.20341525832399, 14.27776101115373], [79.2013127055127, 14.275678507672325], [79.19744442549958, 14.27358263421147], [79.19499979239441, 14.270119744984765], [79.19184070598031, 14.267684730093789], [79.18901831854856, 14.267318860248906], [79.18830652974819, 14.268002323255185], [79.18758647375326, 14.269719030408933], [79.19004748754121, 14.271115486051492], [79.19529807102185, 14.277010759291045], [79.19952228159988, 14.278764924632032], [79.20197800631266, 14.280850112146128], [79.20444470225839, 14.281557605514784], [79.21251044606078, 14.288851545352705], [79.21814234670333, 14.291304869877653], [79.21708822073552, 14.290608091492956]]], [[[79.25178464385333, 14.325654602314865], [79.25073558681429, 14.324269093079009], [79.24932261792873, 14.324258679082792], [79.2493119324847, 14.32563638150834], [79.25036365551908, 14.326677470871276], [79.25142339402132, 14.326685278799868], [79.25178464385333, 14.325654602314865]]], [[[79.25723427120413, 14.35187258128982], [79.26113638061192, 14.3498345616432], [79.26185092033684, 14.34880646195726], [79.26150560933017, 14.347770589921394], [79.25938326297634, 14.348099463770167], [79.25724226437279, 14.35083930238299], [79.25723427120413, 14.35187258128982]]], [[[79.22630317765221, 14.376442848719991], [79.22913787240039, 14.375430756206917], [79.23127945269283, 14.372691242715335], [79.23658997905464, 14.371353097187939], [79.23803560078153, 14.367230553935483], [79.24053298810692, 14.364149139047633], [79.24372884127274, 14.362106199686641], [79.24693536616337, 14.358685513577129], [79.25047367746389, 14.358022779847989], [79.25154158623926, 14.356997328768342], [79.25190824742924, 14.355277809666088], [79.24978850178512, 14.355262162935777], [79.24588352904485, 14.35764439649887], [79.24270388842638, 14.357620834688895], [79.24129609649967, 14.356921502725159], [79.23811647394571, 14.356897880533381], [79.23319202167622, 14.354105676386576], [79.23071631766538, 14.354431647535527], [79.2289200947652, 14.35820708274111], [79.22889300099344, 14.361651290726968], [79.22746354183678, 14.363707242584418], [79.22497958057846, 14.365066400307478], [79.2242512358661, 14.367816460957112], [79.22282441228344, 14.369527955013929], [79.22280536650041, 14.371938890423147], [79.22453930039285, 14.376085181704687], [79.22630317765221, 14.376442848719991]]]]}}, {"type": "Feature", "properties": {"depth_class": 3, "depth_lo_m": 2.0, "t_s": 1800.2429069436666}, "geometry": {"type": "Polygon", "coordinates": [[[79.0079876712691, 14.252098133449591], [79.00553729664031, 14.249666821820528], [79.00306576443619, 14.249646145101169], [79.00164436446761, 14.2506674546102], [78.99811359824722, 14.250637848983759], [78.99318881072958, 14.248530051572034], [78.99109476416938, 14.245757209178096], [78.99114046862572, 14.240591558298787], [78.99293619780715, 14.237162636664749], [78.99792448549188, 14.232038462644676], [79.00075795556451, 14.231028986020172], [79.00360350435626, 14.228641953332117], [79.00749905982067, 14.22729685579025], [79.00998844345456, 14.225251167791535], [79.01250487160272, 14.220106010992328], [79.01290904349517, 14.214254451361333], [79.01539222040631, 14.212897445386565], [79.01855442118855, 14.214645711029819], [79.0192244886985, 14.218784162259048], [79.0141978461471, 14.22838585449873], [79.01099633269631, 14.231114469919056], [79.00320204524782, 14.234149076474873], [78.99822898425325, 14.237551477683486], [78.9946588988546, 14.241998756737608], [78.99498154888457, 14.245445498313819], [78.99672865213381, 14.247526592454799], [79.00696472351926, 14.247956726065189], [79.00976515747915, 14.250735349521788], [79.00904691349899, 14.252106977673694], [79.0079876712691, 14.252098133449591]], [[78.99249789656427, 14.246802226035697], [78.99496025561875, 14.247856140405444], [78.99496938179152, 14.246823008143798], [78.99392539003375, 14.245092218462155], [78.99395581730715, 14.241648445282877], [78.99574543960297, 14.238908253932472], [79.00249896970114, 14.233798791440355], [79.0106462987361, 14.230767148295017], [79.01456292336604, 14.227011260672612], [79.01888045566041, 14.217748086609843], [79.01819539709118, 14.215331551568783], [79.01679530194004, 14.213942310185018], [79.01468016862084, 14.213580349462523], [79.01361508946322, 14.214260318189869], [79.01321394389446, 14.219767499323385], [79.01033846893031, 14.22559848929283], [79.00678391661137, 14.228324107062], [78.99862754705063, 14.232388759569544], [78.99292402568597, 14.238540145715367], [78.99184354163238, 14.240941877082156], [78.99180394500392, 14.24541877645515], [78.99249789656427, 14.246802226035697]]]}}, {"type": "Feature", "properties": {"depth_class": 4, "depth_lo_m": 3.0, "t_s": 1800.2429069436666}, "geometry": {"type": "Polygon", "coordinates": [[[78.99496025561875, 14.247856140405444], [78.99249789656427, 14.246802226035697], [78.99180394500392, 14.24541877645515], [78.99184354163238, 14.240941877082156], [78.99292402568597, 14.238540145715367], [78.99862754705063, 14.232388759569544], [79.00678391661137, 14.228324107062], [79.01033846893031, 14.22559848929283], [79.01321394389446, 14.219767499323385], [79.01361508946322, 14.214260318189869], [79.01468016862084, 14.213580349462523], [79.01679530194004, 14.213942310185018], [79.01819539709118, 14.215331551568783], [79.01888045566041, 14.217748086609843], [79.01456292336604, 14.227011260672612], [79.0106462987361, 14.230767148295017], [79.00249896970114, 14.233798791440355], [78.99574543960297, 14.238908253932472], [78.99395581730715, 14.241648445282877], [78.99392539003375, 14.245092218462155], [78.99496938179152, 14.246823008143798], [78.99496025561875, 14.247856140405444]]]}}]}