{"type": "FeatureCollection", "features": [{"type": "Feature", "properties": {"depth_class": 1, "depth_lo_m": 0.3, "t_s": 78300.19798496041}, "geometry": {"type": "MultiPolygon", "coordinates": [[[[79.01424296778274, 14.223220123053174], [79.01602618186206, 14.221168489959858], [79.01813838663901, 14.221874831035088], [79.02096866992005, 14.221209469120577], [79.02168672354301, 14.21983777971867], [79.02171966913033, 14.216049556950844], [79.02067556682104, 14.2143188719775], [79.01891644127093, 14.213615486208635], [79.0178693710617, 14.212229176129327], [79.0139921575822, 14.211508191486345], [79.01150297172912, 14.213553947723556], [79.01148190310485, 14.215964620613429], [79.01217892634699, 14.21700363815606], [79.01144276519125, 14.220441583183506], [79.01283382962676, 14.222864001902288], [79.01424296778274, 14.223220123053174]], [[79.01815339219868, 14.220152915754356], [79.01641525626744, 14.217038827487833], [79.01324101536012, 14.216668060368143], [79.01254398765876, 14.215629045399083], [79.01291806577964, 14.213221304854397], [79.01610126561869, 14.2125589214722], [79.01819839683871, 14.214987168333762], [79.02030755945819, 14.21603786761961], [79.02063661448385, 14.2187958601953], [79.01991855910141, 14.220167546157368], [79.01815339219868, 14.220152915754356]]], [[[79.16062073082857, 14.241613360551185], [79.16141333288863, 14.230942045023951], [79.16388767401897, 14.23061664514664], [79.16425188065335, 14.229241710064466], [79.16320934656169, 14.227167095131888], [79.16109368959671, 14.226806387010601], [79.15898919719153, 14.225068015579426], [79.15722384841197, 14.225054407334662], [79.15543614648841, 14.227796071131706], [79.15331770701934, 14.227779705115275], [79.15189701514774, 14.228802013680765], [79.15187180994066, 14.23190170211306], [79.15291425045393, 14.233976355919092], [79.15572493499282, 14.235720239400475], [79.15708977487797, 14.241586124182863], [79.15814347395816, 14.242283121995076], [79.15990895746806, 14.242296739560603], [79.16062073082857, 14.241613360551185]], [[79.15890271052439, 14.235744762761133], [79.156100381072, 14.232967682060588], [79.1561087649173, 14.231934450296858], [79.1582244551067, 14.232295207249601], [79.15890271052439, 14.235744762761133]]], [[[79.08115859049458, 14.243054298225754], [79.08615978992073, 14.236206060530675], [79.08618589922843, 14.233106490654498], [79.08443507785556, 14.231370355050153], [79.08160765648091, 14.231692080612673], [79.07770355755726, 14.234071618699938], [79.07591488787189, 14.236812557760208], [79.07274017154056, 14.236442534605917], [79.07131327157252, 14.238153098368386], [79.07164879999883, 14.240222311996115], [79.07305233664657, 14.24126689858418], [79.07623587291111, 14.24060374264391], [79.07693036170394, 14.241987011201704], [79.07868701807759, 14.243034413726718], [79.08115859049458, 14.243054298225754]], [[79.07800708917237, 14.239929174541674], [79.07804205795068, 14.23579643561188], [79.08230215997636, 14.233075335192929], [79.0840674948359, 14.23308950458502], [79.08476782352267, 14.233783961502166], [79.0847533076638, 14.235505943341071], [79.08224110502438, 14.240307647104727], [79.08082006229033, 14.241329482389697], [79.07870158792157, 14.241312439113432], [79.07800708917237, 14.239929174541674]]], [[[79.11821835883717, 14.245071512487145], [79.12036827828598, 14.241299773694987], [79.1203882306469, 14.238888950273804], [79.11899871194554, 14.236122600929617], [79.11653001572947, 14.235758714744671], [79.1143801013723, 14.239530419205416], [79.11400413678402, 14.242282846396957], [79.11680598822896, 14.245060370735448], [79.11821835883717, 14.245071512487145]]], [[[79.16938705731988, 14.249258304748714], [79.17010993633328, 14.247197245588358], [79.16871418063701, 14.245119933448054], [79.16695422780072, 14.244417553686498], [79.16306454171482, 14.245076511262727], [79.16305060756646, 14.246798569016825], [79.16514696315588, 14.24957016518527], [79.16796905929223, 14.249936287421468], [79.16938705731988, 14.249258304748714]]], [[[79.03554013007644, 14.250949013555928], [79.0366291776813, 14.247513873873078], [79.0394686893612, 14.245815167890548], [79.03913643322558, 14.2434015593998], [79.03738594882373, 14.241665115509615], [79.03561761715916, 14.24199497871526], [79.03418744478843, 14.24404966533019], [79.03170398768316, 14.245406833998175], [79.03027674584823, 14.24711710443601], [79.03026180257916, 14.248839028483157], [79.0316681509471, 14.249539455419903], [79.03306256862246, 14.251617416362873], [79.03554013007644, 14.250949013555928]], [[79.03381349243577, 14.24645745597372], [79.03486676209809, 14.24715495376699], [79.03450175466527, 14.248529588185537], [79.0330924167534, 14.248173562985087], [79.03310435377429, 14.246796021339028], [79.03381349243577, 14.24645745597372]]], [[[79.15065832104086, 14.250836013997782], [79.15067796568138, 14.24842515076216], [79.14891525250266, 14.248067050447604], [79.14785032105834, 14.248747646479444], [79.14748316062173, 14.250466947029198], [79.14853124258536, 14.251852805341743], [79.1495905713478, 14.251861025490921], [79.15065832104086, 14.250836013997782]]], [[[79.15731984181178, 14.256742905802403], [79.15909661660643, 14.25537890103041], [79.15911617813806, 14.252968027204378], [79.15841554211572, 14.252273754492755], [79.15665278032542, 14.251915706416737], [79.15382228889754, 14.252582678253171], [79.15133928467252, 14.253941169730469], [79.15203148459402, 14.255668688585375], [79.15414177527428, 14.256718325970553], [79.15731984181178, 14.256742905802403]]], [[[79.14776316041228, 14.259424305213221], [79.14567540671518, 14.255619349343906], [79.14249737690115, 14.255594616278861], [79.14107645439482, 14.256616831140937], [79.14141828188575, 14.257997211656956], [79.14529131453534, 14.259405088656964], [79.14776316041228, 14.259424305213221]]], [[[79.02804154572235, 14.260530589186269], [79.0284185952044, 14.257778436996752], [79.02702119820533, 14.256044834396468], [79.02455556226504, 14.255335604427632], [79.02207192835726, 14.256692648188968], [79.0220509053966, 14.259103327882938], [79.02345127789235, 14.260492573724974], [79.0252107656334, 14.261195972272752], [79.02804154572235, 14.260530589186269]], [[79.02383138253299, 14.257396052775857], [79.02559984263743, 14.257066295060401], [79.02664413778716, 14.25879698293623], [79.02487266498778, 14.259471130173212], [79.02381937995807, 14.258773585480736], [79.02383138253299, 14.257396052775857]]], [[[79.15692194102408, 14.262250736363946], [79.15623248841779, 14.260178815894484], [79.1551787200938, 14.259481801318834], [79.15376622998922, 14.259470867438813], [79.152698446959, 14.260495888942092], [79.14881971282905, 14.25977694143096], [79.14986502952252, 14.261507207573484], [79.15269003004775, 14.261529116245613], [79.15409412095003, 14.262573286078378], [79.15621288592534, 14.262589684340135], [79.15692194102408, 14.262250736363946]]], [[[79.04956882551404, 14.262085344424321], [79.04959548423233, 14.258985848426631], [79.04783887698481, 14.257938234206215], [79.04607338689839, 14.25792377245424], [79.04499925057591, 14.2596370268955], [79.04497846673935, 14.262047739314534], [79.04603184337627, 14.262745200570048], [79.04850358252169, 14.262765450493285], [79.04956882551404, 14.262085344424321]]], [[[79.08311707004823, 14.262013076241544], [79.08349346713261, 14.259260752706338], [79.08279307445079, 14.258566284081496], [79.07996530927423, 14.258887946705295], [79.07854121259146, 14.260254145413967], [79.0785324580722, 14.261287328479622], [79.08063945771873, 14.262681975628587], [79.08311707004823, 14.262013076241544]]], [[[79.1618573547602, 14.26332214274179], [79.16257198791955, 14.262294355295117], [79.16434041967308, 14.261963547450001], [79.16364531937926, 14.260580462870541], [79.1597609370856, 14.260550510228306], [79.15727506839539, 14.262253466465463], [79.15761980030425, 14.263289426076353], [79.15902672415001, 14.263989160508734], [79.1618573547602, 14.26332214274179]]], [[[79.12429771684636, 14.278528688930633], [79.12679252829656, 14.275792920190746], [79.1268238520898, 14.27200448008619], [79.12577298910166, 14.27096293683045], [79.12471358553918, 14.270954600028075], [79.1236456269315, 14.271979467794093], [79.12148111999707, 14.277473210556689], [79.12146969355486, 14.278850820423902], [79.12217313008404, 14.27920079402179], [79.12429771684636, 14.278528688930633]]], [[[79.10415986245036, 14.279402474961445], [79.10381825341616, 14.27802206717275], [79.1024056894136, 14.278010814823002], [79.10238837462667, 14.28007720665401], [79.10415986245036, 14.279402474961445]]], [[[79.16183120587166, 14.396616589798017], [79.16432710069114, 14.39388055430214], [79.16435243321816, 14.390780886214312], [79.16330089151991, 14.389739431609161], [79.16188757985529, 14.38972844860112], [79.1611724670315, 14.390756174970933], [79.16114145066936, 14.394544651296435], [79.16183120587166, 14.396616589798017]]], [[[79.18235006267567, 14.262101553484404], [79.18236110541146, 14.260723894172427], [79.18130723989053, 14.260026985287073], [79.17882704319496, 14.261041358144697], [79.17916911071393, 14.262421712414008], [79.18128514156395, 14.262782302286052], [79.18235006267567, 14.262101553484404]]], [[[79.1713807799506, 14.26477313070754], [79.16962623244258, 14.263381927884685], [79.16539980509957, 14.261971703068141], [79.16713760661077, 14.265429403636809], [79.1717255813084, 14.265809077878695], [79.1713807799506, 14.26477313070754]]], [[[79.28248324757078, 14.283855626497504], [79.28178471901946, 14.282817230828691], [79.28037721753341, 14.282118165452715], [79.27790756409884, 14.281755863534462], [79.27615214775149, 14.280365356810155], [79.26805013066071, 14.277550965308464], [79.26594955239791, 14.27512453453769], [79.26100784422056, 14.274744057757164], [79.25540756479177, 14.268158598878973], [79.25472512004245, 14.265053572133107], [79.25548706511034, 14.257825743079978], [79.25443294764668, 14.25712913290797], [79.25477283570119, 14.25885386043055], [79.2519025725215, 14.264688439446147], [79.25470125361763, 14.2681534267188], [79.2546694228032, 14.272286564853554], [79.2585197903265, 14.276792568331526], [79.2606282300437, 14.278185770006681], [79.26131606496638, 14.280601932089462], [79.26308194666336, 14.280614820554575], [79.26415995623697, 14.278211539790522], [79.265219475468, 14.278219260523944], [79.26591791056681, 14.279257695051506], [79.26874067929104, 14.27962268432388], [79.27612592532488, 14.283809674454002], [79.27789184590273, 14.283822455920932], [79.28105743107552, 14.285567592506677], [79.28247018203948, 14.28557779069666], [79.28248324757078, 14.283855626497504]]], [[[79.25145109288545, 14.277429669003947], [79.25146970331669, 14.275018677134332], [79.25077135030867, 14.273980208872516], [79.2490108556502, 14.273278380967234], [79.24653338920702, 14.273949049687827], [79.24615889424351, 14.276701861351476], [79.24685723136669, 14.277740341462566], [79.25038360334722, 14.27845516893901], [79.25145109288545, 14.277429669003947]]], [[[79.19729634766011, 14.292181156437705], [79.19730457979843, 14.291147906003298], [79.19625327541445, 14.290106626170699], [79.1944818876002, 14.290782066147592], [79.19517176236126, 14.29285392346381], [79.19729634766011, 14.292181156437705]]], [[[79.18629803601814, 14.298297410269214], [79.18560270967792, 14.29691436459946], [79.18418443181397, 14.297592411589477], [79.18452656044182, 14.298972764562219], [79.18629803601814, 14.298297410269214]]], [[[79.20600022860349, 14.30809113266246], [79.20778265900121, 14.306037946159819], [79.20888320818125, 14.300879652878354], [79.21066555010698, 14.29882643388385], [79.20996461266927, 14.298132279963657], [79.20500897301612, 14.299472684222826], [79.20215329237895, 14.303239931995751], [79.20211493962422, 14.308061774561947], [79.20316908611079, 14.308758622493919], [79.20600022860349, 14.30809113266246]], [[79.20426975888743, 14.303600365542856], [79.2053320968013, 14.30326394854799], [79.20603303231809, 14.303958116044546], [79.20531022138762, 14.3060192922257], [79.20390013832682, 14.305664203647591], [79.20426975888743, 14.303600365542856]]], [[[79.22471226331744, 14.30926496068816], [79.22437799203065, 14.306851371822715], [79.22120723571142, 14.305794341288669], [79.21943848421984, 14.30612554018192], [79.21837071567275, 14.307150861776273], [79.21871849596111, 14.307842349814404], [79.22083776063567, 14.307858222950758], [79.22259298097892, 14.309249120564509], [79.22471226331744, 14.30926496068816]]], [[[79.26179217279817, 14.310572392354768], [79.26181071796782, 14.308161393861278], [79.25970201220284, 14.306768173522379], [79.25687362454231, 14.307091896106826], [79.25508892688053, 14.309489928243392], [79.25508094787688, 14.310523209551759], [79.25613529681029, 14.311219842386146], [79.26108042546358, 14.311256080491736], [79.26179217279817, 14.310572392354768]]], [[[79.27865771179559, 14.322406462391607], [79.28328394142262, 14.317962090326239], [79.28436982008319, 14.314525424091007], [79.2844325817532, 14.306259045365248], [79.28586374730828, 14.303858207896875], [79.28589247067212, 14.300069445359894], [79.28519649561932, 14.298686620783865], [79.28377843310528, 14.299365294959285], [79.28197574649121, 14.304174595231727], [79.28191028522419, 14.312785396647444], [79.28012577901757, 14.315183640681555], [79.27764263938377, 14.316543452030727], [79.27692302986877, 14.318260483263598], [79.2765408741898, 14.322046658695538], [79.27865771179559, 14.322406462391607]]], [[[79.2656009352598, 14.32058921759288], [79.2659726889883, 14.318180795217085], [79.26527680004672, 14.316797921707428], [79.26281476410561, 14.315402138925647], [79.26174712014397, 14.316427672279707], [79.26242443390309, 14.320221550960511], [79.26347620209836, 14.321262586654953], [79.2656009352598, 14.32058921759288]]], [[[79.23312476835999, 14.317594282942515], [79.23135592905307, 14.31792556164448], [79.23169836989608, 14.319305881585604], [79.23311398931166, 14.318971974108608], [79.23312476835999, 14.317594282942515]]], [[[79.23590754503229, 14.323126057780403], [79.23626616452279, 14.322439835321289], [79.23591292780857, 14.322437211417242], [79.23590754503229, 14.323126057780403]]], [[[79.25067150879524, 14.332535311379631], [79.25101408262748, 14.333915617854977], [79.25171792832242, 14.334265250086808], [79.25137801951131, 14.332540518355477], [79.25067150879524, 14.332535311379631]]], [[[79.09134366486757, 14.499382446563672], [79.0938416344213, 14.496647423101638], [79.09668126046435, 14.495292794483252], [79.09986259437947, 14.495318554441756], [79.10163880222194, 14.494299670279966], [79.10308495263884, 14.490522775527191], [79.1052175073637, 14.489162317981672], [79.10843965384744, 14.484366438402253], [79.11128487777944, 14.482322813090677], [79.11235983465797, 14.480609357402063], [79.1159118935584, 14.478571339861686], [79.11806458350178, 14.474799968920896], [79.12091249896531, 14.472411803367265], [79.12771754273837, 14.461789015094286], [79.1301887046309, 14.462153081796595], [79.13158804959663, 14.46388630470463], [79.13370005271464, 14.464936330409149], [79.1358264450948, 14.46426434006052], [79.13585804720489, 14.460475940498586], [79.1309416541643, 14.456648311325818], [79.1306199006251, 14.452857114676906], [79.12957404015873, 14.45112670067633], [79.1299447350317, 14.449063112223088], [79.13385241397876, 14.446683143936193], [79.13705893151344, 14.443608711491358], [79.13849834464564, 14.440520273954746], [79.1431382975251, 14.435046083036683], [79.14988696681843, 14.430966028558991], [79.15555823685939, 14.42894389195506], [79.15731951296027, 14.429646513623618], [79.15730534638546, 14.431368539074537], [79.15373735331566, 14.435473749969713], [79.15371747267193, 14.437884579455789], [79.1551197279014, 14.439273265089684], [79.1692531494296, 14.439727896713054], [79.17102863235928, 14.438708393097139], [79.17385588862842, 14.43873031412698], [79.17984421988152, 14.441187648068128], [79.18335318580422, 14.444314604396215], [79.18437151519468, 14.449488924057343], [79.18717938843753, 14.451921572839362], [79.1885568418251, 14.456409786074557], [79.19101976328021, 14.457806450940165], [79.1924140316941, 14.460228187023688], [79.19131467249638, 14.465041792168618], [79.19448183008463, 14.466788276844724], [79.19516091423556, 14.470237812977192], [79.19475455027933, 14.47677891082548], [79.19613782115674, 14.48057828398856], [79.19611554938248, 14.483333572470709], [79.1935826097589, 14.490547188910377], [79.1918039749309, 14.491911232411617], [79.19072392861092, 14.494313935349732], [79.18752284481639, 14.496700270572678], [79.18715533839769, 14.498419586579383], [79.20057465465771, 14.500244964123823], [79.21649369794605, 14.498988682251092], [79.21791600339056, 14.497966173942693], [79.22078806019599, 14.492476973105967], [79.22792377418635, 14.484264409474106], [79.23114886404174, 14.478777691648066], [79.23332153794243, 14.472249691238778], [79.2337294781754, 14.465363975353423], [79.23201666777321, 14.458462335352744], [79.22886836363823, 14.454305408691933], [79.22071453429004, 14.45734387465788], [79.21576355026136, 14.457650842270237], [79.21363187006962, 14.459012421257057], [79.21221808205702, 14.459001688733004], [79.20940706181207, 14.456913712566873], [79.19916279350477, 14.45614671208121], [79.19741503145502, 14.453722304486384], [79.19638527795965, 14.449925653921039], [79.19464036828099, 14.447156821828326], [79.19465982144033, 14.444745939018537], [79.19821067297813, 14.442706516444696], [79.1978738939245, 14.440637338542603], [79.19470427229983, 14.43923534779406], [79.19081674222846, 14.439205540360456], [79.1872965757583, 14.437456333890257], [79.18448886334676, 14.435023704715473], [79.18345100323661, 14.432260257794601], [79.1823991915495, 14.431218858400484], [79.18028160800289, 14.43085809643896], [79.17993660739613, 14.429822140842488], [79.1842331694779, 14.422966621731392], [79.18708253419435, 14.420233072502272], [79.19132310868808, 14.42026561184767], [79.19238880852285, 14.419584910479994], [79.19242212969196, 14.415451963717706], [79.1999038167262, 14.407931567320608], [79.20273348920482, 14.407608682679687], [79.20519326200213, 14.409349567726036], [79.2076750886921, 14.408335108458248], [79.20804220858298, 14.406615712525038], [79.20629191086766, 14.404535809980576], [79.2059550701537, 14.402466635273264], [79.21022830531861, 14.398365803511298], [79.21202522773405, 14.39459059552828], [79.2162927282811, 14.391178456301311], [79.21738281198371, 14.387397855712232], [79.21916313558347, 14.385689075539634], [79.22057919390274, 14.385355294880455], [79.22378640744145, 14.381935007085117], [79.2280426332919, 14.37990028415662], [79.23122798286663, 14.37923523738211], [79.23373642817197, 14.374776238200466], [79.23727501356333, 14.374113735893989], [79.23905239016, 14.37274919707688], [79.24120460059254, 14.368631885269144], [79.24404989735693, 14.36624190101611], [79.24762319228597, 14.361101710958742], [79.25151751563804, 14.360097154143785], [79.25508520220846, 14.355645670036912], [79.25969397620464, 14.353612885661756], [79.26716076600633, 14.347467543673625], [79.26789115344359, 14.34437285112312], [79.27038523634423, 14.34163546992093], [79.27111027072071, 14.339229617305401], [79.27112875501709, 14.336818612678597], [79.2693862113839, 14.333705873555566], [79.2694047066758, 14.331294870013028], [79.27047503834605, 14.329924878089246], [79.27265256206694, 14.322362856431226], [79.27088898333501, 14.322005572632543], [79.26947073319938, 14.322684138894527], [79.26838722424728, 14.325776275828572], [79.26552947619676, 14.329888789444098], [79.26514708869851, 14.333674919307482], [79.2658085853734, 14.339535364815033], [79.26293731807804, 14.345369955634887], [79.25834471389243, 14.345336266896416], [79.25477460566442, 14.350132255428331], [79.24661961311175, 14.353860960333083], [79.24449451798752, 14.354534115558046], [79.23848862241908, 14.354489548380949], [79.23708895171255, 14.352756927358442], [79.23745840436315, 14.350693019160879], [79.23890383265814, 14.346570446813827], [79.24356082075133, 14.338338338187025], [79.24394358386618, 14.334552286517523], [79.24644583574215, 14.33078190100472], [79.24717909381204, 14.32734286903967], [79.24859742610208, 14.326664447156933], [79.2506982129387, 14.329091054486701], [79.25211121311118, 14.329101463731968], [79.25318162857744, 14.327731560279013], [79.25320295435935, 14.324976150030139], [79.25110217096295, 14.322549565369002], [79.25077561481488, 14.319102703581661], [79.24904148743511, 14.314956580283212], [79.24906017456864, 14.31254559911616], [79.24802186911504, 14.309782382078085], [79.2438314154183, 14.303551445355566], [79.24067398115729, 14.300772545631753], [79.23894283000219, 14.296281955234333], [79.23789129041974, 14.295240834937873], [79.23013450046967, 14.293461033702682], [79.22803424180204, 14.291034300825524], [79.22521956044085, 14.2896355537372], [79.2252357661156, 14.287569020694455], [79.2241870347234, 14.286183428951924], [79.22135890821485, 14.286506753199221], [79.22098136497397, 14.289603906177126], [79.21850637768296, 14.289929831162905], [79.2167621764449, 14.287161239103366], [79.21429536737415, 14.286453862147326], [79.21324399470362, 14.2854126504396], [79.21185578060292, 14.282302263479579], [79.20939176783041, 14.281250423928006], [79.2076450144965, 14.278826203055491], [79.20306483017399, 14.277413928239234], [79.20061186315576, 14.274984336648899], [79.19814799243173, 14.273932395509103], [79.19254424501342, 14.268034504938026], [79.18972460184244, 14.267324226729185], [79.18653255088424, 14.269022138281032], [79.18441368977466, 14.269006002317003], [79.18195550177846, 14.267265080459572], [79.18018980218739, 14.26725160284589], [79.17876894162477, 14.268274053218052], [79.17418366308445, 14.267550094307605], [79.17417811426591, 14.268238920445498], [79.17593272781109, 14.269630097013575], [79.18511170213392, 14.270044628432673], [79.18686916131131, 14.271091318451475], [79.1911041815562, 14.27146794872567], [79.19564848530375, 14.277357852181057], [79.19952501965031, 14.278420507020448], [79.20163031162495, 14.280158608937088], [79.20409699876882, 14.280866104939198], [79.21250228470598, 14.289884804631308], [79.21426275633664, 14.290586903567819], [79.21811793343846, 14.294404656343985], [79.22447265217829, 14.294796613356898], [79.22833887719564, 14.29723653761199], [79.23291966501658, 14.29864838835099], [79.24167197494167, 14.30870215286502], [79.24410969565545, 14.313197957718138], [79.24441205358502, 14.319744641804427], [79.24222828441657, 14.32799515001589], [79.23793553169723, 14.334852189285066], [79.23720209789055, 14.338291171728846], [79.23434363993589, 14.342403222827778], [79.23180591403275, 14.350650921030223], [79.23002327836998, 14.352704265244387], [79.22825415553832, 14.353035487724144], [79.22545773512017, 14.349225717939483], [79.22229183453157, 14.347479796294905], [79.2184385032648, 14.34331759506132], [79.21705267873219, 14.339862784096981], [79.21565054015461, 14.33847448277331], [79.2131859239081, 14.337422614021554], [79.21035441346058, 14.338090147658075], [79.20857171515175, 14.340143321472517], [79.20573468046362, 14.341499628257704], [79.20252237993566, 14.345608549996971], [79.19932647261808, 14.347650919905899], [79.19963295367373, 14.353508667265896], [79.19854281529881, 14.357289180779066], [79.19675984674684, 14.359342232320492], [79.1953163288263, 14.36312003017791], [79.19176127018301, 14.365848393141947], [79.18961378478743, 14.369276328413813], [79.18288160383702, 14.371635784890419], [79.17793257240787, 14.371942174579791], [79.1743827737739, 14.373981413201555], [79.1690831995835, 14.373940475621724], [79.16697179511841, 14.372890841535432], [79.16485198252765, 14.372874415588685], [79.16130488969576, 14.374569034471634], [79.15702573052458, 14.379357750723596], [79.15419359357128, 14.38002452875422], [79.15099113443087, 14.382754941393312], [79.1484838844029, 14.386868452470658], [79.14599927472885, 14.388226692044206], [79.14100431739732, 14.394042708677894], [79.13919770933335, 14.39885044361531], [79.13986728235636, 14.403333240430777], [79.13771577522758, 14.407104959271946], [79.13732238970736, 14.411923797942558], [79.13590037180987, 14.412945847198245], [79.13343259263054, 14.412237502235836], [79.12742552647232, 14.412189935068199], [79.12565299003748, 14.412864714482964], [79.12315066891016, 14.416289052675626], [79.11960838979284, 14.417294123160348], [79.11853674107842, 14.418663266435551], [79.11605450786742, 14.419676725757943], [79.11283942233125, 14.423784074465427], [79.10928827582553, 14.42582215679162], [79.10890583116391, 14.429263280608883], [79.10958352239201, 14.432712903376029], [79.10850300478045, 14.435115169033198], [79.10494288823386, 14.438186341124046], [79.10034879117667, 14.438149360880239], [79.09714192061946, 14.441223243159268], [79.09747774989432, 14.44329245389234], [79.10308250626878, 14.449192736883964], [79.10306790225809, 14.450914705955624], [79.100564766246, 14.454338700184103], [79.10017623015999, 14.458468565668834], [79.09518427834112, 14.463594460975568], [79.08952645237146, 14.463893012096177], [79.08847500102019, 14.462851230386466], [79.08815398013026, 14.459060064034427], [79.08604524416829, 14.45766527146991], [79.08392472889739, 14.457648022124369], [79.07965115942781, 14.461401743256655], [79.07677041174064, 14.467577643000695], [79.07633984703409, 14.476528836083444], [79.07943788890029, 14.486197706610303], [79.0832727159889, 14.49242844741497], [79.08957918496252, 14.499023683100027], [79.09134366486757, 14.499382446563672]], [[79.10885148914168, 14.477481401710657], [79.09835050228695, 14.465342148342032], [79.09907495061216, 14.463281504347792], [79.10228507762109, 14.459863243196448], [79.10267650348646, 14.455388976658497], [79.10518254178277, 14.451620563560768], [79.10451073640817, 14.44748214630713], [79.10065249862666, 14.444006899811825], [79.09996616549743, 14.441590447453178], [79.10210115022434, 14.439885564343731], [79.10598849637164, 14.439916835925041], [79.10990493010497, 14.436504088263327], [79.11134173421651, 14.433760250584248], [79.11104643599288, 14.426869500027626], [79.11459758771622, 14.42483139146182], [79.11781266156252, 14.420724017036177], [79.12030067715321, 14.419021743452424], [79.12348673545652, 14.41835825515644], [79.1270549130579, 14.414253530210646], [79.13623941976117, 14.41467064422993], [79.13872724697175, 14.412968150468943], [79.13912060725892, 14.408149306453833], [79.14163400709016, 14.403347145188032], [79.14096439812205, 14.398864349146125], [79.14205291134348, 14.395428655361185], [79.14490233501449, 14.392695628771122], [79.14597937893471, 14.390637520573161], [79.15024765306637, 14.38722668231903], [79.15097130005636, 14.385165777865074], [79.15488890839188, 14.38140766493372], [79.15807437512564, 14.380743631566228], [79.1627096645164, 14.375613232897496], [79.1648379317308, 14.374596456604806], [79.16731106559016, 14.374615620757321], [79.16977579441765, 14.375667986450532], [79.17401548663544, 14.375700737440555], [79.1779186226727, 14.373664228357331], [79.18499308915588, 14.372685284442898], [79.1903093055087, 14.370659383467514], [79.19316892481703, 14.366548007844425], [79.19672398108678, 14.363819623185563], [79.19816748235641, 14.360041814720592], [79.19995319892814, 14.357644336440707], [79.20140759642811, 14.352488832233055], [79.2010873199312, 14.34835316105873], [79.20428596921916, 14.345966350251938], [79.20678624400189, 14.342540894914382], [79.20820203228789, 14.34220715786195], [79.21175924499612, 14.339134058116542], [79.2145798581866, 14.33984418364353], [79.2163270841766, 14.342268405215997], [79.21631345769217, 14.343990499834838], [79.2148867525759, 14.345701959789803], [79.2152291112638, 14.347082293677511], [79.21840583287432, 14.347450626109584], [79.22298480054322, 14.349207193262766], [79.22614259449685, 14.35198637040076], [79.22647146920016, 14.355088798931499], [79.22397402267536, 14.358170057188804], [79.22395772193701, 14.360236576556028], [79.22571333302186, 14.361627494481443], [79.22783853359046, 14.36095452226473], [79.22857764108792, 14.356826758254735], [79.23107501332747, 14.353745442170375], [79.23495575232222, 14.354463261377528], [79.2377685732428, 14.35620640811683], [79.24518767736551, 14.356261468567375], [79.25511455155123, 14.35185698580622], [79.259741864067, 14.347413203574709], [79.26292138966278, 14.347436520582141], [79.26219889049966, 14.349497906499257], [79.2597072806846, 14.351890752089027], [79.25438929548407, 14.354262763214427], [79.25082162157594, 14.358714238254102], [79.2476365963064, 14.359379589598966], [79.2451474128993, 14.361427826415966], [79.23979944384179, 14.367588115090316], [79.23907395882387, 14.369993818194665], [79.23728850945314, 14.37239162602233], [79.23304061509072, 14.373393278928733], [79.2316165196933, 14.3747604079719], [79.23053217560465, 14.377852271412065], [79.22202521854406, 14.381232898078107], [79.21988344156979, 14.383972303596474], [79.21811133064868, 14.38464783750494], [79.2156134027879, 14.387728949215786], [79.21524091557787, 14.390137204522118], [79.21133225226107, 14.392863166324654], [79.20917649439781, 14.397324524691667], [79.20454715494385, 14.401767067894598], [79.2041745094756, 14.4041752866147], [79.20521530364326, 14.4065942481922], [79.20098047766768, 14.405873159950803], [79.19849589257215, 14.407231962370194], [79.19065803820897, 14.415094015589025], [79.19028242650582, 14.417846601697953], [79.1863869184989, 14.418849997799452], [79.1828252170282, 14.422266918796092], [79.18103034711564, 14.425697403205355], [79.17960840045116, 14.426719728149626], [79.17745724331951, 14.430491855118074], [79.17779943058949, 14.431872222082937], [79.18132221989755, 14.43327714264648], [79.18271346053768, 14.436043320700021], [79.18517612926908, 14.437440018573362], [79.18657581048244, 14.439172950126222], [79.1900959953601, 14.440922169616748], [79.19397799544711, 14.44164081607536], [79.19219700649347, 14.443349324853296], [79.19218031152228, 14.445415793290849], [79.19425636110057, 14.450942641502984], [79.1942368948874, 14.453353522509401], [79.19563117861283, 14.455775241219746], [79.19526383906432, 14.457494590642368], [79.19385285747917, 14.457139337608572], [79.1906941941718, 14.45435962711616], [79.18860705898916, 14.450210397850956], [79.18614702625102, 14.448469308255426], [79.18582152905607, 14.44502248543418], [79.1847780334961, 14.442947859348942], [79.18091845253176, 14.439473787331186], [79.17809397886138, 14.439107541033176], [79.17316312639387, 14.437002797320975], [79.16431674198253, 14.438311788696982], [79.15619128844132, 14.437903942755028], [79.15550150805116, 14.435831985724459], [79.1590723094557, 14.43138233967075], [79.1590949533725, 14.428627096076967], [79.15557241437601, 14.427221867851204], [79.14883818143285, 14.429580094966662], [79.14208954175943, 14.433660122567957], [79.1395957626679, 14.436051427450794], [79.13494135718673, 14.443247537107665], [79.13209398149965, 14.445635940852885], [79.12996776650436, 14.446307918396071], [79.12782712974409, 14.448701869188229], [79.12745641676517, 14.450765452086957], [79.1288412692327, 14.45422067593306], [79.12950489254789, 14.45939227488068], [79.1273814220487, 14.459719813261254], [79.12489295871963, 14.461422107934697], [79.12237551754433, 14.466568343790351], [79.12059672392357, 14.467931822003454], [79.11951609965655, 14.470334125157652], [79.11524277530796, 14.474088532700703], [79.11380860332481, 14.476487964515533], [79.1120325916471, 14.477506966137733], [79.10885148914168, 14.477481401710657]], [[79.26792820125688, 14.339550851676236], [79.26760139144402, 14.33610398591736], [79.26866118395718, 14.33611172189457], [79.26900916120661, 14.33680315728845], [79.26863474044725, 14.339556009759212], [79.26792820125688, 14.339550851676236]]], [[[79.16406497751183, 14.425910407786352], [79.17047371980848, 14.420104893971857], [79.17756647853959, 14.417059896545904], [79.18184327273065, 14.412615266123241], [79.18752499546424, 14.409214623169975], [79.1918014456058, 14.40476976884428], [79.193239829237, 14.401680868918895], [79.20000324926076, 14.395532658755126], [79.20287685455332, 14.389699115274908], [79.20501613199318, 14.38730431090268], [79.2057475466777, 14.384209932528655], [79.20824829734617, 14.380784519017064], [79.20863180618669, 14.376998613915202], [79.21042305859821, 14.373912228791113], [79.21045045920157, 14.370468059077218], [79.20975206725873, 14.369429465785132], [79.20621901808828, 14.369402723325315], [79.1977038576287, 14.373815716096104], [79.1938091562119, 14.374819331206476], [79.19131659298999, 14.377211336216583], [79.18773348234805, 14.383383728069965], [79.18559686307732, 14.385433947767265], [79.18487351949233, 14.387494995685973], [79.17988785838135, 14.392278724190904], [79.17915326450594, 14.39571738614832], [79.1769968685823, 14.400178371977933], [79.17377751451805, 14.404975542421914], [79.1702186999289, 14.408047871950501], [79.16625573513859, 14.41731672311468], [79.16447477690012, 14.419025023631496], [79.16234888529108, 14.419697336501077], [79.1598526422209, 14.422433308485047], [79.16018905645828, 14.424502499312878], [79.16159410893314, 14.425546736687751], [79.16406497751183, 14.425910407786352]], [[79.16232629597687, 14.422452587229778], [79.16375392208845, 14.420741559031896], [79.16587982135755, 14.420069234226732], [79.1676607794937, 14.418360922958373], [79.17126754526589, 14.40943371658414], [79.17554148585486, 14.405333604538175], [79.17876081125951, 14.400536406344777], [79.18165174780628, 14.392636730438365], [79.1862812749241, 14.38819466354165], [79.18700460916587, 14.386133610179813], [79.18842624746577, 14.385111203266227], [79.19272431271501, 14.37791096108665], [79.19557018350213, 14.375521634679803], [79.19804612956374, 14.375196064446936], [79.20585198015667, 14.37112212698994], [79.20832787525593, 14.370796441657038], [79.20865375409913, 14.374243281653573], [79.20722403071005, 14.376299078587724], [79.20683775388592, 14.380429395065534], [79.20433698814334, 14.383854791718814], [79.20360555631086, 14.386949163695673], [79.20182511743572, 14.388657811657106], [79.19930760713767, 14.394149619031687], [79.19218809274939, 14.400639522063413], [79.18896625054786, 14.405781348698902], [79.18469530289947, 14.409537320517458], [79.18114770912774, 14.411232181678633], [79.17687093248253, 14.4156768014646], [79.17013439918769, 14.418380114572823], [79.16478867212791, 14.423849467101745], [79.16231499952741, 14.423830212340333], [79.16232629597687, 14.422452587229778]]]]}}, {"type": "Feature", "properties": {"depth_class": 2, "depth_lo_m": 1.0, "t_s": 78300.19798496041}, "geometry": {"type": "MultiPolygon", "coordinates": [[[[79.02027459039152, 14.219826087145787], [79.02065159775512, 14.21707394186038], [79.01960750057071, 14.215343252802397], [79.01819839683871, 14.214987168333762], [79.01610126561869, 14.2125589214722], [79.01291806577964, 14.213221304854397], [79.01254398765876, 14.215629045399083], [79.01324101536012, 14.216668060368143], [79.01641525626744, 14.217038827487833], [79.01815339219868, 14.220152915754356], [79.02027459039152, 14.219826087145787]], [[79.01430610767282, 14.21598809505003], [79.013974124304, 14.213574486052321], [79.01644227872582, 14.213939381788796], [79.0164272670522, 14.215661296171254], [79.01430610767282, 14.21598809505003]]], [[[79.15890271052439, 14.235744762761133], [79.1582244551067, 14.232295207249601], [79.1561087649173, 14.231934450296858], [79.156100381072, 14.232967682060588], [79.15890271052439, 14.235744762761133]]], [[[79.08152913049344, 14.240990763783339], [79.0847533076638, 14.235505943341071], [79.08476782352267, 14.233783961502166], [79.0840674948359, 14.23308950458502], [79.08159311890579, 14.233414059554859], [79.07911000429254, 14.234771773679837], [79.07768315945009, 14.236482383125871], [79.07800125995254, 14.240617964216305], [79.07870158792157, 14.241312439113432], [79.08152913049344, 14.240990763783339]], [[79.0794456043216, 14.23684098520907], [79.08121678335148, 14.236166388189131], [79.08155531211784, 14.237891203576662], [79.07978120804124, 14.238910196697084], [79.0794456043216, 14.23684098520907]]], [[[79.03450175466527, 14.248529588185537], [79.034166569858, 14.24646036522745], [79.03310435377429, 14.246796021339028], [79.03344251277102, 14.248520859106744], [79.03450175466527, 14.248529588185537]]], [[[79.02628804568184, 14.259138443746428], [79.02630303036523, 14.257416525317973], [79.02383138253299, 14.257396052775857], [79.02416947409795, 14.259120895213629], [79.02628804568184, 14.259138443746428]]], [[[79.2056661606867, 14.30567754065602], [79.20603303231809, 14.303958116044546], [79.20462569530865, 14.30325861520478], [79.20390013832682, 14.305664203647591], [79.2056661606867, 14.30567754065602]]], [[[79.26899329833407, 14.33886973039419], [79.26900916120661, 14.33680315728845], [79.26866118395718, 14.33611172189457], [79.26760139144402, 14.33610398591736], [79.26723754223111, 14.33747912044651], [79.26792820125688, 14.339550851676236], [79.26899329833407, 14.33886973039419]]], [[[79.11274241581022, 14.477168246336298], [79.11951609965655, 14.470334125157652], [79.12059672392357, 14.467931822003454], [79.12237551754433, 14.466568343790351], [79.12489295871963, 14.461422107934697], [79.1273814220487, 14.459719813261254], [79.12950489254789, 14.45939227488068], [79.1288412692327, 14.45422067593306], [79.12745641676517, 14.450765452086957], [79.12818630724078, 14.448015880102217], [79.13494135718673, 14.443247537107665], [79.1395957626679, 14.436051427450794], [79.14208954175943, 14.433660122567957], [79.14954780243455, 14.42924123788068], [79.15557241437601, 14.427221867851204], [79.1590949533725, 14.428627096076967], [79.1590723094557, 14.43138233967075], [79.15550150805116, 14.435831985724459], [79.15619128844132, 14.437903942755028], [79.16431674198253, 14.438311788696982], [79.17316312639387, 14.437002797320975], [79.17809397886138, 14.439107541033176], [79.18091845253176, 14.439473787331186], [79.1847780334961, 14.442947859348942], [79.18582152905607, 14.44502248543418], [79.18614702625102, 14.448469308255426], [79.18860705898916, 14.450210397850956], [79.1906941941718, 14.45435962711616], [79.19385285747917, 14.457139337608572], [79.19526383906432, 14.457494590642368], [79.19563117861283, 14.455775241219746], [79.1942368948874, 14.453353522509401], [79.19425636110057, 14.450942641502984], [79.19218031152228, 14.445415793290849], [79.19219700649347, 14.443349324853296], [79.19397799544711, 14.44164081607536], [79.1900959953601, 14.440922169616748], [79.18657581048244, 14.439172950126222], [79.18517612926908, 14.437440018573362], [79.18271346053768, 14.436043320700021], [79.18132221989755, 14.43327714264648], [79.17779943058949, 14.431872222082937], [79.17745724331951, 14.430491855118074], [79.17960840045116, 14.426719728149626], [79.18103034711564, 14.425697403205355], [79.1828252170282, 14.422266918796092], [79.1863869184989, 14.418849997799452], [79.19028242650582, 14.417846601697953], [79.19065803820897, 14.415094015589025], [79.19849589257215, 14.407231962370194], [79.20098047766768, 14.405873159950803], [79.20521530364326, 14.4065942481922], [79.2041745094756, 14.4041752866147], [79.20454715494385, 14.401767067894598], [79.20917649439781, 14.397324524691667], [79.21133225226107, 14.392863166324654], [79.21524091557787, 14.390137204522118], [79.2156134027879, 14.387728949215786], [79.21811133064868, 14.38464783750494], [79.21988344156979, 14.383972303596474], [79.22202521854406, 14.381232898078107], [79.23053217560465, 14.377852271412065], [79.2316165196933, 14.3747604079719], [79.23304061509072, 14.373393278928733], [79.23728850945314, 14.37239162602233], [79.23907395882387, 14.369993818194665], [79.23979944384179, 14.367588115090316], [79.2451474128993, 14.361427826415966], [79.2476365963064, 14.359379589598966], [79.25082162157594, 14.358714238254102], [79.25438929548407, 14.354262763214427], [79.2597072806846, 14.351890752089027], [79.26219889049966, 14.349497906499257], [79.26292138966278, 14.347436520582141], [79.259741864067, 14.347413203574709], [79.25511455155123, 14.35185698580622], [79.24518767736551, 14.356261468567375], [79.2377685732428, 14.35620640811683], [79.23495575232222, 14.354463261377528], [79.23107501332747, 14.353745442170375], [79.22857764108792, 14.356826758254735], [79.22783853359046, 14.36095452226473], [79.22571333302186, 14.361627494481443], [79.22395772193701, 14.360236576556028], [79.22397402267536, 14.358170057188804], [79.22647146920016, 14.355088798931499], [79.22614259449685, 14.35198637040076], [79.22298480054322, 14.349207193262766], [79.21840583287432, 14.347450626109584], [79.2152291112638, 14.347082293677511], [79.2148867525759, 14.345701959789803], [79.21631345769217, 14.343990499834838], [79.2163270841766, 14.342268405215997], [79.2145798581866, 14.33984418364353], [79.21175924499612, 14.339134058116542], [79.20820203228789, 14.34220715786195], [79.20678624400189, 14.342540894914382], [79.20428596921916, 14.345966350251938], [79.2010873199312, 14.34835316105873], [79.20140759642811, 14.352488832233055], [79.19995319892814, 14.357644336440707], [79.19816748235641, 14.360041814720592], [79.19672398108678, 14.363819623185563], [79.19316892481703, 14.366548007844425], [79.1903093055087, 14.370659383467514], [79.18499308915588, 14.372685284442898], [79.1779186226727, 14.373664228357331], [79.17401548663544, 14.375700737440555], [79.16977579441765, 14.375667986450532], [79.16731106559016, 14.374615620757321], [79.1648379317308, 14.374596456604806], [79.1627096645164, 14.375613232897496], [79.15807437512564, 14.380743631566228], [79.15488890839188, 14.38140766493372], [79.15097130005636, 14.385165777865074], [79.15024765306637, 14.38722668231903], [79.14597937893471, 14.390637520573161], [79.14490233501449, 14.392695628771122], [79.14205291134348, 14.395428655361185], [79.14096439812205, 14.398864349146125], [79.14163400709016, 14.403347145188032], [79.13912060725892, 14.408149306453833], [79.13872724697175, 14.412968150468943], [79.13623941976117, 14.41467064422993], [79.1270549130579, 14.414253530210646], [79.12348673545652, 14.41835825515644], [79.12030067715321, 14.419021743452424], [79.11781266156252, 14.420724017036177], [79.11459758771622, 14.42483139146182], [79.11104643599288, 14.426869500027626], [79.11134173421651, 14.433760250584248], [79.10990493010497, 14.436504088263327], [79.10598849637164, 14.439916835925041], [79.10210115022434, 14.439885564343731], [79.09996616549743, 14.441590447453178], [79.10065249862666, 14.444006899811825], [79.10451073640817, 14.44748214630713], [79.10518254178277, 14.451620563560768], [79.10267650348646, 14.455388976658497], [79.10228507762109, 14.459863243196448], [79.09871565888278, 14.463967434341352], [79.0986951438146, 14.466378181821243], [79.10779696149379, 14.476784082748367], [79.10885148914168, 14.477481401710657], [79.11274241581022, 14.477168246336298]], [[79.16159693461577, 14.425202330615837], [79.15984133058645, 14.423810931676945], [79.16021167538864, 14.421747252380573], [79.16625573513859, 14.41731672311468], [79.1702186999289, 14.408047871950501], [79.17377751451805, 14.404975542421914], [79.1769968685823, 14.400178371977933], [79.17915326450594, 14.39571738614832], [79.17988785838135, 14.392278724190904], [79.18487351949233, 14.387494995685973], [79.18559686307732, 14.385433947767265], [79.18773348234805, 14.383383728069965], [79.19131659298999, 14.377211336216583], [79.1938091562119, 14.374819331206476], [79.1977038576287, 14.373815716096104], [79.20621901808828, 14.369402723325315], [79.20975206725873, 14.369429465785132], [79.21045045920157, 14.370468059077218], [79.21042305859821, 14.373912228791113], [79.20863180618669, 14.376998613915202], [79.20824829734617, 14.380784519017064], [79.2057475466777, 14.384209932528655], [79.20501613199318, 14.38730431090268], [79.20287685455332, 14.389699115274908], [79.20000324926076, 14.395532658755126], [79.193239829237, 14.401680868918895], [79.19251648223495, 14.403741939640325], [79.18930571232985, 14.407506117520395], [79.18539088571046, 14.41092039664103], [79.18184327273065, 14.412615266123241], [79.17756647853959, 14.417059896545904], [79.17047371980848, 14.420104893971857], [79.16583754269811, 14.425235338890987], [79.16406497751183, 14.425910407786352], [79.16159693461577, 14.425202330615837]], [[79.16183120587166, 14.396616589798017], [79.1611724670315, 14.390756174970933], [79.16188757985529, 14.38972844860112], [79.16330089151991, 14.389739431609161], [79.16435243321816, 14.390780886214312], [79.16432710069114, 14.39388055430214], [79.16253788319776, 14.396622085095585], [79.16183120587166, 14.396616589798017]], [[79.20855220597322, 14.386986687719986], [79.21069962586671, 14.383558571425496], [79.21180618369719, 14.377711498686882], [79.21359466657408, 14.374969502804563], [79.21363842974165, 14.369458821669948], [79.21189105970123, 14.367034564472803], [79.2101327691335, 14.365987966721205], [79.20695581662025, 14.36561949512464], [79.20235468529594, 14.36661792131409], [79.20130579850232, 14.365232210847454], [79.20132231306515, 14.363165717995576], [79.20421734033866, 14.354576761164427], [79.2046063069692, 14.350102024338032], [79.20888666320602, 14.344967834833467], [79.21172372975386, 14.343611493563682], [79.2102887907591, 14.346356175302367], [79.21027237854614, 14.34842268126891], [79.2120223429612, 14.350502517379706], [79.21484309535691, 14.351212655713503], [79.21694913229295, 14.352950704461191], [79.22190050818372, 14.352299024018112], [79.22295219954687, 14.35334023251116], [79.22294404767472, 14.354373492087166], [79.21937308300878, 14.359168841122214], [79.2197100331847, 14.361238010672476], [79.22111504621827, 14.36228188542638], [79.22110688062051, 14.363315143189995], [79.21898164407521, 14.363988049962163], [79.21755208414233, 14.366043929448633], [79.2178890198784, 14.36811309970675], [79.2192913362883, 14.36950140739431], [79.22176176649637, 14.369864415434392], [79.22353374780606, 14.369188838700001], [79.22532473409562, 14.366102308048463], [79.22994205856855, 14.363036897027236], [79.23068113971841, 14.358909123499728], [79.23175454178062, 14.357194929713025], [79.23422757579986, 14.357213372966147], [79.23845359881045, 14.35896704315547], [79.24198654621314, 14.358993286076705], [79.24303836878977, 14.360034419021007], [79.23983984904507, 14.362421774806135], [79.2369837743697, 14.366189398167153], [79.23518483152213, 14.370309300336176], [79.23164630495945, 14.370971777715951], [79.22915685514943, 14.373019813205111], [79.22807791739747, 14.375422822521537], [79.21921498063715, 14.379145127383607], [79.21707319546611, 14.381884506250266], [79.21316196813227, 14.384954936421055], [79.21136241864356, 14.389074583746094], [79.20817689960573, 14.389739339473044], [79.20855220597322, 14.386986687719986]]]]}}, {"type": "Feature", "properties": {"depth_class": 3, "depth_lo_m": 2.0, "t_s": 78300.19798496041}, "geometry": {"type": "MultiPolygon", "coordinates": [[[[79.01360606965545, 14.215293465045868], [79.0164272670522, 14.215661296171254], [79.01644227872582, 14.213939381788796], [79.013974124304, 14.213574486052321], [79.01360606965545, 14.215293465045868]]], [[[79.07943104488227, 14.238562961220072], [79.08155531211784, 14.237891203576662], [79.08121678335148, 14.236166388189131], [79.0794456043216, 14.23684098520907], [79.07943104488227, 14.238562961220072]]], [[[79.20817689960573, 14.389739339473044], [79.2120745733888, 14.388391094648862], [79.21316196813227, 14.384954936421055], [79.21707319546611, 14.381884506250266], [79.21921498063715, 14.379145127383607], [79.22807791739747, 14.375422822521537], [79.22915685514943, 14.373019813205111], [79.23164630495945, 14.370971777715951], [79.23518483152213, 14.370309300336176], [79.2369837743697, 14.366189398167153], [79.23983984904507, 14.362421774806135], [79.24303836878977, 14.360034419021007], [79.24198654621314, 14.358993286076705], [79.23845359881045, 14.35896704315547], [79.23422757579986, 14.357213372966147], [79.23175454178062, 14.357194929713025], [79.23068113971841, 14.358909123499728], [79.22994205856855, 14.363036897027236], [79.22532473409562, 14.366102308048463], [79.22353374780606, 14.369188838700001], [79.22176176649637, 14.369864415434392], [79.2192913362883, 14.36950140739431], [79.2178890198784, 14.36811309970675], [79.21755208414233, 14.366043929448633], [79.21898164407521, 14.363988049962163], [79.22110688062051, 14.363315143189995], [79.22111504621827, 14.36228188542638], [79.2197100331847, 14.361238010672476], [79.21937308300878, 14.359168841122214], [79.22294404767472, 14.354373492087166], [79.22295219954687, 14.35334023251116], [79.22190050818372, 14.352299024018112], [79.21694913229295, 14.352950704461191], [79.21484309535691, 14.351212655713503], [79.2120223429612, 14.350502517379706], [79.21027237854614, 14.34842268126891], [79.2102887907591, 14.346356175302367], [79.21172372975386, 14.343611493563682], [79.20888666320602, 14.344967834833467], [79.2046063069692, 14.350102024338032], [79.20421734033866, 14.354576761164427], [79.20132231306515, 14.363165717995576], [79.20130579850232, 14.365232210847454], [79.20235468529594, 14.36661792131409], [79.20695581662025, 14.36561949512464], [79.2101327691335, 14.365987966721205], [79.21189105970123, 14.367034564472803], [79.21363842974165, 14.369458821669948], [79.21359466657408, 14.374969502804563], [79.21180618369719, 14.377711498686882], [79.21069962586671, 14.383558571425496], [79.20855220597322, 14.386986687719986], [79.20817689960573, 14.389739339473044]]]]}}]}