{"type": "FeatureCollection", "features": [{"type": "Feature", "properties": {"depth_class": 1, "depth_lo_m": 0.3, "t_s": 22500.291844989086}, "geometry": {"type": "MultiPolygon", "coordinates": [[[[79.11821835883717, 14.245071512487145], [79.1200123397684, 14.241641396174037], [79.12003799761582, 14.238541766691025], [79.11829255398747, 14.236117036826895], [79.11652716042659, 14.236103117445637], [79.11509484272739, 14.238502789204585], [79.1147074527306, 14.242632827691756], [79.11680598822896, 14.245060370735448], [79.11821835883717, 14.245071512487145]]], [[[79.17997298035772, 14.425344816653455], [79.18602796630415, 14.419536103891108], [79.18709367554612, 14.418855427882201], [79.18992070668077, 14.418877127075152], [79.19063302459087, 14.418193722865704], [79.19100863316113, 14.41544113584089], [79.1999093432424, 14.407242739425351], [79.20309236980073, 14.406922542343578], [79.20484816266641, 14.408313637227861], [79.2062616250962, 14.408324377067611], [79.20698487085272, 14.406263252036881], [79.20523458625085, 14.404183343046759], [79.20524835735444, 14.40246126762673], [79.20987770059568, 14.398018710976224], [79.21167462509588, 14.394243505915417], [79.21558604699099, 14.391173123657676], [79.2166761421605, 14.387392527694674], [79.22307975232125, 14.38192970016809], [79.22626785560439, 14.380920305651882], [79.22804534788564, 14.379555864093883], [79.23123069245132, 14.378890816704724], [79.23373913304017, 14.374431816925545], [79.2376310303107, 14.373771945002995], [79.24012581171019, 14.371034967484965], [79.24120729282689, 14.368287462426254], [79.24440857793272, 14.365555673608712], [79.24762319228597, 14.361101710958742], [79.25151751563804, 14.360097154143785], [79.25437327836377, 14.35632931718623], [79.26040321633127, 14.35327364640989], [79.26325343311642, 14.350194528592846], [79.26715811749528, 14.347811971903818], [79.26860564447016, 14.343344725202249], [79.27038523634423, 14.34163546992093], [79.27078077088025, 14.336127179663677], [79.2693862113839, 14.333705873555566], [79.2694047066758, 14.331294870013028], [79.27084148995279, 14.328205304712025], [79.27122903835334, 14.323730292909282], [79.27016930253109, 14.3237225749226], [79.26624127710075, 14.329205094095299], [79.26548975454689, 14.335055214957395], [79.2658085853734, 14.339535364815033], [79.26438225279499, 14.341247169396139], [79.2636518336472, 14.344341847628707], [79.26188279742698, 14.34467333451875], [79.2566502392639, 14.336023770613478], [79.25599963138049, 14.328785619113143], [79.251479416577, 14.319452331645904], [79.25151941353371, 14.31428593799858], [79.25046773546948, 14.313244858681056], [79.25083429366501, 14.311525328063729], [79.2536627376808, 14.311201684788566], [79.25577409702652, 14.312250531558439], [79.26107777465498, 14.311600508655768], [79.2624986190092, 14.310577558479604], [79.26251450862785, 14.308510987596867], [79.25865032296956, 14.305727129501912], [79.25335476926945, 14.305343832640345], [79.25051306986705, 14.307389612494106], [79.24910287494723, 14.307034783097006], [79.24771671507769, 14.30358011289161], [79.24525227056316, 14.302528600791396], [79.24244803177614, 14.299752330015579], [79.2403636540972, 14.295259136603326], [79.237902021761, 14.293863137468543], [79.23615754132211, 14.29109465763642], [79.23439429087315, 14.290737136333572], [79.23264180706286, 14.289001908476918], [79.23441041409427, 14.288670593193851], [79.2386352193411, 14.290424122893015], [79.24534845941928, 14.290129275935184], [79.24889899811146, 14.287744307549858], [79.24963466448634, 14.283960809158222], [79.24822994312983, 14.282917137477536], [79.24646405751386, 14.282904136846092], [79.24398113493268, 14.284263617243166], [79.24115570846119, 14.284242757619273], [79.24010420680517, 14.283201651355323], [79.23516511640277, 14.282476198795766], [79.2323531693842, 14.280733118593327], [79.22917463445113, 14.28070949965198], [79.2263870354382, 14.275866551862894], [79.22462122563184, 14.275853395613238], [79.22143195521008, 14.277207368658921], [79.21648767638847, 14.2771703919805], [79.21366781296005, 14.276460375737889], [79.21085885153838, 14.274372648666299], [79.2048497377808, 14.275016314858716], [79.20454024827694, 14.269502953005821], [79.20244594505932, 14.266387210355253], [79.20103884114793, 14.265687714850912], [79.19750469241258, 14.266005449747752], [79.19470973259075, 14.262195477205816], [79.19049135912938, 14.259752432109208], [79.19014922263128, 14.258372086110061], [79.1852385032545, 14.254201522418041], [79.18349496000445, 14.25143275883265], [79.18032796757251, 14.250030877583448], [79.17822587786972, 14.247948221193903], [79.17610999077321, 14.247587620782241], [79.16872251455732, 14.244086695391989], [79.16554738740389, 14.243717876599996], [79.16274766694436, 14.24059644244639], [79.16133807661024, 14.240241156124016], [79.16069044860897, 14.233003077225476], [79.15859707018801, 14.22988705204768], [79.15825794619212, 14.228162274439399], [79.15719872272612, 14.228154106077461], [79.15648419434432, 14.229181890211615], [79.15401266536408, 14.229162803722234], [79.1525919666536, 14.230185115643948], [79.15327013224434, 14.23363467665377], [79.15607522550218, 14.23606737678744], [79.1556969726639, 14.23916434307743], [79.15072004897519, 14.243259013530812], [79.1499885984447, 14.246353221910898], [79.14714692369384, 14.24839775454757], [79.14535607520573, 14.25148370876801], [79.14111031739796, 14.25248394692794], [79.13968941097791, 14.253506155380036], [79.12379952533864, 14.253381686433853], [79.12204539373508, 14.25199017803952], [79.12065864575602, 14.248879425734941], [79.11889029613855, 14.249209914444725], [79.11850578684952, 14.25299555925682], [79.11532784325982, 14.252970468758052], [79.10442766713189, 14.247373324286823], [79.09349915800848, 14.2452197244742], [79.08749377244213, 14.245516088937682], [79.08327708416991, 14.243071321738906], [79.08721900759254, 14.236214548451978], [79.08690943095118, 14.231045767263229], [79.0862120022564, 14.230006919928536], [79.08444959173053, 14.229648372938314], [79.0787773197421, 14.232358166893043], [79.0762825407104, 14.235093429798283], [79.0724017121083, 14.234717715210657], [79.06990390907981, 14.237797291273429], [79.06602012696425, 14.23776586099119], [79.06494917931053, 14.239134847079017], [79.06457262674807, 14.241887121583815], [79.0603033473116, 14.24564102909211], [79.06029746195924, 14.24632981122034], [79.05709908519735, 14.248714689829521], [79.05426554361816, 14.249724838209422], [79.05179393799874, 14.249704666071748], [79.04828380971252, 14.247265084721427], [79.04581223970656, 14.247244854048365], [79.04511200938244, 14.246550293330625], [79.04588041193954, 14.239323926116858], [79.0448330639127, 14.237937700645395], [79.04342079863206, 14.23792613038661], [79.04021348907249, 14.241343937960142], [79.03775092272132, 14.240290472273603], [79.03421427825029, 14.240950193275568], [79.03170995935601, 14.244718063613753], [79.02922349320121, 14.24641958820138], [79.02850537615574, 14.247791292440597], [79.02884349975561, 14.249516132287754], [79.0306029290361, 14.25021948280852], [79.03163827822749, 14.252983305445829], [79.03125231610841, 14.25676862415285], [79.02842158876946, 14.257434052849279], [79.02702419351175, 14.255700450490021], [79.02385238395598, 14.254985370136334], [79.02172184109583, 14.256345336206566], [79.02170081494938, 14.258756015458795], [79.02309818092728, 14.260489645803197], [79.02273307215931, 14.261864248801174], [79.01954315208523, 14.263215395273821], [79.01390260601633, 14.262135241594166], [79.01283727726722, 14.262815174357307], [79.01246304468818, 14.265222894662804], [79.01140071790434, 14.26555843802261], [79.01035047926209, 14.264516455630098], [79.00788483040775, 14.263807048410294], [79.00754686381309, 14.26208219864711], [79.01112615225826, 14.256601600216054], [79.01257470972965, 14.252480805487576], [79.01225782599579, 14.24834529140339], [79.00945134346952, 14.246255457608155], [79.00628277369134, 14.245195787324302], [78.99745302311908, 14.245466252771728], [78.99605595065901, 14.243732507566753], [78.99606506909568, 14.242699374253473], [78.99963817566199, 14.237907693556501], [79.0021186619923, 14.23689525143495], [79.00389907170315, 14.235188119046777], [79.01347068565575, 14.230790656517529], [79.01596908462153, 14.227711757611065], [79.01777634493008, 14.222905051844313], [79.02132470169113, 14.220868008578503], [79.02172565819563, 14.215360789038128], [79.01998150451747, 14.212935491362503], [79.01752235037748, 14.211537483288634], [79.01363913874474, 14.211505259444257], [79.01222104809472, 14.2121822902303], [79.01114392998348, 14.214239775182309], [79.01144878729457, 14.219752819826976], [79.00928538036423, 14.224900904731014], [79.00466868065415, 14.227962042716774], [78.99758357643012, 14.230657988982585], [78.99188616877954, 14.236120598839655], [78.98973432975912, 14.239890915341032], [78.98967639681597, 14.246434067435272], [78.99176738206583, 14.249551297369765], [78.997742289312, 14.252701152863452], [79.00197924729565, 14.25273668497696], [79.0033976300056, 14.25205975420354], [79.0048038924297, 14.252760331301248], [79.00443566613988, 14.25447927354424], [79.00194285007281, 14.256869229185062], [78.99907865959518, 14.261322455746683], [78.99799201275678, 14.264412960199735], [78.9979707219501, 14.266823602924841], [78.99935576764734, 14.269934865156847], [79.00215936751864, 14.272369218278326], [79.01062498100738, 14.273473286019549], [79.01452131709938, 14.272128173200123], [79.01840556726567, 14.272160517103188], [79.02124251265622, 14.270806471222905], [79.02406741595969, 14.270829918533622], [79.0258179801662, 14.272566472121888], [79.02723044605823, 14.27257817425206], [79.02829878708056, 14.271553794248124], [79.02903197610179, 14.268460183369264], [79.0318807867255, 14.265728457865308], [79.03682429192142, 14.265769233839507], [79.03753647109768, 14.265086278990694], [79.03827546391578, 14.261303847067973], [79.04255132888875, 14.256861648537813], [79.04396074135333, 14.257217626380967], [79.04392509692434, 14.26135027418972], [79.04602293917367, 14.263778363469092], [79.05061629702749, 14.26347156436542], [79.05345594218748, 14.261772705987925], [79.05522147001574, 14.261787116898528], [79.0576755106259, 14.263873610492466], [79.05980006364746, 14.263202086103979], [79.06509082803518, 14.263933926043302], [79.07183216979686, 14.26019997628034], [79.07468333884387, 14.257123264641878], [79.07857038926073, 14.2568102011784], [79.07997697106462, 14.257510367824697], [79.07997114032506, 14.258199157286024], [79.07819102292703, 14.259906904802657], [79.07571050419973, 14.260920147912824], [79.07569589074575, 14.262642116667166], [79.0785237028521, 14.262320511450639], [79.08097799499441, 14.264406792637605], [79.08450915115459, 14.264435198986211], [79.08977687756972, 14.26792167530285], [79.09190431199205, 14.266905460685845], [79.09542974187558, 14.26762250520573], [79.10496697653082, 14.26735412179908], [79.10847810766059, 14.269792979627386], [79.1116534045229, 14.270162591178275], [79.11302290276608, 14.275339796873752], [79.11123997875676, 14.277392203839854], [79.1087564851214, 14.278750184359954], [79.10699076957162, 14.278736153519452], [79.10488920386469, 14.276652904202209], [79.10171672632545, 14.275938794148953], [79.09891764006157, 14.272816676716594], [79.09540369297333, 14.27072208290551], [79.09151928911662, 14.27069099714533], [79.09220234524899, 14.273451828157953], [79.09360327994087, 14.274840725539335], [79.09713173178702, 14.27521336278227], [79.09994526203735, 14.276613510291979], [79.10132316735081, 14.280757557396878], [79.10729785129183, 14.284249353580869], [79.108696070778, 14.28598258033855], [79.11682437657716, 14.285358185088702], [79.12391033008848, 14.282658741483512], [79.1289056940792, 14.276498384120444], [79.12860660114575, 14.269951933004794], [79.13252796551915, 14.265505148392526], [79.13535582081923, 14.265182862934989], [79.14099457401473, 14.266604628427523], [79.1434777749253, 14.265246270402603], [79.14665875736857, 14.264926598971044], [79.14877191046949, 14.265631882383326], [79.15016757120621, 14.267709301154094], [79.15473589237594, 14.27050016921627], [79.16037774980438, 14.27157709557113], [79.16496860921936, 14.271612502237659], [79.17271834115655, 14.27408310844677], [79.17692287055436, 14.27824854112497], [79.17938665984644, 14.279300695523295], [79.18218428016851, 14.28276642308184], [79.18461776393478, 14.287607091555222], [79.1852633389497, 14.295189598135162], [79.1834835887017, 14.29689818950536], [79.18346699061645, 14.298964673440654], [79.18416783929072, 14.299658896210737], [79.18628698693391, 14.299675068263648], [79.1870016537706, 14.298647210871419], [79.18877036324056, 14.298316251936662], [79.19438290645577, 14.303181046166383], [79.20252292187436, 14.301176097610767], [79.20394665331582, 14.299809101900697], [79.20325394539682, 14.298081677047383], [79.19760287756691, 14.298038917384766], [79.19619835423214, 14.29699495721897], [79.19586164766689, 14.294925779921815], [79.19835315126464, 14.292533599229818], [79.19836686344169, 14.290811514165672], [79.19696786501716, 14.289078729142219], [79.18992637452116, 14.286269780860277], [79.18923931708719, 14.283853499770284], [79.19102166597042, 14.281800430407127], [79.19278474057978, 14.282158257378281], [79.19488176584245, 14.284929666100904], [79.19698981495468, 14.286323394224814], [79.20227100076781, 14.288429974140698], [79.21105415865848, 14.294351640486916], [79.21210555658288, 14.2953928647974], [79.21208377620479, 14.298148220542032], [79.21278472095936, 14.298842368975047], [79.2149011757004, 14.299202705138304], [79.22021539170099, 14.297175888470496], [79.22233185107734, 14.297536158079891], [79.22196511679078, 14.29925562435347], [79.21983237434867, 14.300961874746251], [79.21664814399456, 14.301626896148726], [79.21450174093891, 14.30505518979575], [79.2148195804082, 14.309535298244155], [79.21586562061279, 14.31126535440089], [79.21833541395888, 14.311628325451391], [79.22117199366643, 14.31027181240408], [79.22398959301938, 14.311326210644033], [79.22503842104427, 14.312711813814804], [79.22465542558523, 14.316497809467219], [79.22251981092869, 14.318548485999301], [79.21897395156618, 14.320244126514233], [79.21858810933921, 14.324374516769224], [79.21928371348902, 14.325757496301305], [79.2192483820294, 14.330234955212036], [79.21780274953674, 14.33435738381532], [79.21815055976829, 14.335048875833532], [79.22027551429318, 14.334375943733692], [79.22349547050992, 14.329233459727009], [79.2235063163158, 14.327855776944846], [79.22245743942085, 14.326470161645526], [79.22319103234905, 14.323031242957594], [79.22744608453279, 14.32099639374563], [79.2288752257903, 14.318940403848686], [79.22993761541373, 14.318603881313955], [79.23203811705346, 14.321030623877038], [79.2316633011503, 14.323783373159051], [79.23306007686497, 14.325860427427155], [79.23255029587828, 14.345834285257817], [79.23075959693695, 14.348920905453598], [79.23002869072404, 14.352015422789803], [79.22895801396626, 14.353385189798011], [79.22789816285106, 14.35337726720503], [79.2268545785761, 14.351302816078212], [79.22404734387801, 14.348870715360825], [79.2201667554955, 14.348152732195688], [79.21629437757335, 14.346401431860578], [79.21737325798192, 14.343998469119875], [79.2173923232334, 14.34158753518511], [79.21600107318234, 14.33882155870877], [79.21318319492002, 14.337767032514622], [79.2107049368513, 14.338437230420183], [79.20501718974548, 14.34287194943984], [79.20251413900652, 14.3466417986806], [79.20003025983604, 14.348000700928857], [79.20033951049153, 14.353514033810916], [79.19889334460626, 14.357636281841524], [79.19674881247691, 14.360719891237453], [79.19602015376691, 14.363469827605272], [79.1924678626385, 14.36585378767856], [79.19138859688387, 14.368256589615164], [79.18854278931968, 14.370645872663133], [79.1807478564349, 14.373341559316994], [79.1779186226727, 14.373664228357331], [79.1701122855729, 14.377737173423307], [79.17113299225831, 14.382567097243749], [79.17322210925687, 14.386371982399272], [79.177075153131, 14.39053489395705], [79.17989902131718, 14.390901081837786], [79.1845174078737, 14.38783669495527], [79.18523797467802, 14.386120060473111], [79.1884429042474, 14.383044728603117], [79.19023724609981, 14.379614122895765], [79.1938008577656, 14.375852572376258], [79.19840495968694, 14.374509925089518], [79.20692013743364, 14.370096908785174], [79.20868666723874, 14.370110281999258], [79.20938231410894, 14.371493294852066], [79.20936586358599, 14.373559795416853], [79.20757185566644, 14.376990587561028], [79.20718558242741, 14.38112090498126], [79.2050463926695, 14.383515739690326], [79.2043149720176, 14.386610115208743], [79.20181684751218, 14.389691056196655], [79.1996581882835, 14.394496724768329], [79.19253589722011, 14.401331050816793], [79.1893112712017, 14.406817293640351], [79.18539645797401, 14.410231574457937], [79.1825583807423, 14.411587475998964], [79.17756367904373, 14.417404305940801], [79.17471986138628, 14.41944891384389], [79.17434965385203, 14.421512632532178], [79.17574635540707, 14.423590017976602], [79.17749927019791, 14.425325719107793], [79.17997298035772, 14.425344816653455]], [[79.19570222569257, 14.403077424327792], [79.20176721416613, 14.395890521443508], [79.20428744529637, 14.390054268623738], [79.2064294623406, 14.387315034428921], [79.20644320747006, 14.385592955425963], [79.20894396639584, 14.38216753549005], [79.20932746885236, 14.378381628595832], [79.21148299627279, 14.37392024070054], [79.21151038066832, 14.370476068987044], [79.20940972583044, 14.368049126403028], [79.20623000134847, 14.368025058223262], [79.2030337782721, 14.370067441372527], [79.19665497388587, 14.372429985238453], [79.19276582926325, 14.372744758266839], [79.19242636000422, 14.371019992645321], [79.19421776218975, 14.367933749097524], [79.19920530691925, 14.36280519514274], [79.19958063612495, 14.360052559221714], [79.20064875978113, 14.359027365622717], [79.20245643411624, 14.353874536819475], [79.20285092658362, 14.348710974154663], [79.2049815309583, 14.347349366900886], [79.20748455290497, 14.343579487921314], [79.21174831853565, 14.340511730750668], [79.21386515321163, 14.34087212012583], [79.21491402891837, 14.342257773473325], [79.21454712532405, 14.343977207180625], [79.21276440824913, 14.34603041059147], [79.21309856031921, 14.34844400059616], [79.21767204399171, 14.350889505663032], [79.22015043170691, 14.350219249017472], [79.2229739346986, 14.350584873180107], [79.22508003788921, 14.352322856285257], [79.22541975247785, 14.35404760339893], [79.22327831213514, 14.356787080146708], [79.22219125484999, 14.360223326165166], [79.22500130943727, 14.36231104065547], [79.22747710257654, 14.361985140357772], [79.22857764108792, 14.356826758254735], [79.23179239753132, 14.352373028945438], [79.23396068819734, 14.346189236664866], [79.23510409195737, 14.335520030778548], [79.23794360335904, 14.33381891961034], [79.23831568587596, 14.331410579130907], [79.24189918475801, 14.324892716303996], [79.24232749807514, 14.315251447257705], [79.23885429892964, 14.307647958438617], [79.23604740417817, 14.305216038737479], [79.23427866568494, 14.305547351160987], [79.23596135991207, 14.31623759226518], [79.2376898660249, 14.321072631523757], [79.23692421194282, 14.3286447008635], [79.23620695008036, 14.330017144458697], [79.23550045303483, 14.330011893234369], [79.23518491315942, 14.325187346184508], [79.23413596870758, 14.323801775394216], [79.23452421999164, 14.319326903767115], [79.23313015745406, 14.31690543729668], [79.23352917156518, 14.311052873548402], [79.23283081592237, 14.310014352278731], [79.23253146729611, 14.303123265185668], [79.23147993264988, 14.302082116829329], [79.22865160439561, 14.302405505662183], [79.22761359098493, 14.299642231142663], [79.22375545159173, 14.296169026721618], [79.21951984824105, 14.29579291803977], [79.2152733978331, 14.29679441586451], [79.21423557250645, 14.294031103601371], [79.21036412981732, 14.292279811941743], [79.20826411403638, 14.289852930098359], [79.19770712952925, 14.28495107579956], [79.19595499959792, 14.283215614797859], [79.19562653340842, 14.280113187124867], [79.19211415474497, 14.277675484453678], [79.18896602195525, 14.273862761107193], [79.1819223468046, 14.27139805469688], [79.17874403098574, 14.271373778265918], [79.17731759554705, 14.273085042895717], [79.17625815111474, 14.273076934049245], [79.1731048129623, 14.269952864479475], [79.16465730281567, 14.266443613909187], [79.15336542493965, 14.265323089009273], [79.15055161462708, 14.263923548326773], [79.14772940144042, 14.263557202666576], [79.14207372590037, 14.264202042124326], [79.13289811159635, 14.26344148452697], [79.12720545144187, 14.268563218357876], [79.12749881318325, 14.2757984742617], [79.12250628838736, 14.281614397074375], [79.1161323965595, 14.283630589606874], [79.11189744532496, 14.283252613213588], [79.11084374031812, 14.282555407226582], [79.11192616386946, 14.27980860853229], [79.11512740808234, 14.277078581067974], [79.11866741355578, 14.276073300010935], [79.12044740813293, 14.274365230021303], [79.1222445004561, 14.270590726361116], [79.12544834186501, 14.26751612333497], [79.12546543063395, 14.26544970178091], [79.12229585766664, 14.264391473583512], [79.11276154571772, 14.264316167822813], [79.11135766674703, 14.263271776415419], [79.10431256376467, 14.261149314202127], [79.10221693151448, 14.258377263194337], [79.09764961200594, 14.255585494338204], [79.09024892072615, 14.253804240864943], [79.08564990089374, 14.254800627734319], [79.08176870384793, 14.25442502190784], [79.07469795408835, 14.255401296121379], [79.0707904274354, 14.25812504907252], [79.06831283967634, 14.25879382123519], [79.06545863192139, 14.262214834339504], [79.05875253158175, 14.26181589954696], [79.0562925957578, 14.260418197953737], [79.05100196640724, 14.259686176400598], [79.05029576335859, 14.259680401939097], [79.04886557906843, 14.261735176511383], [79.04639385061445, 14.261714931771102], [79.04641758548662, 14.258959829408644], [79.04924534627528, 14.258638571089168], [79.0492542324608, 14.257605405753338], [79.04645614384735, 14.254482786631995], [79.04363140601255, 14.25445963067784], [79.0372251026873, 14.260261969446738], [79.03507367789399, 14.264032756153595], [79.03153964166007, 14.26434800305372], [79.0265542061584, 14.269128490490816], [79.02125454144617, 14.269428942056773], [79.01877072647615, 14.270785927389227], [79.01382414727546, 14.271089143614537], [79.01169641400274, 14.272104610640259], [79.00287469602794, 14.2713420052724], [79.00076819437845, 14.269946721999592], [78.99938008837329, 14.267179843233583], [78.99941048198322, 14.263736064878477], [79.00263992579787, 14.25790828194337], [79.00548886168195, 14.25517689383901], [79.00621924309269, 14.252427762293493], [79.00481903309814, 14.251038434459035], [78.99881063964312, 14.251676908657936], [78.99318272053458, 14.249218805571283], [78.99073864895658, 14.246098612922705], [78.99078740958196, 14.240588586599344], [78.99258314370114, 14.237159668319691], [78.99757143826315, 14.232035502715865], [79.00501265517985, 14.228998131588707], [79.0099854290189, 14.225595549010356], [79.01250487160272, 14.220106010992328], [79.012202997849, 14.21424858245104], [79.01363012086742, 14.21253840655277], [79.0164542866189, 14.212561850093463], [79.01996352372115, 14.215001793205838], [79.02065759050254, 14.216385174452778], [79.0202715927226, 14.22017047067595], [79.01743831970194, 14.2211802087057], [79.01491295909705, 14.227358576681466], [79.01277061110555, 14.230096019271565], [79.00638555723341, 14.233486865608189], [79.0028459663817, 14.234490503376998], [79.00106555602208, 14.236197627680115], [78.99858507455083, 14.237210059290016], [78.995011960931, 14.242001723000053], [78.99499067335141, 14.244412365830504], [78.99568464339225, 14.245795808389577], [78.99744087099927, 14.246843764690611], [79.00556755798368, 14.246223025437248], [79.00873613681254, 14.247282706573767], [79.01119256376643, 14.249025225320313], [79.01151848152496, 14.252127595930862], [79.01006990886377, 14.256248382152929], [79.0057753265204, 14.262756193003831], [79.00610722154019, 14.265169802105191], [79.00892900374058, 14.265537799539805], [79.0110325061961, 14.267277392535977], [79.01350726079215, 14.266953630911559], [79.01493777641797, 14.264899114944043], [79.01952810972672, 14.26493730581218], [79.0252017676048, 14.26222912235186], [79.02592595684189, 14.260168671006417], [79.02416347324052, 14.259809661628847], [79.02311619313582, 14.258423347882134], [79.02312519815858, 14.257390198779223], [79.02419347432493, 14.256365829130923], [79.0266591193942, 14.25707506408764], [79.02805052970153, 14.259497437185514], [79.03052818815748, 14.25882909987235], [79.03301479503504, 14.257127579575796], [79.03375381757225, 14.253345165658079], [79.03098290131727, 14.247122933148882], [79.0352675261025, 14.241647686474783], [79.03703585515123, 14.241317825573727], [79.03914238148492, 14.242712785816925], [79.04090774594513, 14.24272728372766], [79.04197884403057, 14.241358426588812], [79.04374716771459, 14.241028514382489], [79.04444441271835, 14.24206746461991], [79.0437085938762, 14.245505554926513], [79.0440408995861, 14.247919163266337], [79.04932233624737, 14.249684468364002], [79.05247942153223, 14.252121157385414], [79.05813476837226, 14.25147843806328], [79.05739910178262, 14.254916590612146], [79.06021797893187, 14.255628365833848], [79.0644757185836, 14.25325205370646], [79.06449040712853, 14.251530095029976], [79.06344288808029, 14.250143931013257], [79.06909232808479, 14.250189726798443], [79.07655102483659, 14.245083716139971], [79.07655977800407, 14.24405053288094], [79.07550636870332, 14.243353204632706], [79.0681033983892, 14.241915726670062], [79.06740310535726, 14.241221224540201], [79.06741775879432, 14.239499261143617], [79.07094849927428, 14.239527819472766], [79.07274017154056, 14.236442534605917], [79.07450552261072, 14.236456777950805], [79.07624754173139, 14.239226164684515], [79.07697993270257, 14.236132301993182], [79.07911873922517, 14.233738587972857], [79.08301991504312, 14.231703420196371], [79.08478523999298, 14.231717582949239], [79.08582993037736, 14.23344805756965], [79.0858067175185, 14.236203230180847], [79.0829414467776, 14.241002111078394], [79.08044951502933, 14.243393014797077], [79.08079386404539, 14.244429040365423], [79.08431889701365, 14.245146202500454], [79.08853853471933, 14.24724656034157], [79.09454396847764, 14.246950175149692], [79.10511947856457, 14.249100934078434], [79.1096839193935, 14.252236957304282], [79.1135594583154, 14.253300912936108], [79.11566664608851, 14.25469526875757], [79.13826283969036, 14.25521716662816], [79.14782502378554, 14.251847322632122], [79.1587714488505, 14.251932069975146], [79.16016714020036, 14.254009433305825], [79.1566108054311, 14.257081857255828], [79.15800929827662, 14.258814823628665], [79.16578636044795, 14.25784148047413], [79.17565441945251, 14.260328230572695], [79.17850710614442, 14.256905690314284], [79.1778202247004, 14.254489395618142], [79.16938427937778, 14.249602717424088], [79.16020902473282, 14.248843270767988], [79.16164934613874, 14.245410046142668], [79.16166607794455, 14.243343578197699], [79.16272537487623, 14.243351735267456], [79.16447973412798, 14.244742967476457], [79.16836107764723, 14.24511722347495], [79.18207421996397, 14.252455243744539], [79.18697107481262, 14.258347940973986], [79.18835331968614, 14.262147253515764], [79.19327523818822, 14.264940110317923], [79.19642608592467, 14.268408356013618], [79.19818907235931, 14.26876613206679], [79.20101970717054, 14.268098642496323], [79.2020736786063, 14.268795475299346], [79.20311400214553, 14.27121439682093], [79.2027362639272, 14.274311498497896], [79.20448293136637, 14.276735746047642], [79.21013076730532, 14.277122699891306], [79.21433340040629, 14.281631978587557], [79.21749565343546, 14.283722322463113], [79.22630610284318, 14.286199229917868], [79.23015874748052, 14.290361226714799], [79.23156879824745, 14.290716153659105], [79.23964654237584, 14.29663160878916], [79.24138306746819, 14.300433346173607], [79.24873364613515, 14.309098736951528], [79.24904682697128, 14.314267728573464], [79.25008782817787, 14.316686517930384], [79.25075426853516, 14.321858111606383], [79.25319762333916, 14.325665002655107], [79.25243511800615, 14.332892750837456], [79.2545413309055, 14.334630481677687], [79.25522653384782, 14.337391088905644], [79.25836600390218, 14.34258085311952], [79.25870065167317, 14.34499443474183], [79.25239508782394, 14.338059138942727], [79.25068486175431, 14.330813183063958], [79.2499863708634, 14.32977469791509], [79.24822279150575, 14.329417243371308], [79.24501407438079, 14.333182429105106], [79.2442646652289, 14.338687992674519], [79.2424768697758, 14.341430304118974], [79.23993675593226, 14.350022548495248], [79.2381488051857, 14.352764808529258], [79.23812994654739, 14.355175767381844], [79.23918442640598, 14.355872490882565], [79.24448109466485, 14.356256234711246], [79.24909263035987, 14.35387924432647], [79.25121503625897, 14.353550470682027], [79.25725025690474, 14.349806023381902], [79.25905126760568, 14.345341455562226], [79.26080967952878, 14.346387699381786], [79.26398919246923, 14.346411000444679], [79.2654102637309, 14.345388058923922], [79.26575559101423, 14.346423927077721], [79.25970461992989, 14.35223517882452], [79.25332141261153, 14.355288230297747], [79.25153088890413, 14.358375029040022], [79.24657134166137, 14.36006059549454], [79.23980213802228, 14.367243692478157], [79.2369351942598, 14.372388994695928], [79.23233398325405, 14.373388002712645], [79.22982824218175, 14.377502565651174], [79.22096796599347, 14.380880510705694], [79.21811679206297, 14.38395900137083], [79.21741013276674, 14.383953676790505], [79.21455887116095, 14.387032113674195], [79.21382756065005, 14.39012653159436], [79.21027771406388, 14.392166310714995], [79.20740975027375, 14.39731113037669], [79.20242978385805, 14.401406532154631], [79.20135040161018, 14.403809365241433], [79.19568561153875, 14.405143903811185], [79.19570222569257, 14.403077424327792]], [[79.22537632645437, 14.35955832711996], [79.22539261337447, 14.357491806039418], [79.22681119630342, 14.35681354537185], [79.2267894982566, 14.359568909011307], [79.22537632645437, 14.35955832711996]], [[79.24450525536288, 14.353156420046808], [79.2441680761375, 14.351087259729345], [79.24593717418284, 14.3507559139224], [79.24627436983612, 14.352825073568772], [79.24556243233386, 14.353508692366194], [79.24450525536288, 14.353156420046808]], [[79.25123642615961, 14.350795069318496], [79.25126315714648, 14.34735081667121], [79.25340685275292, 14.344266609996193], [79.25481995002919, 14.344277013884742], [79.25657300224519, 14.34601213872213], [79.25655434991081, 14.34842312280861], [79.25513055667116, 14.349790430237048], [79.25123642615961, 14.350795069318496]], [[79.24809971688497, 14.345260794932003], [79.24637889156998, 14.339392520392941], [79.24641906341064, 14.33422614954514], [79.24749221408852, 14.332511853989725], [79.24889988618035, 14.333211135349613], [79.25131125503547, 14.34115115926676], [79.25058600782863, 14.343556926403659], [79.24880359035905, 14.34561043900768], [79.24809971688497, 14.345260794932003]], [[79.26649923483654, 14.341607099097494], [79.267566992493, 14.340581557421253], [79.26724548122344, 14.336445834782962], [79.26831056421918, 14.335764714981398], [79.26901180477282, 14.336458728400892], [79.26898801014784, 14.339558588012432], [79.2668445635751, 14.342642965890368], [79.26649923483654, 14.341607099097494]], [[79.22682614295157, 14.309969625669416], [79.22083233763523, 14.308547064517834], [79.2169388564404, 14.309551207974383], [79.21624330534229, 14.308168227228219], [79.21662097460643, 14.305071097487536], [79.21768873915578, 14.304045783368132], [79.21980796705405, 14.304061661562104], [79.22579624024989, 14.306173078140466], [79.22682614295157, 14.309969625669416]], [[79.22314912862777, 14.283420146267542], [79.21891918253125, 14.282355211859961], [79.21892460100321, 14.28166636949913], [79.22033998754839, 14.281332512066328], [79.2231545346554, 14.28273130237929], [79.22314912862777, 14.283420146267542]], [[79.18859359263388, 14.276270985220158], [79.18331007963447, 14.274508562754425], [79.18154432228748, 14.274495088486882], [79.18119946598443, 14.273459149335261], [79.18649120451072, 14.274188368243774], [79.18859910088685, 14.27558215400999], [79.18859359263388, 14.276270985220158]], [[79.11838005478327, 14.268149263624174], [79.11662585899585, 14.26675770701081], [79.12192561446624, 14.26645510882417], [79.12049882865044, 14.268165985617873], [79.11838005478327, 14.268149263624174]], [[79.101826345524, 14.26285164007554], [79.0894672937817, 14.262752897690381], [79.08594487525166, 14.261691380605406], [79.08454697310137, 14.259958057127658], [79.08386694154805, 14.256852822387486], [79.09446588471128, 14.25624891696764], [79.09939205214641, 14.25835476145864], [79.10219387530589, 14.26113245644381], [79.101826345524, 14.26285164007554]], [[79.17426963191849, 14.256873283819361], [79.17074118889346, 14.256501808230565], [79.17004328161944, 14.255463151688664], [79.17393314367469, 14.254804099681225], [79.17569043151028, 14.255850853266875], [79.17426963191849, 14.256873283819361]], [[79.1679440345403, 14.253035998480328], [79.16724614978112, 14.251997336270351], [79.16936205317035, 14.252358018450739], [79.1693537171185, 14.253391256163214], [79.1679440345403, 14.253035998480328]], [[79.06946592479699, 14.247781834662474], [79.06664123161929, 14.24775896167314], [79.066650031589, 14.2467257846976], [79.07160200227072, 14.245732607404747], [79.07159615114836, 14.246421394141695], [79.06946592479699, 14.247781834662474]], [[79.15457892055261, 14.246388767168016], [79.1542314188847, 14.245697216385501], [79.15564941955556, 14.245019316928762], [79.15672549699484, 14.242961039386081], [79.15919717982912, 14.242980115893342], [79.15953073503081, 14.245393715450925], [79.15881894550094, 14.246077089181199], [79.15457892055261, 14.246388767168016]]]]}}, {"type": "Feature", "properties": {"depth_class": 2, "depth_lo_m": 1.0, "t_s": 22500.291844989086}, "geometry": {"type": "MultiPolygon", "coordinates": [[[[79.22682614295157, 14.309969625669416], [79.22649455130353, 14.307211615319764], [79.22509252634109, 14.305823382886274], [79.21980796705405, 14.304061661562104], [79.21768873915578, 14.304045783368132], [79.21662097460643, 14.305071097487536], [79.21624330534229, 14.308168227228219], [79.2169388564404, 14.309551207974383], [79.22083233763523, 14.308547064517834], [79.22435363658987, 14.309951164785755], [79.22682614295157, 14.309969625669416]]], [[[79.19568561153875, 14.405143903811185], [79.20206263539853, 14.403125916083887], [79.20242978385805, 14.401406532154631], [79.20740975027375, 14.39731113037669], [79.21027771406388, 14.392166310714995], [79.21382756065005, 14.39012653159436], [79.21527374554631, 14.38600419548471], [79.22096796599347, 14.380880510705694], [79.22982824218175, 14.377502565651174], [79.23233398325405, 14.373388002712645], [79.2369351942598, 14.372388994695928], [79.23980213802228, 14.367243692478157], [79.24657134166137, 14.36006059549454], [79.25153088890413, 14.358375029040022], [79.25332141261153, 14.355288230297747], [79.25970461992989, 14.35223517882452], [79.26575559101423, 14.346423927077721], [79.2654102637309, 14.345388058923922], [79.26398919246923, 14.346411000444679], [79.26080967952878, 14.346387699381786], [79.25905126760568, 14.345341455562226], [79.25725025690474, 14.349806023381902], [79.25121503625897, 14.353550470682027], [79.24909263035987, 14.35387924432647], [79.24448109466485, 14.356256234711246], [79.23918442640598, 14.355872490882565], [79.23812994654739, 14.355175767381844], [79.2381488051857, 14.352764808529258], [79.23993675593226, 14.350022548495248], [79.2424768697758, 14.341430304118974], [79.2442646652289, 14.338687992674519], [79.24501407438079, 14.333182429105106], [79.24822279150575, 14.329417243371308], [79.2499863708634, 14.32977469791509], [79.25068486175431, 14.330813183063958], [79.25239508782394, 14.338059138942727], [79.25870065167317, 14.34499443474183], [79.25836600390218, 14.34258085311952], [79.25522653384782, 14.337391088905644], [79.2545413309055, 14.334630481677687], [79.25243511800615, 14.332892750837456], [79.25319762333916, 14.325665002655107], [79.25075426853516, 14.321858111606383], [79.25008782817787, 14.316686517930384], [79.24904682697128, 14.314267728573464], [79.24873364613515, 14.309098736951528], [79.24138306746819, 14.300433346173607], [79.23964654237584, 14.29663160878916], [79.23156879824745, 14.290716153659105], [79.23015874748052, 14.290361226714799], [79.22630610284318, 14.286199229917868], [79.21749565343546, 14.283722322463113], [79.21433340040629, 14.281631978587557], [79.21013076730532, 14.277122699891306], [79.20448293136637, 14.276735746047642], [79.2027362639272, 14.274311498497896], [79.20311400214553, 14.27121439682093], [79.2020736786063, 14.268795475299346], [79.20101970717054, 14.268098642496323], [79.19818907235931, 14.26876613206679], [79.19642608592467, 14.268408356013618], [79.19327523818822, 14.264940110317923], [79.18835331968614, 14.262147253515764], [79.18697107481262, 14.258347940973986], [79.18207421996397, 14.252455243744539], [79.16836107764723, 14.24511722347495], [79.16447973412798, 14.244742967476457], [79.16272537487623, 14.243351735267456], [79.16166607794455, 14.243343578197699], [79.16164934613874, 14.245410046142668], [79.16020902473282, 14.248843270767988], [79.16938427937778, 14.249602717424088], [79.1778202247004, 14.254489395618142], [79.17850710614442, 14.256905690314284], [79.17565441945251, 14.260328230572695], [79.16578636044795, 14.25784148047413], [79.15800929827662, 14.258814823628665], [79.1566108054311, 14.257081857255828], [79.16016714020036, 14.254009433305825], [79.1587714488505, 14.251932069975146], [79.14782502378554, 14.251847322632122], [79.13826283969036, 14.25521716662816], [79.11566664608851, 14.25469526875757], [79.1135594583154, 14.253300912936108], [79.1096839193935, 14.252236957304282], [79.10511947856457, 14.249100934078434], [79.09454396847764, 14.246950175149692], [79.08853853471933, 14.24724656034157], [79.08431889701365, 14.245146202500454], [79.08079386404539, 14.244429040365423], [79.08044951502933, 14.243393014797077], [79.0829414467776, 14.241002111078394], [79.0858067175185, 14.236203230180847], [79.08582993037736, 14.23344805756965], [79.08478523999298, 14.231717582949239], [79.08301991504312, 14.231703420196371], [79.07911873922517, 14.233738587972857], [79.07697993270257, 14.236132301993182], [79.07624754173139, 14.239226164684515], [79.07450552261072, 14.236456777950805], [79.07274017154056, 14.236442534605917], [79.07094849927428, 14.239527819472766], [79.06741775879432, 14.239499261143617], [79.06740310535726, 14.241221224540201], [79.0681033983892, 14.241915726670062], [79.07550636870332, 14.243353204632706], [79.07655977800407, 14.24405053288094], [79.07655102483659, 14.245083716139971], [79.06909232808479, 14.250189726798443], [79.06344288808029, 14.250143931013257], [79.06449040712853, 14.251530095029976], [79.0644757185836, 14.25325205370646], [79.06021797893187, 14.255628365833848], [79.05739910178262, 14.254916590612146], [79.05813476837226, 14.25147843806328], [79.05247942153223, 14.252121157385414], [79.04932233624737, 14.249684468364002], [79.0440408995861, 14.247919163266337], [79.0437085938762, 14.245505554926513], [79.04444441271835, 14.24206746461991], [79.04374716771459, 14.241028514382489], [79.04197884403057, 14.241358426588812], [79.04090774594513, 14.24272728372766], [79.03914238148492, 14.242712785816925], [79.03703585515123, 14.241317825573727], [79.0352675261025, 14.241647686474783], [79.03098290131727, 14.247122933148882], [79.03375381757225, 14.253345165658079], [79.03301479503504, 14.257127579575796], [79.03052818815748, 14.25882909987235], [79.02805052970153, 14.259497437185514], [79.0266591193942, 14.25707506408764], [79.02419347432493, 14.256365829130923], [79.02312519815858, 14.257390198779223], [79.02311619313582, 14.258423347882134], [79.02416347324052, 14.259809661628847], [79.02592595684189, 14.260168671006417], [79.0252017676048, 14.26222912235186], [79.01952810972672, 14.26493730581218], [79.01493777641797, 14.264899114944043], [79.01350726079215, 14.266953630911559], [79.0110325061961, 14.267277392535977], [79.00892900374058, 14.265537799539805], [79.00681039474715, 14.265520089038484], [79.0057601801393, 14.264478089165394], [79.0057753265204, 14.262756193003831], [79.01043205781251, 14.255218187189435], [79.01151848152496, 14.252127595930862], [79.01119256376643, 14.249025225320313], [79.00873613681254, 14.247282706573767], [79.00556755798368, 14.246223025437248], [78.99744087099927, 14.246843764690611], [78.99568464339225, 14.245795808389577], [78.99499067335141, 14.244412365830504], [78.995011960931, 14.242001723000053], [78.99858507455083, 14.237210059290016], [79.00106555602208, 14.236197627680115], [79.0028459663817, 14.234490503376998], [79.00638555723341, 14.233486865608189], [79.01277061110555, 14.230096019271565], [79.01491295909705, 14.227358576681466], [79.01743831970194, 14.2211802087057], [79.0202715927226, 14.22017047067595], [79.02065759050254, 14.216385174452778], [79.01996352372115, 14.215001793205838], [79.0164542866189, 14.212561850093463], [79.01363012086742, 14.21253840655277], [79.012202997849, 14.21424858245104], [79.01250487160272, 14.220106010992328], [79.0099854290189, 14.225595549010356], [79.00501265517985, 14.228998131588707], [78.99757143826315, 14.232035502715865], [78.99258314370114, 14.237159668319691], [78.99078740958196, 14.240588586599344], [78.99073864895658, 14.246098612922705], [78.99318272053458, 14.249218805571283], [78.99881063964312, 14.251676908657936], [79.00481903309814, 14.251038434459035], [79.00621924309269, 14.252427762293493], [79.00548886168195, 14.25517689383901], [79.00263992579787, 14.25790828194337], [78.99941048198322, 14.263736064878477], [78.99938008837329, 14.267179843233583], [79.00076819437845, 14.269946721999592], [79.00287469602794, 14.2713420052724], [79.01169641400274, 14.272104610640259], [79.01382414727546, 14.271089143614537], [79.01877072647615, 14.270785927389227], [79.02125454144617, 14.269428942056773], [79.0265542061584, 14.269128490490816], [79.03153964166007, 14.26434800305372], [79.03507367789399, 14.264032756153595], [79.0372251026873, 14.260261969446738], [79.04363140601255, 14.25445963067784], [79.04645614384735, 14.254482786631995], [79.0492542324608, 14.257605405753338], [79.04924534627528, 14.258638571089168], [79.04641758548662, 14.258959829408644], [79.04639385061445, 14.261714931771102], [79.04886557906843, 14.261735176511383], [79.05029576335859, 14.259680401939097], [79.05100196640724, 14.259686176400598], [79.0562925957578, 14.260418197953737], [79.05875253158175, 14.26181589954696], [79.06545863192139, 14.262214834339504], [79.06831283967634, 14.25879382123519], [79.0707904274354, 14.25812504907252], [79.07469795408835, 14.255401296121379], [79.08176870384793, 14.25442502190784], [79.08564990089374, 14.254800627734319], [79.09024892072615, 14.253804240864943], [79.09764961200594, 14.255585494338204], [79.10221693151448, 14.258377263194337], [79.10431256376467, 14.261149314202127], [79.11135766674703, 14.263271776415419], [79.11276154571772, 14.264316167822813], [79.12229585766664, 14.264391473583512], [79.12546543063395, 14.26544970178091], [79.12544834186501, 14.26751612333497], [79.1222445004561, 14.270590726361116], [79.12044740813293, 14.274365230021303], [79.11866741355578, 14.276073300010935], [79.11512740808234, 14.277078581067974], [79.11192616386946, 14.27980860853229], [79.11085236105347, 14.281522206502476], [79.11084374031812, 14.282555407226582], [79.11189744532496, 14.283252613213588], [79.1161323965595, 14.283630589606874], [79.12250628838736, 14.281614397074375], [79.12749881318325, 14.2757984742617], [79.12720545144187, 14.268563218357876], [79.13289811159635, 14.26344148452697], [79.13924870912919, 14.264180003645569], [79.14772940144042, 14.263557202666576], [79.15055161462708, 14.263923548326773], [79.15336542493965, 14.265323089009273], [79.16465730281567, 14.266443613909187], [79.1731048129623, 14.269952864479475], [79.17625815111474, 14.273076934049245], [79.17731759554705, 14.273085042895717], [79.17874403098574, 14.271373778265918], [79.1819223468046, 14.27139805469688], [79.18896602195525, 14.273862761107193], [79.19211415474497, 14.277675484453678], [79.19562653340842, 14.280113187124867], [79.19595499959792, 14.283215614797859], [79.19770712952925, 14.28495107579956], [79.20826411403638, 14.289852930098359], [79.21036412981732, 14.292279811941743], [79.21423557250645, 14.294031103601371], [79.2152733978331, 14.29679441586451], [79.21951984824105, 14.29579291803977], [79.22375545159173, 14.296169026721618], [79.22761359098493, 14.299642231142663], [79.22865160439561, 14.302405505662183], [79.23147993264988, 14.302082116829329], [79.23253146729611, 14.303123265185668], [79.23283081592237, 14.310014352278731], [79.23352917156518, 14.311052873548402], [79.23313015745406, 14.31690543729668], [79.23452421999164, 14.319326903767115], [79.23413596870758, 14.323801775394216], [79.23518491315942, 14.325187346184508], [79.23550045303483, 14.330011893234369], [79.23620695008036, 14.330017144458697], [79.23692421194282, 14.3286447008635], [79.2376898660249, 14.321072631523757], [79.23596135991207, 14.31623759226518], [79.23427866568494, 14.305547351160987], [79.23604740417817, 14.305216038737479], [79.23885429892964, 14.307647958438617], [79.24232749807514, 14.315251447257705], [79.24189918475801, 14.324892716303996], [79.23831568587596, 14.331410579130907], [79.23794360335904, 14.33381891961034], [79.23510409195737, 14.335520030778548], [79.23396068819734, 14.346189236664866], [79.23179239753132, 14.352373028945438], [79.22857764108792, 14.356826758254735], [79.22747710257654, 14.361985140357772], [79.22500130943727, 14.36231104065547], [79.22219125484999, 14.360223326165166], [79.22327831213514, 14.356787080146708], [79.22541975247785, 14.35404760339893], [79.22508003788921, 14.352322856285257], [79.2229739346986, 14.350584873180107], [79.22015043170691, 14.350219249017472], [79.21767204399171, 14.350889505663032], [79.21309856031921, 14.34844400059616], [79.21276440824913, 14.34603041059147], [79.21454712532405, 14.343977207180625], [79.21491402891837, 14.342257773473325], [79.21386515321163, 14.34087212012583], [79.21174831853565, 14.340511730750668], [79.20748455290497, 14.343579487921314], [79.2049815309583, 14.347349366900886], [79.20285092658362, 14.348710974154663], [79.20245643411624, 14.353874536819475], [79.20064875978113, 14.359027365622717], [79.19958063612495, 14.360052559221714], [79.19920530691925, 14.36280519514274], [79.19421776218975, 14.367933749097524], [79.19242636000422, 14.371019992645321], [79.19276582926325, 14.372744758266839], [79.19665497388587, 14.372429985238453], [79.2030337782721, 14.370067441372527], [79.20623000134847, 14.368025058223262], [79.20940972583044, 14.368049126403028], [79.21151038066832, 14.370476068987044], [79.21148299627279, 14.37392024070054], [79.20932746885236, 14.378381628595832], [79.20894396639584, 14.38216753549005], [79.20644320747006, 14.385592955425963], [79.2064294623406, 14.387315034428921], [79.20428744529637, 14.390054268623738], [79.20176721416613, 14.395890521443508], [79.19642000701526, 14.401705167008954], [79.19568561153875, 14.405143903811185]], [[79.23877725436594, 14.362758318577502], [79.23207537963168, 14.361330622996487], [79.23102360829357, 14.360289446555553], [79.2306892587836, 14.35787585997306], [79.23140936624338, 14.356159028778528], [79.23458626685229, 14.356527161717919], [79.23739641215559, 14.358614737602679], [79.24269044840332, 14.35934295173439], [79.24268238353336, 14.360376221835844], [79.24161442128636, 14.361401626273958], [79.23877725436594, 14.362758318577502]], [[79.2450676507414, 14.3262939355776], [79.2461782249086, 14.319757690482215], [79.24725129528927, 14.31804338640256], [79.24795775936275, 14.318048598399384], [79.2493439854072, 14.321503273729636], [79.24685527494638, 14.323551584018569], [79.24613273726892, 14.325612916959969], [79.2450676507414, 14.3262939355776]], [[79.24619962374088, 14.31700228874088], [79.24479741007377, 14.31561415286349], [79.2441177263765, 14.312164682724147], [79.24237840769241, 14.308707378115034], [79.23712314932412, 14.303157355361343], [79.23431094649924, 14.301414269897247], [79.23256377433442, 14.298990186991762], [79.22974357355744, 14.298280325266036], [79.22482314069799, 14.29514367120372], [79.2181206463125, 14.294060235667331], [79.20934273168803, 14.28744997153426], [79.20511826966519, 14.285695953855164], [79.20302656898845, 14.282235783667447], [79.19564025389165, 14.278391102863425], [79.18897978678616, 14.27214068229997], [79.18440541217585, 14.270039247281481], [79.17841026436274, 14.26896018155923], [79.17806265967977, 14.26826865392573], [79.18125198522803, 14.266915276529742], [79.18478338310413, 14.266942202334192], [79.18479165710833, 14.265908956884537], [79.18374051995893, 14.264867640304356], [79.18127132771406, 14.264504375070594], [79.17811248230667, 14.2620692037301], [79.17812631767909, 14.26034713362995], [79.18062860961187, 14.256577450729225], [79.18134037853501, 14.255894008534126], [79.18310323238126, 14.25625188226379], [79.18520543970675, 14.258334508728113], [79.18798367144603, 14.264211064600655], [79.19360642037745, 14.267698121804086], [79.19850662333107, 14.273246231571862], [79.20132090943092, 14.274645253518615], [79.20306483017399, 14.277413928239234], [79.2076450144965, 14.278826203055491], [79.21395849592005, 14.284384691223023], [79.21747395717509, 14.286477689030551], [79.22347797609783, 14.286522579686892], [79.22488528721534, 14.287221964529742], [79.22557814497036, 14.288949343192767], [79.22768914847774, 14.2899984025968], [79.23013988919672, 14.292772187778517], [79.23753004502677, 14.29627149111448], [79.24765796568524, 14.311157480785683], [79.24761254486255, 14.31701271614826], [79.24619962374088, 14.31700228874088]], [[79.12325254788908, 14.276798327083283], [79.1239845043661, 14.27370426462319], [79.12504677055864, 14.273368202930738], [79.12502681740898, 14.275779025862251], [79.12325254788908, 14.276798327083283]], [[79.00323690971477, 14.27031182986778], [79.00079249796221, 14.267191697693388], [79.0008198332954, 14.2640922945406], [79.00476148780545, 14.257581641055667], [79.00689817608762, 14.255533082087393], [79.00762854273783, 14.252783944224094], [79.00483114417773, 14.24966091679532], [78.99882278774726, 14.250299396137612], [78.99284487518706, 14.247493950428632], [78.99180089853992, 14.245763153256103], [78.99184354163238, 14.240941877082156], [78.99435145573358, 14.23683012724425], [78.99827146536832, 14.232730179153904], [79.00464751732076, 14.230372702647927], [79.00536267703627, 14.229345460044636], [79.01032942674158, 14.226631633108346], [79.01356697545589, 14.219770433660718], [79.01326206643897, 14.214257385035822], [79.0143301516362, 14.213233035542341], [79.01644528081957, 14.213594998880744], [79.01889545106874, 14.216026169960106], [79.01958051844005, 14.21844270409922], [79.01674126012112, 14.220141202059862], [79.01564610035327, 14.22426500135219], [79.0134947658297, 14.228035601814238], [79.01064931331257, 14.23042276708605], [79.00250199729066, 14.233454412033163], [78.99965637146173, 14.235841421286509], [78.99753198025775, 14.236512421183818], [78.9939588595875, 14.241304067906903], [78.994272371399, 14.245783941098239], [78.99636950101593, 14.248212383012728], [78.99883797105305, 14.248577505249708], [79.00202472743007, 14.247571002579365], [79.00696774747384, 14.247612346124663], [79.00907712700423, 14.248663174609694], [79.01047433466276, 14.250396859784049], [79.0090166919265, 14.255550779682615], [79.00509034225676, 14.260339629348266], [79.00400984388044, 14.262741415022811], [79.00399165191558, 14.264807688156406], [79.00503276565956, 14.266882831940011], [79.00960798965254, 14.26864311834556], [79.01419838386627, 14.268681421661968], [79.0159759827328, 14.267318605200787], [79.02234392344467, 14.265993911970012], [79.03087231347352, 14.259865170285803], [79.03441821751395, 14.258172382892685], [79.03976822759856, 14.252017030303243], [79.04084830253286, 14.249615024959041], [79.04086613889041, 14.247548703031784], [79.03910966212598, 14.246501040001654], [79.03593195816364, 14.246474903670698], [79.03485483545599, 14.248532496834923], [79.03344251277102, 14.248520859106744], [79.03310435377429, 14.246796021339028], [79.03488166860926, 14.245433024695114], [79.03525262664355, 14.24336961649158], [79.03631780248035, 14.24268956203885], [79.03808018806802, 14.243048467389425], [79.03912751024073, 14.244434719695164], [79.04266717482408, 14.243430543641121], [79.04301134408139, 14.244466601898758], [79.04193429327314, 14.246524236820203], [79.04262263297115, 14.24859635511191], [79.0493104951143, 14.251062023092596], [79.05175845575063, 14.253837335849488], [79.05316787180213, 14.254193258766788], [79.05702535760845, 14.257324444777877], [79.061262553632, 14.257358935075922], [79.06515547290039, 14.256357309903605], [79.06336057079959, 14.259786891337097], [79.05912037668027, 14.260096822990501], [79.05701060618559, 14.259046394978288], [79.0524262032171, 14.258320162768413], [79.04928088674855, 14.254505909177263], [79.04682109571195, 14.253108126504667], [79.04329019482421, 14.2530791844736], [79.04080964728756, 14.254092054500953], [79.03973252037615, 14.256149669508986], [79.0343883676834, 14.261616236143029], [79.0304893031875, 14.263306098141854], [79.02834972115528, 14.265699269478372], [79.02515676665715, 14.267394871323319], [79.02020724439524, 14.268042613126024], [79.01736731839058, 14.269741032133508], [79.01313000295896, 14.269705732132257], [79.01170850194615, 14.270727089619717], [79.00323690971477, 14.27031182986778]], [[79.17629695610998, 14.2682551465478], [79.16748795685545, 14.265776531044319], [79.16362021606291, 14.263680163634213], [79.1583176656391, 14.264328114427903], [79.15162503942668, 14.26220972214874], [79.12408142392952, 14.261994553407796], [79.12091475988898, 14.260591910359665], [79.12058732834882, 14.25748950117532], [79.12695474295909, 14.256161898622656], [79.13260454194292, 14.256206209104963], [79.13683341740452, 14.25727257259458], [79.14250301675378, 14.254905801731702], [79.14533073880905, 14.25458337981905], [79.14918688744316, 14.258057640688701], [79.15236776932421, 14.257737879673153], [79.15729186066706, 14.260187006530847], [79.16647311494205, 14.260257795114313], [79.16892831346281, 14.262343266723608], [79.17385549495008, 14.26444767073736], [79.17629695610998, 14.2682551465478]], [[79.11069446795356, 14.258100166968912], [79.10894900964105, 14.255675366220867], [79.1047030938925, 14.256674926202232], [79.1026046104416, 14.254247281579339], [79.0987349021715, 14.252494354940614], [79.09343840545728, 14.252452076514134], [79.09132560548281, 14.25174633787737], [79.08708843903986, 14.25171239469777], [79.08567024173425, 14.25238985570487], [79.08249527772777, 14.252019933516614], [79.08180946304955, 14.24960348817534], [79.07934947607285, 14.248206022030384], [79.07900513047016, 14.247169994793252], [79.08289201178526, 14.246856838448354], [79.08887712595852, 14.248971372863782], [79.09805467998149, 14.249389137428377], [79.1015741139553, 14.25079485910326], [79.10545532465281, 14.251170138875661], [79.10896049275837, 14.254297763647225], [79.11213557738573, 14.254667342540868], [79.11459015046859, 14.256753306858956], [79.11457869946935, 14.258130913638709], [79.11386961085746, 14.258469729563462], [79.11069446795356, 14.258100166968912]], [[79.06657374176095, 14.255679982008466], [79.0697838626475, 14.251917406162285], [79.07191120351794, 14.250901361198224], [79.07297048083656, 14.250909920940009], [79.07401514333371, 14.252640444471407], [79.07365327604991, 14.253670773703965], [79.06974870223567, 14.256050119372487], [79.06657374176095, 14.255679982008466]], [[79.16586988042765, 14.247509123662903], [79.165525124211, 14.246473173043482], [79.16623411544555, 14.24613418920758], [79.16834718362114, 14.246839286351703], [79.16833884631482, 14.247872523952326], [79.16586988042765, 14.247509123662903]], [[79.07834850913248, 14.241309596741957], [79.07765109757193, 14.240270726184372], [79.07839512810915, 14.235799277360044], [79.08265522679295, 14.233078170113831], [79.0840674948359, 14.23308950458502], [79.0847533076638, 14.235505943341071], [79.08259999822926, 14.239621691970921], [79.08046407189465, 14.241671038448708], [79.07834850913248, 14.241309596741957]]], [[[79.26649128944504, 14.342640383902932], [79.26826824373185, 14.341275574198061], [79.26898801014784, 14.339558588012432], [79.26901180477282, 14.336458728400892], [79.26831056421918, 14.335764714981398], [79.26724548122344, 14.336445834782962], [79.267566992493, 14.340581557421253], [79.26649923483654, 14.341607099097494], [79.26649128944504, 14.342640383902932]]]]}}, {"type": "Feature", "properties": {"depth_class": 3, "depth_lo_m": 2.0, "t_s": 22500.291844989086}, "geometry": {"type": "MultiPolygon", "coordinates": [[[[79.08082006229033, 14.241329482389697], [79.08439152459101, 14.236536299811892], [79.08476201741188, 14.234472754269207], [79.0840674948359, 14.23308950458502], [79.08265522679295, 14.233078170113831], [79.07946307308127, 14.234774613649442], [79.0780362305996, 14.236485225538505], [79.07799834522582, 14.240962359037873], [79.07869867410847, 14.241656834057089], [79.08082006229033, 14.241329482389697]], [[79.07909253232627, 14.23683814481039], [79.08086953068057, 14.235474759448538], [79.08298795332465, 14.235491776664464], [79.0822614604819, 14.237896876981779], [79.08047862681572, 14.239949061837834], [79.07906923201335, 14.239593305729896], [79.07909253232627, 14.23683814481039]]], [[[79.0124177436632, 14.27038860237379], [79.01313000295896, 14.269705732132257], [79.01736731839058, 14.269741032133508], [79.02020724439524, 14.268042613126024], [79.0240944403584, 14.267730472371191], [79.02657519664348, 14.266717806243916], [79.0304893031875, 14.263306098141854], [79.0343883676834, 14.261616236143029], [79.03973252037615, 14.256149669508986], [79.04080964728756, 14.254092054500953], [79.04329019482421, 14.2530791844736], [79.04682109571195, 14.253108126504667], [79.04928088674855, 14.254505909177263], [79.0524262032171, 14.258320162768413], [79.05701060618559, 14.259046394978288], [79.05912037668027, 14.260096822990501], [79.06336057079959, 14.259786891337097], [79.06515253532075, 14.256701701656795], [79.06338997689144, 14.25634297788252], [79.061262553632, 14.257358935075922], [79.05702535760845, 14.257324444777877], [79.05316787180213, 14.254193258766788], [79.05175845575063, 14.253837335849488], [79.0493104951143, 14.251062023092596], [79.04262263297115, 14.24859635511191], [79.04192241005653, 14.247901785815253], [79.04301134408139, 14.244466601898758], [79.04266717482408, 14.243430543641121], [79.03912751024073, 14.244434719695164], [79.03808018806802, 14.243048467389425], [79.03631780248035, 14.24268956203885], [79.03525262664355, 14.24336961649158], [79.03488166860926, 14.245433024695114], [79.03310435377429, 14.246796021339028], [79.03344251277102, 14.248520859106744], [79.03485483545599, 14.248532496834923], [79.03593195816364, 14.246474903670698], [79.03910966212598, 14.246501040001654], [79.04086613889041, 14.247548703031784], [79.04084830253286, 14.249615024959041], [79.03976822759856, 14.252017030303243], [79.03441821751395, 14.258172382892685], [79.03087231347352, 14.259865170285803], [79.02234392344467, 14.265993911970012], [79.0159759827328, 14.267318605200787], [79.01419838386627, 14.268681421661968], [79.00960798965254, 14.26864311834556], [79.00503276565956, 14.266882831940011], [79.00399165191558, 14.264807688156406], [79.00400984388044, 14.262741415022811], [79.00509034225676, 14.260339629348266], [79.0090166919265, 14.255550779682615], [79.01047433466276, 14.250396859784049], [79.00907712700423, 14.248663174609694], [79.00696774747384, 14.247612346124663], [79.00202472743007, 14.247571002579365], [78.99883797105305, 14.248577505249708], [78.99636950101593, 14.248212383012728], [78.994272371399, 14.245783941098239], [78.9939588595875, 14.241304067906903], [78.99753198025775, 14.236512421183818], [78.99965637146173, 14.235841421286509], [79.00250199729066, 14.233454412033163], [79.01064931331257, 14.23042276708605], [79.0134947658297, 14.228035601814238], [79.01564610035327, 14.22426500135219], [79.01674126012112, 14.220141202059862], [79.01958051844005, 14.21844270409922], [79.01924547965814, 14.216373478580488], [79.01574223877931, 14.213244757903844], [79.0143301516362, 14.213233035542341], [79.01326206643897, 14.214257385035822], [79.01356697545589, 14.219770433660718], [79.01032942674158, 14.226631633108346], [79.00536267703627, 14.229345460044636], [79.00464751732076, 14.230372702647927], [78.99827146536832, 14.232730179153904], [78.99435145573358, 14.23683012724425], [78.99184354163238, 14.240941877082156], [78.99180089853992, 14.245763153256103], [78.99284487518706, 14.247493950428632], [78.99882278774726, 14.250299396137612], [79.00483114417773, 14.24966091679532], [79.00762854273783, 14.252783944224094], [79.00689817608762, 14.255533082087393], [79.00476148780545, 14.257581641055667], [79.0008198332954, 14.2640922945406], [79.00079249796221, 14.267191697693388], [79.00183358844534, 14.269266852685226], [79.00323690971477, 14.27031182986778], [79.0124177436632, 14.27038860237379]], [[79.00677183625709, 14.229701628825618], [79.00996432571245, 14.228006217247204], [79.01210366969592, 14.225613182892166], [79.01534415422866, 14.218407567444139], [79.01396510657922, 14.21460763319327], [79.01467716385987, 14.213924732001205], [79.01608625288439, 14.21428083569582], [79.01641525626744, 14.217038827487833], [79.01422492130004, 14.225286415915699], [79.01243563294904, 14.22802679191424], [79.00994924950403, 14.22972812281466], [79.00640972802849, 14.23073182343338], [79.00677183625709, 14.229701628825618]]], [[[79.16833884631482, 14.247872523952326], [79.16729342811571, 14.246142327568236], [79.165525124211, 14.246473173043482], [79.16657331108004, 14.247858963530346], [79.16833884631482, 14.247872523952326]]], [[[79.11459015046859, 14.256753306858956], [79.11213557738573, 14.254667342540868], [79.10896049275837, 14.254297763647225], [79.10756243519361, 14.252564557983757], [79.1043989028126, 14.250817323339747], [79.1015741139553, 14.25079485910326], [79.09805467998149, 14.249389137428377], [79.08887712595852, 14.248971372863782], [79.08289201178526, 14.246856838448354], [79.07900513047016, 14.247169994793252], [79.07934947607285, 14.248206022030384], [79.08180946304955, 14.24960348817534], [79.08249527772777, 14.252019933516614], [79.0835516581377, 14.25237284254662], [79.08708843903986, 14.25171239469777], [79.0987349021715, 14.252494354940614], [79.1026046104416, 14.254247281579339], [79.1047030938925, 14.256674926202232], [79.10894900964105, 14.255675366220867], [79.10999398460896, 14.257405768335023], [79.11175093567937, 14.258452959797712], [79.11457869946935, 14.258130913638709], [79.11459015046859, 14.256753306858956]]], [[[79.06974870223567, 14.256050119372487], [79.07400929657773, 14.253329231792543], [79.07297048083656, 14.250909920940009], [79.0697838626475, 14.251917406162285], [79.06657374176095, 14.255679982008466], [79.06974870223567, 14.256050119372487]]], [[[79.17629695610998, 14.2682551465478], [79.17385549495008, 14.26444767073736], [79.16892831346281, 14.262343266723608], [79.16647311494205, 14.260257795114313], [79.15729186066706, 14.260187006530847], [79.15236776932421, 14.257737879673153], [79.14918688744316, 14.258057640688701], [79.14533073880905, 14.25458337981905], [79.14250301675378, 14.254905801731702], [79.13683341740452, 14.25727257259458], [79.13260454194292, 14.256206209104963], [79.12695474295909, 14.256161898622656], [79.12058732834882, 14.25748950117532], [79.12091475988898, 14.260591910359665], [79.12408142392952, 14.261994553407796], [79.15162503942668, 14.26220972214874], [79.1583176656391, 14.264328114427903], [79.16362021606291, 14.263680163634213], [79.17241796894172, 14.267536558862037], [79.17629695610998, 14.2682551465478]]], [[[79.12325254788908, 14.276798327083283], [79.1253856596422, 14.275092999134777], [79.12504677055864, 14.273368202930738], [79.124340494241, 14.273362642516604], [79.12326681506293, 14.275076312659966], [79.12325254788908, 14.276798327083283]]], [[[79.24761254486255, 14.31701271614826], [79.24765796568524, 14.311157480785683], [79.23753004502677, 14.29627149111448], [79.23013988919672, 14.292772187778517], [79.22768914847774, 14.2899984025968], [79.22557814497036, 14.288949343192767], [79.22488528721534, 14.287221964529742], [79.22347797609783, 14.286522579686892], [79.21747395717509, 14.286477689030551], [79.21395849592005, 14.284384691223023], [79.2076450144965, 14.278826203055491], [79.20306483017399, 14.277413928239234], [79.20132090943092, 14.274645253518615], [79.19850662333107, 14.273246231571862], [79.19360642037745, 14.267698121804086], [79.18798367144603, 14.264211064600655], [79.18520543970675, 14.258334508728113], [79.18310323238126, 14.25625188226379], [79.18134037853501, 14.255894008534126], [79.18062860961187, 14.256577450729225], [79.17812631767909, 14.26034713362995], [79.17811248230667, 14.2620692037301], [79.18127132771406, 14.264504375070594], [79.18374051995893, 14.264867640304356], [79.18479165710833, 14.265908956884537], [79.18478338310413, 14.266942202334192], [79.18125198522803, 14.266915276529742], [79.17806265967977, 14.26826865392573], [79.17841026436274, 14.26896018155923], [79.18440541217585, 14.270039247281481], [79.18897978678616, 14.27214068229997], [79.19564025389165, 14.278391102863425], [79.20302656898845, 14.282235783667447], [79.20511826966519, 14.285695953855164], [79.20934273168803, 14.28744997153426], [79.2181206463125, 14.294060235667331], [79.22482314069799, 14.29514367120372], [79.22974357355744, 14.298280325266036], [79.23256377433442, 14.298990186991762], [79.23431094649924, 14.301414269897247], [79.23712314932412, 14.303157355361343], [79.24237840769241, 14.308707378115034], [79.24549583921674, 14.316652646755383], [79.24761254486255, 14.31701271614826]], [[79.22377708670814, 14.293413652952411], [79.22201655600799, 14.292711618634891], [79.222027382, 14.291333932739539], [79.22380142070358, 14.2903138566624], [79.22661070015165, 14.29240146508954], [79.22660260105911, 14.293434732011931], [79.22377708670814, 14.293413652952411]], [[79.2002395521422, 14.277392593130736], [79.19565945949572, 14.275980184458149], [79.19461645946788, 14.273905654880872], [79.19180498175211, 14.272162143224662], [79.19112067675331, 14.269401451259876], [79.1935899498896, 14.269764622410854], [79.19532825232719, 14.273222173274686], [79.19813429547025, 14.275654482800535], [79.19954418395945, 14.276009583446555], [79.2002395521422, 14.277392593130736]]], [[[79.2450676507414, 14.3262939355776], [79.24685527494638, 14.323551584018569], [79.2493439854072, 14.321503273729636], [79.24795775936275, 14.318048598399384], [79.24689538961687, 14.318385204970674], [79.24509175081062, 14.32319411212463], [79.2450676507414, 14.3262939355776]]], [[[79.23877725436594, 14.362758318577502], [79.24161442128636, 14.361401626273958], [79.24268238353336, 14.360376221835844], [79.24269044840332, 14.35934295173439], [79.23739641215559, 14.358614737602679], [79.23458626685229, 14.356527161717919], [79.23140936624338, 14.356159028778528], [79.23067843321968, 14.359253544654297], [79.23207537963168, 14.361330622996487], [79.23630415337131, 14.36273991585011], [79.23877725436594, 14.362758318577502]]]]}}, {"type": "Feature", "properties": {"depth_class": 4, "depth_lo_m": 3.0, "t_s": 22500.291844989086}, "geometry": {"type": "MultiPolygon", "coordinates": [[[[79.00640972802849, 14.23073182343338], [79.0120795769402, 14.228368235817829], [79.01494302910666, 14.223914754186804], [79.01570018834315, 14.218066115738493], [79.01641525626744, 14.217038827487833], [79.01643627429735, 14.214628147573338], [79.01538320956519, 14.213930593477533], [79.01396510657922, 14.21460763319327], [79.01534415422866, 14.218407567444139], [79.01283382962676, 14.222864001902288], [79.01246273140659, 14.224927356564692], [79.00996432571245, 14.228006217247204], [79.00641576991974, 14.230043062784292], [79.00640972802849, 14.23073182343338]]], [[[79.08048153756663, 14.239604666484158], [79.08262034885722, 14.23721092120123], [79.08263778922321, 14.235144545846437], [79.08086953068057, 14.235474759448538], [79.07909253232627, 14.23683814481039], [79.07906923201335, 14.239593305729896], [79.08048153756663, 14.239604666484158]]], [[[79.20024228882802, 14.277048175343243], [79.19532825232719, 14.273222173274686], [79.1935899498896, 14.269764622410854], [79.19112067675331, 14.269401451259876], [79.19180498175211, 14.272162143224662], [79.19461645946788, 14.273905654880872], [79.19565945949572, 14.275980184458149], [79.19918007408381, 14.277384583834447], [79.20024228882802, 14.277048175343243]]], [[[79.22661070015165, 14.29240146508954], [79.22380142070358, 14.2903138566624], [79.222027382, 14.291333932739539], [79.22201655600799, 14.292711618634891], [79.22377708670814, 14.293413652952411], [79.22660260105911, 14.293434732011931], [79.22661070015165, 14.29240146508954]]]]}}]}