{"type": "FeatureCollection", "features": [{"type": "Feature", "properties": {"depth_class": 1, "depth_lo_m": 0.3, "t_s": 50400.200292144575}, "geometry": {"type": "MultiPolygon", "coordinates": [[[[79.01353087643547, 14.223903018495553], [79.01637921620154, 14.22117142042738], [79.0195505306757, 14.221886537873932], [79.02168672354301, 14.21983777971867], [79.02171966913033, 14.216049556950844], [79.02102559621225, 14.214666178048029], [79.01646329169536, 14.211528701211513], [79.01293009436576, 14.211843776031177], [79.01150297172912, 14.213553947723556], [79.01148190310485, 14.215964620613429], [79.01217892634699, 14.21700363815606], [79.01144276519125, 14.220441583183506], [79.01353087643547, 14.223903018495553]], [[79.01815339219868, 14.220152915754356], [79.01641525626744, 14.217038827487833], [79.01324101536012, 14.216668060368143], [79.01254398765876, 14.215629045399083], [79.01291806577964, 14.213221304854397], [79.01610126561869, 14.2125589214722], [79.01819839683871, 14.214987168333762], [79.01995752948092, 14.215690560402804], [79.02064860126119, 14.217418325548406], [79.02027459039152, 14.219826087145787], [79.01815339219868, 14.220152915754356]]], [[[79.08115568003547, 14.243398693617339], [79.08293272458654, 14.242035298481827], [79.08615688849888, 14.236550457131123], [79.08618879987498, 14.232762093949129], [79.0847881424665, 14.231373186487032], [79.08089861923786, 14.232030803360244], [79.07805953813532, 14.233730065580076], [79.07556181665538, 14.236809712147751], [79.07450844166974, 14.236112383708992], [79.07203403165892, 14.236436833618454], [79.0709572743603, 14.238494639152073], [79.07058664748118, 14.240558145997133], [79.07304649183295, 14.241955686168486], [79.07622712047754, 14.24163692600318], [79.07833102187793, 14.243375965817137], [79.08115568003547, 14.243398693617339]], [[79.07869867410847, 14.241656834057089], [79.07730385182289, 14.239579093053658], [79.07804497150944, 14.235452040632822], [79.08265813278273, 14.232733774121671], [79.0840703986884, 14.232745108307421], [79.08477072646167, 14.233439565102909], [79.08474750077714, 14.236194736003176], [79.08295307527833, 14.239624527726834], [79.08081715168525, 14.241673877762336], [79.07869867410847, 14.241656834057089]]], [[[79.11892739814174, 14.244732677313422], [79.12036827828598, 14.241299773694987], [79.1203882306469, 14.238888950273804], [79.11829540661789, 14.235772633775452], [79.11653001572947, 14.235758714744671], [79.11401843811802, 14.240560836186502], [79.11400413678402, 14.242282846396957], [79.11680598822896, 14.245060370735448], [79.11892739814174, 14.244732677313422]]], [[[79.06987464158341, 14.241241223362872], [79.06988342265338, 14.240208043846343], [79.06847112218446, 14.240196619939566], [79.06881541130274, 14.241232655568085], [79.06987464158341, 14.241241223362872]]], [[[79.02839464380754, 14.260533509796982], [79.02876570278754, 14.258470124908133], [79.02702119820533, 14.256044834396468], [79.02420247308895, 14.255332679175918], [79.02207192835726, 14.256692648188968], [79.0220509053966, 14.259103327882938], [79.02345127789235, 14.260492573724974], [79.0252107656334, 14.261195972272752], [79.02839464380754, 14.260533509796982]], [[79.02383138253299, 14.257396052775857], [79.02559984263743, 14.257066295060401], [79.02664413778716, 14.25879698293623], [79.02487266498778, 14.259471130173212], [79.02381937995807, 14.258773585480736], [79.02383138253299, 14.257396052775857]]], [[[79.04850358252169, 14.262765450493285], [79.0502809583138, 14.261402344886147], [79.04994858448835, 14.25898873681769], [79.04819197523948, 14.25794112499017], [79.04607338689839, 14.25792377245424], [79.0450022193785, 14.25929263936493], [79.04497846673935, 14.262047739314534], [79.04567873810072, 14.262742305634553], [79.04850358252169, 14.262765450493285]]], [[[79.08205190822744, 14.262693345098118], [79.08347309294126, 14.26167152026909], [79.08349346713261, 14.259260752706338], [79.08279307445079, 14.258566284081496], [79.08067443677503, 14.258549238154322], [79.0785441306088, 14.259909751037718], [79.0785324580722, 14.261287328479622], [79.080286345286, 14.262679131955288], [79.08205190822744, 14.262693345098118]]], [[[79.094680061191, 14.272782819462263], [79.09396800441786, 14.273465963502773], [79.09467426862636, 14.273471613981144], [79.094680061191, 14.272782819462263]]], [[[79.1217999873962, 14.281608825984092], [79.12393030514414, 14.280247921488598], [79.1274959661824, 14.27614287798408], [79.12685232029258, 14.268560442525663], [79.12579292730031, 14.268552111893158], [79.12330390081381, 14.270599073931178], [79.12042740459827, 14.276776046370719], [79.11581077009737, 14.279839380895217], [79.11614959044181, 14.281564181930388], [79.11720331061296, 14.282261365913211], [79.1217999873962, 14.281608825984092]]], [[[79.10381825341616, 14.27802206717275], [79.10276171529125, 14.277669229948954], [79.10204966246354, 14.278352399022232], [79.10203523060076, 14.280074391835095], [79.10415697921856, 14.279746873937343], [79.10381825341616, 14.27802206717275]]], [[[79.16026205439377, 14.242299461508665], [79.16141054658739, 14.231286456682], [79.16388767401897, 14.23061664514664], [79.16425466223365, 14.228897297796511], [79.16320934656169, 14.227167095131888], [79.16074340297509, 14.226459257530584], [79.15898919719153, 14.225068015579426], [79.15722384841197, 14.225054407334662], [79.15543614648841, 14.227796071131706], [79.15331770701934, 14.227779705115275], [79.15189701514774, 14.228802013680765], [79.15187180994066, 14.23190170211306], [79.15291145065518, 14.234320765836308], [79.15572493499282, 14.235720239400475], [79.15673947518127, 14.24123898722351], [79.15814347395816, 14.242283121995076], [79.16026205439377, 14.242299461508665]], [[79.15890271052439, 14.235744762761133], [79.156100381072, 14.232967682060588], [79.1561087649173, 14.231934450296858], [79.1582244551067, 14.232295207249601], [79.15890271052439, 14.235744762761133]]], [[[79.18857155668448, 14.279026309642372], [79.18716994550286, 14.277637898093694], [79.18469784628134, 14.277619066468667], [79.18398600980174, 14.278302510625293], [79.18397496276131, 14.279680169156595], [79.18537932311368, 14.280724183630381], [79.1882046194558, 14.280745699888282], [79.18857155668448, 14.279026309642372]]], [[[79.19622581848074, 14.29355079221826], [79.19764678599365, 14.29252824908574], [79.19731281127882, 14.290114655474696], [79.1955524111935, 14.28941243761729], [79.19307467177264, 14.29008250998727], [79.19375628288941, 14.293187618058676], [79.19622581848074, 14.29355079221826]]], [[[79.27956612260306, 14.295890350300757], [79.27922863917759, 14.293821203691172], [79.27781583918092, 14.293810980501263], [79.2777974839309, 14.296222002362633], [79.27885447425702, 14.296574103732544], [79.27956612260306, 14.295890350300757]]], [[[79.18664846377723, 14.298644518089409], [79.18666227115959, 14.296922445075294], [79.18596142135144, 14.296228229606417], [79.18490186353374, 14.296220146393313], [79.18383400972073, 14.297245300746917], [79.18417060489539, 14.29931448213339], [79.18593655839467, 14.29932795981591], [79.18664846377723, 14.298644518089409]]], [[[79.2561299800642, 14.311908696887555], [79.26249597049274, 14.310921986923512], [79.26285978573374, 14.309546855166909], [79.26146279779262, 14.307469953788614], [79.25970466417427, 14.306423745471326], [79.2572321527871, 14.30640563094026], [79.25474102689365, 14.308798480498071], [79.25472506587238, 14.310865042756149], [79.2561299800642, 14.311908696887555]]], [[[79.26487592754602, 14.322995057095948], [79.26736713319396, 14.320602109492626], [79.26703768238147, 14.317499670860776], [79.26564854613449, 14.314389498793512], [79.26247477982349, 14.313677414098763], [79.26069272852241, 14.31573105993989], [79.26067150843703, 14.318486483354933], [79.26346295595823, 14.322984728121263], [79.26487592754602, 14.322995057095948]]], [[[79.1993941251311, 14.471303553023235], [79.20365231650977, 14.46926950609799], [79.20685835374825, 14.466194053297732], [79.20937119520475, 14.461391097720384], [79.20939050952246, 14.458980198244362], [79.2069274377559, 14.457583711035213], [79.19880935373378, 14.456144008552062], [79.19464036828099, 14.447156821828326], [79.19465982144033, 14.444745939018537], [79.19821067297813, 14.442706516444696], [79.1978738939245, 14.440637338542603], [79.19470427229983, 14.43923534779406], [79.19081674222846, 14.439205540360456], [79.1872965757583, 14.437456333890257], [79.18448886334676, 14.435023704715473], [79.18380160930319, 14.432607390117747], [79.1823991915495, 14.431218858400484], [79.18028160800289, 14.43085809643896], [79.18029559747943, 14.429136048704764], [79.18601403055993, 14.421258158520581], [79.1874359149973, 14.420235787021166], [79.19132032967286, 14.420610023786008], [79.19274218934473, 14.41958761693658], [79.19277550400834, 14.415454669366092], [79.19990105335842, 14.408275981252423], [79.2020267614704, 14.407603303522547], [79.20554387420697, 14.409696668111792], [79.20802570379279, 14.408682205446253], [79.20840107195914, 14.405929561999042], [79.20629741642416, 14.403846979464118], [79.20630567421236, 14.402813733610408], [79.21058165620387, 14.398368479408418], [79.21237857302863, 14.394593268054164], [79.21664606903484, 14.391181121831993], [79.21773341506832, 14.387744936830806], [79.21915767669051, 14.386377911966797], [79.22128313273407, 14.385705029129523], [79.22378368585565, 14.382279426281071], [79.23193463264809, 14.379240518998927], [79.2337310182204, 14.375465080718804], [79.23904699727896, 14.37343804169246], [79.2404818192009, 14.370693171170162], [79.2451098182676, 14.366249758279139], [79.24868309103499, 14.361109549489473], [79.25258008504893, 14.359760549524854], [79.25507719635468, 14.356678947334357], [79.2589794095457, 14.354640975615085], [79.26325077810907, 14.350538956028371], [79.26573173436635, 14.34952377873026], [79.26751139985409, 14.347814553808215], [79.26823913795937, 14.345064288356136], [79.2703773087423, 14.342668756855096], [79.27145825959273, 14.3399210503151], [79.27148730041618, 14.336132328050313], [79.2700927328154, 14.333711025242874], [79.27011122056578, 14.331300020797956], [79.27189860962166, 14.328557451714449], [79.27262884181054, 14.325462725697143], [79.27936157625084, 14.322756013712535], [79.28115140294847, 14.319668921316628], [79.2832813231727, 14.318306522346594], [79.28472043815148, 14.31487240693638], [79.28477011888303, 14.308328189924763], [79.28657279202253, 14.303518867114224], [79.28625612246353, 14.298694258645417], [79.28803259736095, 14.29732924409275], [79.2880404182072, 14.296295943601487], [79.285942063941, 14.293525216189062], [79.28633439170048, 14.288361260333032], [79.28564365874298, 14.28628957275838], [79.2814393782925, 14.281781383369172], [79.27826598297118, 14.281069553532452], [79.27193503429744, 14.277579186923552], [79.2687617412015, 14.276867240101414], [79.26666116003962, 14.274440815332767], [79.26101577540814, 14.273710770079328], [79.25962163316072, 14.271289449846899], [79.25751325985095, 14.269896246482581], [79.25683608028112, 14.266102364957488], [79.25578987209644, 14.264372470755749], [79.25687844729165, 14.260591504541546], [79.25655972001509, 14.256111347035416], [79.25550825444728, 14.255070313284069], [79.2537452298549, 14.254712962866742], [79.25269908903928, 14.252983062199883], [79.25128656351777, 14.252972710517236], [79.25021920183028, 14.253998224783357], [79.25019529312941, 14.2570980747544], [79.25265664408732, 14.258493913802539], [79.25084046670264, 14.265025094315897], [79.25328863211847, 14.268143076125186], [79.25326208570497, 14.271587355407334], [79.25184412947488, 14.272265849056991], [79.24797799907122, 14.269826321789587], [79.24514741246541, 14.270494383001708], [79.24477557986235, 14.272902765706162], [79.24579505720895, 14.278076965627054], [79.24965862781472, 14.2808609670902], [79.25071815123057, 14.280868753736085], [79.25357276592315, 14.277100790214629], [79.25675394271917, 14.276779649424046], [79.25992188565084, 14.278180609771951], [79.26096288883842, 14.280599352826673], [79.26201713044478, 14.281295947479208], [79.26520628407371, 14.279941409805527], [79.26590736103992, 14.280635414889343], [79.26943650314558, 14.281005541292858], [79.27506374957976, 14.284146430807535], [79.27894354387695, 14.284863415150035], [79.28280246577734, 14.288335801624212], [79.28277632928842, 14.29178012904753], [79.28381502112693, 14.294543236798924], [79.28378627454414, 14.298331996954046], [79.2816277658051, 14.303483178223368], [79.2812012044151, 14.313124719232862], [79.27977254537771, 14.315181083269009], [79.27728677696282, 14.316885321662475], [79.27584753774991, 14.320319377382717], [79.27407606855621, 14.320995409329234], [79.27019041482278, 14.320967138804939], [79.26806040240824, 14.322329408348862], [79.26445911731795, 14.33125875569654], [79.26509939718127, 14.339874626407191], [79.26295058981847, 14.34364781789101], [79.26082828359877, 14.343976709406459], [79.2556037727395, 14.334293848700648], [79.25425735869783, 14.325672797398155], [79.25147141527027, 14.3204856100931], [79.25115018657398, 14.316349895576074], [79.24976662213862, 14.312550803779617], [79.2501385183898, 14.310142422276263], [79.24174162697395, 14.299747108170434], [79.23965458378957, 14.29559833484421], [79.23860304335, 14.29455721762785], [79.23261759645996, 14.292101719990823], [79.23121830420635, 14.290369105230411], [79.22699627161352, 14.288271027994579], [79.22490149308774, 14.285155431444803], [79.21890292538217, 14.284421738691693], [79.21539290715148, 14.281639922800453], [79.21151893341367, 14.280233091733635], [79.20871267633083, 14.277800917408472], [79.20413523334749, 14.27604424611561], [79.2027362639272, 14.274311498497896], [79.20240770150279, 14.271209068591796], [79.20099510109192, 14.271198405859542], [79.1999274433859, 14.272223656983778], [79.1985175768566, 14.271868561198525], [79.19396779612437, 14.266667547931792], [79.1897521050046, 14.263880065518123], [79.18591995719552, 14.257306636351585], [79.18275562717477, 14.255560361393886], [79.18030587350087, 14.252786195381477], [79.17573473689025, 14.250340232618912], [79.17363546314542, 14.24791312693239], [79.17011548896477, 14.246508419808205], [79.16871695868464, 14.24477552077315], [79.16236670099335, 14.244037839729828], [79.16162982230934, 14.247820924936073], [79.15986429414193, 14.247807314933763], [79.1591497036878, 14.24883509945283], [79.16020623295253, 14.249187681677066], [79.16197735032905, 14.248512467926037], [79.165141394206, 14.250258988866774], [79.17114983095772, 14.249616258673194], [79.1735911146691, 14.253423742225861], [79.17641328416576, 14.253789771741923], [79.17887405395732, 14.255186315898277], [79.17921335288291, 14.25691108408515], [79.17635236668333, 14.261366875131436], [79.17317697592523, 14.260998128087664], [79.1707217458279, 14.258912697109524], [79.1657919305279, 14.257152656979569], [79.16402632563731, 14.257139069066204], [79.16012803283435, 14.25883118288399], [79.15765897372788, 14.258467685121799], [79.15767016344654, 14.25709004447224], [79.15873231777071, 14.256753816594156], [79.16051746302891, 14.254356567881889], [79.16369550792643, 14.254381058800456], [79.16441288639857, 14.253008849127056], [79.16088174569558, 14.252981647564223], [79.1591301484226, 14.251245974157628], [79.15559904566489, 14.251218697712112], [79.15276575799216, 14.252230067121861], [79.15100301074743, 14.251871978381333], [79.15102826467518, 14.248772296647056], [79.15032766775767, 14.248078004482615], [79.14785032105834, 14.248747646479444], [79.14782502378554, 14.251847322632122], [79.14675725755662, 14.252872319227361], [79.14109903093558, 14.253861575166514], [79.13719784603018, 14.25589770673238], [79.13366671490925, 14.255870096924204], [79.13190966025483, 14.254823056876518], [79.12801976284159, 14.25548140820911], [79.12448865676868, 14.255453663335624], [79.1216723317958, 14.254398220317261], [79.11637286074587, 14.254700847735679], [79.1128561136331, 14.252950924691543], [79.10897771513541, 14.252231359472], [79.10300378012339, 14.248739697785778], [79.08888872522789, 14.247593785631876], [79.0853694414692, 14.24618789232751], [79.07866370227931, 14.245789572561838], [79.07264078621942, 14.248151920384855], [79.06765357157589, 14.253277822016745], [79.06339585716803, 14.25565419506535], [79.05667520903494, 14.25697717719318], [79.05317082702865, 14.253848869396993], [79.05070805456491, 14.252795513558596], [79.04896036826271, 14.250714746734158], [79.04578555221403, 14.250344346071337], [79.04298165446448, 14.24791047688871], [79.04264639084658, 14.245841255955552], [79.04372343155305, 14.243783616466208], [79.04302915404566, 14.24240027639958], [79.03983663447192, 14.244096134253493], [79.03773901955564, 14.241668018523457], [79.03526454636992, 14.241992072499198], [79.03418744478843, 14.24404966533019], [79.03027973426263, 14.246772719594972], [79.02991171163829, 14.248491728262412], [79.03201824632697, 14.249886753586578], [79.03305958337103, 14.251961801642706], [79.03447192713645, 14.251973444386309], [79.03625226001962, 14.250266056275514], [79.03698523567681, 14.247172392950986], [79.03981284554219, 14.246851229163397], [79.04051305835272, 14.247545803471464], [79.04011536559274, 14.252708705308013], [79.0358365658145, 14.257495251191429], [79.03547153895708, 14.258869884594725], [79.03759608234327, 14.258198560380773], [79.04116273806981, 14.254094954925382], [79.04293116391742, 14.253765061955523], [79.04506454593233, 14.25206049879003], [79.04717715032301, 14.25276662966982], [79.05312649034711, 14.259014708838617], [79.06264847793662, 14.2604699357076], [79.0647729888635, 14.259798360881545], [79.06726820188419, 14.257063275459252], [79.06973991037276, 14.25708329743843], [79.07576601754445, 14.25437666424887], [79.08177161572473, 14.254080626709529], [79.08708553573382, 14.252056791039514], [79.09236463025641, 14.254165593568333], [79.09659896617366, 14.25454384694101], [79.10223133914522, 14.256655267072194], [79.10326762186436, 14.259418890911588], [79.10466855732348, 14.26080772238655], [79.10714036080975, 14.260827361854838], [79.10856431149035, 14.259460971254661], [79.11068299217276, 14.25947777048851], [79.11244282851878, 14.26018055788737], [79.11383810168404, 14.262258145681901], [79.1177252704123, 14.26194444772735], [79.12159817078258, 14.263352699733757], [79.12725666543061, 14.26236394684987], [79.12901943220163, 14.262722216308072], [79.1293640301555, 14.26375820119716], [79.12722252550414, 14.266496794899485], [79.1272111430996, 14.267874410580372], [79.13040068032815, 14.266521750107508], [79.13077652732935, 14.26376928285649], [79.13148845304775, 14.263086010808351], [79.14631970772656, 14.263201813811687], [79.1579533409816, 14.265703025526777], [79.16360626717093, 14.265402219247703], [79.17556572114711, 14.271349459487167], [79.18050976125859, 14.271387270400153], [79.18755892595324, 14.273163185795205], [79.19001997432966, 14.27455964574096], [79.1952788601272, 14.279421677006269], [79.19879952255016, 14.280826087640584], [79.20160842800861, 14.282913952335434], [79.20405055187932, 14.286721216469886], [79.20686503764338, 14.28812019498472], [79.21212733232048, 14.29263750838328], [79.21529513722167, 14.294039054994887], [79.2152869854938, 14.295072315399437], [79.21280105110209, 14.296775851555951], [79.20962232481013, 14.296751945444276], [79.20784818099442, 14.297771901894622], [79.20184665337322, 14.297382164704212], [79.19830377230312, 14.298733103293936], [79.19441866059418, 14.29870363828075], [79.194407660639, 14.3000813024341], [79.19545624744867, 14.301467010232564], [79.20181104970614, 14.301859591455907], [79.20140304211151, 14.308745264127198], [79.20316087020488, 14.30979187474496], [79.2049296601108, 14.309460803267436], [79.20777446580803, 14.30707120126898], [79.20994280186285, 14.300887631840345], [79.21420294235075, 14.29816414226106], [79.21809351432029, 14.297504441963314], [79.2198703296271, 14.296139982459767], [79.22304906513108, 14.296163750660991], [79.22761359098493, 14.299642231142663], [79.22794519657928, 14.302400241892698], [79.22686667566545, 14.304803296654011], [79.22404101890726, 14.304782204335613], [79.22051979913026, 14.303378108394018], [79.21804737334776, 14.303359590266034], [79.21627320434548, 14.30437960746473], [79.21555591947636, 14.305751985743788], [79.21587377932141, 14.31023209507296], [79.21657477004507, 14.3109262373617], [79.218694061152, 14.310942132955917], [79.21940863445967, 14.309914165941413], [79.22117741631321, 14.309582970809128], [79.22469873340481, 14.310987067958926], [79.22609537512649, 14.313064148843162], [79.22571239587204, 14.31685014806926], [79.22464188811041, 14.318219915639034], [79.22003635695002, 14.31990765074135], [79.21932174909732, 14.320935615494166], [79.21960706307341, 14.329548765457947], [79.2160201459246, 14.336410625532794], [79.2110718548637, 14.33671780425039], [79.20715320168271, 14.340821479624346], [79.20467215588783, 14.34183602510649], [79.20288663121569, 14.344233562458387], [79.19897870880858, 14.346959405417248], [79.19860341384327, 14.349712044956718], [79.19928242873824, 14.353161567800331], [79.19818953128382, 14.357286494401412], [79.19640655985974, 14.359339542909176], [79.1946069813338, 14.363459059366232], [79.19140797406538, 14.36584569508399], [79.18997262740434, 14.368590203424397], [79.18394429512425, 14.371299506889436], [79.17686987231625, 14.372278424141612], [79.1743827737739, 14.373981413201555], [79.1690831995835, 14.373940475621724], [79.1652052844399, 14.372877154563152], [79.16201431213669, 14.374230115477365], [79.15702573052458, 14.379357750723596], [79.1538374542961, 14.380366177886044], [79.14956369866307, 14.384465914802108], [79.14884004236076, 14.38652681378699], [79.14599927472885, 14.388226692044206], [79.14385088656168, 14.391654097451921], [79.14136049807443, 14.393701084192445], [79.13919199995847, 14.399539248534376], [79.13986442780696, 14.40367764289678], [79.13771005789089, 14.407793763128497], [79.1373195294757, 14.4122681996586], [79.13589750918365, 14.413290248604817], [79.126710184335, 14.413217527716789], [79.12421939793258, 14.415264282434052], [79.12278288922025, 14.41800823617959], [79.11959394630324, 14.419016113353699], [79.1174535087227, 14.421409993257557], [79.1177750593351, 14.425201185053341], [79.12229098943092, 14.434536546088653], [79.12543690313613, 14.438694639087306], [79.1313986665124, 14.44425273759637], [79.13493848680677, 14.443591937442978], [79.14243436398344, 14.434696113205822], [79.15130905627127, 14.429943902481941], [79.15307600211553, 14.429957746656749], [79.15485146050143, 14.42893836368782], [79.15661840195855, 14.42895218038993], [79.15731951296027, 14.429646513623618], [79.15659005758181, 14.432396229865262], [79.15445550422031, 14.434101666391163], [79.15337827426876, 14.436159790489127], [79.15406519492618, 14.438576155695698], [79.15547029442362, 14.439620435492547], [79.16394921288791, 14.440031066840357], [79.17350248133481, 14.438727575850427], [79.17984421988152, 14.441187648068128], [79.18265474106792, 14.443275924929086], [79.18404604612005, 14.446042102084714], [79.18437151519468, 14.449488924057343], [79.18787787792036, 14.452960243763513], [79.18855963229363, 14.456065375707631], [79.19206894409034, 14.4591922398116], [79.19276190694578, 14.46091972298674], [79.1916820611992, 14.463322454924864], [79.19202157731344, 14.465047224456631], [79.19483806872196, 14.466446577555757], [79.19551994056344, 14.469551701969817], [79.19692266076194, 14.470940188689303], [79.1993941251311, 14.471303553023235]], [[79.19174892999739, 14.45505659370788], [79.18895769871611, 14.450557526213402], [79.18649765930915, 14.44881643956756], [79.1847780334961, 14.442947859348942], [79.18126906412994, 14.439820924084314], [79.17668314964853, 14.438752201288391], [79.17457393672225, 14.43735815624587], [79.17033307838102, 14.437325277970167], [79.16820419905433, 14.43834203122994], [79.15654185494533, 14.438251111544007], [79.15548732116332, 14.437554008505149], [79.15550434520381, 14.435487581136554], [79.1590751402072, 14.431037934258566], [79.1590949533725, 14.428627096076967], [79.1576927289729, 14.427238437901002], [79.15522186469306, 14.426874699541886], [79.15309303904723, 14.427891320779493], [79.14990972299414, 14.428210799184882], [79.14493950987902, 14.430927162021161], [79.14139990526792, 14.431588140665628], [79.13999206771761, 14.430888191826208], [79.1382451649292, 14.428463439089104], [79.13407912295408, 14.419475508801584], [79.13409632201865, 14.417409103431451], [79.13907203323265, 14.414004142062751], [79.1398330227757, 14.407466069324789], [79.14198450096293, 14.403694327437677], [79.14131488470453, 14.399211531549964], [79.14312145333653, 14.39440377546272], [79.14561183671124, 14.392356769282769], [79.14668887251665, 14.390298656821026], [79.15024481775168, 14.387571087285911], [79.1509684662739, 14.385510183033107], [79.1534643386807, 14.382774260907276], [79.1587838218855, 14.380404725329626], [79.15878946333967, 14.379715911641748], [79.16412851126361, 14.37493538442687], [79.16695776052973, 14.37461288460146], [79.16942248721557, 14.375665253777271], [79.17366217854244, 14.375698011088707], [79.17756531700682, 14.373661508207519], [79.18428647818537, 14.372679865091113], [79.18960269881255, 14.3706539807256], [79.19138305988538, 14.368945416529384], [79.19246232990803, 14.366542615144233], [79.19566133856375, 14.364155965158995], [79.197460905911, 14.360036439312728], [79.19924387499302, 14.357983382501533], [79.19962194164556, 14.354886329045543], [79.20069829134887, 14.352827884939304], [79.20003025983604, 14.348000700928857], [79.20074504943352, 14.346972816723877], [79.20322616728824, 14.345958321419042], [79.20537045249543, 14.342874623012975], [79.20820750716902, 14.34151832300443], [79.21105819375856, 14.338439894717709], [79.21353099414148, 14.338458530088957], [79.21564236363673, 14.339507739523487], [79.22088418024765, 14.346780356983794], [79.22615073028992, 14.350953108818564], [79.22754216908478, 14.35371904601739], [79.22752861698021, 14.355441149503426], [79.2257486166736, 14.357150031622028], [79.22537904112116, 14.359213906966108], [79.2267894982566, 14.359568909011307], [79.22787919368149, 14.355788212547653], [79.23250977224245, 14.351000612394877], [79.23287926118854, 14.348936715519576], [79.23430856475467, 14.34688071212339], [79.2350582646633, 14.341375214530773], [79.243304110114, 14.325936448356313], [79.2440534626567, 14.320430880041004], [79.24374576112045, 14.314573046710462], [79.2416692950545, 14.309046577519874], [79.23852255836708, 14.304889947883296], [79.2353624929679, 14.302455406923455], [79.23221326729842, 14.29864313860708], [79.22833617924901, 14.297580960113672], [79.2234157834988, 14.294444280756673], [79.21812607184377, 14.293371394282644], [79.21461865658107, 14.290245133763639], [79.2118040867779, 14.288846238565602], [79.20829955892815, 14.285375482942404], [79.20688959377412, 14.285020425997603], [79.20409153552116, 14.281554941746721], [79.19529807102185, 14.277010759291045], [79.18829276396274, 14.269724402015298], [79.18937146015881, 14.267321543750377], [79.19359818546305, 14.268731372154512], [79.19744442549958, 14.27358263421147], [79.20061186315576, 14.274984336648899], [79.20306483017399, 14.277413928239234], [79.20764228870978, 14.279170622195387], [79.21009265733292, 14.281944574167442], [79.21255396226914, 14.283340827610967], [79.21394490874394, 14.286106791978902], [79.21641171262246, 14.286814172021684], [79.21886498192336, 14.289243633169356], [79.2202804172828, 14.288909781801587], [79.22135620176093, 14.286851174702592], [79.22347797609783, 14.286522579686892], [79.22592322723625, 14.289985243270113], [79.2287379180504, 14.291383982995681], [79.23084088121354, 14.293466287756305], [79.23788592432034, 14.295929683609861], [79.24032345779003, 14.300425507511138], [79.24312767482013, 14.30320180117888], [79.2480191986927, 14.310126807878344], [79.24833770349844, 14.31460694688946], [79.25006914637632, 14.319097499588544], [79.25039035297893, 14.323233212851584], [79.25214588988757, 14.324623924820031], [79.25248046625624, 14.32703750813869], [79.251765967974, 14.328065584350103], [79.24824150706486, 14.327006266192216], [79.24395430902119, 14.333174589099185], [79.24320755776348, 14.338335722294442], [79.24141975371049, 14.341078024696523], [79.23781437953294, 14.350351223091451], [79.23779013171935, 14.353451027305898], [79.23848862241908, 14.354489548380949], [79.24626096178338, 14.354547194618227], [79.24803812315282, 14.35318256240224], [79.25086709696075, 14.352859013334774], [79.25476926968729, 14.350821107175648], [79.25654635499168, 14.349456401545744], [79.25904860711475, 14.345685882366967], [79.26293466351844, 14.345714383152266], [79.26471431422762, 14.344005177716522], [79.26508349493925, 14.341941194687253], [79.26650982770683, 14.340229385877105], [79.26619892626704, 14.33471595029429], [79.26695042851473, 14.328865824828448], [79.26909107909476, 14.326125856912547], [79.26981605739736, 14.32372000121055], [79.27158755795537, 14.323044005039671], [79.27012970487637, 14.328889015840835], [79.2683422927778, 14.331631568812051], [79.26832907377486, 14.333353713232254], [79.27007424162501, 14.336122029175506], [79.27004253443779, 14.34025517758222], [79.26718724724815, 14.344023260796149], [79.26645685209762, 14.347117950304966], [79.2636173356431, 14.348819406628573], [79.2589900584352, 14.353263269422321], [79.25437861768734, 14.355640465904207], [79.25152553981066, 14.359063879112973], [79.24727525574652, 14.360410248680669], [79.24441395132445, 14.364866826545171], [79.2401419767683, 14.368968431890815], [79.23799244210036, 14.372741309221585], [79.23267918009904, 14.374423904379418], [79.23159485222386, 14.377515774632535], [79.23052675463228, 14.378541112555718], [79.22734141420769, 14.379206150810175], [79.22201977018223, 14.381921735839445], [79.2198752574515, 14.385005558777234], [79.21739374116575, 14.386020184269764], [79.21559151873022, 14.39048428885348], [79.21132402354007, 14.393896415897759], [79.20952709695543, 14.397671618036327], [79.20489500106416, 14.402458583011693], [79.20488122725283, 14.404180658097316], [79.20663150824048, 14.40626056932609], [79.20662049696222, 14.407638230289104], [79.20520428340609, 14.407971908043441], [79.20344849042542, 14.40658081582408], [79.20026823123311, 14.406556604297517], [79.19920261776095, 14.407237351953812], [79.19100863316113, 14.41544113584089], [79.19098362376023, 14.418540843629314], [79.1863841321871, 14.419194408835168], [79.18282242455615, 14.42261132904973], [79.1820988944584, 14.424672345281513], [79.17817243701025, 14.429464088820966], [79.17780223265352, 14.43152781306395], [79.17885402169713, 14.432569230614286], [79.18167562013487, 14.43327986819635], [79.18271625589028, 14.435698910858513], [79.18657581048244, 14.439172950126222], [79.18974258140824, 14.440919455278916], [79.19362457960045, 14.4416381074252], [79.19219700649347, 14.443349324853296], [79.19217752876985, 14.445760204660104], [79.1939084927121, 14.450251108459762], [79.19457364442854, 14.455422701814026], [79.19315711069505, 14.455756268767255], [79.19174892999739, 14.45505659370788]], [[79.24274419779442, 14.35245448197966], [79.24242584165737, 14.347974355613989], [79.24314045315606, 14.346946321211258], [79.24353130614324, 14.342127003236856], [79.24532445666428, 14.338695834243145], [79.24606848441073, 14.333879113898453], [79.24749756518067, 14.331823003868887], [79.24856000003506, 14.331486402062371], [79.250976688468, 14.338737576073092], [79.25202046333, 14.340811941757025], [79.2558771085988, 14.344629237533445], [79.25621172971914, 14.347042819604292], [79.25407070751038, 14.34978262656512], [79.25158971019316, 14.35079767547087], [79.2480675857183, 14.349393891694929], [79.24737173929975, 14.348010970636965], [79.24596398607115, 14.347311671062142], [79.24560266413175, 14.348342329920623], [79.24700506275768, 14.349730481132163], [79.24663569847017, 14.351794414524559], [79.24485854182143, 14.35315903664938], [79.24274419779442, 14.35245448197966]], [[79.22931941990643, 14.352354566371378], [79.22300652877018, 14.34645183292453], [79.22231900127113, 14.344035596566972], [79.21916136025284, 14.341256384983861], [79.21847388443767, 14.338840143054494], [79.22349818206953, 14.328889039047182], [79.22350902758708, 14.327511356223113], [79.22210419904924, 14.32646751647909], [79.22212590212051, 14.323712152195094], [79.22426428338787, 14.321317065064154], [79.22638909196972, 14.320644060430116], [79.2285328029901, 14.317560081843949], [79.22859222108238, 14.309982796284757], [79.22720907809268, 14.306183619066902], [79.22898861963589, 14.304474671464835], [79.22936610430534, 14.301377499644433], [79.23078160990185, 14.301043593062989], [79.2384984003335, 14.307989765125779], [79.24162104488823, 14.315246219519357], [79.24159691113796, 14.318346039248551], [79.24047547883573, 14.326259945097409], [79.23867969199348, 14.330035507202751], [79.2365440465367, 14.332086307653588], [79.23730704919676, 14.32485866781159], [79.23802159624613, 14.323830641229753], [79.23769255432859, 14.320728207956227], [79.23559737011743, 14.317612662194225], [79.23491244525177, 14.314852028136968], [79.2310027003378, 14.317922931249488], [79.23169836989608, 14.319305881585604], [79.23416829508015, 14.319668700783163], [79.2334456628389, 14.321729983909462], [79.23342949190419, 14.323796520237105], [79.23448112562644, 14.324837670800031], [79.23405780404325, 14.33379003281372], [79.23334050563548, 14.33516246330153], [79.23366139023837, 14.339298161480835], [79.23291166975227, 14.344803652453702], [79.23074877884272, 14.350298591225794], [79.22931941990643, 14.352354566371378]], [[79.27939569680007, 14.318278407552867], [79.28117237505538, 14.316913468266916], [79.28116713244708, 14.317602331591974], [79.27939569680007, 14.318278407552867]], [[79.203210155801, 14.303592359824725], [79.20499256847313, 14.301539192333818], [79.20675855968071, 14.301552517470515], [79.20710629582506, 14.302244017680927], [79.20708444365461, 14.304999364282386], [79.20494607470127, 14.307394296601439], [79.20318003963159, 14.307380952679216], [79.203210155801, 14.303592359824725]], [[79.14496072824022, 14.256647079956183], [79.14530539632432, 14.25768305002192], [79.14389574360264, 14.257327651541376], [79.1439013799249, 14.256638836545818], [79.14496072824022, 14.256647079956183]], [[79.07473010076046, 14.251612964451171], [79.07473886639634, 14.250579782865833], [79.07722510429754, 14.248877746534927], [79.08110327847666, 14.249597808869988], [79.08109163026474, 14.250975389575055], [79.07967051009508, 14.25199720811909], [79.07648973302442, 14.252315996305558], [79.07473010076046, 14.251612964451171]], [[79.03273933689593, 14.248170651800082], [79.0334604150932, 14.246454546198297], [79.03486974355957, 14.246810567973677], [79.03414569102478, 14.24887106460867], [79.03273933689593, 14.248170651800082]], [[79.16551955766946, 14.247161997049817], [79.16588101137076, 14.246131475377023], [79.1679968575194, 14.246492163029512], [79.16798573911937, 14.24786981291174], [79.1662202042559, 14.247856249880241], [79.16551955766946, 14.247161997049817]]], [[[79.16217608744758, 14.397652558731378], [79.16468606440003, 14.39319448278105], [79.16470013532091, 14.391472444612539], [79.16330370727142, 14.389395024164664], [79.16189039777052, 14.389384041430455], [79.16081631799166, 14.391097833563423], [79.16078811551475, 14.394541902212273], [79.16147222719712, 14.397302655108335], [79.16217608744758, 14.397652558731378]]], [[[79.16548415828092, 14.42523259110906], [79.17118609415411, 14.419421555977012], [79.17650355607387, 14.417396118035297], [79.18220222325652, 14.411929166219869], [79.1857498226898, 14.410234289658602], [79.19180699571851, 14.404080943851568], [79.19324537369579, 14.400992043197602], [79.20000877051169, 14.394843830101061], [79.2025262744322, 14.389352014472887], [79.20466830326758, 14.386612797801936], [79.20539696913286, 14.383862836311456], [79.20718008865067, 14.381809737154867], [79.2079224275364, 14.377337679891165], [79.20971369230445, 14.374251301664556], [79.20974384525371, 14.370462716504193], [79.20904271516669, 14.369768538289305], [79.2069228824233, 14.369752492412829], [79.19805440811749, 14.37416282079432], [79.1934503123048, 14.375505461879857], [79.1891689714087, 14.380639250832159], [79.18773070524674, 14.383728140394602], [79.18595296899285, 14.385092246166431], [79.18487351949233, 14.387494995685973], [79.18060289828153, 14.39125093175601], [79.17664072392834, 14.400520055252967], [79.17378031730559, 14.404631133394627], [79.1698653417213, 14.408045133922199], [79.16807323934722, 14.411131105961516], [79.16590236311863, 14.417313977433206], [79.16092973454424, 14.420375137636551], [79.15949926341192, 14.422430552264432], [79.1598356743205, 14.424499743209436], [79.16159410893314, 14.425546736687751], [79.16335820732823, 14.42590490613345], [79.16548415828092, 14.42523259110906]], [[79.16197574111266, 14.422105428473465], [79.16694839949221, 14.419044249492597], [79.17091137650787, 14.409775388201965], [79.17518533009736, 14.405675284252363], [79.17840466832699, 14.400878092519559], [79.18056104629746, 14.396417091586152], [79.18129562276138, 14.39297842317867], [79.18556627035953, 14.389222477604363], [79.19272154435801, 14.378255374523762], [79.19556741998196, 14.375866048728838], [79.19804336989947, 14.375540478976761], [79.20584923325512, 14.371466543119757], [79.2079718245543, 14.371138183948473], [79.20866472630951, 14.372865615270367], [79.20687071516922, 14.376296401689311], [79.20648717964647, 14.380082300848489], [79.20289613865953, 14.387288209795356], [79.20111293431275, 14.389341266139091], [79.19895426508114, 14.394146927053823], [79.19219086641952, 14.40029510937843], [79.19075248035757, 14.40338400260838], [79.18861289221158, 14.40577863912869], [79.1843419394885, 14.409534603867732], [79.18186002336057, 14.41054880382484], [79.17758327395964, 14.414993439954696], [79.16942483807019, 14.418719041683719], [79.16478867212791, 14.423849467101745], [79.16231499952741, 14.423830212340333], [79.16197574111266, 14.422105428473465]]]]}}, {"type": "Feature", "properties": {"depth_class": 2, "depth_lo_m": 1.0, "t_s": 50400.200292144575}, "geometry": {"type": "MultiPolygon", "coordinates": [[[[79.02027459039152, 14.219826087145787], [79.02064860126119, 14.217418325548406], [79.01960750057071, 14.215343252802397], [79.01819839683871, 14.214987168333762], [79.01610126561869, 14.2125589214722], [79.01291806577964, 14.213221304854397], [79.01254398765876, 14.215629045399083], [79.01324101536012, 14.216668060368143], [79.01641525626744, 14.217038827487833], [79.01815339219868, 14.220152915754356], [79.02027459039152, 14.219826087145787]], [[79.01430610767282, 14.21598809505003], [79.013974124304, 14.213574486052321], [79.01644227872582, 14.213939381788796], [79.0164272670522, 14.215661296171254], [79.01430610767282, 14.21598809505003]]], [[[79.15890271052439, 14.235744762761133], [79.1578741660003, 14.231948073218977], [79.1561087649173, 14.231934450296858], [79.156100381072, 14.232967682060588], [79.15890271052439, 14.235744762761133]]], [[[79.08152622103543, 14.241335159309362], [79.08474750077714, 14.236194736003176], [79.08477072646167, 14.233439565102909], [79.0840703986884, 14.232745108307421], [79.08265813278273, 14.232733774121671], [79.07875693558165, 14.234768933188933], [79.07732425857802, 14.237168329790206], [79.07799834522582, 14.240962359037873], [79.07869867410847, 14.241656834057089], [79.08152622103543, 14.241335159309362]], [[79.07909253232627, 14.23683814481039], [79.08016048006886, 14.235813478280754], [79.08263488268973, 14.23548894176514], [79.08262325577907, 14.236866525335005], [79.08048153756663, 14.239604666484158], [79.07907214482483, 14.239248910651703], [79.07909253232627, 14.23683814481039]]], [[[79.16764653248764, 14.246145039311449], [79.16588101137076, 14.246131475377023], [79.16551955766946, 14.247161997049817], [79.1662202042559, 14.247856249880241], [79.16798573911937, 14.24786981291174], [79.16764653248764, 14.246145039311449]]], [[[79.03379260985845, 14.248868154842537], [79.03486974355957, 14.246810567973677], [79.0334604150932, 14.246454546198297], [79.03273933689593, 14.248170651800082], [79.03379260985845, 14.248868154842537]]], [[[79.14530539632432, 14.25768305002192], [79.1439013799249, 14.256638836545818], [79.14389574360264, 14.257327651541376], [79.14530539632432, 14.25768305002192]]], [[[79.02628804568184, 14.259138443746428], [79.02630303036523, 14.257416525317973], [79.02383138253299, 14.257396052775857], [79.02416947409795, 14.259120895213629], [79.02628804568184, 14.259138443746428]]], [[[79.20565522367406, 14.307055212552806], [79.20708444365461, 14.304999364282386], [79.20675855968071, 14.301552517470515], [79.20499256847313, 14.301539192333818], [79.203210155801, 14.303592359824725], [79.20318003963159, 14.307380952679216], [79.20565522367406, 14.307055212552806]]], [[[79.27939569680007, 14.318278407552867], [79.28116713244708, 14.317602331591974], [79.28117237505538, 14.316913468266916], [79.28011266564705, 14.316905798216169], [79.27939569680007, 14.318278407552867]]], [[[79.19421742507642, 14.45576440299753], [79.1939084927121, 14.450251108459762], [79.19217752876985, 14.445760204660104], [79.19219700649347, 14.443349324853296], [79.19362457960045, 14.4416381074252], [79.18974258140824, 14.440919455278916], [79.18657581048244, 14.439172950126222], [79.18271625589028, 14.435698910858513], [79.18167562013487, 14.43327986819635], [79.17885402169713, 14.432569230614286], [79.17780223265352, 14.43152781306395], [79.17817243701025, 14.429464088820966], [79.1820988944584, 14.424672345281513], [79.18282242455615, 14.42261132904973], [79.1863841321871, 14.419194408835168], [79.19098362376023, 14.418540843629314], [79.19100863316113, 14.41544113584089], [79.19920261776095, 14.407237351953812], [79.20026823123311, 14.406556604297517], [79.20344849042542, 14.40658081582408], [79.20520428340609, 14.407971908043441], [79.20662049696222, 14.407638230289104], [79.20663150824048, 14.40626056932609], [79.20488122725283, 14.404180658097316], [79.20489500106416, 14.402458583011693], [79.20952709695543, 14.397671618036327], [79.21132402354007, 14.393896415897759], [79.21559151873022, 14.39048428885348], [79.21739374116575, 14.386020184269764], [79.2198752574515, 14.385005558777234], [79.22201977018223, 14.381921735839445], [79.22734141420769, 14.379206150810175], [79.23052675463228, 14.378541112555718], [79.23159485222386, 14.377515774632535], [79.23267918009904, 14.374423904379418], [79.23799244210036, 14.372741309221585], [79.2401419767683, 14.368968431890815], [79.24441395132445, 14.364866826545171], [79.24727525574652, 14.360410248680669], [79.25152553981066, 14.359063879112973], [79.25437861768734, 14.355640465904207], [79.2589900584352, 14.353263269422321], [79.2636173356431, 14.348819406628573], [79.26645685209762, 14.347117950304966], [79.26718724724815, 14.344023260796149], [79.27004253443779, 14.34025517758222], [79.27007424162501, 14.336122029175506], [79.26832907377486, 14.333353713232254], [79.2683422927778, 14.331631568812051], [79.27012970487637, 14.328889015840835], [79.27158755795537, 14.323044005039671], [79.26981605739736, 14.32372000121055], [79.26909107909476, 14.326125856912547], [79.26695042851473, 14.328865824828448], [79.26619892626704, 14.33471595029429], [79.26650982770683, 14.340229385877105], [79.26508349493925, 14.341941194687253], [79.26471431422762, 14.344005177716522], [79.26293466351844, 14.345714383152266], [79.25904860711475, 14.345685882366967], [79.25654635499168, 14.349456401545744], [79.25476926968729, 14.350821107175648], [79.25086709696075, 14.352859013334774], [79.24803812315282, 14.35318256240224], [79.24626096178338, 14.354547194618227], [79.23848862241908, 14.354489548380949], [79.23779013171935, 14.353451027305898], [79.23781437953294, 14.350351223091451], [79.24141975371049, 14.341078024696523], [79.24320755776348, 14.338335722294442], [79.24395430902119, 14.333174589099185], [79.24824150706486, 14.327006266192216], [79.24930124590406, 14.327014083766523], [79.2503529745473, 14.328055173786261], [79.251765967974, 14.328065584350103], [79.25248046625624, 14.32703750813869], [79.25214588988757, 14.324623924820031], [79.25039035297893, 14.323233212851584], [79.25006914637632, 14.319097499588544], [79.24833770349844, 14.31460694688946], [79.2480191986927, 14.310126807878344], [79.24312767482013, 14.30320180117888], [79.24032345779003, 14.300425507511138], [79.23788592432034, 14.295929683609861], [79.23084088121354, 14.293466287756305], [79.2287379180504, 14.291383982995681], [79.22592322723625, 14.289985243270113], [79.22347797609783, 14.286522579686892], [79.22135620176093, 14.286851174702592], [79.2202804172828, 14.288909781801587], [79.21886498192336, 14.289243633169356], [79.21641171262246, 14.286814172021684], [79.21394490874394, 14.286106791978902], [79.21255396226914, 14.283340827610967], [79.21009265733292, 14.281944574167442], [79.20764228870978, 14.279170622195387], [79.20306483017399, 14.277413928239234], [79.20061186315576, 14.274984336648899], [79.19744442549958, 14.27358263421147], [79.19359818546305, 14.268731372154512], [79.18937146015881, 14.267321543750377], [79.18829276396274, 14.269724402015298], [79.19529807102185, 14.277010759291045], [79.20409153552116, 14.281554941746721], [79.20688959377412, 14.285020425997603], [79.20829955892815, 14.285375482942404], [79.2118040867779, 14.288846238565602], [79.21461865658107, 14.290245133763639], [79.21812607184377, 14.293371394282644], [79.2234157834988, 14.294444280756673], [79.22833617924901, 14.297580960113672], [79.23221326729842, 14.29864313860708], [79.2353624929679, 14.302455406923455], [79.23852255836708, 14.304889947883296], [79.2416692950545, 14.309046577519874], [79.24374576112045, 14.314573046710462], [79.2440534626567, 14.320430880041004], [79.243304110114, 14.325936448356313], [79.2350582646633, 14.341375214530773], [79.2346726309288, 14.345505653707566], [79.23250977224245, 14.351000612394877], [79.22787919368149, 14.355788212547653], [79.2267894982566, 14.359568909011307], [79.22537904112116, 14.359213906966108], [79.2257486166736, 14.357150031622028], [79.22752861698021, 14.355441149503426], [79.22754216908478, 14.35371904601739], [79.22615073028992, 14.350953108818564], [79.22088418024765, 14.346780356983794], [79.21564236363673, 14.339507739523487], [79.21353099414148, 14.338458530088957], [79.21105819375856, 14.338439894717709], [79.20820750716902, 14.34151832300443], [79.20537045249543, 14.342874623012975], [79.20322616728824, 14.345958321419042], [79.20074504943352, 14.346972816723877], [79.20003025983604, 14.348000700928857], [79.20069829134887, 14.352827884939304], [79.19962194164556, 14.354886329045543], [79.19924387499302, 14.357983382501533], [79.197460905911, 14.360036439312728], [79.19566133856375, 14.364155965158995], [79.19246232990803, 14.366542615144233], [79.19138305988538, 14.368945416529384], [79.18960269881255, 14.3706539807256], [79.18428647818537, 14.372679865091113], [79.17756531700682, 14.373661508207519], [79.17366217854244, 14.375698011088707], [79.16942248721557, 14.375665253777271], [79.16695776052973, 14.37461288460146], [79.16412851126361, 14.37493538442687], [79.15878946333967, 14.379715911641748], [79.1587838218855, 14.380404725329626], [79.1534643386807, 14.382774260907276], [79.1509684662739, 14.385510183033107], [79.15024481775168, 14.387571087285911], [79.14668887251665, 14.390298656821026], [79.14561183671124, 14.392356769282769], [79.14312145333653, 14.39440377546272], [79.14131488470453, 14.399211531549964], [79.14198450096293, 14.403694327437677], [79.1398330227757, 14.407466069324789], [79.13907203323265, 14.414004142062751], [79.13409632201865, 14.417409103431451], [79.13407912295408, 14.419475508801584], [79.13719933139676, 14.42673306217365], [79.14034259644104, 14.431235380607015], [79.143876488371, 14.43126322244149], [79.14990972299414, 14.428210799184882], [79.15309303904723, 14.427891320779493], [79.15522186469306, 14.426874699541886], [79.1576927289729, 14.427238437901002], [79.1590949533725, 14.428627096076967], [79.1590751402072, 14.431037934258566], [79.15550434520381, 14.435487581136554], [79.15583788596358, 14.437901178156848], [79.16820419905433, 14.43834203122994], [79.17033307838102, 14.437325277970167], [79.17457393672225, 14.43735815624587], [79.17668314964853, 14.438752201288391], [79.18056504267017, 14.439471059503015], [79.1847780334961, 14.442947859348942], [79.18649765930915, 14.44881643956756], [79.18895769871611, 14.450557526213402], [79.19069698093648, 14.454015216280924], [79.19315711069505, 14.455756268767255], [79.19421742507642, 14.45576440299753]], [[79.1608901676474, 14.425196821835339], [79.15948794960816, 14.423808175182023], [79.15985829758944, 14.42174449682564], [79.16270790585746, 14.419011275020631], [79.16590236311863, 14.417313977433206], [79.16699344864895, 14.413533731442346], [79.1698653417213, 14.408045133922199], [79.17378031730559, 14.404631133394627], [79.17664072392834, 14.400520055252967], [79.17988785838135, 14.392278724190904], [79.18487351949233, 14.387494995685973], [79.1920259901703, 14.376872322918448], [79.19451577763625, 14.37482472292428], [79.19805440811749, 14.37416282079432], [79.2069228824233, 14.369752492412829], [79.20904271516669, 14.369768538289305], [79.20974384525371, 14.370462716504193], [79.20971369230445, 14.374251301664556], [79.2079224275364, 14.377337679891165], [79.20718008865067, 14.381809737154867], [79.20539696913286, 14.383862836311456], [79.20466830326758, 14.386612797801936], [79.2025262744322, 14.389352014472887], [79.20000877051169, 14.394843830101061], [79.19324537369579, 14.400992043197602], [79.19002354790297, 14.406133886353677], [79.1857498226898, 14.410234289658602], [79.18220222325652, 14.411929166219869], [79.17756927796141, 14.416715487140435], [79.17118609415411, 14.419421555977012], [79.16548415828092, 14.42523259110906], [79.16335820732823, 14.42590490613345], [79.1608901676474, 14.425196821835339]], [[79.17967274126977, 14.418798306588279], [79.18253605287576, 14.41434275980945], [79.18608647630619, 14.412303471565014], [79.1907163801588, 14.407861361952712], [79.19429711712125, 14.402033386079212], [79.20141938595927, 14.39519900365392], [79.20859338613667, 14.381820443753261], [79.20933844023061, 14.377003962183602], [79.21112420481063, 14.374606404674084], [79.2111598120204, 14.370128982381203], [79.20940698498548, 14.368393543295236], [79.20658055861185, 14.368372150929693], [79.19771213692525, 14.372782472518653], [79.19382021978012, 14.37344167616609], [79.18813399555965, 14.37753142255716], [79.18672351839963, 14.377176184614314], [79.18602522763773, 14.376137532180044], [79.18639242634006, 14.37441817862553], [79.19065152829836, 14.372039737001097], [79.19351392759567, 14.367583945130326], [79.19635688670337, 14.365539005501358], [79.19814267171702, 14.363141549275483], [79.1985125027534, 14.361077746782808], [79.20029547262926, 14.359024682066547], [79.20174987534315, 14.353869176452163], [79.20143509222247, 14.34904467338155], [79.20463374911967, 14.346657858726502], [79.20713402802512, 14.343232400186816], [79.2085498205208, 14.342898661520481], [79.21175378191104, 14.339822894454588], [79.21492493742672, 14.340880098652974], [79.21560965104749, 14.343640765580153], [79.21346821646185, 14.34638015358237], [79.2138105667311, 14.347760488557743], [79.22157169665725, 14.349196596164916], [79.2243843338843, 14.35093988314125], [79.22578117539388, 14.35301698740834], [79.22576761052088, 14.354739089347676], [79.2232647244121, 14.358509179193788], [79.22360171079346, 14.360578347321983], [79.22535732176942, 14.361969267902984], [79.2278331110219, 14.361643363381924], [79.2289255126567, 14.357518241018008], [79.2300016260797, 14.355459634643145], [79.23177887923543, 14.354095136598456], [79.23530634045899, 14.354810314591813], [79.23847245917842, 14.356556084650965], [79.24518499356647, 14.35660589249734], [79.24908727555808, 14.354568093759328], [79.25298147871544, 14.353563498789352], [79.25617707713782, 14.351520359817917], [79.259741864067, 14.347413203574709], [79.26221482792532, 14.347431342705574], [79.26184826345407, 14.349150889175753], [79.25935665462741, 14.351543731157362], [79.25332675474745, 14.354599379343172], [79.25047100140445, 14.358367204704708], [79.2479952531499, 14.358693353894601], [79.24586474651709, 14.36005536440999], [79.24478874253076, 14.362114056174322], [79.23980483213131, 14.3668992698555], [79.23800862875223, 14.3706747763042], [79.2362285640879, 14.372383730462932], [79.23233668999667, 14.373043581659045], [79.23090988410809, 14.374755127014511], [79.23018427489347, 14.377160787969125], [79.22167734154439, 14.380541404709348], [79.21882345164869, 14.38396432384255], [79.21562707796842, 14.386006861600293], [79.2141808992732, 14.390129200617377], [79.21062831143593, 14.392513401834515], [79.20811644770501, 14.397316489685634], [79.20348708997854, 14.401759009700418], [79.20275555826257, 14.404853366471919], [79.19992592103569, 14.405176255486541], [79.19815082743855, 14.406196025871001], [79.1896062598566, 14.414052652409461], [79.18781713619997, 14.416794387793816], [79.18462839379632, 14.417803181188413], [79.18036272122973, 14.420870215903156], [79.17930537774328, 14.420517629015515], [79.17967274126977, 14.418798306588279]], [[79.16112452884425, 14.39661109239016], [79.16081631799166, 14.391097833563423], [79.16189039777052, 14.389384041430455], [79.16330370727142, 14.389395024164664], [79.16435524757058, 14.390436478596232], [79.16468606440003, 14.39319448278105], [79.16217608744758, 14.397652558731378], [79.16112452884425, 14.39661109239016]], [[79.26829998578411, 14.337142430036574], [79.26794936524956, 14.336795422500364], [79.26830263049831, 14.336798001288468], [79.26829998578411, 14.337142430036574]]]]}}, {"type": "Feature", "properties": {"depth_class": 3, "depth_lo_m": 2.0, "t_s": 50400.200292144575}, "geometry": {"type": "MultiPolygon", "coordinates": [[[[79.01430610767282, 14.21598809505003], [79.0164272670522, 14.215661296171254], [79.01644227872582, 14.213939381788796], [79.013974124304, 14.213574486052321], [79.01360606965545, 14.215293465045868], [79.01430610767282, 14.21598809505003]]], [[[79.08048444823977, 14.239260271119985], [79.08190547803706, 14.238238436231862], [79.08263488268973, 14.23548894176514], [79.08016048006886, 14.235813478280754], [79.07909253232627, 14.23683814481039], [79.07907214482483, 14.239248910651703], [79.08048444823977, 14.239260271119985]]], [[[79.26829998578411, 14.337142430036574], [79.26794936524956, 14.336795422500364], [79.26794671999652, 14.337139851183952], [79.26829998578411, 14.337142430036574]]], [[[79.17930537774328, 14.420517629015515], [79.18249138296298, 14.419853325403231], [79.18462839379632, 14.417803181188413], [79.18781713619997, 14.416794387793816], [79.1896062598566, 14.414052652409461], [79.19815082743855, 14.406196025871001], [79.19992592103569, 14.405176255486541], [79.20275555826257, 14.404853366471919], [79.20348708997854, 14.401759009700418], [79.20811644770501, 14.397316489685634], [79.21062831143593, 14.392513401834515], [79.2141808992732, 14.390129200617377], [79.21562707796842, 14.386006861600293], [79.21882345164869, 14.38396432384255], [79.22167734154439, 14.380541404709348], [79.23018427489347, 14.377160787969125], [79.23090988410809, 14.374755127014511], [79.23233668999667, 14.373043581659045], [79.2362285640879, 14.372383730462932], [79.23800862875223, 14.3706747763042], [79.23980483213131, 14.3668992698555], [79.24478874253076, 14.362114056174322], [79.24586474651709, 14.36005536440999], [79.2479952531499, 14.358693353894601], [79.25047100140445, 14.358367204704708], [79.25332675474745, 14.354599379343172], [79.25935665462741, 14.351543731157362], [79.26184826345407, 14.349150889175753], [79.26221482792532, 14.347431342705574], [79.259741864067, 14.347413203574709], [79.25617707713782, 14.351520359817917], [79.25298147871544, 14.353563498789352], [79.24908727555808, 14.354568093759328], [79.24518499356647, 14.35660589249734], [79.23847245917842, 14.356556084650965], [79.23530634045899, 14.354810314591813], [79.23177887923543, 14.354095136598456], [79.2300016260797, 14.355459634643145], [79.2278331110219, 14.361643363381924], [79.22535732176942, 14.361969267902984], [79.22360171079346, 14.360578347321983], [79.2232647244121, 14.358509179193788], [79.22576761052088, 14.354739089347676], [79.22578117539388, 14.35301698740834], [79.2243843338843, 14.35093988314125], [79.22157169665725, 14.349196596164916], [79.2138105667311, 14.347760488557743], [79.21346821646185, 14.34638015358237], [79.21560965104749, 14.343640765580153], [79.21492493742672, 14.340880098652974], [79.21175378191104, 14.339822894454588], [79.2085498205208, 14.342898661520481], [79.20713402802512, 14.343232400186816], [79.20463374911967, 14.346657858726502], [79.20143509222247, 14.34904467338155], [79.20174987534315, 14.353869176452163], [79.20029547262926, 14.359024682066547], [79.1985125027534, 14.361077746782808], [79.19814267171702, 14.363141549275483], [79.19635688670337, 14.365539005501358], [79.19351392759567, 14.367583945130326], [79.19065152829836, 14.372039737001097], [79.18639242634006, 14.37441817862553], [79.18602522763773, 14.376137532180044], [79.18672351839963, 14.377176184614314], [79.18813399555965, 14.37753142255716], [79.19311083610906, 14.373780696520894], [79.19771213692525, 14.372782472518653], [79.20658055861185, 14.368372150929693], [79.20940698498548, 14.368393543295236], [79.21081198342802, 14.369437478254623], [79.21112420481063, 14.374606404674084], [79.20933844023061, 14.377003962183602], [79.20859338613667, 14.381820443753261], [79.20141938595927, 14.39519900365392], [79.19429711712125, 14.402033386079212], [79.1907163801588, 14.407861361952712], [79.18110860294419, 14.416053924257435], [79.17931936425973, 14.418795580713796], [79.17930537774328, 14.420517629015515]], [[79.23702424007739, 14.36102306512901], [79.23526855322648, 14.359632223544722], [79.2409185884898, 14.360018687876066], [79.24091320629773, 14.360707533923875], [79.23878803313545, 14.361380628265486], [79.23702424007739, 14.36102306512901]]]]}}, {"type": "Feature", "properties": {"depth_class": 4, "depth_lo_m": 3.0, "t_s": 50400.200292144575}, "geometry": {"type": "Polygon", "coordinates": [[[79.24091320629773, 14.360707533923875], [79.23808413240577, 14.361030951027256], [79.23702424007739, 14.36102306512901], [79.23526855322648, 14.359632223544722], [79.2409185884898, 14.360018687876066], [79.24091320629773, 14.360707533923875]]]}}]}