{"type": "FeatureCollection", "features": [{"type": "Feature", "properties": {"depth_class": 1, "depth_lo_m": 0.3, "t_s": 75600.21908119183}, "geometry": {"type": "MultiPolygon", "coordinates": [[[[79.01424296778274, 14.223220123053174], [79.01602618186206, 14.221168489959858], [79.01813838663901, 14.221874831035088], [79.02096866992005, 14.221209469120577], [79.02168672354301, 14.21983777971867], [79.02171966913033, 14.216049556950844], [79.02067556682104, 14.2143188719775], [79.01891644127093, 14.213615486208635], [79.0178693710617, 14.212229176129327], [79.0139921575822, 14.211508191486345], [79.01150297172912, 14.213553947723556], [79.01148190310485, 14.215964620613429], [79.01217892634699, 14.21700363815606], [79.01144276519125, 14.220441583183506], [79.01283382962676, 14.222864001902288], [79.01424296778274, 14.223220123053174]], [[79.01815339219868, 14.220152915754356], [79.01641525626744, 14.217038827487833], [79.01324101536012, 14.216668060368143], [79.01254398765876, 14.215629045399083], [79.01291806577964, 14.213221304854397], [79.01610126561869, 14.2125589214722], [79.01819839683871, 14.214987168333762], [79.02030755945819, 14.21603786761961], [79.02063661448385, 14.2187958601953], [79.01991855910141, 14.220167546157368], [79.01815339219868, 14.220152915754356]]], [[[79.16062073082857, 14.241613360551185], [79.16141333288863, 14.230942045023951], [79.16388767401897, 14.23061664514664], [79.16425466223365, 14.228897297796511], [79.16320934656169, 14.227167095131888], [79.16109368959671, 14.226806387010601], [79.15898919719153, 14.225068015579426], [79.15722384841197, 14.225054407334662], [79.15543614648841, 14.227796071131706], [79.15331770701934, 14.227779705115275], [79.15189701514774, 14.228802013680765], [79.15187180994066, 14.23190170211306], [79.15291425045393, 14.233976355919092], [79.15572493499282, 14.235720239400475], [79.15708977487797, 14.241586124182863], [79.15814347395816, 14.242283121995076], [79.15990895746806, 14.242296739560603], [79.16062073082857, 14.241613360551185]], [[79.15890271052439, 14.235744762761133], [79.156100381072, 14.232967682060588], [79.1561087649173, 14.231934450296858], [79.1582244551067, 14.232295207249601], [79.15890271052439, 14.235744762761133]]], [[[79.08115859049458, 14.243054298225754], [79.08615978992073, 14.236206060530675], [79.08618589922843, 14.233106490654498], [79.08443507785556, 14.231370355050153], [79.08231669182003, 14.231353355484158], [79.07770355755726, 14.234071618699938], [79.07591488787189, 14.236812557760208], [79.0723871015607, 14.236439684372865], [79.07131327157252, 14.238153098368386], [79.07164879999883, 14.240222311996115], [79.07305233664657, 14.24126689858418], [79.07623587291111, 14.24060374264391], [79.07693036170394, 14.241987011201704], [79.07868701807759, 14.243034413726718], [79.08115859049458, 14.243054298225754]], [[79.07800417460139, 14.24027356938424], [79.07804205795068, 14.23579643561188], [79.08230215997636, 14.233075335192929], [79.0840674948359, 14.23308950458502], [79.08476782352267, 14.233783961502166], [79.0847533076638, 14.235505943341071], [79.08224110502438, 14.240307647104727], [79.08082006229033, 14.241329482389697], [79.07870158792157, 14.241312439113432], [79.07800417460139, 14.24027356938424]]], [[[79.11821835883717, 14.245071512487145], [79.12036827828598, 14.241299773694987], [79.1203882306469, 14.238888950273804], [79.11899871194554, 14.236122600929617], [79.11653001572947, 14.235758714744671], [79.1143801013723, 14.239530419205416], [79.11400413678402, 14.242282846396957], [79.11680598822896, 14.245060370735448], [79.11821835883717, 14.245071512487145]]], [[[79.16938705731988, 14.249258304748714], [79.17011271268609, 14.246852832703508], [79.16871418063701, 14.245119933448054], [79.16695422780072, 14.244417553686498], [79.16306732832118, 14.244732099680535], [79.16305060756646, 14.246798569016825], [79.16514696315588, 14.24957016518527], [79.16796905929223, 14.249936287421468], [79.16938705731988, 14.249258304748714]]], [[[79.03554013007644, 14.250949013555928], [79.0366291776813, 14.247513873873078], [79.0394686893612, 14.245815167890548], [79.03913643322558, 14.2434015593998], [79.03738594882373, 14.241665115509615], [79.03561761715916, 14.24199497871526], [79.03418744478843, 14.24404966533019], [79.03170398768316, 14.245406833998175], [79.03027674584823, 14.24711710443601], [79.03026180257916, 14.248839028483157], [79.0316681509471, 14.249539455419903], [79.03306256862246, 14.251617416362873], [79.03554013007644, 14.250949013555928]], [[79.03381349243577, 14.24645745597372], [79.03486676209809, 14.24715495376699], [79.03450175466527, 14.248529588185537], [79.0330924167534, 14.248173562985087], [79.03310435377429, 14.246796021339028], [79.03381349243577, 14.24645745597372]]], [[[79.15065832104086, 14.250836013997782], [79.15067796568138, 14.24842515076216], [79.14891525250266, 14.248067050447604], [79.14785032105834, 14.248747646479444], [79.14748316062173, 14.250466947029198], [79.14853124258536, 14.251852805341743], [79.1495905713478, 14.251861025490921], [79.15065832104086, 14.250836013997782]]], [[[79.15731984181178, 14.256742905802403], [79.15945811607106, 14.254348394843776], [79.15841554211572, 14.252273754492755], [79.15629966916595, 14.25191297732984], [79.15134209087852, 14.253596760684701], [79.1516811745642, 14.25532154289267], [79.15378865714396, 14.256715592266994], [79.15731984181178, 14.256742905802403]]], [[[79.13118074063847, 14.25757276402102], [79.1318784606647, 14.258611513476822], [79.13223157734147, 14.2586142799747], [79.13223724960473, 14.257925469638948], [79.13118074063847, 14.25757276402102]]], [[[79.02804154572235, 14.260530589186269], [79.0284185952044, 14.257778436996752], [79.02702119820533, 14.256044834396468], [79.02455556226504, 14.255335604427632], [79.02207192835726, 14.256692648188968], [79.0220509053966, 14.259103327882938], [79.02345127789235, 14.260492573724974], [79.0252107656334, 14.261195972272752], [79.02804154572235, 14.260530589186269]], [[79.02383138253299, 14.257396052775857], [79.02559984263743, 14.257066295060401], [79.02664413778716, 14.25879698293623], [79.02487266498778, 14.259471130173212], [79.02381937995807, 14.258773585480736], [79.02383138253299, 14.257396052775857]]], [[[79.04956882551404, 14.262085344424321], [79.04994562326007, 14.259333125376621], [79.04783887698481, 14.257938234206215], [79.04607338689839, 14.25792377245424], [79.04499925057591, 14.2596370268955], [79.04497846673935, 14.262047739314534], [79.04603184337627, 14.262745200570048], [79.04850358252169, 14.262765450493285], [79.04956882551404, 14.262085344424321]]], [[[79.08311707004823, 14.262013076241544], [79.08349346713261, 14.259260752706338], [79.08279307445079, 14.258566284081496], [79.07996530927423, 14.258887946705295], [79.07854121259146, 14.260254145413967], [79.0785324580722, 14.261287328479622], [79.07958303760977, 14.26232904852435], [79.08205190822744, 14.262693345098118], [79.08311707004823, 14.262013076241544]]], [[[79.12429771684636, 14.278528688930633], [79.12678968022337, 14.276137323773641], [79.12716844826492, 14.27304046788867], [79.12612612377445, 14.270965714719107], [79.12400446557983, 14.271293442717516], [79.12148397641724, 14.277128808063637], [79.12146683675391, 14.279195222864454], [79.12429771684636, 14.278528688930633]]], [[[79.10415986245036, 14.279402474961445], [79.10381825341616, 14.27802206717275], [79.1024056894136, 14.278010814823002], [79.10238837462667, 14.28007720665401], [79.10415986245036, 14.279402474961445]]], [[[79.20872754491367, 14.497551831468247], [79.22045929275635, 14.489374556882671], [79.2258028363375, 14.484248408948176], [79.22830460871491, 14.480822903233115], [79.2308172188468, 14.476019690181234], [79.23227202732163, 14.47086405146629], [79.23232925798979, 14.46363126696288], [79.23130159275071, 14.459490280633565], [79.22815602014961, 14.454988926728028], [79.22426267444067, 14.4556484739583], [79.22071453429004, 14.45734387465788], [79.21576355026136, 14.457650842270237], [79.21363187006962, 14.459012421257057], [79.21221808205702, 14.459001688733004], [79.20940706181207, 14.456913712566873], [79.19916279350477, 14.45614671208121], [79.19741503145502, 14.453722304486384], [79.19638805507248, 14.449581241871124], [79.19464036828099, 14.447156821828326], [79.19465982144033, 14.444745939018537], [79.19821067297813, 14.442706516444696], [79.1978738939245, 14.440637338542603], [79.19505768456511, 14.439238054385337], [79.19081674222846, 14.439205540360456], [79.1872965757583, 14.437456333890257], [79.18448886334676, 14.435023704715473], [79.1823991915495, 14.431218858400484], [79.18028160800289, 14.43085809643896], [79.18029559747943, 14.429136048704764], [79.1842331694779, 14.422966621731392], [79.18708253419435, 14.420233072502272], [79.191676490374, 14.420268320024492], [79.19238880852285, 14.419584910479994], [79.19277827975294, 14.41511025699996], [79.19954768895592, 14.408273287579423], [79.20273348920482, 14.407608682679687], [79.20519326200213, 14.409349567726036], [79.2066067312249, 14.409360306255737], [79.2076750886921, 14.408335108458248], [79.20804495912651, 14.406271297001284], [79.20594405774902, 14.403844296165254], [79.2059550701537, 14.402466635273264], [79.21022830531861, 14.398365803511298], [79.21202522773405, 14.39459059552828], [79.2162927282811, 14.391178456301311], [79.21702127776635, 14.388428445239203], [79.21880707302697, 14.386030832915196], [79.22057919390274, 14.385355294880455], [79.22272097838149, 14.382615883903167], [79.22520515717721, 14.38125677564151], [79.23122798286663, 14.37923523738211], [79.23373642817197, 14.374776238200466], [79.2365656773714, 14.37445289386904], [79.23940840211587, 14.372407402919347], [79.2415606023956, 14.368290086645578], [79.24440589112994, 14.36590009712475], [79.24762319228597, 14.361101710958742], [79.25151751563804, 14.360097154143785], [79.25472924082575, 14.355987493944891], [79.26075916532992, 14.352931812443193], [79.26360937287366, 14.349852689223475], [79.26680218608612, 14.348153817628749], [79.26860564447016, 14.343344725202249], [79.27074379326889, 14.340949187795877], [79.2711313953502, 14.33647418340437], [79.2693862113839, 14.333705873555566], [79.26940206470194, 14.331639299121894], [79.2708335721789, 14.32923859306278], [79.27156909707134, 14.325455013043914], [79.27335641499322, 14.322712424506053], [79.27018249823979, 14.322000427427417], [79.26589067099289, 14.328858085039121], [79.26516562923914, 14.331263921186936], [79.2658085853734, 14.339535364815033], [79.26402102481336, 14.342277867467676], [79.26329324976695, 14.345028115803675], [79.2594045445683, 14.345344049106547], [79.25871129480417, 14.343616727635752], [79.25730618680194, 14.342573067735543], [79.2579887750333, 14.345678098385036], [79.25477460566442, 14.350132255428331], [79.2455570668834, 14.354197540514104], [79.23884190982231, 14.354492174188023], [79.23779013171935, 14.353451027305898], [79.23889844956497, 14.347259292892579], [79.24355813796157, 14.33868276233483], [79.24394090239926, 14.334896710845936], [79.24644315882922, 14.331126325905858], [79.24717641868757, 14.327687294176071], [79.24894799955328, 14.32701147843343], [79.250344963073, 14.329088450862649], [79.25246446333165, 14.329104064730547], [79.25318162857744, 14.327731560279013], [79.25320561976315, 14.324631723701968], [79.25110217096295, 14.322549565369002], [79.25112084643239, 14.320138583074298], [79.24904415723871, 14.314612154433561], [79.24872029940072, 14.310820866605276], [79.2441819490672, 14.30389847938552], [79.2399782968646, 14.299389619778804], [79.23894551154768, 14.295937530717179], [79.23401690954682, 14.2938343287445], [79.23013719486907, 14.293116610745823], [79.22838742794852, 14.291036930794524], [79.22521956044085, 14.2896355537372], [79.22523846680953, 14.287224598484098], [79.2234833823489, 14.285833735854352], [79.22171479186021, 14.286164970675703], [79.22064443003217, 14.287534737597056], [79.22063089059155, 14.289256844190083], [79.21921545326069, 14.289590697442641], [79.21711806734672, 14.28681946440031], [79.213947626324, 14.285762371848632], [79.21290985204274, 14.282999059139925], [79.20974493512168, 14.281253079780893], [79.20834861620146, 14.27917593780929], [79.20271440309659, 14.277066844925056], [79.20061459879466, 14.27463991872121], [79.19709675390051, 14.272891126915182], [79.19360093050773, 14.268386955381487], [79.1914903113611, 14.267337633783146], [79.18901831854856, 14.267318860248906], [79.18653530672101, 14.268677722866519], [79.18441644882706, 14.268661587307927], [79.18160512468411, 14.266917971462098], [79.17700600747536, 14.267916137459807], [79.17348293587115, 14.266855855789633], [79.17244018268796, 14.264781256612933], [79.1661144185002, 14.260943902448942], [79.16046998144625, 14.260211550232363], [79.15693033910283, 14.261217506649624], [79.15658561242617, 14.260181546628967], [79.15482839950519, 14.259134659066294], [79.15305718058374, 14.259809806576662], [79.14847221445595, 14.25908538262987], [79.1460285215149, 14.255622094851379], [79.14179114888127, 14.25558911429831], [79.14036740028801, 14.256955731378843], [79.14106234160845, 14.258338865784529], [79.14811065687867, 14.260115864831162], [79.15021534478984, 14.261854356584298], [79.15691634193142, 14.262939556121143], [79.15832046337877, 14.263983704321989], [79.16079237738373, 14.264002791831693], [79.1625691969808, 14.262638766275405], [79.16468797269886, 14.262655089303465], [79.16678447233224, 14.265426687549464], [79.1727766604315, 14.266850441360871], [79.17522644276102, 14.269624688814657], [79.19075103314752, 14.271465267029106], [79.19634931708535, 14.278052036763667], [79.19881869794574, 14.278415165517996], [79.20479786906843, 14.281560268759616], [79.20654187835335, 14.284328927690146], [79.2104022627565, 14.287457941123389], [79.21179864379994, 14.289535077828786], [79.21741969628523, 14.293366102522368], [79.21846569804643, 14.29509614309232], [79.2237662697262, 14.294791339920648], [79.2286893756712, 14.297583590812643], [79.23256646612167, 14.298645763740991], [79.23817203306076, 14.304542906350187], [79.24375914941338, 14.312850922204367], [79.24405614113093, 14.320086455273069], [79.24295086658825, 14.325933834294409], [79.2343463375251, 14.342058800500897], [79.23360741474164, 14.346186605072326], [79.23217811045272, 14.348242604124813], [79.23180861711771, 14.350306499415714], [79.22931400525079, 14.35304340854118], [79.22825415553832, 14.353035487724144], [79.22510717158079, 14.348878652732068], [79.2212401706636, 14.346438587886922], [79.22019667568645, 14.344364117041463], [79.21878904771583, 14.34366466810689], [79.21600379807701, 14.338477139715092], [79.21353917970677, 14.337425274441554], [79.21071040258884, 14.33774839439802], [79.20715046280706, 14.341165896879039], [79.20573468046362, 14.341499628257704], [79.20181309906806, 14.345947608948922], [79.19968524483936, 14.346964771517063], [79.1989649451409, 14.34868148294275], [79.19963295367373, 14.353508667265896], [79.1989208891224, 14.354192129259507], [79.19854281529881, 14.357289180779066], [79.19675984674684, 14.359342232320492], [79.1953163288263, 14.36312003017791], [79.19176127018301, 14.365848393141947], [79.18961378478743, 14.369276328413813], [79.18288160383702, 14.371635784890419], [79.17793257240787, 14.371942174579791], [79.1743827737739, 14.373981413201555], [79.1690831995835, 14.373940475621724], [79.16732509747746, 14.372893577349869], [79.16485198252765, 14.372874415588685], [79.16130488969576, 14.374569034471634], [79.15702573052458, 14.379357750723596], [79.15312800206549, 14.380705068406145], [79.14992268601695, 14.383779868770059], [79.1484838844029, 14.386868452470658], [79.1449307771952, 14.38925159056368], [79.14420990453645, 14.390968063958073], [79.14064528413546, 14.394728735366252], [79.13919770933335, 14.39885044361531], [79.13986728235636, 14.403333240430777], [79.13771577522758, 14.407104959271946], [79.13732238970736, 14.411923797942558], [79.13590037180987, 14.412945847198245], [79.13343259263054, 14.412237502235836], [79.12636258115, 14.412525924565854], [79.12387180053003, 14.414572676271698], [79.12315066891016, 14.416289052675626], [79.11960838979284, 14.417294123160348], [79.11853674107842, 14.418663266435551], [79.11605450786742, 14.419676725757943], [79.1135519636565, 14.423100933248259], [79.11035711129652, 14.424797463371826], [79.10892908836186, 14.426508115580901], [79.10959515033923, 14.43133532080772], [79.10885930201093, 14.434773608627488], [79.10565258785587, 14.437847627775326], [79.10105849585115, 14.437810662206656], [79.0975011713216, 14.440537310441284], [79.09747774989432, 14.44329245389234], [79.10308542683954, 14.448848343037756], [79.10306498122459, 14.451259099738062], [79.10056184063635, 14.454683093365079], [79.10017623015999, 14.458468565668834], [79.09482791127323, 14.463935991737136], [79.08881959250424, 14.463887272466382], [79.0867196554927, 14.461459309771236], [79.08388634766365, 14.462125087824656], [79.08246082313755, 14.463491131122298], [79.08028698855506, 14.46967284013844], [79.08127331541415, 14.478291208907448], [79.08544677483575, 14.486246739129603], [79.0920948530101, 14.494222338773778], [79.09420689397757, 14.495272729209123], [79.10057542660806, 14.49463548903139], [79.10200400951712, 14.492924957666492], [79.10273147772023, 14.490519921206023], [79.1055768308861, 14.488476381937794], [79.10915534228005, 14.483338944853942], [79.11698389079791, 14.477202251805275], [79.11806458350178, 14.474799968920896], [79.12091249896531, 14.472411803367265], [79.12235235876234, 14.4693235208729], [79.12413115551394, 14.467960029573595], [79.12557671513007, 14.464182921701303], [79.12771754273837, 14.461789015094286], [79.12983815117155, 14.46180587483703], [79.13158804959663, 14.46388630470463], [79.13405349345106, 14.464939133306805], [79.1358264450948, 14.46426434006052], [79.13585804720489, 14.460475940498586], [79.1309416541643, 14.456648311325818], [79.1306199006251, 14.452857114676906], [79.12957404015873, 14.45112670067633], [79.1299447350317, 14.449063112223088], [79.13385241397876, 14.446683143936193], [79.13705893151344, 14.443608711491358], [79.13849834464564, 14.440520273954746], [79.1427820455545, 14.435387701529729], [79.15130621380692, 14.43028830641349], [79.15661840195855, 14.42895218038993], [79.15731951296027, 14.429646513623618], [79.1569462857565, 14.432054587337548], [79.15373735331566, 14.435473749969713], [79.15371747267193, 14.437884579455789], [79.1551197279014, 14.439273265089684], [79.16359580550667, 14.440028313472856], [79.17385588862842, 14.43873031412698], [79.17772655092615, 14.44082685286502], [79.17984421988152, 14.441187648068128], [79.18265474106792, 14.443275924929086], [79.18404604612005, 14.446042102084714], [79.18437151519468, 14.449488924057343], [79.18717938843753, 14.451921572839362], [79.1885568418251, 14.456409786074557], [79.19136763110915, 14.458497988160575], [79.1924140316941, 14.460228187023688], [79.19131467249638, 14.465041792168618], [79.19448183008463, 14.466788276844724], [79.19516091423556, 14.470237812977192], [79.19475176519313, 14.477123321770325], [79.19613782115674, 14.48057828398856], [79.19611276508047, 14.483677983483295], [79.19467654010613, 14.486422413276122], [79.19429238470721, 14.490208213273293], [79.19321237431221, 14.49261093205093], [79.19636877015628, 14.49573507721574], [79.20094484460942, 14.498181204234633], [79.20872754491367, 14.497551831468247]], [[79.11204424214313, 14.47612938684229], [79.09977009751213, 14.464664783938082], [79.1001411000992, 14.462601280757665], [79.10264435086606, 14.459177305382726], [79.10303576664765, 14.454703036977882], [79.10517962385569, 14.451964957745858], [79.10520879965988, 14.448521015416672], [79.0999544696796, 14.44296802112], [79.09996616549743, 14.441590447453178], [79.1013914397375, 14.440224265491503], [79.10527879016146, 14.440255549491722], [79.10669820064098, 14.439578119948786], [79.11026122795025, 14.43616252578407], [79.11134173421651, 14.433760250584248], [79.11104643599288, 14.426869500027626], [79.11459758771622, 14.42483139146182], [79.11781266156252, 14.420724017036177], [79.12136366014128, 14.418685786270025], [79.12348673545652, 14.41835825515644], [79.1270549130579, 14.414253530210646], [79.13623941976117, 14.41467064422993], [79.13872724697175, 14.412968150468943], [79.13912060725892, 14.408149306453833], [79.14163400709016, 14.403347145188032], [79.14096439812205, 14.398864349146125], [79.14205291134348, 14.395428655361185], [79.14490233501449, 14.392695628771122], [79.14633838879513, 14.389951482815302], [79.14989149573914, 14.38756832322825], [79.15097130005636, 14.385165777865074], [79.15488890839188, 14.38140766493372], [79.15843050942836, 14.380401975365954], [79.1627096645164, 14.375613232897496], [79.1648379317308, 14.374596456604806], [79.17366217854244, 14.375698011088707], [79.1779186226727, 14.373664228357331], [79.18499308915588, 14.372685284442898], [79.19102145131195, 14.369975957428762], [79.19281286139052, 14.366889725541943], [79.19636792723291, 14.364161347441968], [79.19959440645907, 14.35833048275907], [79.19996971680243, 14.355577843810192], [79.20104331686206, 14.353863813980903], [79.20109006950234, 14.348008745161813], [79.20321792937531, 14.346991570472856], [79.20465021091202, 14.344591358855592], [79.21140598686591, 14.33913139473659], [79.21422932620484, 14.339497105704275], [79.21598199689234, 14.341232491370834], [79.21631073217812, 14.344334918727135], [79.21524274909387, 14.345360200527812], [79.21558238258984, 14.34708495280668], [79.21876182778199, 14.347108861310733], [79.22368863764476, 14.349556908784155], [79.22614259449685, 14.35198637040076], [79.22683288974316, 14.354058181060783], [79.2239713060659, 14.358514477109583], [79.223960438907, 14.359892156687733], [79.2260666291752, 14.361630140613965], [79.2274825263687, 14.361296299393635], [79.22858035032165, 14.356482337422444], [79.23072172857982, 14.353742804922131], [79.23319472332085, 14.353761254613557], [79.23847515323064, 14.356211661965512], [79.24448109466485, 14.356256234711246], [79.25192161302868, 14.353555683503043], [79.25547050514066, 14.3515151604014], [79.25938858379824, 14.34741061016708], [79.26327467063727, 14.347439108731717], [79.26255483044372, 14.349156068751341], [79.25935133210973, 14.352232584509137], [79.25403333560573, 14.354604586242186], [79.25153088890413, 14.358375029040022], [79.24798989311925, 14.359382202642458], [79.24585669579409, 14.361088636214616], [79.24015544568492, 14.367246318607076], [79.238356547275, 14.37136625020127], [79.23693249468468, 14.372733416625577], [79.23268459286246, 14.373735062193022], [79.23017614213678, 14.378194049534084], [79.2269908062873, 14.378859083528836], [79.22166916770466, 14.38157466119991], [79.21952738301587, 14.384314062543426], [79.21775526852632, 14.384989593330436], [79.21597220719468, 14.387042779988935], [79.2145260255995, 14.391165120736533], [79.2109734230666, 14.393549325475336], [79.20881765021842, 14.398010678735778], [79.20490326447582, 14.401425337833878], [79.2041772654669, 14.403830871752456], [79.20556591209743, 14.406941348127308], [79.20274728291358, 14.405886610128883], [79.19956150777213, 14.406551218150316], [79.19101418999715, 14.41475231177181], [79.19027964637867, 14.41819101350794], [79.1863869184989, 14.418849997799452], [79.1828252170282, 14.422266918796092], [79.18210168845839, 14.424327935226714], [79.17924941317922, 14.427405819581203], [79.17745444093502, 14.43083626410086], [79.17815002632058, 14.432219361727446], [79.18167562013487, 14.43327986819635], [79.18236564745315, 14.43535177663719], [79.18727984267157, 14.439522797739285], [79.1900959953601, 14.440922169616748], [79.19433141136717, 14.441643524196197], [79.19255320645689, 14.443007624446961], [79.19218309420121, 14.445071381911024], [79.19425914169447, 14.450598229888335], [79.19423967599526, 14.45300911096878], [79.19563673743343, 14.455086417737844], [79.19526105863329, 14.457839002247306], [79.19069140733356, 14.454704037940816], [79.18825642034918, 14.449863269083291], [79.18614702625102, 14.448469308255426], [79.18581873659818, 14.445366895599175], [79.18442741150513, 14.442600726697329], [79.18091845253176, 14.439473787331186], [79.17703655760971, 14.438754934802182], [79.17457393672225, 14.43735815624587], [79.16467014679806, 14.438314540664006], [79.15654185494533, 14.438251111544007], [79.15549015869084, 14.43720960397019], [79.15550150805116, 14.435831985724459], [79.15871325387916, 14.432068391264709], [79.15909212314479, 14.428971501563227], [79.15839383900263, 14.427932767793173], [79.15592579995484, 14.427224630848006], [79.15025742149166, 14.42890237839308], [79.14208954175943, 14.433660122567957], [79.13673706401386, 14.439817509047554], [79.13601305181407, 14.441878324024342], [79.13209398149965, 14.445635940852885], [79.12996776650436, 14.446307918396071], [79.12818630724078, 14.448015880102217], [79.12745353330473, 14.451109850726363], [79.12849649381063, 14.453184670953894], [79.12950777457299, 14.4590478760776], [79.12631824180596, 14.460055774055007], [79.12453663522875, 14.46176368970375], [79.12237841204845, 14.466223946607201], [79.11988404105585, 14.468614967395483], [79.11951899935451, 14.469989728651669], [79.11560494612452, 14.473058178178047], [79.1134609690183, 14.475796338756997], [79.11204424214313, 14.47612938684229]], [[79.26792820125688, 14.339550851676236], [79.26724812741357, 14.336101406207533], [79.2686638279217, 14.33576729305058], [79.26898801014784, 14.339558588012432], [79.26826824373185, 14.341275574198061], [79.26720577993254, 14.34161226215934], [79.26792820125688, 14.339550851676236]], [[79.24793905297287, 14.320459577025398], [79.24864552486412, 14.320464787837043], [79.2486401816942, 14.321153639039933], [79.24793370765028, 14.321148427967284], [79.24793905297287, 14.320459577025398]]], [[[79.16254070152384, 14.39627767799907], [79.16432710069114, 14.39388055430214], [79.16434961879118, 14.391125293821842], [79.16330089151991, 14.389739431609161], [79.16188757985529, 14.38972844860112], [79.16116964773569, 14.391100581962391], [79.16148350714538, 14.395925027565179], [79.16254070152384, 14.39627767799907]]], [[[79.18270595511112, 14.261759831021271], [79.18201349744804, 14.260032371920554], [79.17989472566013, 14.26001620575153], [79.17847391343638, 14.261038660184248], [79.17846561359828, 14.262071902416483], [79.17951947753546, 14.262768823850294], [79.18163827459085, 14.262784996405742], [79.18270595511112, 14.261759831021271]]], [[[79.2824675687243, 14.285922223505242], [79.28143414990502, 14.282470248821124], [79.2691070168954, 14.277903098998264], [79.26630272092905, 14.275127105441639], [79.26065732161771, 14.274397049921522], [79.2557580699142, 14.268505612605036], [79.25577397227802, 14.266439041867907], [79.25473042291421, 14.264364715443913], [79.25584020473023, 14.257828326427026], [79.25514452293739, 14.256445444655776], [79.25372932263645, 14.256779533388661], [79.2544196946867, 14.258851275321366], [79.2519131948451, 14.263310728065983], [79.25189991676346, 14.265032867265141], [79.25435075078063, 14.267806411673932], [79.25466676977543, 14.272630992963714], [79.25677249584696, 14.274368650581142], [79.25746558065187, 14.276095961536567], [79.2606282300437, 14.278185770006681], [79.26131606496638, 14.280601932089462], [79.26308194666336, 14.280614820554575], [79.2641573164895, 14.278555969473791], [79.26521683732982, 14.2785636904011], [79.26626844879468, 14.27960469677004], [79.26979494473927, 14.28031924676533], [79.27506899798405, 14.283457567768293], [79.27894878075378, 14.284174550740657], [79.28000048558707, 14.28521550599691], [79.2824675687243, 14.285922223505242]]], [[[79.25073677413488, 14.278457763508298], [79.25182021106957, 14.275365696989317], [79.25077400951791, 14.273635781519857], [79.24724504441883, 14.273265394703637], [79.24653338920702, 14.273949049687827], [79.24615889424351, 14.276701861351476], [79.2472077349474, 14.278087367708272], [79.25073677413488, 14.278457763508298]]], [[[79.2838724890275, 14.286965712706108], [79.2842126241237, 14.288690424435588], [79.28491901038218, 14.288695516305141], [79.28457886977844, 14.286970804983785], [79.2838724890275, 14.286965712706108]]], [[[79.19729634766011, 14.292181156437705], [79.1969568882937, 14.290456396349768], [79.19448463572184, 14.290437649842263], [79.19447089438155, 14.292159731264253], [79.19517176236126, 14.29285392346381], [79.19729634766011, 14.292181156437705]]], [[[79.27851175504128, 14.295193820497309], [79.27886757779096, 14.294851944402485], [79.27851437614558, 14.294849388674562], [79.27851175504128, 14.295193820497309]]], [[[79.18593932123972, 14.2989835453901], [79.18560270967792, 14.29691436459946], [79.18418719697677, 14.29724799744926], [79.18417613588373, 14.298625653947262], [79.18593932123972, 14.2989835453901]]], [[[79.20600022860349, 14.30809113266246], [79.20778265900121, 14.306037946159819], [79.20852182373454, 14.30191024815711], [79.21066282493952, 14.299170853017447], [79.2106710002242, 14.298137595585258], [79.20465851258952, 14.299125600036408], [79.20215329237895, 14.303239931995751], [79.20211493962422, 14.308061774561947], [79.20281587716511, 14.308755951869104], [79.20600022860349, 14.30809113266246]], [[79.20462569530865, 14.30325861520478], [79.20603576548798, 14.303613697924995], [79.20602209891082, 14.305335788418056], [79.20531022138762, 14.3060192922257], [79.20389740149534, 14.306008621303166], [79.2039138213914, 14.303942115212626], [79.20462569530865, 14.30325861520478]]], [[[79.22472579142975, 14.307542853155812], [79.22332377679624, 14.306154611337824], [79.21979440491873, 14.305783764982511], [79.21801750629388, 14.307148214027164], [79.21800935921584, 14.308181474833162], [79.22048454967607, 14.307855578738657], [79.2222397675081, 14.309246478708829], [79.22435634303807, 14.30960674338727], [79.22506547729266, 14.30926759887369], [79.22472579142975, 14.307542853155812]]], [[[79.26179217279817, 14.310572392354768], [79.26181071796782, 14.308161393861278], [79.25970201220284, 14.306768173522379], [79.25687362454231, 14.307091896106826], [79.25508892688053, 14.309489928243392], [79.25578207386516, 14.311217250016881], [79.26108042546358, 14.311256080491736], [79.26179217279817, 14.310572392354768]]], [[[79.27972269506502, 14.321725279294782], [79.28328394142262, 14.317962090326239], [79.28436720414362, 14.314869856407505], [79.2844325817532, 14.306259045365248], [79.28586374730828, 14.303858207896875], [79.28589508146986, 14.299725012339442], [79.28519649561932, 14.298686620783865], [79.28413686940105, 14.298678978206583], [79.2819783640359, 14.303830163039501], [79.28191028522419, 14.312785396647444], [79.28012577901757, 14.315183640681555], [79.27764263938377, 14.316543452030727], [79.27619288997857, 14.321355233494726], [79.27653824487703, 14.322391089373202], [79.27972269506502, 14.321725279294782]]], [[[79.2656009352598, 14.32058921759288], [79.2659726889883, 14.318180795217085], [79.26492885848744, 14.316106484490632], [79.26387445675229, 14.315409885323588], [79.26210565265227, 14.315741400270376], [79.26207384665737, 14.319874538250774], [79.26347620209836, 14.321262586654953], [79.2656009352598, 14.32058921759288]]], [[[79.23312476835999, 14.317594282942515], [79.23135592905307, 14.31792556164448], [79.23169836989608, 14.319305881585604], [79.23311398931166, 14.318971974108608], [79.23312476835999, 14.317594282942515]]], [[[79.23661402068521, 14.323131305326468], [79.23661940130856, 14.322442458700513], [79.23591292780857, 14.322437211417242], [79.23590754503229, 14.323126057780403], [79.23661402068521, 14.323131305326468]]], [[[79.2541720755197, 14.336694439952037], [79.25207118655133, 14.334267852587262], [79.2517312749758, 14.332543121055563], [79.25067685019182, 14.331846460084751], [79.25066082515016, 14.333913013843803], [79.25170724972263, 14.335642953123433], [79.2531096205701, 14.337031064925917], [79.2541720755197, 14.336694439952037]]], [[[79.16548415828092, 14.42523259110906], [79.17082990752348, 14.419763225312105], [79.17756647853959, 14.417059896545904], [79.18219943191595, 14.41227357665484], [79.18823728546094, 14.40853122293098], [79.19144531259799, 14.405111476113007], [79.193239829237, 14.401680868918895], [79.20071821673476, 14.394504796155411], [79.2082510424307, 14.380440102703627], [79.20863454993035, 14.37665419741931], [79.21042579898555, 14.373567811867037], [79.21044771946823, 14.37081247609592], [79.20904819844586, 14.369079704711906], [79.2072816763792, 14.36906633513224], [79.1977038576287, 14.373815716096104], [79.195227926962, 14.374141284497709], [79.19167267669272, 14.376869623231313], [79.18487351949233, 14.387494995685973], [79.18024398406503, 14.391937033674811], [79.17771195028756, 14.399150593461682], [79.17413367091378, 14.404633864934295], [79.16985972267022, 14.408733950256412], [79.16554053694544, 14.418344452395166], [79.16234888529108, 14.419697336501077], [79.1605678797502, 14.421405601424306], [79.15984981442446, 14.422777714298885], [79.16053961151044, 14.424849660775175], [79.16265143744322, 14.42589940236578], [79.16548415828092, 14.42523259110906]], [[79.16197291664471, 14.422449834709067], [79.1676607794937, 14.418360922958373], [79.17126754526589, 14.40943371658414], [79.17589764052919, 14.404991924149554], [79.17662113941087, 14.402930922916468], [79.17876081125951, 14.400536406344777], [79.18165174780628, 14.392636730438365], [79.1862812749241, 14.38819466354165], [79.19272431271501, 14.37791096108665], [79.1959234956249, 14.375524328302644], [79.19910882403794, 14.374859717729041], [79.20691464723592, 14.370785741498326], [79.20832787525593, 14.370796441657038], [79.20865375409913, 14.374243281653573], [79.20722403071005, 14.376299078587724], [79.2064789362838, 14.381115548786953], [79.2046958172876, 14.383168642665304], [79.2032494706994, 14.387290894631404], [79.20182511743572, 14.388657811657106], [79.19895150301497, 14.39449134120593], [79.19218809274939, 14.400639522063413], [79.19074970386025, 14.403728414928914], [79.18861011194986, 14.40612305097067], [79.18469530289947, 14.409537320517458], [79.18150386678599, 14.410890493088843], [79.17687093248253, 14.4156768014646], [79.17332880309496, 14.41668270861752], [79.16906865033359, 14.419060708193168], [79.16478867212791, 14.423849467101745], [79.16231499952741, 14.423830212340333], [79.16197291664471, 14.422449834709067]]]]}}, {"type": "Feature", "properties": {"depth_class": 2, "depth_lo_m": 1.0, "t_s": 75600.21908119183}, "geometry": {"type": "MultiPolygon", "coordinates": [[[[79.02027459039152, 14.219826087145787], [79.02065159775512, 14.21707394186038], [79.01960750057071, 14.215343252802397], [79.01819839683871, 14.214987168333762], [79.01610126561869, 14.2125589214722], [79.01291806577964, 14.213221304854397], [79.01254398765876, 14.215629045399083], [79.01324101536012, 14.216668060368143], [79.01641525626744, 14.217038827487833], [79.01815339219868, 14.220152915754356], [79.02027459039152, 14.219826087145787]], [[79.01430610767282, 14.21598809505003], [79.013974124304, 14.213574486052321], [79.01644227872582, 14.213939381788796], [79.0164272670522, 14.215661296171254], [79.01430610767282, 14.21598809505003]]], [[[79.15890271052439, 14.235744762761133], [79.1582244551067, 14.232295207249601], [79.1561087649173, 14.231934450296858], [79.156100381072, 14.232967682060588], [79.15890271052439, 14.235744762761133]]], [[[79.08152913049344, 14.240990763783339], [79.0847533076638, 14.235505943341071], [79.08476782352267, 14.233783961502166], [79.0840674948359, 14.23308950458502], [79.08159311890579, 14.233414059554859], [79.07911000429254, 14.234771773679837], [79.07768315945009, 14.236482383125871], [79.07765109757193, 14.240270726184372], [79.07870158792157, 14.241312439113432], [79.08152913049344, 14.240990763783339]], [[79.07980158751471, 14.236499429781176], [79.08192001837978, 14.236516457667234], [79.08048735883516, 14.238915875745315], [79.07942813276097, 14.238907356390781], [79.07980158751471, 14.236499429781176]]], [[[79.03450175466527, 14.248529588185537], [79.034166569858, 14.24646036522745], [79.03310435377429, 14.246796021339028], [79.03344251277102, 14.248520859106744], [79.03450175466527, 14.248529588185537]]], [[[79.02628804568184, 14.259138443746428], [79.02630303036523, 14.257416525317973], [79.02383138253299, 14.257396052775857], [79.02416947409795, 14.259120895213629], [79.02628804568184, 14.259138443746428]]], [[[79.2056661606867, 14.30567754065602], [79.20603576548798, 14.303613697924995], [79.20462569530865, 14.30325861520478], [79.2039138213914, 14.303942115212626], [79.20389740149534, 14.306008621303166], [79.2056661606867, 14.30567754065602]]], [[[79.24793905297287, 14.320459577025398], [79.24793370765028, 14.321148427967284], [79.2486401816942, 14.321153639039933], [79.24864552486412, 14.320464787837043], [79.24793905297287, 14.320459577025398]]], [[[79.26791232530985, 14.341617423118835], [79.26898801014784, 14.339558588012432], [79.26901444826878, 14.336114299502874], [79.26760403702501, 14.335759557266927], [79.26723224921795, 14.33816797750325], [79.26792555544145, 14.339895280276153], [79.26720577993254, 14.34161226215934], [79.26791232530985, 14.341617423118835]]], [[[79.1127511503001, 14.476135061426653], [79.11951899935451, 14.469989728651669], [79.11988404105585, 14.468614967395483], [79.12237841204845, 14.466223946607201], [79.12453663522875, 14.46176368970375], [79.12631824180596, 14.460055774055007], [79.12950777457299, 14.4590478760776], [79.12849649381063, 14.453184670953894], [79.12745353330473, 14.451109850726363], [79.12818630724078, 14.448015880102217], [79.12996776650436, 14.446307918396071], [79.13209398149965, 14.445635940852885], [79.13601305181407, 14.441878324024342], [79.13673706401386, 14.439817509047554], [79.14208954175943, 14.433660122567957], [79.15025742149166, 14.42890237839308], [79.15592579995484, 14.427224630848006], [79.15839383900263, 14.427932767793173], [79.15909212314479, 14.428971501563227], [79.15871325387916, 14.432068391264709], [79.15550150805116, 14.435831985724459], [79.15549015869084, 14.43720960397019], [79.15654185494533, 14.438251111544007], [79.16467014679806, 14.438314540664006], [79.17457393672225, 14.43735815624587], [79.17703655760971, 14.438754934802182], [79.18091845253176, 14.439473787331186], [79.18442741150513, 14.442600726697329], [79.18581873659818, 14.445366895599175], [79.18614702625102, 14.448469308255426], [79.18825642034918, 14.449863269083291], [79.19069140733356, 14.454704037940816], [79.19526105863329, 14.457839002247306], [79.19563673743343, 14.455086417737844], [79.19423967599526, 14.45300911096878], [79.19425914169447, 14.450598229888335], [79.19218309420121, 14.445071381911024], [79.19255320645689, 14.443007624446961], [79.19433141136717, 14.441643524196197], [79.1900959953601, 14.440922169616748], [79.18727984267157, 14.439522797739285], [79.18236564745315, 14.43535177663719], [79.18167562013487, 14.43327986819635], [79.17815002632058, 14.432219361727446], [79.17745444093502, 14.43083626410086], [79.17924941317922, 14.427405819581203], [79.18210168845839, 14.424327935226714], [79.1828252170282, 14.422266918796092], [79.1863869184989, 14.418849997799452], [79.19027964637867, 14.41819101350794], [79.19101418999715, 14.41475231177181], [79.19956150777213, 14.406551218150316], [79.20274728291358, 14.405886610128883], [79.20556591209743, 14.406941348127308], [79.2041772654669, 14.403830871752456], [79.20490326447582, 14.401425337833878], [79.20881765021842, 14.398010678735778], [79.2109734230666, 14.393549325475336], [79.2145260255995, 14.391165120736533], [79.21597220719468, 14.387042779988935], [79.21775526852632, 14.384989593330436], [79.21952738301587, 14.384314062543426], [79.22166916770466, 14.38157466119991], [79.2269908062873, 14.378859083528836], [79.23017614213678, 14.378194049534084], [79.23268459286246, 14.373735062193022], [79.23693249468468, 14.372733416625577], [79.238356547275, 14.37136625020127], [79.24015544568492, 14.367246318607076], [79.24585669579409, 14.361088636214616], [79.24798989311925, 14.359382202642458], [79.25153088890413, 14.358375029040022], [79.25403333560573, 14.354604586242186], [79.25935133210973, 14.352232584509137], [79.26255483044372, 14.349156068751341], [79.26327467063727, 14.347439108731717], [79.25938858379824, 14.34741061016708], [79.25547050514066, 14.3515151604014], [79.25192161302868, 14.353555683503043], [79.24448109466485, 14.356256234711246], [79.23847515323064, 14.356211661965512], [79.23319472332085, 14.353761254613557], [79.23072172857982, 14.353742804922131], [79.22858035032165, 14.356482337422444], [79.2274825263687, 14.361296299393635], [79.2260666291752, 14.361630140613965], [79.223960438907, 14.359892156687733], [79.224332744994, 14.35748386528589], [79.22683288974316, 14.354058181060783], [79.22614259449685, 14.35198637040076], [79.22368863764476, 14.349556908784155], [79.21876182778199, 14.347108861310733], [79.21558238258984, 14.34708495280668], [79.21524274909387, 14.345360200527812], [79.21631073217812, 14.344334918727135], [79.21598199689234, 14.341232491370834], [79.21422932620484, 14.339497105704275], [79.21140598686591, 14.33913139473659], [79.20465021091202, 14.344591358855592], [79.20321792937531, 14.346991570472856], [79.20109006950234, 14.348008745161813], [79.20104331686206, 14.353863813980903], [79.19996971680243, 14.355577843810192], [79.19959440645907, 14.35833048275907], [79.19636792723291, 14.364161347441968], [79.19281286139052, 14.366889725541943], [79.19102145131195, 14.369975957428762], [79.18499308915588, 14.372685284442898], [79.1779186226727, 14.373664228357331], [79.17366217854244, 14.375698011088707], [79.1648379317308, 14.374596456604806], [79.1627096645164, 14.375613232897496], [79.15843050942836, 14.380401975365954], [79.15488890839188, 14.38140766493372], [79.15097130005636, 14.385165777865074], [79.14989149573914, 14.38756832322825], [79.14633838879513, 14.389951482815302], [79.14490233501449, 14.392695628771122], [79.14205291134348, 14.395428655361185], [79.14096439812205, 14.398864349146125], [79.14163400709016, 14.403347145188032], [79.13912060725892, 14.408149306453833], [79.13872724697175, 14.412968150468943], [79.13623941976117, 14.41467064422993], [79.1270549130579, 14.414253530210646], [79.12348673545652, 14.41835825515644], [79.12136366014128, 14.418685786270025], [79.11781266156252, 14.420724017036177], [79.11459758771622, 14.42483139146182], [79.11104643599288, 14.426869500027626], [79.11134173421651, 14.433760250584248], [79.11026122795025, 14.43616252578407], [79.10669820064098, 14.439578119948786], [79.10527879016146, 14.440255549491722], [79.1013914397375, 14.440224265491503], [79.09996616549743, 14.441590447453178], [79.0999544696796, 14.44296802112], [79.10520879965988, 14.448521015416672], [79.10517962385569, 14.451964957745858], [79.10303576664765, 14.454703036977882], [79.10264435086606, 14.459177305382726], [79.1001411000992, 14.462601280757665], [79.09977009751213, 14.464664783938082], [79.11134024781427, 14.475779315426019], [79.1127511503001, 14.476135061426653]], [[79.16124355109422, 14.425199576489922], [79.15984133058645, 14.423810931676945], [79.1605678797502, 14.421405601424306], [79.16234888529108, 14.419697336501077], [79.16554053694544, 14.418344452395166], [79.16985972267022, 14.408733950256412], [79.17413367091378, 14.404633864934295], [79.17771195028756, 14.399150593461682], [79.18024398406503, 14.391937033674811], [79.18487351949233, 14.387494995685973], [79.19167267669272, 14.376869623231313], [79.195227926962, 14.374141284497709], [79.1977038576287, 14.373815716096104], [79.2072816763792, 14.36906633513224], [79.20904819844586, 14.369079704711906], [79.21044771946823, 14.37081247609592], [79.21042579898555, 14.373567811867037], [79.20863454993035, 14.37665419741931], [79.2082510424307, 14.380440102703627], [79.20071821673476, 14.394504796155411], [79.193239829237, 14.401680868918895], [79.18966185245264, 14.407164414369799], [79.18574703713672, 14.410578700823033], [79.18219943191595, 14.41227357665484], [79.17756647853959, 14.417059896545904], [79.17082990752348, 14.419763225312105], [79.16619374574651, 14.424893679172298], [79.16371159238271, 14.425907657224252], [79.16124355109422, 14.425199576489922]], [[79.1985346003242, 14.402410169680222], [79.20282173739747, 14.396587413801825], [79.20534195251938, 14.390751147786172], [79.20748396554981, 14.38801190346564], [79.20785652816606, 14.385603669179934], [79.20999845655187, 14.382864391702052], [79.21074074646056, 14.37839231987714], [79.21289077409446, 14.374619750621179], [79.2129290819935, 14.369797906492286], [79.21153228295589, 14.367720730859395], [79.20977398940698, 14.3666741300718], [79.20659428371219, 14.366650069034035], [79.19773145272244, 14.370371570469695], [79.19596493153068, 14.370358115296055], [79.19561991433575, 14.369322179997758], [79.2002596780938, 14.363502081793094], [79.20351352578706, 14.354226989612698], [79.2039052503583, 14.349407838983616], [79.20853887146033, 14.344276331292598], [79.21173739091398, 14.341889403216934], [79.21279717867466, 14.341897391802487], [79.21349551581821, 14.342935970136768], [79.21098986100574, 14.347050343119808], [79.21168000184745, 14.349122180910223], [79.21485128249844, 14.35017940043247], [79.21695731081145, 14.35191744814125], [79.22014226883728, 14.35125250728671], [79.22225922491924, 14.35161283458369], [79.2240120476374, 14.35334817719585], [79.22043295645369, 14.35917680496862], [79.221120489589, 14.361593046864797], [79.22322938789267, 14.362986635487962], [79.22322395042303, 14.363675474760344], [79.22110143652755, 14.364003981646563], [79.21897074206353, 14.365365725157742], [79.21860108298753, 14.367429579849277], [79.2192995138885, 14.368468151192518], [79.22318588005565, 14.368497348490855], [79.22498229693805, 14.364721980387728], [79.2274581170371, 14.36439608340159], [79.22959146837286, 14.362689835579019], [79.23033326080962, 14.358217642527876], [79.23140666139854, 14.356503450148843], [79.23458356679242, 14.356871583670205], [79.23739910825607, 14.358270315177093], [79.24304911936258, 14.358656725227627], [79.24375302259187, 14.359006387803898], [79.2437449627939, 14.360039658525862], [79.23769038538181, 14.366194657929018], [79.23588875401497, 14.370658988736206], [79.23164089010278, 14.371660619675184], [79.22950474764264, 14.37371129729355], [79.22878184134478, 14.375772532492789], [79.2195628479782, 14.37983662333222], [79.21706499967253, 14.382917760027265], [79.21457802624923, 14.38462119218815], [79.21277576504747, 14.389085270641155], [79.20886709662182, 14.391811190553236], [79.20707015194819, 14.395586371786255], [79.20209022232758, 14.399681770688296], [79.20030137593248, 14.402423634982618], [79.1985346003242, 14.402410169680222]], [[79.16148350714538, 14.395925027565179], [79.16153143359492, 14.390070108622458], [79.16330089151991, 14.389739431609161], [79.16434961879118, 14.391125293821842], [79.16432710069114, 14.39388055430214], [79.16254070152384, 14.39627767799907], [79.16148350714538, 14.395925027565179]]]]}}, {"type": "Feature", "properties": {"depth_class": 3, "depth_lo_m": 2.0, "t_s": 75600.21908119183}, "geometry": {"type": "MultiPolygon", "coordinates": [[[[79.01360606965545, 14.215293465045868], [79.0164272670522, 14.215661296171254], [79.01644227872582, 14.213939381788796], [79.013974124304, 14.213574486052321], [79.01360606965545, 14.215293465045868]]], [[[79.07942813276097, 14.238907356390781], [79.08155531211784, 14.237891203576662], [79.08156985474447, 14.23616922531665], [79.0794456043216, 14.23684098520907], [79.07942813276097, 14.238907356390781]]], [[[79.2003041375155, 14.402079220804529], [79.20244633145218, 14.399340044325681], [79.20707015194819, 14.395586371786255], [79.20886709662182, 14.391811190553236], [79.21277576504747, 14.389085270641155], [79.21457802624923, 14.38462119218815], [79.21706499967253, 14.382917760027265], [79.2195628479782, 14.37983662333222], [79.22878184134478, 14.375772532492789], [79.230575533036, 14.372341540750107], [79.23588875401497, 14.370658988736206], [79.23769038538181, 14.366194657929018], [79.2437449627939, 14.360039658525862], [79.24375302259187, 14.359006387803898], [79.24304911936258, 14.358656725227627], [79.23739910825607, 14.358270315177093], [79.23458356679242, 14.356871583670205], [79.23140666139854, 14.356503450148843], [79.23033326080962, 14.358217642527876], [79.22959146837286, 14.362689835579019], [79.2274581170371, 14.36439608340159], [79.22498229693805, 14.364721980387728], [79.22318588005565, 14.368497348490855], [79.2192995138885, 14.368468151192518], [79.21860108298753, 14.367429579849277], [79.21897074206353, 14.365365725157742], [79.22110143652755, 14.364003981646563], [79.22322395042303, 14.363675474760344], [79.22322938789267, 14.362986635487962], [79.221120489589, 14.361593046864797], [79.22043295645369, 14.35917680496862], [79.2240120476374, 14.35334817719585], [79.22225922491924, 14.35161283458369], [79.22014226883728, 14.35125250728671], [79.21695731081145, 14.35191744814125], [79.21485128249844, 14.35017940043247], [79.21168000184745, 14.349122180910223], [79.21098986100574, 14.347050343119808], [79.21349551581821, 14.342935970136768], [79.21279717867466, 14.341897391802487], [79.21173739091398, 14.341889403216934], [79.20853887146033, 14.344276331292598], [79.2039052503583, 14.349407838983616], [79.20351352578706, 14.354226989612698], [79.2002596780938, 14.363502081793094], [79.19561991433575, 14.369322179997758], [79.19596493153068, 14.370358115296055], [79.19773145272244, 14.370371570469695], [79.20659428371219, 14.366650069034035], [79.20977398940698, 14.3666741300718], [79.21153228295589, 14.367720730859395], [79.2129290819935, 14.369797906492286], [79.21289077409446, 14.374619750621179], [79.21074074646056, 14.37839231987714], [79.20999845655187, 14.382864391702052], [79.20785652816606, 14.385603669179934], [79.20748396554981, 14.38801190346564], [79.20534195251938, 14.390751147786172], [79.20282173739747, 14.396587413801825], [79.19854012883201, 14.401721341984418], [79.1985346003242, 14.402410169680222], [79.2003041375155, 14.402079220804529]]]]}}]}