{"type": "FeatureCollection", "features": [{"type": "Feature", "properties": {"depth_class": 1, "depth_lo_m": 0.3, "t_s": 36000.48029371755}, "geometry": {"type": "MultiPolygon", "coordinates": [[[[79.11892739814174, 14.244732677313422], [79.12038538053808, 14.239233353651114], [79.11899586030789, 14.236467004110674], [79.11688309375461, 14.235761499593597], [79.11545935402852, 14.237127966968828], [79.11400699720363, 14.241938444375828], [79.11680598822896, 14.245060370735448], [79.11892739814174, 14.244732677313422]]], [[[79.08002651978515, 14.251655655706065], [79.0803941812084, 14.249936522526262], [79.07934073293899, 14.249239206628788], [79.07686909585325, 14.249219294856829], [79.07544797202863, 14.250241087362207], [79.0754392098371, 14.25127426940911], [79.07649265246154, 14.251971602117038], [79.08002651978515, 14.251655655706065]]], [[[79.08311415852556, 14.262357471483723], [79.08383784518612, 14.260296777340203], [79.08279307445079, 14.258566284081496], [79.08067443677503, 14.258549238154322], [79.0778320770688, 14.260592846501076], [79.07993323293105, 14.262676287759614], [79.08311415852556, 14.262357471483723]]], [[[79.0953805331438, 14.273477262368333], [79.09468295735745, 14.272438422187054], [79.09362066821015, 14.272774343386336], [79.09396510694765, 14.273810360604513], [79.0953805331438, 14.273477262368333]]], [[[79.10415409590989, 14.28009127290273], [79.10452453587872, 14.278027690209745], [79.10347088006318, 14.27733045708481], [79.10205543467004, 14.277663601823498], [79.10168497371454, 14.279727178022263], [79.10238548855958, 14.280421605255716], [79.10415409590989, 14.28009127290273]]], [[[79.27397530815362, 14.287927494593411], [79.27397005470962, 14.28861635697613], [79.27467643692128, 14.288621479213424], [79.27468168821791, 14.287932616573608], [79.27397530815362, 14.287927494593411]]], [[[79.1862897493153, 14.299330653780753], [79.18771631379353, 14.29761935047915], [79.18702926132576, 14.295203063905982], [79.18526057583985, 14.295534012541067], [79.18348082253834, 14.297242603520772], [79.18346699061645, 14.298964673440654], [79.18416783929072, 14.299658896210737], [79.1862897493153, 14.299330653780753]]], [[[79.22231019185394, 14.30029152872747], [79.22123975600708, 14.301661289458856], [79.21770774568286, 14.301634840926615], [79.2159335899496, 14.302654857122981], [79.21449629974337, 14.30574402914037], [79.21482230130121, 14.309190878625726], [79.21551512546809, 14.31091828248568], [79.21727304743486, 14.311964798052816], [79.2183326979365, 14.31197274566082], [79.22046556414797, 14.310266523576358], [79.22363908384582, 14.310979149264307], [79.22504112699313, 14.312367392367781], [79.22501135759542, 14.316156027709388], [79.22251981092869, 14.318548485999301], [79.21968855830286, 14.319216162681691], [79.21861800431364, 14.320585897306499], [79.21854461012737, 14.329885233724669], [79.21567779050724, 14.33503029292438], [79.21460985414426, 14.336055577407611], [79.21071586803593, 14.337059558333895], [79.20715320168271, 14.340821479624346], [79.20573742156792, 14.341155211280762], [79.20217460812246, 14.344917039309246], [79.19933472876247, 14.34661767312632], [79.198614427958, 14.348334383351776], [79.199298947386, 14.351095075155078], [79.19855108082082, 14.356255935284594], [79.19604775389843, 14.360025682182407], [79.19496303629452, 14.363117337922219], [79.1917640375181, 14.365503979528038], [79.19032869763117, 14.36824849086732], [79.1881950337582, 14.369954343327366], [79.18571914478859, 14.370279815672923], [79.18323490736975, 14.371638496733313], [79.17899248174565, 14.371950330850996], [79.17402667212212, 14.374323097682465], [79.16449305951424, 14.373560492388863], [79.16236480152295, 14.374577266642273], [79.15737339543224, 14.380049315749082], [79.15454125001291, 14.38071609699104], [79.15133595072484, 14.383790918805701], [79.14953533733028, 14.38790996346184], [79.14775452906007, 14.38961815449391], [79.14738700273644, 14.391337407932065], [79.14808229938387, 14.392720562061648], [79.1543969570086, 14.398280789199246], [79.15927028138843, 14.407273935274139], [79.1648845248407, 14.41213963198389], [79.16735807207259, 14.412158844579041], [79.17021308196126, 14.408736688421083], [79.1741252639534, 14.4056670921886], [79.1787747817374, 14.398814355660196], [79.18130120034428, 14.392289601523066], [79.18521293874143, 14.389219766000148], [79.19308039577733, 14.37756924588024], [79.19521410739208, 14.375863354511958], [79.19875275382672, 14.375201443656264], [79.20655859466461, 14.371127481416053], [79.20832513220869, 14.371140858264953], [79.20867295470352, 14.371832365372557], [79.2083004415095, 14.374240607263038], [79.20686796879612, 14.376640817861853], [79.20648443193176, 14.380426716838498], [79.19931036858951, 14.39380520480194], [79.19290311226146, 14.399611689605674], [79.18789783150395, 14.406806453493653], [79.18469530289947, 14.409537320517458], [79.18114770912774, 14.411232181678633], [79.17722430409547, 14.415679530426802], [79.16977540120944, 14.4190661901992], [79.16549261698171, 14.42419937057159], [79.16124637724455, 14.424855170475938], [79.15773237048923, 14.42241676323303], [79.15524738370743, 14.423775056011692], [79.15487698844687, 14.42583872134778], [79.1583881766015, 14.428621578522982], [79.15800929893464, 14.43171846609545], [79.15479754822353, 14.435482050256962], [79.15478051766857, 14.437548476800576], [79.1565361826232, 14.438939920952105], [79.16890537608533, 14.439036337193862], [79.1706808543958, 14.43801683568305], [79.17421491387258, 14.438044235608242], [79.1773815529352, 14.439790893942057], [79.18055944374936, 14.440159878129666], [79.18442741150513, 14.442600726697329], [79.18654790598436, 14.442617054449878], [79.18761652145463, 14.441591979385711], [79.18763046537308, 14.439869926184032], [79.18553232813753, 14.437098328775168], [79.18307245495876, 14.435357224846621], [79.18203461206654, 14.432593773625442], [79.17921582023288, 14.431538731891623], [79.17922981858892, 14.429816685280581], [79.18459213362402, 14.422280519846009], [79.1877920802379, 14.41989408973729], [79.191676490374, 14.420268320024492], [79.19238880852285, 14.419584910479994], [79.19277827975294, 14.41511025699996], [79.19455346838903, 14.414090538809091], [79.2002571806601, 14.40793426039848], [79.2023801253011, 14.407605993365134], [79.20483989487872, 14.409346881773345], [79.2069600987128, 14.40936298956789], [79.20802845477317, 14.40833778998573], [79.20839557202822, 14.406618393190618], [79.20664527069887, 14.404538492885205], [79.20630842666267, 14.402469318304766], [79.21022555969762, 14.398710219677724], [79.21202248561882, 14.394935012143804], [79.21664606903484, 14.391181121831993], [79.21809221341888, 14.387058763643], [79.22057373948113, 14.386044131859256], [79.22378368585565, 14.382279426281071], [79.22803991862621, 14.380244704208836], [79.23122527321011, 14.379579658048995], [79.23264940476868, 14.378212535653613], [79.2337310182204, 14.375465080718804], [79.23869098301876, 14.373779835029305], [79.2404818192009, 14.370693171170162], [79.24689245203828, 14.364196299251613], [79.24868309103499, 14.361109549489473], [79.25186813998575, 14.360444186583242], [79.25578645200648, 14.356339723867253], [79.2671528202622, 14.348500828332796], [79.26859770772793, 14.344378011012473], [79.27109442430152, 14.341296192291946], [79.27148466069208, 14.336476757399396], [79.2700927328154, 14.333711025242874], [79.2701085796692, 14.331644450035736], [79.27189860962166, 14.328557451714449], [79.27262884181054, 14.325462725697143], [79.27687834426735, 14.324115806407734], [79.27830184044313, 14.322748332522101], [79.27831497320126, 14.321026177477385], [79.27761374316157, 14.32033219286643], [79.26877745193335, 14.320956842870112], [79.26776528453394, 14.314749389824112], [79.2649791168013, 14.309562336645387], [79.25935940515333, 14.305387875232563], [79.25299623201408, 14.306030090868221], [79.25086095451597, 14.308081064792464], [79.24909753839427, 14.307723635245697], [79.24735549479462, 14.304610786914612], [79.24139645996229, 14.298711221816026], [79.24001045907193, 14.29525652365106], [79.23122638041966, 14.289335835453311], [79.23018029549861, 14.287605842015134], [79.23159840275758, 14.286927496740455], [79.2400560046046, 14.289401301562084], [79.244647426823, 14.289435214617889], [79.24889899811146, 14.287744307549858], [79.25210426139682, 14.284323402077451], [79.25529084918504, 14.283313437087342], [79.25600516684986, 14.28228532870123], [79.25424724522473, 14.281239102995318], [79.25496686760731, 14.27952214146424], [79.2560316922968, 14.27884104745031], [79.25885707393262, 14.278861722909829], [79.26024065888477, 14.282660765965154], [79.26447881401151, 14.282691699801457], [79.26908069206434, 14.281347404504315], [79.28105220008143, 14.286256457601457], [79.28315304525788, 14.288682782704347], [79.28312952693692, 14.291782677914025], [79.2845083652912, 14.296270496390816], [79.28485634677216, 14.29696190932509], [79.28591596534892, 14.296969547800579], [79.28564365874298, 14.28628957275838], [79.2814393782925, 14.281781383369172], [79.27826598297118, 14.281069553532452], [79.27123131635913, 14.277229629424273], [79.2691149129762, 14.276869807143289], [79.26701432763876, 14.274443385061513], [79.26066525420248, 14.273363762406731], [79.25962163316072, 14.271289449846899], [79.25716539847231, 14.269204806169213], [79.25683608028112, 14.266102364957488], [79.25578987209644, 14.264372470755749], [79.25690491748813, 14.257147215427844], [79.25585874189896, 14.255417324937325], [79.25374257882876, 14.255057391313091], [79.2519875193678, 14.253666743738703], [79.25021388928205, 14.254687080405368], [79.2501979499354, 14.25675364702149], [79.25300713133645, 14.258840929660463], [79.25085375282157, 14.263302956093554], [79.25084046670264, 14.265025094315897], [79.2529407864256, 14.26745163131849], [79.2532727051201, 14.270209643819529], [79.2515015988318, 14.270885547026529], [79.24799397388576, 14.267759759896203], [79.24198502951317, 14.26840439614942], [79.24091487630412, 14.269774279990258], [79.24125199328049, 14.271843441112514], [79.24476490670511, 14.274280470700134], [79.24543388320706, 14.279107642482822], [79.24754224835583, 14.280500953113396], [79.2475315861047, 14.281878659279732], [79.2439757916527, 14.284952468810957], [79.2418540399647, 14.285281251823578], [79.23904199962327, 14.283538241143983], [79.23409753531367, 14.283501614079109], [79.23234241456659, 14.282110813443175], [79.22951703272626, 14.282089818813203], [79.22600959552325, 14.27896372546782], [79.21718315686292, 14.2785533645359], [79.21542547628769, 14.27750687572557], [79.21260017791126, 14.277485687078471], [79.2111984102676, 14.27609740070222], [79.20519470803171, 14.276052232640676], [79.20379299895413, 14.274663908836196], [79.20347807433164, 14.269839385775262], [79.20102244081464, 14.26775422429261], [79.19713511512255, 14.268069283488945], [79.1957280216799, 14.267369757399944], [79.18976035452242, 14.262846816950976], [79.18801394671856, 14.260422489885697], [79.18768008132115, 14.258008894274964], [79.18313357151577, 14.25246331531015], [79.17329344113689, 14.246532769751054], [79.17117758028823, 14.246172128042414], [79.16766321062487, 14.244078564521155], [79.16448808708184, 14.243709731846698], [79.16133249991084, 14.2409299788654], [79.1610546796345, 14.231628150069092], [79.16176919816401, 14.230600350889343], [79.16389045643103, 14.230272232988817], [79.1639043673757, 14.22855017204306], [79.16320656375063, 14.227511507246945], [79.15863612728641, 14.225065294972518], [79.15722384841197, 14.225054407334662], [79.15543614648841, 14.227796071131706], [79.15367078007725, 14.227782434087485], [79.15189701514774, 14.228802013680765], [79.15187180994066, 14.23190170211306], [79.15291145065518, 14.234320765836308], [79.15537464555248, 14.235373101618972], [79.15607243006535, 14.236411787260387], [79.15638638060611, 14.24123626026457], [79.15814068038543, 14.24262753269157], [79.15955306918342, 14.242638428061577], [79.16060120150341, 14.244024238711738], [79.16022856510733, 14.246432394111629], [79.15418940797916, 14.250863362837617], [79.15171764633611, 14.250844224130724], [79.15138978491844, 14.247741805305338], [79.14962707512043, 14.247383710739747], [79.14750002755498, 14.248400496517586], [79.14605947809972, 14.25183360672251], [79.13756226924073, 14.254522839625468], [79.13227127682605, 14.253792606744101], [79.12344072145547, 14.254067715572281], [79.12203399196994, 14.253367791292176], [79.11638143878908, 14.253667641299336], [79.11109919574591, 14.25190374554997], [79.10407169698469, 14.247714918671857], [79.09419955174722, 14.2459141613184], [79.08748796961264, 14.246204882131153], [79.08221201919514, 14.24375160353085], [79.08222074575976, 14.242718416713263], [79.0865099615131, 14.236553287030839], [79.08619460093547, 14.23207330050692], [79.08479104486243, 14.231028790014332], [79.08267266156659, 14.231011794003475], [79.07770647126108, 14.23372722373996], [79.07592072179222, 14.236123768713764], [79.07310200495472, 14.235412202421259], [79.07132496814252, 14.236775524131135], [79.07024820282636, 14.23883332539609], [79.06742654991702, 14.238466082979585], [79.06600546479379, 14.239487823210832], [79.06634387672023, 14.241212645793189], [79.06880076660188, 14.24295462014057], [79.07198140789998, 14.242635919136346], [79.07620669540457, 14.244047686807201], [79.06910111846469, 14.249156548532921], [79.06557023216081, 14.249127943982185], [79.06486992854124, 14.248433432974483], [79.06169508965779, 14.248063244882635], [79.05673125516203, 14.250433765206889], [79.05248533309997, 14.251432378799015], [79.04968134099724, 14.24899857774364], [79.04440288275097, 14.246888894421492], [79.04514462874212, 14.242762025514272], [79.04410023880602, 14.241031407863323], [79.04198181344643, 14.24101403915586], [79.04056061655861, 14.242035610979807], [79.03739487792105, 14.24063195605721], [79.03527348532889, 14.24095891439437], [79.02920854270748, 14.24814151125352], [79.02955265211747, 14.249177581581035], [79.03131208182086, 14.249880926831416], [79.03199435243143, 14.252641834193568], [79.03339774441557, 14.253686639718746], [79.03266468824785, 14.256780281437958], [79.02911879782037, 14.258473044034055], [79.02631801304906, 14.255694606625925], [79.02420247308895, 14.255332679175918], [79.02243102396193, 14.256006810998295], [79.02171283037121, 14.257378484520803], [79.0220509053966, 14.259103327882938], [79.02449856809349, 14.261878887270752], [79.01988422094786, 14.264595857754323], [79.0152848481387, 14.265590818207139], [79.01279803171889, 14.267292123100232], [79.0071544129454, 14.266556180460567], [79.00575715062061, 14.264822468366026], [79.00613750854343, 14.261726008986798], [79.01042903743287, 14.255562567639256], [79.01116540013655, 14.252124652031192], [79.01048641086071, 14.249019337288443], [79.00627067537145, 14.246573306724748], [78.99743479445254, 14.247532520586725], [78.99498154888457, 14.245445498313819], [78.99430583685944, 14.24199578995369], [78.99538934260119, 14.23924966713309], [79.00144284627739, 14.233445550113789], [79.00568247739879, 14.233136589562152], [79.00710676210201, 14.23177085746078], [79.01206752862991, 14.22974576202788], [79.01492498806569, 14.225981047809952], [79.01708228232802, 14.221521662624522], [79.01990356688542, 14.221889463281796], [79.02096866992005, 14.221209469120577], [79.02168672354301, 14.21983777971867], [79.02137562667045, 14.215013483734918], [79.01751935036573, 14.211881866481264], [79.01293009436576, 14.211843776031177], [79.01150297172912, 14.213553947723556], [79.01216989820551, 14.218036783871788], [79.01145480907574, 14.21906405642834], [79.01176568740678, 14.223888337163308], [79.01068849547393, 14.225945810410877], [79.00430051936341, 14.229680993212499], [79.0028732084232, 14.23139108785329], [78.99827449912554, 14.232385800608418], [78.99578797762626, 14.234086963301477], [78.9932922942871, 14.236821227124763], [78.99149048189133, 14.240938906350774], [78.99109476416938, 14.245757209178096], [78.99283269330817, 14.248871458212701], [78.99775444480922, 14.25132364136415], [79.00092910900507, 14.251694673374253], [79.00411590564043, 14.250688147500824], [79.00622226916711, 14.252083382638567], [79.0062041115087, 14.254149660409832], [79.00264295851748, 14.257563903200346], [78.99904826630613, 14.264766234096381], [78.99937096870921, 14.268212976534066], [79.00111522562914, 14.270638441023657], [79.00322477065635, 14.271689343808072], [79.01028094005738, 14.272437196749351], [79.01488046483644, 14.271442354347473], [79.01876470409836, 14.271474690876776], [79.0212485272116, 14.270117706660951], [79.02549187260611, 14.269464096947361], [79.0297501725851, 14.267088487790675], [79.03259895622091, 14.264356750070496], [79.03543275143468, 14.263346896194143], [79.04256024439756, 14.255828487191318], [79.044331652389, 14.255154197852738], [79.04644428116134, 14.255860338445133], [79.04464615035702, 14.259634131048239], [79.04462833266511, 14.261700455573635], [79.0463819812782, 14.263092482699516], [79.04814751191688, 14.263106947293956], [79.04991896864935, 14.262432621933085], [79.05099308682988, 14.260719342635928], [79.05628669186575, 14.261106977586557], [79.05980595777417, 14.262513305151296], [79.06615897454353, 14.262909348467906], [79.06901318297649, 14.25948832692964], [79.07575141149886, 14.2560986340021], [79.09094642829069, 14.25484308589182], [79.10010115641889, 14.258015991246726], [79.1036005734339, 14.261832495811202], [79.10747047965214, 14.263585366533722], [79.11064568742394, 14.263954980767478], [79.11310606778342, 14.26535216728234], [79.12475632980541, 14.265788549103053], [79.12474493300668, 14.267166162913888], [79.12009712719639, 14.27401804076132], [79.11831713338161, 14.27572610818903], [79.1140651147508, 14.277414594449901], [79.11086098109952, 14.280489005683783], [79.1104934648867, 14.282208204308157], [79.11189457304948, 14.283597013623913], [79.11824844974504, 14.283991751008527], [79.12356574044495, 14.281622749786262], [79.12784341611868, 14.27683446185763], [79.12790033402884, 14.269946384441287], [79.13253647673542, 14.264471933293537], [79.15019286580261, 14.264609624994247], [79.15335981378692, 14.266011907203977], [79.15794774360955, 14.266391845486247], [79.15864841620463, 14.26708612387008], [79.16465172550616, 14.267132436428696], [79.1727433391314, 14.270983394546569], [79.17553798739623, 14.274793591325615], [79.1843032673229, 14.28278259410156], [79.18537104283499, 14.281757428136043], [79.18854676062314, 14.282126048816934], [79.18961176215284, 14.281445276761868], [79.19033735624323, 14.279039735998595], [79.19280947870664, 14.279058510926356], [79.19421388278039, 14.280102477666642], [79.19594676606448, 14.28424886514834], [79.1973484734249, 14.285637235429078], [79.20649821267722, 14.289839626792038], [79.2117605348325, 14.294356951499735], [79.21139645367391, 14.295731973803907], [79.20785363927064, 14.297083064600393], [79.19654879722991, 14.297342052030316], [79.19514428346517, 14.296298086657892], [79.19515802382813, 14.294576005191724], [79.19764129846362, 14.293217082769676], [79.19801642620725, 14.290464422713871], [79.1959083342035, 14.289070698872129], [79.18956218380261, 14.287644756586605], [79.18747623846603, 14.283495645677299], [79.18465090896515, 14.283474116725058], [79.18498198367892, 14.286232126937348], [79.18672852100406, 14.28865649096236], [79.19200137877935, 14.291796540954856], [79.19162892799052, 14.294204766709564], [79.18913458385674, 14.29694128118604], [79.19228299277398, 14.300754033482631], [79.19365999695749, 14.305242174874989], [79.19505905236888, 14.30697498590422], [79.1961214154164, 14.30663861364973], [79.19649660382126, 14.303885963724147], [79.19720849724378, 14.303202488541933], [79.20110191364107, 14.302198665402667], [79.20180009225199, 14.303237260869672], [79.20104983353048, 14.30874259088106], [79.20210123874783, 14.309783860695205], [79.20386455383498, 14.310141632353165], [79.20777173459824, 14.30741561961776], [79.20922003840036, 14.302948825724055], [79.21100512119091, 14.300551186938666], [79.22021810193027, 14.296831467479533], [79.22339143688973, 14.297544075322248], [79.22372569577875, 14.299957664561717], [79.22231019185394, 14.30029152872747]], [[79.22372569577875, 14.299957664561717], [79.22583948770719, 14.30066232843717], [79.22547006816336, 14.302726224008461], [79.22370946166119, 14.302024193759365], [79.22372569577875, 14.299957664561717]], [[79.02056336024847, 14.26770116463435], [79.02340323980366, 14.26600270083558], [79.03122840088828, 14.259523701901012], [79.03406512181988, 14.258169471672192], [79.03941216464449, 14.252358514814228], [79.0404922452466, 14.249956511839084], [79.04016592485135, 14.24685412962125], [79.03628503606357, 14.24647780979426], [79.03484588963835, 14.249565654025284], [79.03343356053425, 14.24955401541877], [79.03203317742012, 14.248164827864807], [79.03240118354358, 14.246445813741875], [79.03488763065639, 14.24474425299265], [79.0359677092851, 14.242342270569965], [79.038083163762, 14.242704080811802], [79.03913048464845, 14.244090332940575], [79.04054278461305, 14.244101933479973], [79.0430261859165, 14.242744664009086], [79.0433644203611, 14.244469497151147], [79.04263154276924, 14.24756319300723], [79.04368188106436, 14.248605043491969], [79.04896332912051, 14.250370358129912], [79.05106114542377, 14.252798399076731], [79.05423010631556, 14.253857514076646], [79.05597491509958, 14.25628264086004], [79.05844070293156, 14.256991559537157], [79.06268672028517, 14.255992850160268], [79.07299095052781, 14.248499166123418], [79.07901387380788, 14.246136810220312], [79.08325091611853, 14.24617088374108], [79.08782655215253, 14.247929695094932], [79.09876952577535, 14.248361570152786], [79.10087944556174, 14.249411641155396], [79.10440753291492, 14.24978412373403], [79.10897197464959, 14.25292016090571], [79.11249727961815, 14.253636933392606], [79.11636428201568, 14.255734054077628], [79.1326102120758, 14.255517398483402], [79.1364859606951, 14.256581001076935], [79.13931652832729, 14.255914247552935], [79.14215554439893, 14.254214236690158], [79.14780815555945, 14.25391377292953], [79.14814440041685, 14.255982965293429], [79.14954843586307, 14.257027155698047], [79.15378865714396, 14.256715592266994], [79.15800370389097, 14.259503644006907], [79.16295301641992, 14.258852965974887], [79.16789396699467, 14.259235418056793], [79.17175890856232, 14.26167612525985], [79.17563502316868, 14.262739125313047], [79.17669441892762, 14.262747231183896], [79.1774200606735, 14.260341735368398], [79.18028101202884, 14.255885927104837], [79.18240526456776, 14.255213255252015], [79.18591169352855, 14.258339883193434], [79.18799192921988, 14.263177817076548], [79.19290288029563, 14.267348350018217], [79.19431270664897, 14.26770347482939], [79.19780853662232, 14.272207636582221], [79.20062554062073, 14.273262246905913], [79.20342345390132, 14.276727755983137], [79.20870722833881, 14.278489756140905], [79.21116032587052, 14.280919278216158], [79.21503159264239, 14.282670536586938], [79.21783798074293, 14.285102650379235], [79.22489339047544, 14.286188698034286], [79.22664039128671, 14.288612818902761], [79.22840091013765, 14.289314817188803], [79.2322590258452, 14.29278794286428], [79.23789129041974, 14.295240834937873], [79.23929334534485, 14.296628994527023], [79.24033149833608, 14.299392233517628], [79.2480298799556, 14.308749104614602], [79.2507489312555, 14.322546963507994], [79.25284971045828, 14.324973550862676], [79.25317896253573, 14.328075986513051], [79.25174728861863, 14.330476565872754], [79.24963846355462, 14.32908324203927], [79.24787221600191, 14.329070210791702], [79.24537536629724, 14.332151767431583], [79.24427002858157, 14.33799914410676], [79.24247955475288, 14.341085880251317], [79.2402954165304, 14.349336324910075], [79.23922211952109, 14.35105057020129], [79.2391978898411, 14.354150376589457], [79.24555438405135, 14.354541964572332], [79.24804348062298, 14.352493713277038], [79.2508697713443, 14.352514588245203], [79.25406003124084, 14.351160329539509], [79.25761952044252, 14.34774206172432], [79.25799942304322, 14.344300391881767], [79.25240042610358, 14.337370287331415], [79.25207385548518, 14.333923426736824], [79.2545360002258, 14.335319334237196], [79.25522120419024, 14.338079941557758], [79.25940720444937, 14.344999622226483], [79.26293731807804, 14.345369955634887], [79.26400245717905, 14.344688861887402], [79.26651247574851, 14.339884957545854], [79.26659453014656, 14.329207674089657], [79.26909636180187, 14.32543699847885], [79.26946281233384, 14.323717426973595], [79.27053046375592, 14.322691859450677], [79.271590194944, 14.322699575282988], [79.27193552925226, 14.323735435609183], [79.27086523948547, 14.32510543909545], [79.27084940709517, 14.327172016267214], [79.26833700538745, 14.332320426611497], [79.27007688343427, 14.335777600073637], [79.27003989171581, 14.340599606548135], [79.26718459944047, 14.344367689130989], [79.26645420257833, 14.347462378416484], [79.26326139771548, 14.349161246223433], [79.26005524753486, 14.352582199403757], [79.25508787068472, 14.35530124425014], [79.25116956763394, 14.359405696352727], [79.2479845328041, 14.360071051348381], [79.24298728798237, 14.366578462247857], [79.2404979805891, 14.368626635119679], [79.23799244210036, 14.372741309221585], [79.23267918009904, 14.374423904379418], [79.23159485222386, 14.377515774632535], [79.23052675463228, 14.378541112555718], [79.22734141420769, 14.379206150810175], [79.22308519743908, 14.3812408620094], [79.22130766497048, 14.382605261105875], [79.22023131676312, 14.384663799390466], [79.21668160905986, 14.386703692260207], [79.21523544290156, 14.390826039214376], [79.21096793595231, 14.394238158359185], [79.20917100027143, 14.398013356676937], [79.20489775560765, 14.402114167962957], [79.20453062377746, 14.40383355769081], [79.20627814570108, 14.406257886087316], [79.20591376762269, 14.407632862748859], [79.20274452431786, 14.406231024660128], [79.19991486946604, 14.406553911487915], [79.19101418999715, 14.41475231177181], [79.19027964637867, 14.41819101350794], [79.18815937865035, 14.418174746264356], [79.18567737435032, 14.419188976503435], [79.17640547011158, 14.429450433067904], [79.17533967995166, 14.430131050472925], [79.17286592336833, 14.430111898149043], [79.1690011189385, 14.42732649002526], [79.16902926222855, 14.423882415001891], [79.17259679255098, 14.419776913834157], [79.1764951522628, 14.418429345545263], [79.18290895685223, 14.4119346062764], [79.18574703713672, 14.410578700823033], [79.1918042206989, 14.404425356353196], [79.19288647651734, 14.4016781664921], [79.20036487384456, 14.394502106220585], [79.20753890560844, 14.381123582287866], [79.2082839777693, 14.376307106121878], [79.20971369230445, 14.374251301664556], [79.21008893115267, 14.371498638878542], [79.20939602087853, 14.369771210758952], [79.20763223688323, 14.36941342662827], [79.1987637874293, 14.37382378489476], [79.19380639013647, 14.375163744940263], [79.1909577372204, 14.37789746164049], [79.18416686203378, 14.387489570517378], [79.1784773106104, 14.391923428118805], [79.17775387608913, 14.393984443038336], [79.17632933901963, 14.395351182508925], [79.17350822803657, 14.39464053691831], [79.16753802433703, 14.390116738265444], [79.16266463398517, 14.381123755304433], [79.16375552021843, 14.377343498931818], [79.16553049377609, 14.376323976146809], [79.17436320269508, 14.37639228321749], [79.17755973551427, 14.374350329509026], [79.18180498987748, 14.37369411524202], [79.18924662335706, 14.370995691548904], [79.19173912885923, 14.36860370167448], [79.19210349845953, 14.36722874529334], [79.19601739335093, 14.363814242089726], [79.1978169510088, 14.359694712343794], [79.1992411206058, 14.358327797758516], [79.19961918845581, 14.355230744464182], [79.20069554021597, 14.353172300622141], [79.20001650316097, 14.349722779302905], [79.20038628022836, 14.347658967092235], [79.20287015368655, 14.346300060384872], [79.20643572174446, 14.342193806431226], [79.20785150804963, 14.341860071270139], [79.21141145073842, 14.338442558489826], [79.21529183028737, 14.3391606630171], [79.21669397015182, 14.34054896662448], [79.2180797918702, 14.344003779348435], [79.2215825699764, 14.34781891713933], [79.22334350810598, 14.348521001068645], [79.2264985870759, 14.351644593573766], [79.2275340380379, 14.354752308140489], [79.22503117908732, 14.358522420036872], [79.22537632645437, 14.35955832711996], [79.22643349207844, 14.359910684669448], [79.22750421865877, 14.358540935117226], [79.22787919368149, 14.355788212547653], [79.23108312754198, 14.352712177973888], [79.23359931594368, 14.347219871249427], [79.23509600629201, 14.336553298719542], [79.23794091287661, 14.33416334284572], [79.23902756489228, 14.330726975435798], [79.24261103125907, 14.32420909790893], [79.24268608381898, 14.314565211003423], [79.23851182217778, 14.306267644540046], [79.23394429124654, 14.303133763904036], [79.23219711227611, 14.300709677559887], [79.22832268843811, 14.29930307246526], [79.22411134903467, 14.295827242215513], [79.21740341237982, 14.295432625754385], [79.21565375865421, 14.293352863957038], [79.21108139153895, 14.290907446549129], [79.20968228599651, 14.289174724876924], [79.20475690152442, 14.286726545488959], [79.2019643315526, 14.282572202078805], [79.19458077385654, 14.278383072562772], [79.18862113096134, 14.272826828750903], [79.18087120209704, 14.270356724449977], [79.17557403983015, 14.270316219731555], [79.16290558209882, 14.26470795415865], [79.15831206993583, 14.265016934608319], [79.15056004275274, 14.262890322482118], [79.14597221352307, 14.262510251839322], [79.12796290867075, 14.262369494436248], [79.12654473112292, 14.263047205008004], [79.12230726703132, 14.263013861393498], [79.11595967659605, 14.261930499445645], [79.11524771410708, 14.262613719853166], [79.11312899853768, 14.262596957565373], [79.11173659841084, 14.260174965173482], [79.10997963510314, 14.259127772109583], [79.10502742766887, 14.260121730191646], [79.1015308888503, 14.255960847238791], [79.09871758620923, 14.254560746767725], [79.09342682967998, 14.25382966685395], [79.09096381536213, 14.252776703491696], [79.07683115215319, 14.25369642051176], [79.07080214427765, 14.256747477560854], [79.06584992534633, 14.25774060658317], [79.06335174744162, 14.260820065168284], [79.05911448151267, 14.260785603801525], [79.0520701456207, 14.258661667193156], [79.04752134949908, 14.253802685095534], [79.0439963743679, 14.253084977055483], [79.04151582893147, 14.254097854827817], [79.03759012265024, 14.258887332431474], [79.03155459217852, 14.262626079911698], [79.02870582222018, 14.265357806689623], [79.02303511548388, 14.267721685536278], [79.02056336024847, 14.26770116463435]], [[79.0205603525009, 14.268045546847103], [79.01736731839058, 14.269741032133508], [79.01525167541186, 14.269379010485993], [79.01632306053202, 14.268010307709334], [79.0205603525009, 14.268045546847103]], [[79.16150042482725, 14.393858585933726], [79.16187630744778, 14.391106077178254], [79.16328681164326, 14.391461468673361], [79.16326991332933, 14.393527912802144], [79.1625576099129, 14.3942112351983], [79.16150042482725, 14.393858585933726]], [[79.2282595734308, 14.352346645950252], [79.22441147548042, 14.347495680491134], [79.22370492820905, 14.34749038786212], [79.22196845024008, 14.34368852805881], [79.21985972738767, 14.342294947783484], [79.21917224202207, 14.339878706849545], [79.2227727034574, 14.331294694024596], [79.22455791557273, 14.328896968061292], [79.22457146421284, 14.327174863512685], [79.2231693433509, 14.325786608998126], [79.22318561053207, 14.323720084530574], [79.2249653332058, 14.32201118892772], [79.2270901472448, 14.32133817856706], [79.22994301462268, 14.317915036916633], [79.23239404720283, 14.320688830709349], [79.23201384159786, 14.32413042604572], [79.23306277316838, 14.325516004860674], [79.23294406798775, 14.340670587878344], [79.2325583986684, 14.34480101954733], [79.23039279431889, 14.350640375461637], [79.22931941990643, 14.352354566371378], [79.2282595734308, 14.352346645950252]], [[79.25161910795558, 14.347008996784687], [79.25340952158753, 14.34392218418896], [79.25481995002919, 14.344277013884742], [79.25586911277986, 14.345662516226348], [79.25549717282185, 14.348070900155255], [79.2530081884082, 14.350119243724325], [79.25159772861639, 14.349764399591255], [79.25161910795558, 14.347008996784687]], [[79.24810239401995, 14.34491637013367], [79.24637353411467, 14.34008136966132], [79.24642174096402, 14.333881724738202], [79.24749221408852, 14.332511853989725], [79.24855197835122, 14.332519677846697], [79.25131659782583, 14.34046230823462], [79.25130056860307, 14.342528861205407], [79.24916221691177, 14.344924197885346], [79.24810239401995, 14.34491637013367]], [[79.26188810928761, 14.34398447979912], [79.25664757690903, 14.336368197246504], [79.25599430741721, 14.32947447254831], [79.25461326735113, 14.32533096802848], [79.25182198518449, 14.320832636706944], [79.25150341666634, 14.316352495739752], [79.25011717826621, 14.31289783143262], [79.25119284781832, 14.310839075138986], [79.25295895595946, 14.31085206550257], [79.25541555321688, 14.312936792648673], [79.26106717071508, 14.312978221207453], [79.25962772834005, 14.316412154711385], [79.25996238428257, 14.318825736755544], [79.26204468224222, 14.323663246744243], [79.26519740499748, 14.3271307803598], [79.26446971467252, 14.329881042771875], [79.26509939718127, 14.339874626407191], [79.26295058981847, 14.34364781789101], [79.26188810928761, 14.34398447979912]], [[79.23622848661267, 14.327261759904061], [79.23586985758142, 14.327947981150182], [79.23587524236196, 14.327259135080123], [79.23622848661267, 14.327261759904061]], [[79.23624463600599, 14.325195221048377], [79.23449190093694, 14.323459979293002], [79.23450267510128, 14.322082287618498], [79.23593714675894, 14.319337402264996], [79.23731780728185, 14.32348097420175], [79.23624463600599, 14.325195221048377]], [[79.26349474373532, 14.31885158816323], [79.2631521032962, 14.317471291988728], [79.26386121929077, 14.317132028001412], [79.26456239346193, 14.317826047546983], [79.26454915891608, 14.319548190505737], [79.26349474373532, 14.31885158816323]], [[79.25686299846383, 14.308469606088815], [79.25863705504854, 14.307449268784536], [79.26074575897864, 14.308842498477146], [79.2607378062094, 14.309875782962905], [79.25720293581878, 14.310194333932522], [79.25686299846383, 14.308469606088815]], [[79.21729206936566, 14.309553857761003], [79.21661553986078, 14.305759937629725], [79.21839243373374, 14.304395498635547], [79.2198052547714, 14.30440608226711], [79.22508711710736, 14.306512226167449], [79.22613593368199, 14.307897823221898], [79.22612241596244, 14.309619932023896], [79.22400312866922, 14.309604104086977], [79.22189197417268, 14.308554994406126], [79.21941948992908, 14.308536483993569], [79.21729206936566, 14.309553857761003]], [[79.20352503308128, 14.308416875089584], [79.20248732175016, 14.30565352460617], [79.20394118205688, 14.300497937557378], [79.20041196444795, 14.300126817120292], [79.20006425245424, 14.299435309772903], [79.20148250664221, 14.298757163883028], [79.20783453403186, 14.29949399494706], [79.20816862444666, 14.301907586731005], [79.20707624789078, 14.306032619085181], [79.20494060346236, 14.308083132198664], [79.20352503308128, 14.308416875089584]], [[79.22596642058726, 14.284474485706035], [79.21820742012962, 14.283038768494476], [79.21611009858805, 14.280267533603439], [79.22317885821347, 14.279631504365087], [79.22527896858249, 14.282058264075042], [79.22596642058726, 14.284474485706035]], [[79.1179239252571, 14.280544942551414], [79.12041311407333, 14.27849805773386], [79.12400161420601, 14.271637845878384], [79.12541985450484, 14.270960158419063], [79.12646786788329, 14.272346106662306], [79.1264422345005, 14.275445738847258], [79.12572455226312, 14.276817795251612], [79.12216741839889, 14.279889599151165], [79.1179239252571, 14.280544942551414]], [[79.18964480117377, 14.277312288328426], [79.17977026474043, 14.275514842967974], [79.17908610572229, 14.272754133314452], [79.18226720458188, 14.272433992991077], [79.1875506601805, 14.274196432207134], [79.18965581183205, 14.275934625182499], [79.18964480117377, 14.277312288328426]], [[79.24862307710148, 14.277753334582776], [79.2472317212065, 14.274987528154211], [79.24900553194053, 14.273967235031186], [79.25076071276251, 14.275357918178893], [79.25074741423414, 14.277080054577278], [79.25038892461149, 14.27776631462467], [79.24862307710148, 14.277753334582776]], [[79.25852773404611, 14.27575928220231], [79.25783728997732, 14.273687544836484], [79.25994569813668, 14.275080749144152], [79.259940406967, 14.275769607134393], [79.25852773404611, 14.27575928220231]], [[79.00394919267222, 14.269628990655942], [79.00325511587447, 14.268245558640341], [79.00431443043801, 14.268254433697146], [79.00536162147063, 14.269640820028894], [79.00394919267222, 14.269628990655942]], [[79.0245195693085, 14.259468204560951], [79.02418747474859, 14.257054595714866], [79.0259529348097, 14.257069218591568], [79.02665312699128, 14.257763831658707], [79.0262850485052, 14.25948282740048], [79.0245195693085, 14.259468204560951]], [[79.17567104195494, 14.25826174895882], [79.16720998127778, 14.256474693827062], [79.16548893637582, 14.250950528337107], [79.16937594510637, 14.250635955387494], [79.1707828403733, 14.2513356160502], [79.17217587308338, 14.253757334987062], [79.17605462862332, 14.254475899204904], [79.17710568399355, 14.255517240633246], [79.17709461355341, 14.256894896505429], [79.17567104195494, 14.25826174895882]], [[79.15943296699149, 14.257448089908998], [79.16085941077318, 14.25573693463566], [79.16191597445496, 14.256089513271876], [79.16119856971895, 14.257461712111184], [79.15943296699149, 14.257448089908998]], [[79.15308522523623, 14.256365713987131], [79.15168398053454, 14.254977133819937], [79.15169520366683, 14.25359949742433], [79.15240423399347, 14.253260560074589], [79.15840715628596, 14.25330698584666], [79.1583931784104, 14.255029037893914], [79.15697231941226, 14.256051356664848], [79.15308522523623, 14.256365713987131]], [[79.058820324754, 14.253894920067022], [79.06095066462157, 14.252534590665316], [79.0623630355256, 14.252546068769673], [79.06235421229567, 14.253579242614524], [79.06093300461143, 14.254600936528192], [79.0591645804089, 14.254930965565908], [79.058820324754, 14.253894920067022]], [[79.16621463925988, 14.248545074076127], [79.16375681674047, 14.24680400477899], [79.16482726782772, 14.245434506958574], [79.16765209216369, 14.245456214423161], [79.16940650083757, 14.246847415728384], [79.16939539070111, 14.248225066659861], [79.16868639607932, 14.248564059622229], [79.16621463925988, 14.248545074076127]], [[79.07975208789517, 14.24235414854167], [79.07729218910626, 14.240956671830332], [79.07733008837847, 14.236479540191871], [79.07804788499034, 14.235107645643266], [79.08266103869485, 14.232389378119018], [79.08477653210694, 14.232750772272913], [79.08510057294669, 14.236197567917097], [79.08223528848012, 14.24099643847395], [79.07975208789517, 14.24235414854167]], [[79.07306986921382, 14.239200535579146], [79.07378478013852, 14.238173052511456], [79.07377309728585, 14.239550628590047], [79.07306986921382, 14.239200535579146]], [[79.15890271052439, 14.235744762761133], [79.156100381072, 14.232967682060588], [79.1561087649173, 14.231934450296858], [79.1575210856344, 14.23194534967712], [79.15857195433291, 14.232986751943363], [79.15890271052439, 14.235744762761133]], [[79.01427003207822, 14.220120683048778], [79.01356095975699, 14.22045919790513], [79.01356396764666, 14.22011481578819], [79.01427003207822, 14.220120683048778]], [[79.0192094927494, 14.220506078856653], [79.01676828428329, 14.217041756548586], [79.01324101536012, 14.216668060368143], [79.01254398765876, 14.215629045399083], [79.01327409385694, 14.212879856043], [79.01610126561869, 14.2125589214722], [79.02030755945819, 14.21603786761961], [79.02027459039152, 14.219826087145787], [79.0192094927494, 14.220506078856653]]]]}}, {"type": "Feature", "properties": {"depth_class": 2, "depth_lo_m": 1.0, "t_s": 36000.48029371755}, "geometry": {"type": "MultiPolygon", "coordinates": [[[[79.0192094927494, 14.220506078856653], [79.02063361758911, 14.21914024383072], [79.02030755945819, 14.21603786761961], [79.01610126561869, 14.2125589214722], [79.01327409385694, 14.212879856043], [79.01255902867392, 14.213907135081932], [79.01324101536012, 14.216668060368143], [79.01676828428329, 14.217041756548586], [79.01815339219868, 14.220152915754356], [79.0192094927494, 14.220506078856653]], [[79.01360606965545, 14.215293465045868], [79.013974124304, 14.213574486052321], [79.01609225821912, 14.213592070037937], [79.01678929857849, 14.214631076117234], [79.01571821188715, 14.215999819776169], [79.01360606965545, 14.215293465045868]]], [[[79.01356396764666, 14.22011481578819], [79.01426702525596, 14.220465065313595], [79.01427003207822, 14.220120683048778], [79.01356396764666, 14.22011481578819]]], [[[79.15857195433291, 14.232986751943363], [79.1575210856344, 14.23194534967712], [79.1561087649173, 14.231934450296858], [79.156100381072, 14.232967682060588], [79.15890271052439, 14.235744762761133], [79.15857195433291, 14.232986751943363]]], [[[79.07939900726853, 14.242351307520341], [79.08223528848012, 14.24099643847395], [79.08510057294669, 14.236197567917097], [79.08512379435601, 14.23344239644641], [79.08407330246327, 14.232400712019327], [79.08266103869485, 14.232389378119018], [79.07840386694859, 14.234766092176725], [79.07733008837847, 14.236479540191871], [79.07729218910626, 14.240956671830332], [79.07939900726853, 14.242351307520341]], [[79.07836890738706, 14.238898832343107], [79.07874237313216, 14.236490908799674], [79.07981032040792, 14.235466243802607], [79.0819374642268, 14.234450083043303], [79.08369990461023, 14.234808652622998], [79.08261453478048, 14.237899712902202], [79.08082879363903, 14.240296296208783], [79.07906340615689, 14.24028209585478], [79.07836890738706, 14.238898832343107]]], [[[79.07378478013852, 14.238173052511456], [79.07306986921382, 14.239200535579146], [79.07377309728585, 14.239550628590047], [79.07378478013852, 14.238173052511456]]], [[[79.15308522523623, 14.256365713987131], [79.1583931784104, 14.255029037893914], [79.15805683849867, 14.25295984872341], [79.15169520366683, 14.25359949742433], [79.15168398053454, 14.254977133819937], [79.15308522523623, 14.256365713987131]]], [[[79.02665312699128, 14.257763831658707], [79.0259529348097, 14.257069218591568], [79.02418747474859, 14.257054595714866], [79.02381937995807, 14.258773585480736], [79.0245195693085, 14.259468204560951], [79.0262850485052, 14.25948282740048], [79.02665312699128, 14.257763831658707]]], [[[79.00536768376176, 14.268952062061363], [79.00325511587447, 14.268245558640341], [79.00324904747828, 14.268934315758417], [79.00536162147063, 14.269640820028894], [79.00536768376176, 14.268952062061363]]], [[[79.12216741839889, 14.279889599151165], [79.1264422345005, 14.275445738847258], [79.12646786788329, 14.272346106662306], [79.12541985450484, 14.270960158419063], [79.12400161420601, 14.271637845878384], [79.12041311407333, 14.27849805773386], [79.1179296501187, 14.279856139144279], [79.1179239252571, 14.280544942551414], [79.12216741839889, 14.279889599151165]]], [[[79.02303511548388, 14.267721685536278], [79.02870582222018, 14.265357806689623], [79.03155459217852, 14.262626079911698], [79.03759012265024, 14.258887332431474], [79.04151582893147, 14.254097854827817], [79.0439963743679, 14.253084977055483], [79.04752134949908, 14.253802685095534], [79.0520701456207, 14.258661667193156], [79.05911448151267, 14.260785603801525], [79.06335174744162, 14.260820065168284], [79.06584992534633, 14.25774060658317], [79.07080214427765, 14.256747477560854], [79.07683115215319, 14.25369642051176], [79.09096381536213, 14.252776703491696], [79.09342682967998, 14.25382966685395], [79.09871758620923, 14.254560746767725], [79.1015308888503, 14.255960847238791], [79.10502742766887, 14.260121730191646], [79.10997963510314, 14.259127772109583], [79.11173659841084, 14.260174965173482], [79.11312899853768, 14.262596957565373], [79.11524771410708, 14.262613719853166], [79.11595967659605, 14.261930499445645], [79.12230726703132, 14.263013861393498], [79.12654473112292, 14.263047205008004], [79.12796290867075, 14.262369494436248], [79.14597221352307, 14.262510251839322], [79.15056004275274, 14.262890322482118], [79.15831206993583, 14.265016934608319], [79.16290558209882, 14.26470795415865], [79.17557403983015, 14.270316219731555], [79.18087120209704, 14.270356724449977], [79.18862113096134, 14.272826828750903], [79.19458077385654, 14.278383072562772], [79.2019643315526, 14.282572202078805], [79.20475690152442, 14.286726545488959], [79.20968228599651, 14.289174724876924], [79.21108139153895, 14.290907446549129], [79.21565375865421, 14.293352863957038], [79.21740341237982, 14.295432625754385], [79.22411134903467, 14.295827242215513], [79.22832268843811, 14.29930307246526], [79.23219711227611, 14.300709677559887], [79.23394429124654, 14.303133763904036], [79.23851182217778, 14.306267644540046], [79.24268608381898, 14.314565211003423], [79.24261103125907, 14.32420909790893], [79.23902756489228, 14.330726975435798], [79.23794091287661, 14.33416334284572], [79.23509600629201, 14.336553298719542], [79.23359931594368, 14.347219871249427], [79.23108312754198, 14.352712177973888], [79.22787919368149, 14.355788212547653], [79.22750421865877, 14.358540935117226], [79.22643349207844, 14.359910684669448], [79.22502846402492, 14.358866840145591], [79.2275340380379, 14.354752308140489], [79.2264985870759, 14.351644593573766], [79.22334350810598, 14.348521001068645], [79.2215825699764, 14.34781891713933], [79.2180797918702, 14.344003779348435], [79.21669397015182, 14.34054896662448], [79.21529183028737, 14.3391606630171], [79.21141145073842, 14.338442558489826], [79.20785150804963, 14.341860071270139], [79.20643572174446, 14.342193806431226], [79.20287015368655, 14.346300060384872], [79.20038628022836, 14.347658967092235], [79.20001650316097, 14.349722779302905], [79.20069554021597, 14.353172300622141], [79.19961918845581, 14.355230744464182], [79.1992411206058, 14.358327797758516], [79.1978169510088, 14.359694712343794], [79.19601739335093, 14.363814242089726], [79.19210349845953, 14.36722874529334], [79.19173912885923, 14.36860370167448], [79.18924662335706, 14.370995691548904], [79.18180498987748, 14.37369411524202], [79.17755973551427, 14.374350329509026], [79.17436320269508, 14.37639228321749], [79.16553049377609, 14.376323976146809], [79.16375552021843, 14.377343498931818], [79.16266463398517, 14.381123755304433], [79.16753802433703, 14.390116738265444], [79.17350822803657, 14.39464053691831], [79.17632933901963, 14.395351182508925], [79.17775387608913, 14.393984443038336], [79.1784773106104, 14.391923428118805], [79.18416686203378, 14.387489570517378], [79.1909577372204, 14.37789746164049], [79.19380639013647, 14.375163744940263], [79.1987637874293, 14.37382378489476], [79.20763223688323, 14.36941342662827], [79.20939602087853, 14.369771210758952], [79.21008893115267, 14.371498638878542], [79.20971369230445, 14.374251301664556], [79.2082839777693, 14.376307106121878], [79.20753890560844, 14.381123582287866], [79.20036487384456, 14.394502106220585], [79.19288647651734, 14.4016781664921], [79.1918042206989, 14.404425356353196], [79.18574703713672, 14.410578700823033], [79.18290895685223, 14.4119346062764], [79.1764951522628, 14.418429345545263], [79.17259679255098, 14.419776913834157], [79.16902926222855, 14.423882415001891], [79.1690011189385, 14.42732649002526], [79.17286592336833, 14.430111898149043], [79.17533967995166, 14.430131050472925], [79.17640547011158, 14.429450433067904], [79.18567737435032, 14.419188976503435], [79.18815937865035, 14.418174746264356], [79.19027964637867, 14.41819101350794], [79.19101418999715, 14.41475231177181], [79.19991486946604, 14.406553911487915], [79.20274452431786, 14.406231024660128], [79.20591376762269, 14.407632862748859], [79.20627814570108, 14.406257886087316], [79.20453062377746, 14.40383355769081], [79.20489775560765, 14.402114167962957], [79.20917100027143, 14.398013356676937], [79.21096793595231, 14.394238158359185], [79.21523544290156, 14.390826039214376], [79.21668160905986, 14.386703692260207], [79.22023131676312, 14.384663799390466], [79.22130766497048, 14.382605261105875], [79.22308519743908, 14.3812408620094], [79.22734141420769, 14.379206150810175], [79.23052675463228, 14.378541112555718], [79.23159485222386, 14.377515774632535], [79.23267918009904, 14.374423904379418], [79.23799244210036, 14.372741309221585], [79.2404979805891, 14.368626635119679], [79.24298728798237, 14.366578462247857], [79.2479845328041, 14.360071051348381], [79.25116956763394, 14.359405696352727], [79.25508787068472, 14.35530124425014], [79.26005524753486, 14.352582199403757], [79.26326139771548, 14.349161246223433], [79.26645420257833, 14.347462378416484], [79.26718459944047, 14.344367689130989], [79.27003989171581, 14.340599606548135], [79.27007688343427, 14.335777600073637], [79.26833700538745, 14.332320426611497], [79.27084940709517, 14.327172016267214], [79.27086523948547, 14.32510543909545], [79.27193552925226, 14.323735435609183], [79.271590194944, 14.322699575282988], [79.27053046375592, 14.322691859450677], [79.26946281233384, 14.323717426973595], [79.26909636180187, 14.32543699847885], [79.26659453014656, 14.329207674089657], [79.26651247574851, 14.339884957545854], [79.26400245717905, 14.344688861887402], [79.26293731807804, 14.345369955634887], [79.25940720444937, 14.344999622226483], [79.25522120419024, 14.338079941557758], [79.2545360002258, 14.335319334237196], [79.25207385548518, 14.333923426736824], [79.25240042610358, 14.337370287331415], [79.25799942304322, 14.344300391881767], [79.25761952044252, 14.34774206172432], [79.25406003124084, 14.351160329539509], [79.2508697713443, 14.352514588245203], [79.24804348062298, 14.352493713277038], [79.24555438405135, 14.354541964572332], [79.2391978898411, 14.354150376589457], [79.23922211952109, 14.35105057020129], [79.2402954165304, 14.349336324910075], [79.24247955475288, 14.341085880251317], [79.24427002858157, 14.33799914410676], [79.24537536629724, 14.332151767431583], [79.24787221600191, 14.329070210791702], [79.24963846355462, 14.32908324203927], [79.25174728861863, 14.330476565872754], [79.25317896253573, 14.328075986513051], [79.25284971045828, 14.324973550862676], [79.2507489312555, 14.322546963507994], [79.2480298799556, 14.308749104614602], [79.24033149833608, 14.299392233517628], [79.23929334534485, 14.296628994527023], [79.23789129041974, 14.295240834937873], [79.2322590258452, 14.29278794286428], [79.22840091013765, 14.289314817188803], [79.22664039128671, 14.288612818902761], [79.22489339047544, 14.286188698034286], [79.21783798074293, 14.285102650379235], [79.21503159264239, 14.282670536586938], [79.21116032587052, 14.280919278216158], [79.20870722833881, 14.278489756140905], [79.20342345390132, 14.276727755983137], [79.20062554062073, 14.273262246905913], [79.19780853662232, 14.272207636582221], [79.19431270664897, 14.26770347482939], [79.19290288029563, 14.267348350018217], [79.18799192921988, 14.263177817076548], [79.18591169352855, 14.258339883193434], [79.18240526456776, 14.255213255252015], [79.18028101202884, 14.255885927104837], [79.1774200606735, 14.260341735368398], [79.17669441892762, 14.262747231183896], [79.17563502316868, 14.262739125313047], [79.17175890856232, 14.26167612525985], [79.16789396699467, 14.259235418056793], [79.16295301641992, 14.258852965974887], [79.15800370389097, 14.259503644006907], [79.15378865714396, 14.256715592266994], [79.14954843586307, 14.257027155698047], [79.14814440041685, 14.255982965293429], [79.14780815555945, 14.25391377292953], [79.14215554439893, 14.254214236690158], [79.13931652832729, 14.255914247552935], [79.1364859606951, 14.256581001076935], [79.1326102120758, 14.255517398483402], [79.11636428201568, 14.255734054077628], [79.11249727961815, 14.253636933392606], [79.10897197464959, 14.25292016090571], [79.10440753291492, 14.24978412373403], [79.10087944556174, 14.249411641155396], [79.09876952577535, 14.248361570152786], [79.08782655215253, 14.247929695094932], [79.08325091611853, 14.24617088374108], [79.07901387380788, 14.246136810220312], [79.07299095052781, 14.248499166123418], [79.06268672028517, 14.255992850160268], [79.05844070293156, 14.256991559537157], [79.05597491509958, 14.25628264086004], [79.05423010631556, 14.253857514076646], [79.05106114542377, 14.252798399076731], [79.04896332912051, 14.250370358129912], [79.04368188106436, 14.248605043491969], [79.04263154276924, 14.24756319300723], [79.0433644203611, 14.244469497151147], [79.0430261859165, 14.242744664009086], [79.04054278461305, 14.244101933479973], [79.03913048464845, 14.244090332940575], [79.038083163762, 14.242704080811802], [79.0359677092851, 14.242342270569965], [79.03488763065639, 14.24474425299265], [79.03240118354358, 14.246445813741875], [79.03203317742012, 14.248164827864807], [79.03343356053425, 14.24955401541877], [79.03484588963835, 14.249565654025284], [79.03628503606357, 14.24647780979426], [79.03946274074146, 14.246503941429934], [79.04051603133603, 14.24720141651969], [79.04013023834528, 14.250986771598408], [79.03762587603694, 14.254754699495079], [79.03406512181988, 14.258169471672192], [79.03122840088828, 14.259523701901012], [79.02980105258226, 14.261233955699307], [79.02056336024847, 14.26770116463435], [79.02303511548388, 14.267721685536278]], [[79.19069415847697, 14.410616659124711], [79.19464770042897, 14.40238049956555], [79.20177273015106, 14.395201692140155], [79.20393410871009, 14.390051584834183], [79.20607612964443, 14.387312354338263], [79.20680478211595, 14.384562386926731], [79.20894945491162, 14.381478702669842], [79.20933295468693, 14.37769279541076], [79.21148299627279, 14.37392024070054], [79.21116255052806, 14.369784565208166], [79.20905642281922, 14.368046454266969], [79.20622725564269, 14.368369474514546], [79.19700552066584, 14.372777091088796], [79.19382298548881, 14.373097262379687], [79.19204814126893, 14.374117015867498], [79.19028436748906, 14.373759101767185], [79.19386722685365, 14.36758664036616], [79.19564200930866, 14.36656686571159], [79.19813991461353, 14.363485964173458], [79.19886854829011, 14.36073601826672], [79.2006542644574, 14.358338534603806], [79.2010323131738, 14.355241476791221], [79.20210865286234, 14.353183025028622], [79.20179111258672, 14.348702937406317], [79.20534577180607, 14.34597437435365], [79.20677802444804, 14.343574146289173], [79.2096150820317, 14.342217829546676], [79.2113977905127, 14.340164649028054], [79.21422114256806, 14.34053036156209], [79.21561510386991, 14.342951928008947], [79.21347367691322, 14.345691316977195], [79.21345729468894, 14.347757826666777], [79.22192225454957, 14.349543666024537], [79.22508275158259, 14.351978435977152], [79.22577032363952, 14.354394668980795], [79.22326744210096, 14.358164759405364], [79.22325113488579, 14.360231277978441], [79.22606120092027, 14.362318981028606], [79.2278331110219, 14.361643363381924], [79.22892822149461, 14.357173820140718], [79.23107230844569, 14.354089863548229], [79.23284143814256, 14.353758620521397], [79.23812186320096, 14.35620903530423], [79.24554096882271, 14.356264084706256], [79.25582379110384, 14.351517760372639], [79.25974452383268, 14.347068776692618], [79.26292404457492, 14.3470920931171], [79.26291607962693, 14.348125375480823], [79.26006588825446, 14.351204492181537], [79.25332408371494, 14.3549438048257], [79.25118026797989, 14.358027996467412], [79.24728598069512, 14.359032551791108], [79.23944613571054, 14.367585488369272], [79.23800862875223, 14.3706747763042], [79.2362285640879, 14.372383730462932], [79.23233668999667, 14.373043581659045], [79.22947492038892, 14.377499922274142], [79.2273522758995, 14.377828470940404], [79.22096796599347, 14.380880510705694], [79.21847012181965, 14.383961662870266], [79.21634194402372, 14.384978939155406], [79.21491494117849, 14.386690363653674], [79.21418363712564, 14.389784783455017], [79.21063105520716, 14.39216898541188], [79.20776309895298, 14.397313810294987], [79.20349260303261, 14.401070180085574], [79.20205159858168, 14.404503573947046], [79.19886584267317, 14.405168174694886], [79.19210762436533, 14.410627485340795], [79.19069415847697, 14.410616659124711]], [[79.26795201043232, 14.336450993806316], [79.26865853992238, 14.336456150728095], [79.26864531869444, 14.338178294738858], [79.26759080841698, 14.337481700414513], [79.26795201043232, 14.336450993806316]], [[79.24686864828146, 14.321829457930749], [79.2472406020455, 14.319421088015103], [79.24830030471931, 14.319428906006571], [79.24899876091634, 14.320467392455722], [79.24827892773428, 14.322184310296166], [79.24686864828146, 14.321829457930749]], [[79.24621299569857, 14.315280162312707], [79.24379127404936, 14.308717822323366], [79.24133215972732, 14.306977416350009], [79.23292504730158, 14.297959541686453], [79.21954424477426, 14.292693129561629], [79.2195523756523, 14.291659866547386], [79.22168773016436, 14.289609186006038], [79.22241032708446, 14.287547933873315], [79.22346986618092, 14.287555845357337], [79.22486367535456, 14.289977341391207], [79.22767835800023, 14.291376092890715], [79.23012911145551, 14.294149879585047], [79.23787519126395, 14.297307380828471], [79.23891332828764, 14.30007062423355], [79.2427637579048, 14.304576890923048], [79.24345144227858, 14.306993086990186], [79.24730207266008, 14.31149930145845], [79.24692212383967, 14.314940950964882], [79.24621299569857, 14.315280162312707]], [[79.20725913072145, 14.282956572718266], [79.20480333017021, 14.280871431684607], [79.20198347570637, 14.28016127609986], [79.19987818061209, 14.278423176987015], [79.19600438697422, 14.277016110717941], [79.19144633391787, 14.272848294936905], [79.19075653291195, 14.270776434717078], [79.18970259402937, 14.270079554945323], [79.18971634946291, 14.268357474888651], [79.19324229517548, 14.269073111351283], [79.19743894493558, 14.274271468911852], [79.1999028149546, 14.27532341740879], [79.20340706209113, 14.278794266230237], [79.20693050757167, 14.279854142470276], [79.20937270101479, 14.283661359510724], [79.20725913072145, 14.282956572718266]], [[79.0754392098371, 14.25127426940911], [79.07544797202863, 14.250241087362207], [79.07686909585325, 14.249219294856829], [79.07934073293899, 14.249239206628788], [79.0803941812084, 14.249936522526262], [79.08038252840504, 14.251314102617606], [79.07931741449102, 14.251994365095578], [79.07649265246154, 14.251971602117038], [79.0754392098371, 14.25127426940911]]], [[[79.02056336024847, 14.26770116463435], [79.01525770754071, 14.268690248348495], [79.01525167541186, 14.269379010485993], [79.01736731839058, 14.269741032133508], [79.02056336024847, 14.26770116463435]]], [[[79.16940650083757, 14.246847415728384], [79.16765209216369, 14.245456214423161], [79.16482726782772, 14.245434506958574], [79.1637623884832, 14.246115181435165], [79.16410713599115, 14.247151133601886], [79.16621463925988, 14.248545074076127], [79.16939539070111, 14.248225066659861], [79.16940650083757, 14.246847415728384]]], [[[79.259940406967, 14.275769607134393], [79.258543619579, 14.273692709662487], [79.25783728997732, 14.273687544836484], [79.25852773404611, 14.27575928220231], [79.259940406967, 14.275769607134393]]], [[[79.25040754680198, 14.275355324195994], [79.24970919818607, 14.274316853283425], [79.24829920509008, 14.273962041833734], [79.2472317212065, 14.274987528154211], [79.24722106135752, 14.276365234726974], [79.24862307710148, 14.277753334582776], [79.25038892461149, 14.27776631462467], [79.25040754680198, 14.275355324195994]]], [[[79.20529654688822, 14.307741381683943], [79.20743491624994, 14.30534644622631], [79.20818500041273, 14.299841075075799], [79.2025420860687, 14.29876517464953], [79.2004201871256, 14.299093565596968], [79.20041196444795, 14.300126817120292], [79.20394118205688, 14.300497937557378], [79.20247088676781, 14.307720028776341], [79.20352503308128, 14.308416875089584], [79.20529654688822, 14.307741381683943]], [[79.2053184252137, 14.30498603842509], [79.20461201834681, 14.3049807044133], [79.20461475388483, 14.304636286592538], [79.20532389406713, 14.304297202505664], [79.2053184252137, 14.30498603842509]]], [[[79.21729206936566, 14.309553857761003], [79.22189197417268, 14.308554994406126], [79.22400312866922, 14.309604104086977], [79.22612241596244, 14.309619932023896], [79.22613593368199, 14.307897823221898], [79.22297598355952, 14.305463128618094], [79.21839243373374, 14.304395498635547], [79.21661553986078, 14.305759937629725], [79.21659379798464, 14.308515297779858], [79.21729206936566, 14.309553857761003]]], [[[79.26074575897864, 14.308842498477146], [79.25828383752327, 14.307446680799776], [79.25722152942473, 14.30778334126549], [79.256852371254, 14.30984731590368], [79.26038193289486, 14.310217625746517], [79.26074575897864, 14.308842498477146]]], [[[79.2642118058383, 14.3174790379771], [79.2631521032962, 14.317471291988728], [79.26384268388628, 14.319543027311587], [79.26454915891608, 14.319548190505737], [79.2642118058383, 14.3174790379771]]], [[[79.2369591887622, 14.324167198369702], [79.23732856422265, 14.322103280424466], [79.23558391495973, 14.319334778427583], [79.23449190093694, 14.323459979293002], [79.23589139498556, 14.325192596618681], [79.2369591887622, 14.324167198369702]]], [[[79.23586985758142, 14.327947981150182], [79.23622848661267, 14.327261759904061], [79.23587524236196, 14.327259135080123], [79.23586985758142, 14.327947981150182]]]]}}, {"type": "Feature", "properties": {"depth_class": 3, "depth_lo_m": 2.0, "t_s": 36000.48029371755}, "geometry": {"type": "MultiPolygon", "coordinates": [[[[79.0164272670522, 14.215661296171254], [79.01678929857849, 14.214631076117234], [79.01609225821912, 14.213592070037937], [79.01361809590493, 14.213915935883495], [79.01430610767282, 14.21598809505003], [79.0164272670522, 14.215661296171254]]], [[[79.08118478112821, 14.239954739228956], [79.08333230717743, 14.236527799163847], [79.08334974019819, 14.234461422826612], [79.0819374642268, 14.234450083043303], [79.07874237313216, 14.236490908799674], [79.07871324239564, 14.239934859233783], [79.08118478112821, 14.239954739228956]]], [[[79.20937270101479, 14.283661359510724], [79.20693050757167, 14.279854142470276], [79.20340706209113, 14.278794266230237], [79.1999028149546, 14.27532341740879], [79.19743894493558, 14.274271468911852], [79.19324229517548, 14.269073111351283], [79.18971634946291, 14.268357474888651], [79.18970259402937, 14.270079554945323], [79.19075653291195, 14.270776434717078], [79.19144633391787, 14.272848294936905], [79.19600438697422, 14.277016110717941], [79.19987818061209, 14.278423176987015], [79.20198347570637, 14.28016127609986], [79.20480333017021, 14.280871431684607], [79.2083131883095, 14.283653387411869], [79.20937270101479, 14.283661359510724]]], [[[79.24692212383967, 14.314940950964882], [79.24695419551914, 14.310807844777923], [79.24484824951698, 14.309070075218143], [79.2427637579048, 14.304576890923048], [79.23821497384117, 14.29903211893354], [79.23787519126395, 14.297307380828471], [79.23012911145551, 14.294149879585047], [79.22767835800023, 14.291376092890715], [79.22486367535456, 14.289977341391207], [79.22346986618092, 14.287555845357337], [79.22241032708446, 14.287547933873315], [79.22168773016436, 14.289609186006038], [79.2195523756523, 14.291659866547386], [79.21954424477426, 14.292693129561629], [79.23292504730158, 14.297959541686453], [79.24133215972732, 14.306977416350009], [79.24379127404936, 14.308717822323366], [79.2451640164143, 14.313894636682193], [79.24621299569857, 14.315280162312707], [79.24692212383967, 14.314940950964882]]], [[[79.20497069167216, 14.304294535895535], [79.20461475388483, 14.304636286592538], [79.20461201834681, 14.3049807044133], [79.2053184252137, 14.30498603842509], [79.20497069167216, 14.304294535895535]]], [[[79.24863483824005, 14.321842490200995], [79.2486508677498, 14.319775936592327], [79.2472406020455, 14.319421088015103], [79.24686864828146, 14.321829457930749], [79.24863483824005, 14.321842490200995]]], [[[79.26830527514221, 14.336453572529901], [79.26759874579272, 14.336448414557335], [79.2679387838156, 14.338173137171971], [79.26864531869444, 14.338178294738858], [79.26830527514221, 14.336453572529901]]], [[[79.19246376627947, 14.410285778127967], [79.19886584267317, 14.405168174694886], [79.20276383295439, 14.403820122720093], [79.20349260303261, 14.401070180085574], [79.20776309895298, 14.397313810294987], [79.21063105520716, 14.39216898541188], [79.21418363712564, 14.389784783455017], [79.21491494117849, 14.386690363653674], [79.21634194402372, 14.384978939155406], [79.21847012181965, 14.383961662870266], [79.22096796599347, 14.380880510705694], [79.2273522758995, 14.377828470940404], [79.22947492038892, 14.377499922274142], [79.23233668999667, 14.373043581659045], [79.2362285640879, 14.372383730462932], [79.23800862875223, 14.3706747763042], [79.23944613571054, 14.367585488369272], [79.24728598069512, 14.359032551791108], [79.25118026797989, 14.358027996467412], [79.25332408371494, 14.3549438048257], [79.26006588825446, 14.351204492181537], [79.26291607962693, 14.348125375480823], [79.26292404457492, 14.3470920931171], [79.25974452383268, 14.347068776692618], [79.25582379110384, 14.351517760372639], [79.24554096882271, 14.356264084706256], [79.23812186320096, 14.35620903530423], [79.23284143814256, 14.353758620521397], [79.23107230844569, 14.354089863548229], [79.22892822149461, 14.357173820140718], [79.2278331110219, 14.361643363381924], [79.22606120092027, 14.362318981028606], [79.22325113488579, 14.360231277978441], [79.22326744210096, 14.358164759405364], [79.22577032363952, 14.354394668980795], [79.22508275158259, 14.351978435977152], [79.22192225454957, 14.349543666024537], [79.21345729468894, 14.347757826666777], [79.21347367691322, 14.345691316977195], [79.21561510386991, 14.342951928008947], [79.21422114256806, 14.34053036156209], [79.2113977905127, 14.340164649028054], [79.2096150820317, 14.342217829546676], [79.20677802444804, 14.343574146289173], [79.20534577180607, 14.34597437435365], [79.20179111258672, 14.348702937406317], [79.20210865286234, 14.353183025028622], [79.2010323131738, 14.355241476791221], [79.2006542644574, 14.358338534603806], [79.19886854829011, 14.36073601826672], [79.19813991461353, 14.363485964173458], [79.19564200930866, 14.36656686571159], [79.19386722685365, 14.36758664036616], [79.19028436748906, 14.373759101767185], [79.19204814126893, 14.374117015867498], [79.19382298548881, 14.373097262379687], [79.19806820424364, 14.37244074782952], [79.20728990885415, 14.368033085688646], [79.21046415677827, 14.368745973826044], [79.21150764255557, 14.370820486205702], [79.21148299627279, 14.37392024070054], [79.20933295468693, 14.37769279541076], [79.20894945491162, 14.381478702669842], [79.2028575668703, 14.392110020238517], [79.20177273015106, 14.395201692140155], [79.19464770042897, 14.40238049956555], [79.19320655631837, 14.405813822360978], [79.19142310428754, 14.407866775038563], [79.19069415847697, 14.410616659124711], [79.19246376627947, 14.410285778127967]], [[79.23556785275797, 14.366523294181233], [79.23101278287763, 14.3616671312066], [79.23103984426294, 14.358222919264161], [79.23211053604868, 14.356853144560832], [79.23493415759361, 14.357218637731707], [79.23774970581995, 14.358617365775803], [79.24339972717345, 14.359003768510913], [79.24338897847444, 14.360381462524145], [79.2405491413508, 14.362082601800955], [79.23698647258463, 14.365844976038062], [79.23556785275797, 14.366523294181233]]]]}}, {"type": "Feature", "properties": {"depth_class": 4, "depth_lo_m": 3.0, "t_s": 36000.48029371755}, "geometry": {"type": "Polygon", "coordinates": [[[79.23521454710573, 14.366520661338841], [79.23101278287763, 14.3616671312066], [79.23103984426294, 14.358222919264161], [79.23211053604868, 14.356853144560832], [79.23493415759361, 14.357218637731707], [79.23774970581995, 14.358617365775803], [79.24339972717345, 14.359003768510913], [79.24338897847444, 14.360381462524145], [79.24232101903827, 14.361406870512912], [79.2405491413508, 14.362082601800955], [79.23698647258463, 14.365844976038062], [79.23521454710573, 14.366520661338841]]]}}]}