{"type": "FeatureCollection", "features": [{"type": "Feature", "properties": {"depth_class": 1, "depth_lo_m": 0.3, "t_s": 52200.331635126495}, "geometry": {"type": "MultiPolygon", "coordinates": [[[[79.01423996023668, 14.22356450522325], [79.01637921620154, 14.22117142042738], [79.0195505306757, 14.221886537873932], [79.02168672354301, 14.21983777971867], [79.02171966913033, 14.216049556950844], [79.02102559621225, 14.214666178048029], [79.01646329169536, 14.211528701211513], [79.01293009436576, 14.211843776031177], [79.01150297172912, 14.213553947723556], [79.01148190310485, 14.215964620613429], [79.01217892634699, 14.21700363815606], [79.01145480907574, 14.21906405642834], [79.01178676525986, 14.221477665450031], [79.0131808476968, 14.223555701333007], [79.01423996023668, 14.22356450522325]], [[79.01815339219868, 14.220152915754356], [79.01641525626744, 14.217038827487833], [79.01324101536012, 14.216668060368143], [79.01254398765876, 14.215629045399083], [79.01291806577964, 14.213221304854397], [79.01610126561869, 14.2125589214722], [79.01819839683871, 14.214987168333762], [79.02030755945819, 14.21603786761961], [79.02027459039152, 14.219826087145787], [79.01815339219868, 14.220152915754356]]], [[[79.16062352043404, 14.241268949343576], [79.16141054658739, 14.231286456682], [79.16388767401897, 14.23061664514664], [79.16425466223365, 14.228897297796511], [79.16320934656169, 14.227167095131888], [79.16074340297509, 14.226459257530584], [79.15898919719153, 14.225068015579426], [79.15722384841197, 14.225054407334662], [79.15543614648841, 14.227796071131706], [79.15331770701934, 14.227779705115275], [79.15189701514774, 14.228802013680765], [79.15187180994066, 14.23190170211306], [79.15291145065518, 14.234320765836308], [79.15572493499282, 14.235720239400475], [79.15673947518127, 14.24123898722351], [79.15814347395816, 14.242283121995076], [79.15990895746806, 14.242296739560603], [79.16062352043404, 14.241268949343576]], [[79.15890271052439, 14.235744762761133], [79.156100381072, 14.232967682060588], [79.1561087649173, 14.231934450296858], [79.1582244551067, 14.232295207249601], [79.15890271052439, 14.235744762761133]]], [[[79.08080259749353, 14.243395854468023], [79.08293272458654, 14.242035298481827], [79.08615688849888, 14.236550457131123], [79.08618589922843, 14.233106490654498], [79.0847881424665, 14.231373186487032], [79.08231669182003, 14.231353355484158], [79.07805953813532, 14.233730065580076], [79.07591488787189, 14.236812557760208], [79.07274309327181, 14.236098140722714], [79.0713191200138, 14.237464311270765], [79.07093972348488, 14.24056099969892], [79.0716400269483, 14.241255492590108], [79.07339957052206, 14.241958536506631], [79.07587695978953, 14.241289685538279], [79.07868410387526, 14.243378808617868], [79.08080259749353, 14.243395854468023]], [[79.07869867410847, 14.241656834057089], [79.07730676730729, 14.239234698333235], [79.07804497150944, 14.235452040632822], [79.08265813278273, 14.232733774121671], [79.0840703986884, 14.232745108307421], [79.08477072646167, 14.233439565102909], [79.08474750077714, 14.236194736003176], [79.08295307527833, 14.239624527726834], [79.08081715168525, 14.241673877762336], [79.07869867410847, 14.241656834057089]]], [[[79.11821835883717, 14.245071512487145], [79.12036827828598, 14.241299773694987], [79.1203882306469, 14.238888950273804], [79.11829540661789, 14.235772633775452], [79.11653001572947, 14.235758714744671], [79.11401843811802, 14.240560836186502], [79.11400413678402, 14.242282846396957], [79.11680598822896, 14.245060370735448], [79.11821835883717, 14.245071512487145]]], [[[79.06881834000818, 14.240888262622066], [79.06952741993908, 14.240549581762709], [79.06882126863539, 14.240543869665537], [79.06881834000818, 14.240888262622066]]], [[[79.02697625901483, 14.261210591727911], [79.0283976380118, 14.260189125733856], [79.02876570278754, 14.258470124908133], [79.02702119820533, 14.256044834396468], [79.02420247308895, 14.255332679175918], [79.02207192835726, 14.256692648188968], [79.0220509053966, 14.259103327882938], [79.02345127789235, 14.260492573724974], [79.0252107656334, 14.261195972272752], [79.02697625901483, 14.261210591727911]], [[79.02381937995807, 14.258773585480736], [79.02418747474859, 14.257054595714866], [79.02559984263743, 14.257066295060401], [79.02665013066988, 14.258108215428424], [79.02593195250584, 14.259479903876935], [79.02381937995807, 14.258773585480736]]], [[[79.04956882551404, 14.262085344424321], [79.05029280250766, 14.260024790549565], [79.04889520938893, 14.258291293364268], [79.04607338689839, 14.25792377245424], [79.04536125543804, 14.258606759378878], [79.04463427221272, 14.26101168077398], [79.04567873810072, 14.262742305634553], [79.04850358252169, 14.262765450493285], [79.04956882551404, 14.262085344424321]]], [[[79.08311707004823, 14.262013076241544], [79.08349346713261, 14.259260752706338], [79.08279307445079, 14.258566284081496], [79.08067443677503, 14.258549238154322], [79.0785441306088, 14.259909751037718], [79.0785324580722, 14.261287328479622], [79.080286345286, 14.262679131955288], [79.08311707004823, 14.262013076241544]]], [[[79.12933561008326, 14.267202245105786], [79.13040352091764, 14.266177345533945], [79.13042056286316, 14.264110917872328], [79.12936118848947, 14.264102605635216], [79.12793731439257, 14.265469131870091], [79.12756996353559, 14.267188377791543], [79.12933561008326, 14.267202245105786]]], [[[79.09396800441786, 14.273465963502773], [79.09467716494729, 14.273127216726959], [79.0939709018108, 14.273121566390515], [79.09396800441786, 14.273465963502773]]], [[[79.12073767799758, 14.28194486764173], [79.1271371278631, 14.276828908414137], [79.1275329712728, 14.271665628774473], [79.12649349511435, 14.26924647362733], [79.1250809672935, 14.26923536242311], [79.12294506154994, 14.271285097864489], [79.12042454664568, 14.27712044866435], [79.11616391657671, 14.279842175244388], [79.1161553211249, 14.280875379287505], [79.11720617453625, 14.281916964407628], [79.12073767799758, 14.28194486764173]]], [[[79.10417139460901, 14.278024878952735], [79.1024056894136, 14.278010814823002], [79.10203523060076, 14.280074391835095], [79.10380095149947, 14.2800884606991], [79.10417139460901, 14.278024878952735]]], [[[79.18786799319838, 14.27867652005686], [79.18646363107187, 14.277632520244696], [79.18469508585154, 14.277963481273359], [79.18432536123534, 14.280027277084066], [79.18749829492924, 14.280740323962878], [79.18820737511015, 14.280401284491912], [79.18786799319838, 14.27867652005686]]], [[[79.19729085920238, 14.292869990008302], [79.1976605035397, 14.290806164692729], [79.19660919871704, 14.289764886399414], [79.19342784966217, 14.290085191657381], [79.19410946575748, 14.293190299287081], [79.19587263463652, 14.293548114064645], [79.19729085920238, 14.292869990008302]]], [[[79.27957660071428, 14.294512622261415], [79.27781583918092, 14.293810980501263], [79.2777974839309, 14.296222002362633], [79.27921029896723, 14.296232227347893], [79.27957660071428, 14.294512622261415]]], [[[79.18664846377723, 14.298644518089409], [79.18666227115959, 14.296922445075294], [79.18560823533862, 14.296225535725815], [79.18383400972073, 14.297245300746917], [79.18417060489539, 14.29931448213339], [79.18593655839467, 14.29932795981591], [79.18664846377723, 14.298644518089409]]], [[[79.2621427468142, 14.310919404058566], [79.26251186053429, 14.308855416103432], [79.25935144804991, 14.306421159253885], [79.25687628088517, 14.306747468585218], [79.25473836690043, 14.309142907567203], [79.25542619157754, 14.31155908424919], [79.26107777465498, 14.311600508655768], [79.2621427468142, 14.310919404058566]]], [[[79.2334645256682, 14.31931902438431], [79.23488552811385, 14.31829625986443], [79.23454576029778, 14.316571519245995], [79.23136132367065, 14.317236716678046], [79.23169836989608, 14.319305881585604], [79.2334645256682, 14.31931902438431]]], [[[79.26452268454342, 14.32299247563959], [79.26737241903535, 14.319913251369663], [79.26668973429557, 14.31680823553387], [79.2652953164436, 14.314386920002214], [79.26388769245295, 14.313687742384618], [79.26211890215357, 14.314019259001181], [79.26069007625873, 14.316075487903339], [79.26101943901709, 14.31917792562154], [79.26311236314461, 14.322637716357736], [79.26452268454342, 14.32299247563959]]], [[[79.23548967874243, 14.33138958473467], [79.23692152091748, 14.32898912405897], [79.2376871776497, 14.321417055080822], [79.23628768845964, 14.319684448924406], [79.2352279914477, 14.319676577215015], [79.23343488250246, 14.323107674836425], [79.23518491315942, 14.325187346184508], [79.23445957156686, 14.327593053311597], [79.23478587243247, 14.331039908156072], [79.23548967874243, 14.33138958473467]]], [[[79.1979608158165, 14.473703607844184], [79.20504678748237, 14.471691189175383], [79.20931875264111, 14.467934965114715], [79.21182605634164, 14.463820809246618], [79.21220155325412, 14.46106817723071], [79.20940154467345, 14.457602541168326], [79.2005710092852, 14.45684634619771], [79.19846146430376, 14.455452479957165], [79.19464036828099, 14.447156821828326], [79.19465982144033, 14.444745939018537], [79.19821067297813, 14.442706516444696], [79.1978738939245, 14.440637338542603], [79.19505768456511, 14.439238054385337], [79.19081674222846, 14.439205540360456], [79.1872965757583, 14.437456333890257], [79.18483947501502, 14.435370836111364], [79.18310319217898, 14.431568715031252], [79.18028440604613, 14.430513686913267], [79.18065458517047, 14.428449955724691], [79.1831506775797, 14.425713742801301], [79.18387420294104, 14.423652722775278], [79.1874359149973, 14.420235787021166], [79.19132032967286, 14.420610023786008], [79.19274218934473, 14.41958761693658], [79.19277550400834, 14.415454669366092], [79.19990105335842, 14.408275981252423], [79.2020267614704, 14.407603303522547], [79.20554387420697, 14.409696668111792], [79.20766958557495, 14.409023939235194], [79.20840107195914, 14.405929561999042], [79.20629741642416, 14.403846979464118], [79.20630567421236, 14.402813733610408], [79.21058165620387, 14.398368479408418], [79.21237857302863, 14.394593268054164], [79.21664606903484, 14.391181121831993], [79.21773341506832, 14.387744936830806], [79.21915767669051, 14.386377911966797], [79.22163919139763, 14.385363267522402], [79.22378368585565, 14.382279426281071], [79.23193463264809, 14.379240518998927], [79.2337310182204, 14.375465080718804], [79.23869098301876, 14.373779835029305], [79.24155252709873, 14.369323355339336], [79.24618047608762, 14.364879915411011], [79.24797381132018, 14.361448748634414], [79.25258008504893, 14.359760549524854], [79.25543315848955, 14.356337122986204], [79.26040055637306, 14.35361807323313], [79.26325077810907, 14.350538956028371], [79.26573173436635, 14.34952377873026], [79.26751139985409, 14.347814553808215], [79.26823913795937, 14.345064288356136], [79.27073586770534, 14.341982474986086], [79.27146090001835, 14.339576621070588], [79.27148730041618, 14.336132328050313], [79.2700927328154, 14.333711025242874], [79.27011122056578, 14.331300020797956], [79.27225977360507, 14.327526733992055], [79.27227032047813, 14.326149014930953], [79.27334060815905, 14.324779004819998], [79.27616922006017, 14.324455108827848], [79.27971744619796, 14.32241414181509], [79.28115140294847, 14.319668921316628], [79.2832813231727, 14.318306522346594], [79.28472043815148, 14.31487240693638], [79.28477273296255, 14.307983757346154], [79.28657540244056, 14.303174434070348], [79.28625612246353, 14.298694258645417], [79.28767939014502, 14.297326701537834], [79.28768981994999, 14.295948967783723], [79.28593945439462, 14.293869649397106], [79.28564365874298, 14.28628957275838], [79.2814393782925, 14.281781383369172], [79.27896972546964, 14.281419092686498], [79.274046202247, 14.278627848347256], [79.2687617412015, 14.276867240101414], [79.26666116003962, 14.274440815332767], [79.26101577540814, 14.273710770079328], [79.25927111764132, 14.270942440722392], [79.25716274983361, 14.26954923482783], [79.25683343174236, 14.26644679364495], [79.25578722230347, 14.264716899300485], [79.2558057693696, 14.262305899268613], [79.25687844729165, 14.260591504541546], [79.25655972001509, 14.256111347035416], [79.2530416131999, 14.254363362225856], [79.25269643676091, 14.253327490503132], [79.25057499013019, 14.253656387357559], [79.24985012752533, 14.25606220014522], [79.25124939519075, 14.257794702169933], [79.25265929742797, 14.258149485655466], [79.25264337632179, 14.260216054381688], [79.25085375282157, 14.263302956093554], [79.25084312406824, 14.264680666692266], [79.25328863211847, 14.268143076125186], [79.25326208570497, 14.271587355407334], [79.25290361394185, 14.272273621402666], [79.25149096812761, 14.272263257229243], [79.2483284937747, 14.270173345400865], [79.2462095503136, 14.270157757565054], [79.24514207809749, 14.271183235796252], [79.24579505720895, 14.278076965627054], [79.24966129005192, 14.280516540141598], [79.25072081185826, 14.280524326591975], [79.25357542147987, 14.276756362435043], [79.25640342460488, 14.276432635763305], [79.25957136021059, 14.2778336000177], [79.26237030785725, 14.281298525301677], [79.26414675679588, 14.279933688102657], [79.26520628407371, 14.279941409805527], [79.26943650314558, 14.281005541292858], [79.27612068000076, 14.284498537857765], [79.27894354387695, 14.284863415150035], [79.2824545011036, 14.287644387391923], [79.28382024687349, 14.293854371180688], [79.28378627454414, 14.298331996954046], [79.2816277658051, 14.303483178223368], [79.28155967482593, 14.312438410438478], [79.28012840148234, 14.314839209143319], [79.27728677696282, 14.316885321662475], [79.27584753774991, 14.320319377382717], [79.27442931022514, 14.320997976228044], [79.27019041482278, 14.320967138804939], [79.26806040240824, 14.322329408348862], [79.26445646780326, 14.331603183901569], [79.26509674698364, 14.340219054480023], [79.26367040456208, 14.341930853588478], [79.26330386486163, 14.34365040532882], [79.26153217755324, 14.344326317494197], [79.26012705046224, 14.343282672402664], [79.25560110912214, 14.334638275191105], [79.25425735869783, 14.325672797398155], [79.25181398464105, 14.321865915224047], [79.25112884914064, 14.31910530479115], [79.25114751964314, 14.316694321764551], [79.24976128546413, 14.313239655854723], [79.24978796599648, 14.309795395061148], [79.24139110317863, 14.299400071590401], [79.23965458378957, 14.29559833484421], [79.2322644078415, 14.29209909610777], [79.23016144123396, 14.290016803663901], [79.22699357338769, 14.28861545050393], [79.22525196919959, 14.285502487275574], [79.2181965774486, 14.284416452476393], [79.21574336218278, 14.281986990413044], [79.211165767369, 14.280230438696712], [79.20906311468946, 14.278147993078894], [79.20343164882311, 14.275694500718465], [79.20238584162932, 14.273964415235973], [79.20275538832874, 14.271900569825405], [79.20205455129073, 14.271206403692977], [79.20063374622436, 14.272228992934687], [79.19781401523727, 14.271518801622149], [79.19431819408226, 14.267014640941147], [79.19150405046328, 14.265615551623752], [79.18870095058729, 14.262838769076447], [79.1855668318543, 14.257303949582768], [79.18204938324484, 14.255554978609753], [79.17924928573511, 14.252433696597448], [79.17537885532643, 14.250681945863814], [79.17328235483811, 14.247910423720418], [79.17151958877321, 14.247552486695488], [79.16766043112094, 14.244422977012334], [79.16271701412236, 14.244384969902878], [79.16233045733067, 14.248515187975793], [79.16549450455281, 14.250261704560797], [79.17115260622425, 14.249271845657153], [79.17359388700396, 14.253079328848415], [79.1760629348306, 14.253442657708025], [79.17958029548943, 14.2551917079466], [79.17956647636285, 14.256913780187194], [79.17814568409915, 14.257936235050584], [79.1763495968569, 14.26171128880162], [79.1721175904206, 14.260990007563219], [79.17071896795055, 14.25925710976468], [79.1661422672617, 14.257499784816284], [79.16367041666697, 14.257480761259233], [79.16048115552171, 14.258833907598452], [79.15730585217294, 14.25846495629746], [79.15731424618029, 14.257431726031824], [79.16087337065866, 14.254014880294477], [79.1605314241001, 14.252634513673915], [79.15877703781089, 14.251243248862169], [79.15100020438082, 14.252216387410591], [79.15102826467518, 14.248772296647056], [79.15032766775767, 14.248078004482615], [79.14785032105834, 14.248747646479444], [79.1474634791173, 14.252877805483145], [79.14145214208075, 14.253864327116142], [79.13825718683921, 14.25590597949245], [79.13401699471831, 14.256217265838373], [79.13225993563002, 14.255170227876722], [79.12342932642828, 14.255445329691762], [79.12237569764974, 14.254748184729236], [79.11531353887437, 14.254692478485357], [79.11250300970649, 14.2529481305939], [79.10932794755672, 14.252578559441652], [79.1033539975602, 14.249086904829335], [79.08782945345855, 14.247585298484742], [79.08466326604184, 14.246182224885672], [79.07936987399472, 14.245795257599754], [79.07192875883204, 14.248835001250262], [79.06800666674452, 14.253280682552374], [79.06445808974142, 14.25531840377115], [79.06126844080303, 14.256670153187665], [79.05667225845127, 14.257321567192482], [79.05351801058382, 14.254540530352898], [79.05105522894371, 14.253487176998608], [79.04895740732586, 14.251059135327884], [79.04577962078912, 14.251033121960655], [79.04262857291585, 14.247907580385982], [79.0430261859165, 14.242744664009086], [79.04161092193775, 14.24307746654847], [79.04089585980272, 14.244104832310796], [79.03948355952048, 14.244093233857837], [79.03844218633705, 14.242018209668831], [79.03526454636992, 14.241992072499198], [79.03454349982654, 14.243708187735013], [79.03206004836434, 14.245065360902002], [79.02991769009549, 14.247802958800772], [79.03305958337103, 14.251961801642706], [79.03482799585316, 14.251631968121599], [79.03625226001962, 14.250266056275514], [79.0373412926026, 14.246830911350461], [79.04016592485135, 14.24685412962125], [79.0408631663626, 14.24789309004598], [79.04046250548902, 14.253400380040608], [79.04258104447526, 14.253417777014178], [79.04612974256935, 14.251380402423944], [79.0524262032171, 14.258320162768413], [79.05806401425153, 14.259743806127013], [79.06406677967463, 14.259792627153796], [79.06585286209055, 14.257396214717472], [79.07009594206232, 14.25674176288261], [79.07222918323494, 14.255036934589432], [79.07718424988785, 14.253699267546976], [79.08177452752379, 14.25373623150071], [79.08532005033334, 14.252042625508501], [79.08814482790442, 14.252065284094487], [79.0930708337032, 14.254171241319936], [79.09801137922237, 14.254555115580466], [79.10223710165916, 14.25596646854985], [79.10328778238085, 14.257008095003991], [79.10396808745202, 14.260113307432254], [79.10502167187691, 14.260810529591852], [79.10714323553114, 14.260482961736843], [79.1082140711197, 14.259113769183003], [79.11103897441251, 14.259136167598337], [79.11315192439756, 14.259841747176704], [79.1145500666224, 14.261574929853655], [79.11808124775384, 14.261602833551333], [79.12230726703132, 14.263013861393498], [79.1254939058372, 14.262005665018302], [79.12902511592253, 14.262033407476913], [79.13007595955287, 14.263074933885605], [79.14561627128947, 14.262851912621311], [79.15865960696097, 14.26570848344436], [79.1629027911745, 14.26505236513409], [79.17521534948341, 14.271002341613137], [79.18121605388414, 14.271392663594147], [79.18931917374975, 14.273865445889959], [79.19457802829714, 14.27872748923432], [79.20266519917661, 14.283266371939801], [79.20370557681517, 14.285685296619505], [79.20545779003089, 14.287420709401173], [79.21564832560486, 14.29404170441196], [79.2156401754881, 14.295074965015905], [79.2131542432749, 14.29677850517149], [79.2099755163301, 14.296754603774174], [79.2067858722673, 14.298108333735053], [79.200431149674, 14.297715896752628], [79.19830102833333, 14.299077520086929], [79.19511679724947, 14.299742248804883], [79.19581219181632, 14.301125274205882], [79.20181104970614, 14.301859591455907], [79.20175351005261, 14.309092354008751], [79.20457644972556, 14.309458135130223], [79.20599476029896, 14.308779968618834], [79.2081331342113, 14.306385027357825], [79.20886683735507, 14.302946165145856], [79.2106546490017, 14.30020411035546], [79.21455885600277, 14.29782237415006], [79.21774032005993, 14.297501795548543], [79.22022623218503, 14.295798204443896], [79.22340225832538, 14.29616638895321], [79.22621430098383, 14.297909587013713], [79.22796409149984, 14.299989285647916], [79.2314907083975, 14.300704424930048], [79.23780271322299, 14.306606832680904], [79.24162372605934, 14.31490179505271], [79.24155399242468, 14.323856827786118], [79.2376011118873, 14.33243860338055], [79.23688922303283, 14.333122201587955], [79.23477239792777, 14.332762021690751], [79.23369915602433, 14.33447624847281], [79.23290896943313, 14.34514807443352], [79.23038738361842, 14.351329218132], [79.22931941990643, 14.352354566371378], [79.22861285551744, 14.352349286616583], [79.22300652877018, 14.34645183292453], [79.22161790028721, 14.343341459147021], [79.21985972738767, 14.342294947783484], [79.21846299922443, 14.340217820783836], [79.21884074567326, 14.337120698129896], [79.22314222561454, 14.329230815606012], [79.22315578538395, 14.327508712433021], [79.22175638602715, 14.325776029912008], [79.2221286146798, 14.323367731612457], [79.22355510816999, 14.321656202351], [79.22710096489395, 14.319960492177074], [79.22817417094184, 14.318246291076392], [79.22823900531245, 14.309980163210367], [79.22650806381698, 14.305489505821305], [79.22157670181168, 14.303730457930696], [79.21769145459079, 14.303701363050731], [79.2155532003825, 14.306096405599853], [79.21552872528046, 14.309196183833413], [79.21622427414553, 14.310579166418298], [79.21834084578677, 14.310939485001127], [79.21976456186654, 14.30957239158658], [79.22153063010532, 14.309585614303973], [79.2254024616811, 14.311336766021784], [79.22644589136323, 14.31341120734863], [79.2264269617578, 14.315822158888684], [79.22463918039936, 14.318564336841987], [79.21967769602851, 14.320593843596573], [79.21996845861884, 14.32851815484368], [79.21637340068648, 14.336413281550465], [79.21071586803593, 14.337059558333895], [79.20715320168271, 14.340821479624346], [79.20467215588783, 14.34183602510649], [79.20253062020818, 14.344575301218843], [79.20111481235688, 14.344909001616966], [79.19897870880858, 14.346959405417248], [79.19860341384327, 14.349712044956718], [79.19928242873824, 14.353161567800331], [79.19855383584857, 14.35591152009875], [79.1946069813338, 14.363459059366232], [79.19247616118379, 14.364820546401162], [79.18997262740434, 14.368590203424397], [79.18784173189489, 14.369951639195056], [79.18536584290052, 14.370277107786938], [79.18394429512425, 14.371299506889436], [79.17757926944321, 14.371939454769425], [79.1743827737739, 14.373981413201555], [79.1690831995835, 14.373940475621724], [79.16697179511841, 14.372890841535432], [79.16485198252765, 14.372874415588685], [79.16094876957632, 14.374910696780026], [79.15702573052458, 14.379357750723596], [79.15490304231808, 14.379685634569974], [79.1527718601626, 14.381046715592044], [79.14956369866307, 14.384465914802108], [79.14884004236076, 14.38652681378699], [79.1449307771952, 14.38925159056368], [79.14349471284261, 14.39199572659233], [79.14100431739732, 14.394042708677894], [79.1391948546837, 14.399194846080128], [79.13986442780696, 14.40367764289678], [79.13771291659705, 14.40744936120551], [79.1373195294757, 14.4122681996586], [79.13554414958723, 14.413287458249762], [79.12777313274704, 14.412881537004804], [79.12564723328066, 14.413553513245894], [79.12243240913403, 14.417661026693578], [79.1195997239283, 14.41832731730815], [79.11568666625486, 14.421395890456594], [79.11317539415377, 14.425853280214032], [79.11315219025879, 14.428608452168904], [79.11872815160488, 14.437952348066787], [79.12572973101655, 14.445929819067626], [79.128192070542, 14.447327082342682], [79.13386390429213, 14.445305543747391], [79.1431440094509, 14.434357278635455], [79.14668935749705, 14.433007472686805], [79.15059943490989, 14.430282764903927], [79.15485146050143, 14.42893836368782], [79.15661840195855, 14.42895218038993], [79.15731951296027, 14.429646513623618], [79.15659005758181, 14.432396229865262], [79.15445550422031, 14.434101666391163], [79.15337827426876, 14.436159790489127], [79.15406519492618, 14.438576155695698], [79.15547029442362, 14.439620435492547], [79.16394921288791, 14.440031066840357], [79.16960655746028, 14.439730641544552], [79.17138203913285, 14.438711135078037], [79.17350248133481, 14.438727575850427], [79.17984421988152, 14.441187648068128], [79.18265474106792, 14.443275924929086], [79.18370101264732, 14.445006148488154], [79.18437151519468, 14.449488924057343], [79.18717938843753, 14.451921572839362], [79.1885568418251, 14.456409786074557], [79.19171828705588, 14.458845114188971], [79.1924140316941, 14.460228187023688], [79.19167091228144, 14.46470009786833], [79.1948352858385, 14.466790988818273], [79.19516648030886, 14.469548990518758], [79.19690597623132, 14.473006657700523], [79.1979608158165, 14.473703607844184]], [[79.1938556399385, 14.456794926251623], [79.1906941941718, 14.45435962711616], [79.18860705898916, 14.450210397850956], [79.18614702625102, 14.448469308255426], [79.18581873659818, 14.445366895599175], [79.18442741150513, 14.442600726697329], [79.18056504267017, 14.439471059503015], [79.17668314964853, 14.438752201288391], [79.17422053145204, 14.437355419299838], [79.17068648283407, 14.43732802073674], [79.16855760468974, 14.438344777376093], [79.15618845184972, 14.438248347406262], [79.15514527121023, 14.43617362498902], [79.1590751402072, 14.431037934258566], [79.15909212314479, 14.428971501563227], [79.15733934301947, 14.427235677547875], [79.15061649507975, 14.428216341982683], [79.1435173893563, 14.431949245368237], [79.13820508671783, 14.433285057949206], [79.13295589387783, 14.427043936312169], [79.12949107963642, 14.418750342430041], [79.1302121754681, 14.417033942073184], [79.13234096953887, 14.416017526595853], [79.136230832145, 14.415703848467476], [79.13871867187125, 14.414001356322634], [79.13943968070689, 14.412284916772212], [79.13947395948544, 14.408152090487098], [79.14199020348852, 14.403005521663884], [79.14132058743277, 14.39852272577825], [79.14240624414212, 14.39543143260936], [79.14597085103622, 14.391670732641419], [79.1466917138417, 14.38995425262846], [79.1498886598085, 14.38791272811565], [79.15168360221304, 14.384482490682394], [79.1545327675859, 14.381749314939738], [79.15807437512564, 14.380743631566228], [79.1627096645164, 14.375613232897496], [79.1648379317308, 14.374596456604806], [79.17330887052363, 14.375695284210073], [79.17862802324088, 14.373325256206632], [79.18428647818537, 14.372679865091113], [79.18960269881255, 14.3706539807256], [79.19138305988538, 14.368945416529384], [79.19246232990803, 14.366542615144233], [79.19601739335093, 14.363814242089726], [79.197460905911, 14.360036439312728], [79.19924387499302, 14.357983382501533], [79.20069829134887, 14.352827884939304], [79.20001375160676, 14.350067194946195], [79.20038628022836, 14.347658967092235], [79.20322616728824, 14.345958321419042], [79.20537045249543, 14.342874623012975], [79.20785150804963, 14.341860071270139], [79.21105819375856, 14.338439894717709], [79.21353099414148, 14.338458530088957], [79.21564236363673, 14.339507739523487], [79.21774014059312, 14.342279028549727], [79.2177319713882, 14.343312286149537], [79.22684915679973, 14.351991657386801], [79.2275340380379, 14.354752308140489], [79.22538989906789, 14.357836226245745], [79.22537632645437, 14.35955832711996], [79.22643349207844, 14.359910684669448], [79.22750421865877, 14.358540935117226], [79.22823519064907, 14.355446433602292], [79.23179239753132, 14.352373028945438], [79.23286845603864, 14.350314402872689], [79.23466723532381, 14.34619449827276], [79.23541422661533, 14.341033420544408], [79.23755535966436, 14.338293796553815], [79.240796502462, 14.330395650093344], [79.24294014095807, 14.327311531806776], [79.24441205358502, 14.319744641804427], [79.24375379430994, 14.313539772038173], [79.24167197494167, 14.30870215286502], [79.23852524223578, 14.304545523692974], [79.23571569834621, 14.30245802806505], [79.2322159595512, 14.298298715411699], [79.2290425721652, 14.297586220987746], [79.22412216473272, 14.294449555108125], [79.2184819718517, 14.293029618602855], [79.21532773761939, 14.289906012435514], [79.21321408632807, 14.289201269948853], [79.21181497186367, 14.28746855991377], [79.20759866623874, 14.28468132701197], [79.20479786906843, 14.281560268759616], [79.20127714761645, 14.280155941251135], [79.19952501965031, 14.278420507020448], [79.196354802475, 14.277363202696227], [79.19390740807273, 14.274244717153103], [79.19179673594024, 14.27319539215777], [79.19075653291195, 14.270776434717078], [79.18935219982771, 14.269732455504142], [79.19007224315828, 14.268015741436903], [79.19359544034512, 14.269075788917078], [79.19744168525412, 14.273927051566892], [79.20060912744393, 14.27532875456614], [79.20306209770571, 14.277758346552062], [79.20728912507292, 14.27916796360372], [79.21184762016017, 14.28333552295458], [79.21253220648428, 14.286096186816376], [79.21358357828551, 14.2871374016019], [79.21605039142085, 14.287844786509217], [79.21744411726378, 14.29026631696854], [79.2202695825728, 14.290287466664576], [79.22135078863671, 14.287540017677989], [79.22206255850702, 14.286856452424695], [79.22382845163365, 14.286869637569557], [79.22486907875165, 14.289288497238537], [79.22873522186214, 14.291728405741008], [79.23013450046967, 14.293461033702682], [79.23753272872081, 14.295927066859795], [79.24067130129849, 14.30111697033045], [79.2476686499519, 14.309779777908409], [79.24836173821564, 14.311507114946451], [79.24833236166849, 14.315295798317363], [79.25006647726354, 14.319441925497891], [79.2500397822307, 14.322886184016212], [79.25214322286878, 14.324968350952934], [79.25212455175135, 14.327379333590425], [79.25035564489674, 14.327710748073203], [79.24930391765578, 14.32666965821767], [79.24789093483267, 14.326659233996201], [79.24395699013179, 14.33283016471843], [79.2432129242069, 14.337646874098292], [79.23710242811458, 14.351034814562597], [79.23708895171255, 14.352756927358442], [79.23883921666722, 14.354836596991527], [79.24448914887226, 14.355222963250775], [79.24732886910462, 14.353521762555538], [79.25122038416008, 14.35286162040401], [79.2558344568684, 14.35014005613992], [79.25904860711475, 14.345685882366967], [79.26293466351844, 14.345714383152266], [79.2643557340511, 14.34469144794222], [79.26508349493925, 14.341941194687253], [79.26650982770683, 14.340229385877105], [79.26658923835446, 14.329896531390062], [79.26944696870687, 14.325784002849613], [79.27017194181322, 14.323378145444456], [79.27158755795537, 14.323044005039671], [79.26977116970862, 14.329575299644647], [79.2683422927778, 14.331631568812051], [79.26832907377486, 14.333353713232254], [79.27007424162501, 14.336122029175506], [79.27004517708954, 14.33991074860585], [79.26896685459275, 14.342314018067027], [79.26718724724815, 14.344023260796149], [79.26645685209762, 14.347117950304966], [79.26184029238239, 14.350184170768427], [79.2593460093094, 14.352921437819019], [79.25473457892834, 14.355298642511858], [79.25152553981066, 14.359063879112973], [79.24727525574652, 14.360410248680669], [79.24548460541708, 14.363496986406442], [79.2401419767683, 14.368968431890815], [79.23870716447472, 14.371713301513267], [79.23692709531967, 14.373422260453381], [79.23267918009904, 14.374423904379418], [79.23159485222386, 14.377515774632535], [79.23052675463228, 14.378541112555718], [79.22379457176599, 14.380901749434162], [79.22166371811706, 14.38226349880772], [79.22023131676312, 14.384663799390466], [79.21739374116575, 14.386020184269764], [79.21559151873022, 14.39048428885348], [79.21132402354007, 14.393896415897759], [79.20952709695543, 14.397671618036327], [79.20489500106416, 14.402458583011693], [79.20488122725283, 14.404180658097316], [79.20628365198635, 14.405569055676231], [79.20662324989108, 14.407293815064158], [79.20520428340609, 14.407971908043441], [79.20344849042542, 14.40658081582408], [79.19955874415518, 14.406895632057228], [79.19100863316113, 14.41544113584089], [79.19098362376023, 14.418540843629314], [79.1863841321871, 14.419194408835168], [79.18282242455615, 14.42261132904973], [79.1820988944584, 14.424672345281513], [79.177813440169, 14.430150176882297], [79.17780223265352, 14.43152781306395], [79.17885402169713, 14.432569230614286], [79.18132501683026, 14.432932732991391], [79.18237683000069, 14.433974137394083], [79.18271625589028, 14.435698910858513], [79.18622519056979, 14.438825820410464], [79.1900959953601, 14.440922169616748], [79.19433141136717, 14.441643524196197], [79.19255320645689, 14.443007624446961], [79.19218309420121, 14.445071381911024], [79.19527217991705, 14.456461355764082], [79.1938556399385, 14.456794926251623]], [[79.24168434315318, 14.352446621518759], [79.24317535311373, 14.342468810591598], [79.24532713675954, 14.338351409768345], [79.24607116243165, 14.333534689146378], [79.24856000003506, 14.331486402062371], [79.25202313361169, 14.340467516105457], [79.2548306163163, 14.342899309552342], [79.25622505444977, 14.345320688281662], [79.25620906456066, 14.347387245837401], [79.25407070751038, 14.34978262656512], [79.25194299429769, 14.350800281097325], [79.24805955132659, 14.350427165649936], [79.24521182835122, 14.353161652725953], [79.24168434315318, 14.352446621518759]], [[79.27975680589567, 14.3172476718948], [79.28117237505538, 14.316913468266916], [79.27939569680007, 14.318278407552867], [79.27975680589567, 14.3172476718948]], [[79.2031827778296, 14.307036535199352], [79.2035688304019, 14.302906193587084], [79.20463663556735, 14.301880943649492], [79.20675582802204, 14.301896935786491], [79.20708717543044, 14.304654945993848], [79.20565522367406, 14.307055212552806], [79.2031827778296, 14.307036535199352]], [[79.07402098977752, 14.251951657108219], [79.07402975885792, 14.250918475984609], [79.07509780114435, 14.249893844468577], [79.07758111167185, 14.24853619753749], [79.08180946304955, 14.24960348817534], [79.08108580569225, 14.251664179864553], [79.07860539098563, 14.25267746670819], [79.07507443008386, 14.252648995894203], [79.07402098977752, 14.251951657108219]], [[79.03308943229895, 14.248517948370273], [79.0334604150932, 14.246454546198297], [79.0345196473599, 14.24646327395949], [79.03485781723595, 14.248188111083739], [79.03308943229895, 14.248517948370273]], [[79.16588101137076, 14.246131475377023], [79.16799407803074, 14.246836575515749], [79.16763263199815, 14.247867101349243], [79.16586988042765, 14.247509123662903], [79.16588101137076, 14.246131475377023]]], [[[79.16289122197277, 14.396624831953012], [79.16469450717621, 14.392161259911605], [79.16400473305563, 14.390089327520096], [79.16224372503379, 14.389386787904952], [79.16117528625266, 14.390411767968924], [79.1611301697514, 14.39592227873448], [79.16182556683064, 14.397305403685468], [79.16289122197277, 14.396624831953012]]], [[[79.16477456886935, 14.425571500647132], [79.17012034255806, 14.420102154085399], [79.17367095360858, 14.418063077634352], [79.17650355607387, 14.417396118035297], [79.18220222325652, 14.411929166219869], [79.1857498226898, 14.410234289658602], [79.19180699571851, 14.404080943851568], [79.19324537369579, 14.400992043197602], [79.20000877051169, 14.394843830101061], [79.2025262744322, 14.389352014472887], [79.20466830326758, 14.386612797801936], [79.20539696913286, 14.383862836311456], [79.20753890560844, 14.381123582287866], [79.2079224275364, 14.377337679891165], [79.20971369230445, 14.374251301664556], [79.20974384525371, 14.370462716504193], [79.20904271516669, 14.369768538289305], [79.20586022042419, 14.370088878537391], [79.19805440811749, 14.37416282079432], [79.1934503123048, 14.375505461879857], [79.18952506405354, 14.380297542192427], [79.18773070524674, 14.383728140394602], [79.18595296899285, 14.385092246166431], [79.18415851163248, 14.388522805052721], [79.18095902118613, 14.390909239814512], [79.1769968685823, 14.400178371977933], [79.17270903883177, 14.40600057083729], [79.16914738279573, 14.409417288362079], [79.16590236311863, 14.417313977433206], [79.16199551029683, 14.419694584528225], [79.15985546994256, 14.422088902660628], [79.1594907781713, 14.423463769468494], [79.16159410893314, 14.425546736687751], [79.16477456886935, 14.425571500647132]], [[79.1623319437535, 14.421763774611046], [79.16730459003509, 14.41870258656327], [79.17091137650787, 14.409775388201965], [79.17554148585486, 14.405333604538175], [79.17876081125951, 14.400536406344777], [79.18165174780628, 14.392636730438365], [79.18556627035953, 14.389222477604363], [79.19272154435801, 14.378255374523762], [79.19627680782092, 14.375527021398684], [79.19875275382672, 14.375201443656264], [79.20584923325512, 14.371466543119757], [79.20832513220869, 14.371140858264953], [79.20866198336603, 14.373210031881943], [79.20687071516922, 14.376296401689311], [79.20648717964647, 14.380082300848489], [79.20289613865953, 14.387288209795356], [79.20111293431275, 14.389341266139091], [79.19895426508114, 14.394146927053823], [79.19219086641952, 14.40029510937843], [79.18896903019436, 14.405436936778882], [79.1843419394885, 14.409534603867732], [79.18186002336057, 14.41054880382484], [79.17758327395964, 14.414993439954696], [79.16942483807019, 14.418719041683719], [79.16478867212791, 14.423849467101745], [79.16231499952741, 14.423830212340333], [79.1623319437535, 14.421763774611046]]]]}}, {"type": "Feature", "properties": {"depth_class": 2, "depth_lo_m": 1.0, "t_s": 52200.331635126495}, "geometry": {"type": "MultiPolygon", "coordinates": [[[[79.02027459039152, 14.219826087145787], [79.02065159775512, 14.21707394186038], [79.01960750057071, 14.215343252802397], [79.01819839683871, 14.214987168333762], [79.01610126561869, 14.2125589214722], [79.01291806577964, 14.213221304854397], [79.01254398765876, 14.215629045399083], [79.01324101536012, 14.216668060368143], [79.01641525626744, 14.217038827487833], [79.01815339219868, 14.220152915754356], [79.02027459039152, 14.219826087145787]], [[79.01430610767282, 14.21598809505003], [79.013974124304, 14.213574486052321], [79.01644227872582, 14.213939381788796], [79.0164272670522, 14.215661296171254], [79.01430610767282, 14.21598809505003]]], [[[79.15890271052439, 14.235744762761133], [79.1578741660003, 14.231948073218977], [79.1561087649173, 14.231934450296858], [79.156100381072, 14.232967682060588], [79.15890271052439, 14.235744762761133]]], [[[79.081173141624, 14.241332321110304], [79.08295307527833, 14.239624527726834], [79.08474750077714, 14.236194736003176], [79.08477072646167, 14.233439565102909], [79.0840703986884, 14.232745108307421], [79.08265813278273, 14.232733774121671], [79.07875693558165, 14.234768933188933], [79.07732425857802, 14.237168329790206], [79.07764818238846, 14.24061512094487], [79.07869867410847, 14.241656834057089], [79.081173141624, 14.241332321110304]], [[79.07909253232627, 14.23683814481039], [79.0815756712511, 14.235480433939175], [79.08263197607859, 14.235833337673352], [79.08190547803706, 14.238238436231862], [79.08048153756663, 14.239604666484158], [79.07907214482483, 14.239248910651703], [79.07909253232627, 14.23683814481039]]], [[[79.16798851883074, 14.247525400456862], [79.16729342811571, 14.246142327568236], [79.16588101137076, 14.246131475377023], [79.16586988042765, 14.247509123662903], [79.16798851883074, 14.247525400456862]]], [[[79.03485781723595, 14.248188111083739], [79.0345196473599, 14.24646327395949], [79.03274829138574, 14.247137495801057], [79.03308943229895, 14.248517948370273], [79.03485781723595, 14.248188111083739]]], [[[79.02628804568184, 14.259138443746428], [79.02630303036523, 14.257416525317973], [79.02383138253299, 14.257396052775857], [79.02416947409795, 14.259120895213629], [79.02628804568184, 14.259138443746428]]], [[[79.20565522367406, 14.307055212552806], [79.20708717543044, 14.304654945993848], [79.20710356455827, 14.302588436042749], [79.20534576656911, 14.301541858409143], [79.2035688304019, 14.302906193587084], [79.2031827778296, 14.307036535199352], [79.20565522367406, 14.307055212552806]]], [[[79.27939569680007, 14.318278407552867], [79.28117237505538, 14.316913468266916], [79.27975680589567, 14.3172476718948], [79.27939569680007, 14.318278407552867]]], [[[79.19527217991705, 14.456461355764082], [79.1942368948874, 14.453353522509401], [79.19425636110057, 14.450942641502984], [79.19218309420121, 14.445071381911024], [79.19255320645689, 14.443007624446961], [79.19433141136717, 14.441643524196197], [79.1900959953601, 14.440922169616748], [79.18622519056979, 14.438825820410464], [79.18271625589028, 14.435698910858513], [79.18237683000069, 14.433974137394083], [79.18132501683026, 14.432932732991391], [79.17885402169713, 14.432569230614286], [79.17780223265352, 14.43152781306395], [79.177813440169, 14.430150176882297], [79.1820988944584, 14.424672345281513], [79.18282242455615, 14.42261132904973], [79.1863841321871, 14.419194408835168], [79.19098362376023, 14.418540843629314], [79.19100863316113, 14.41544113584089], [79.19955874415518, 14.406895632057228], [79.20344849042542, 14.40658081582408], [79.20520428340609, 14.407971908043441], [79.20662324989108, 14.407293815064158], [79.20628365198635, 14.405569055676231], [79.20488122725283, 14.404180658097316], [79.20489500106416, 14.402458583011693], [79.20952709695543, 14.397671618036327], [79.21132402354007, 14.393896415897759], [79.21559151873022, 14.39048428885348], [79.21739374116575, 14.386020184269764], [79.22023131676312, 14.384663799390466], [79.22166371811706, 14.38226349880772], [79.22379457176599, 14.380901749434162], [79.23052675463228, 14.378541112555718], [79.23159485222386, 14.377515774632535], [79.23267918009904, 14.374423904379418], [79.23692709531967, 14.373422260453381], [79.23870716447472, 14.371713301513267], [79.2401419767683, 14.368968431890815], [79.24548460541708, 14.363496986406442], [79.24727525574652, 14.360410248680669], [79.25152553981066, 14.359063879112973], [79.25473457892834, 14.355298642511858], [79.2593460093094, 14.352921437819019], [79.26184029238239, 14.350184170768427], [79.26645685209762, 14.347117950304966], [79.26718724724815, 14.344023260796149], [79.26896685459275, 14.342314018067027], [79.27004517708954, 14.33991074860585], [79.27007424162501, 14.336122029175506], [79.26832907377486, 14.333353713232254], [79.2683422927778, 14.331631568812051], [79.26977116970862, 14.329575299644647], [79.27158755795537, 14.323044005039671], [79.27017194181322, 14.323378145444456], [79.26944696870687, 14.325784002849613], [79.26658923835446, 14.329896531390062], [79.26650982770683, 14.340229385877105], [79.26508349493925, 14.341941194687253], [79.2643557340511, 14.34469144794222], [79.26293466351844, 14.345714383152266], [79.25904860711475, 14.345685882366967], [79.2558344568684, 14.35014005613992], [79.25122038416008, 14.35286162040401], [79.24732886910462, 14.353521762555538], [79.24448914887226, 14.355222963250775], [79.23883921666722, 14.354836596991527], [79.23708895171255, 14.352756927358442], [79.23710242811458, 14.351034814562597], [79.2432129242069, 14.337646874098292], [79.24395699013179, 14.33283016471843], [79.24789093483267, 14.326659233996201], [79.24930391765578, 14.32666965821767], [79.25035564489674, 14.327710748073203], [79.25212455175135, 14.327379333590425], [79.25214322286878, 14.324968350952934], [79.2500397822307, 14.322886184016212], [79.25006647726354, 14.319441925497891], [79.24833236166849, 14.315295798317363], [79.24836173821564, 14.311507114946451], [79.2476686499519, 14.309779777908409], [79.24067130129849, 14.30111697033045], [79.23753272872081, 14.295927066859795], [79.23013450046967, 14.293461033702682], [79.22873522186214, 14.291728405741008], [79.22486907875165, 14.289288497238537], [79.22382845163365, 14.286869637569557], [79.22206255850702, 14.286856452424695], [79.22135078863671, 14.287540017677989], [79.2202695825728, 14.290287466664576], [79.21744411726378, 14.29026631696854], [79.21605039142085, 14.287844786509217], [79.21358357828551, 14.2871374016019], [79.21253220648428, 14.286096186816376], [79.21184762016017, 14.28333552295458], [79.20728912507292, 14.27916796360372], [79.20306209770571, 14.277758346552062], [79.20060912744393, 14.27532875456614], [79.19744168525412, 14.273927051566892], [79.19359544034512, 14.269075788917078], [79.19007224315828, 14.268015741436903], [79.18935219982771, 14.269732455504142], [79.19075653291195, 14.270776434717078], [79.19179673594024, 14.27319539215777], [79.19390740807273, 14.274244717153103], [79.196354802475, 14.277363202696227], [79.19952501965031, 14.278420507020448], [79.20127714761645, 14.280155941251135], [79.20479786906843, 14.281560268759616], [79.20759866623874, 14.28468132701197], [79.21181497186367, 14.28746855991377], [79.21321408632807, 14.289201269948853], [79.21532773761939, 14.289906012435514], [79.2184819718517, 14.293029618602855], [79.22412216473272, 14.294449555108125], [79.2290425721652, 14.297586220987746], [79.2322159595512, 14.298298715411699], [79.23571569834621, 14.30245802806505], [79.23852524223578, 14.304545523692974], [79.24167197494167, 14.30870215286502], [79.24375379430994, 14.313539772038173], [79.24441205358502, 14.319744641804427], [79.24294014095807, 14.327311531806776], [79.240796502462, 14.330395650093344], [79.23755535966436, 14.338293796553815], [79.23541422661533, 14.341033420544408], [79.23466723532381, 14.34619449827276], [79.23286845603864, 14.350314402872689], [79.23179239753132, 14.352373028945438], [79.22823519064907, 14.355446433602292], [79.22750421865877, 14.358540935117226], [79.22643349207844, 14.359910684669448], [79.22537632645437, 14.35955832711996], [79.22538989906789, 14.357836226245745], [79.2275340380379, 14.354752308140489], [79.22684915679973, 14.351991657386801], [79.2177319713882, 14.343312286149537], [79.21774014059312, 14.342279028549727], [79.21564236363673, 14.339507739523487], [79.21353099414148, 14.338458530088957], [79.21105819375856, 14.338439894717709], [79.20785150804963, 14.341860071270139], [79.20537045249543, 14.342874623012975], [79.20322616728824, 14.345958321419042], [79.20038628022836, 14.347658967092235], [79.20001375160676, 14.350067194946195], [79.20069829134887, 14.352827884939304], [79.19924387499302, 14.357983382501533], [79.197460905911, 14.360036439312728], [79.19601739335093, 14.363814242089726], [79.19246232990803, 14.366542615144233], [79.19138305988538, 14.368945416529384], [79.18960269881255, 14.3706539807256], [79.18428647818537, 14.372679865091113], [79.17862802324088, 14.373325256206632], [79.17330887052363, 14.375695284210073], [79.1648379317308, 14.374596456604806], [79.1627096645164, 14.375613232897496], [79.15807437512564, 14.380743631566228], [79.1545327675859, 14.381749314939738], [79.15168360221304, 14.384482490682394], [79.1498886598085, 14.38791272811565], [79.1466917138417, 14.38995425262846], [79.14597085103622, 14.391670732641419], [79.14240624414212, 14.39543143260936], [79.14132058743277, 14.39852272577825], [79.14199020348852, 14.403005521663884], [79.13947395948544, 14.408152090487098], [79.13943968070689, 14.412284916772212], [79.13871867187125, 14.414001356322634], [79.136230832145, 14.415703848467476], [79.13234096953887, 14.416017526595853], [79.1302121754681, 14.417033942073184], [79.12949107963642, 14.418750342430041], [79.13295589387783, 14.427043936312169], [79.13820508671783, 14.433285057949206], [79.1410350809584, 14.432962962528213], [79.15061649507975, 14.428216341982683], [79.15733934301947, 14.427235677547875], [79.15909212314479, 14.428971501563227], [79.1590751402072, 14.431037934258566], [79.15514527121023, 14.43617362498902], [79.15618845184972, 14.438248347406262], [79.16855760468974, 14.438344777376093], [79.17068648283407, 14.43732802073674], [79.17422053145204, 14.437355419299838], [79.17668314964853, 14.438752201288391], [79.18056504267017, 14.439471059503015], [79.18442741150513, 14.442600726697329], [79.18581873659818, 14.445366895599175], [79.18614702625102, 14.448469308255426], [79.18860705898916, 14.450210397850956], [79.1906941941718, 14.45435962711616], [79.1938556399385, 14.456794926251623], [79.19527217991705, 14.456461355764082]], [[79.16159410893314, 14.425546736687751], [79.1594907781713, 14.423463769468494], [79.16021450241847, 14.42140284646645], [79.16590236311863, 14.417313977433206], [79.16914738279573, 14.409417288362079], [79.17270903883177, 14.40600057083729], [79.1769968685823, 14.400178371977933], [79.17915326450594, 14.39571738614832], [79.17988785838135, 14.392278724190904], [79.18415851163248, 14.388522805052721], [79.1920259901703, 14.376872322918448], [79.19451577763625, 14.37482472292428], [79.19805440811749, 14.37416282079432], [79.20586022042419, 14.370088878537391], [79.20904271516669, 14.369768538289305], [79.20974384525371, 14.370462716504193], [79.20971369230445, 14.374251301664556], [79.2079224275364, 14.377337679891165], [79.20753890560844, 14.381123582287866], [79.20539696913286, 14.383862836311456], [79.20466830326758, 14.386612797801936], [79.2025262744322, 14.389352014472887], [79.20000877051169, 14.394843830101061], [79.19324537369579, 14.400992043197602], [79.19037968462864, 14.405792181700216], [79.1857498226898, 14.410234289658602], [79.18220222325652, 14.411929166219869], [79.17756927796141, 14.416715487140435], [79.17012034255806, 14.420102154085399], [79.16548415828092, 14.42523259110906], [79.16159410893314, 14.425546736687751]], [[79.17859581991347, 14.420856584495581], [79.18253605287576, 14.41434275980945], [79.18608647630619, 14.412303471565014], [79.1907163801588, 14.407861361952712], [79.19429711712125, 14.402033386079212], [79.2003483129004, 14.396568592521948], [79.20859338613667, 14.381820443753261], [79.20933569749512, 14.37734837880244], [79.21149121235402, 14.372886989296884], [79.21116255052806, 14.369784565208166], [79.2087031198807, 14.36804378160437], [79.20658055861185, 14.368372150929693], [79.19771213692525, 14.372782472518653], [79.19382021978012, 14.37344167616609], [79.1884873093831, 14.377534127647786], [79.18672074100174, 14.377520596925917], [79.18567191649132, 14.376134823671666], [79.1860363399323, 14.374759883242545], [79.18993937419751, 14.372723160916465], [79.1938699913156, 14.367242226400885], [79.1977838632396, 14.363827690881623], [79.19887130372884, 14.36039160315041], [79.20029547262926, 14.359024682066547], [79.20211140183743, 14.352838609077775], [79.20179386115234, 14.348358521385903], [79.20392172211972, 14.34734134041945], [79.20713402802512, 14.343232400186816], [79.2085498205208, 14.342898661520481], [79.21210704119162, 14.339825557442325], [79.21527274594536, 14.341571594675152], [79.2156123774949, 14.343296346799798], [79.21347094672379, 14.34603573528503], [79.21346002524093, 14.347413408411422], [79.2222755310243, 14.349546315628148], [79.22543331932805, 14.352325501685183], [79.22576761052088, 14.354739089347676], [79.2236261664341, 14.357478568819467], [79.22325113488579, 14.360231277978441], [79.22606120092027, 14.362318981028606], [79.22818911838758, 14.361301585737221], [79.2289255126567, 14.357518241018008], [79.23106960349209, 14.354434284915586], [79.23495305323193, 14.354807683458512], [79.2381191686091, 14.356553457924049], [79.24553828556331, 14.356608508701587], [79.25439997214698, 14.352885060357004], [79.25938592342263, 14.347755036973863], [79.26221217186406, 14.347775770030696], [79.25971260198203, 14.351201898586627], [79.25403867529977, 14.353915734985462], [79.25082697268638, 14.358025388420801], [79.24693268456436, 14.359029937760424], [79.23944883043113, 14.367241065822695], [79.23658457918184, 14.37204194096834], [79.23233668999667, 14.373043581659045], [79.22947492038892, 14.377499922274142], [79.2273522758995, 14.377828470940404], [79.22167734154439, 14.380541404709348], [79.21882345164869, 14.38396432384255], [79.21740740101424, 14.384298094730006], [79.21527101011432, 14.386348612962365], [79.2141808992732, 14.390129200617377], [79.21062831143593, 14.392513401834515], [79.20811644770501, 14.397316489685634], [79.2042020661053, 14.400731137518054], [79.2024021986922, 14.404850677693167], [79.19850695339372, 14.40585430752676], [79.1896062598566, 14.414052652409461], [79.18781713619997, 14.416794387793816], [79.18533793449679, 14.4174642052747], [79.18035992525725, 14.421214625724728], [79.17859581991347, 14.420856584495581]], [[79.1611301697514, 14.39592227873448], [79.16117528625266, 14.390411767968924], [79.16295037978426, 14.389392279272057], [79.16435243321816, 14.390780886214312], [79.1643242855931, 14.394224961814686], [79.16217890653883, 14.397308151735004], [79.1611301697514, 14.39592227873448]]]]}}, {"type": "Feature", "properties": {"depth_class": 3, "depth_lo_m": 2.0, "t_s": 52200.331635126495}, "geometry": {"type": "MultiPolygon", "coordinates": [[[[79.01360606965545, 14.215293465045868], [79.0164272670522, 14.215661296171254], [79.01644227872582, 14.213939381788796], [79.013974124304, 14.213574486052321], [79.01360606965545, 14.215293465045868]]], [[[79.08048444823977, 14.239260271119985], [79.08226436809363, 14.237552481207938], [79.08228181213249, 14.235486106344483], [79.07909253232627, 14.23683814481039], [79.07907214482483, 14.239248910651703], [79.08048444823977, 14.239260271119985]]], [[[79.17894640188723, 14.421203721384373], [79.18533793449679, 14.4174642052747], [79.18781713619997, 14.416794387793816], [79.1896062598566, 14.414052652409461], [79.19850695339372, 14.40585430752676], [79.2024021986922, 14.404850677693167], [79.2042020661053, 14.400731137518054], [79.20811644770501, 14.397316489685634], [79.21062831143593, 14.392513401834515], [79.2141808992732, 14.390129200617377], [79.21527101011432, 14.386348612962365], [79.21740740101424, 14.384298094730006], [79.21882345164869, 14.38396432384255], [79.22167734154439, 14.380541404709348], [79.2273522758995, 14.377828470940404], [79.22947492038892, 14.377499922274142], [79.23233668999667, 14.373043581659045], [79.23658457918184, 14.37204194096834], [79.23944883043113, 14.367241065822695], [79.24693268456436, 14.359029937760424], [79.25082697268638, 14.358025388420801], [79.25403867529977, 14.353915734985462], [79.25971260198203, 14.351201898586627], [79.26221217186406, 14.347775770030696], [79.25938592342263, 14.347755036973863], [79.25439997214698, 14.352885060357004], [79.24553828556331, 14.356608508701587], [79.2381191686091, 14.356553457924049], [79.23495305323193, 14.354807683458512], [79.23106960349209, 14.354434284915586], [79.2289255126567, 14.357518241018008], [79.22818911838758, 14.361301585737221], [79.22606120092027, 14.362318981028606], [79.22325113488579, 14.360231277978441], [79.2236261664341, 14.357478568819467], [79.22576761052088, 14.354739089347676], [79.22543331932805, 14.352325501685183], [79.2222755310243, 14.349546315628148], [79.21346002524093, 14.347413408411422], [79.21347094672379, 14.34603573528503], [79.2156123774949, 14.343296346799798], [79.21527274594536, 14.341571594675152], [79.21210704119162, 14.339825557442325], [79.2085498205208, 14.342898661520481], [79.20713402802512, 14.343232400186816], [79.20392172211972, 14.34734134041945], [79.20179386115234, 14.348358521385903], [79.20211140183743, 14.352838609077775], [79.20029547262926, 14.359024682066547], [79.19887130372884, 14.36039160315041], [79.1977838632396, 14.363827690881623], [79.1938699913156, 14.367242226400885], [79.18993937419751, 14.372723160916465], [79.1860363399323, 14.374759883242545], [79.18567191649132, 14.376134823671666], [79.18672074100174, 14.377520596925917], [79.1884873093831, 14.377534127647786], [79.19311083610906, 14.373780696520894], [79.19771213692525, 14.372782472518653], [79.2079965142219, 14.368038434699576], [79.2097602886095, 14.368396214971463], [79.21116255052806, 14.369784565208166], [79.21112420481063, 14.374606404674084], [79.20933569749512, 14.37734837880244], [79.20859338613667, 14.381820443753261], [79.20141938595927, 14.39519900365392], [79.19429711712125, 14.402033386079212], [79.1907163801588, 14.407861361952712], [79.18110860294419, 14.416053924257435], [79.17860701390832, 14.419478946460451], [79.17894640188723, 14.421203721384373]]]]}}]}