{"type": "FeatureCollection", "features": [{"type": "Feature", "properties": {"depth_class": 1, "depth_lo_m": 0.3, "t_s": 79200.45547094768}, "geometry": {"type": "MultiPolygon", "coordinates": [[[[79.01424296778274, 14.223220123053174], [79.01602618186206, 14.221168489959858], [79.01813838663901, 14.221874831035088], [79.02096866992005, 14.221209469120577], [79.02168672354301, 14.21983777971867], [79.02171966913033, 14.216049556950844], [79.02067556682104, 14.2143188719775], [79.01891644127093, 14.213615486208635], [79.0178693710617, 14.212229176129327], [79.0139921575822, 14.211508191486345], [79.01150297172912, 14.213553947723556], [79.01148190310485, 14.215964620613429], [79.01217892634699, 14.21700363815606], [79.01144276519125, 14.220441583183506], [79.01283382962676, 14.222864001902288], [79.01424296778274, 14.223220123053174]], [[79.01815339219868, 14.220152915754356], [79.01641525626744, 14.217038827487833], [79.01324101536012, 14.216668060368143], [79.01254398765876, 14.215629045399083], [79.01291806577964, 14.213221304854397], [79.01610126561869, 14.2125589214722], [79.01819839683871, 14.214987168333762], [79.02030755945819, 14.21603786761961], [79.02063661448385, 14.2187958601953], [79.01991855910141, 14.220167546157368], [79.01815339219868, 14.220152915754356]]], [[[79.16062073082857, 14.241613360551185], [79.16141333288863, 14.230942045023951], [79.16388767401897, 14.23061664514664], [79.16425188065335, 14.229241710064466], [79.16320934656169, 14.227167095131888], [79.16109368959671, 14.226806387010601], [79.15898919719153, 14.225068015579426], [79.15722384841197, 14.225054407334662], [79.15543614648841, 14.227796071131706], [79.15331770701934, 14.227779705115275], [79.15189701514774, 14.228802013680765], [79.15187180994066, 14.23190170211306], [79.15291425045393, 14.233976355919092], [79.15572493499282, 14.235720239400475], [79.15708977487797, 14.241586124182863], [79.15814347395816, 14.242283121995076], [79.15990895746806, 14.242296739560603], [79.16062073082857, 14.241613360551185]], [[79.15890271052439, 14.235744762761133], [79.156100381072, 14.232967682060588], [79.1561087649173, 14.231934450296858], [79.1582244551067, 14.232295207249601], [79.15890271052439, 14.235744762761133]]], [[[79.08115859049458, 14.243054298225754], [79.08615978992073, 14.236206060530675], [79.08618589922843, 14.233106490654498], [79.08443507785556, 14.231370355050153], [79.08160765648091, 14.231692080612673], [79.08089280214834, 14.232719594661859], [79.07770355755726, 14.234071618699938], [79.07591488787189, 14.236812557760208], [79.07274017154056, 14.236442534605917], [79.07131327157252, 14.238153098368386], [79.07164879999883, 14.240222311996115], [79.07305233664657, 14.24126689858418], [79.07623587291111, 14.24060374264391], [79.07693036170394, 14.241987011201704], [79.07868701807759, 14.243034413726718], [79.08115859049458, 14.243054298225754]], [[79.07800708917237, 14.239929174541674], [79.07804205795068, 14.23579643561188], [79.08230215997636, 14.233075335192929], [79.0840674948359, 14.23308950458502], [79.08476782352267, 14.233783961502166], [79.0847533076638, 14.235505943341071], [79.08224110502438, 14.240307647104727], [79.08082006229033, 14.241329482389697], [79.07870158792157, 14.241312439113432], [79.07800708917237, 14.239929174541674]]], [[[79.11821835883717, 14.245071512487145], [79.12036827828598, 14.241299773694987], [79.1203882306469, 14.238888950273804], [79.11899871194554, 14.236122600929617], [79.11653001572947, 14.235758714744671], [79.1143801013723, 14.239530419205416], [79.11400413678402, 14.242282846396957], [79.11680598822896, 14.245060370735448], [79.11821835883717, 14.245071512487145]]], [[[79.16938705731988, 14.249258304748714], [79.17010993633328, 14.247197245588358], [79.16871418063701, 14.245119933448054], [79.166601126252, 14.244414841240927], [79.16306454171482, 14.245076511262727], [79.16305060756646, 14.246798569016825], [79.16514696315588, 14.24957016518527], [79.16796905929223, 14.249936287421468], [79.16938705731988, 14.249258304748714]]], [[[79.03554013007644, 14.250949013555928], [79.0366291776813, 14.247513873873078], [79.03947166355192, 14.245470781105054], [79.03878930883116, 14.24270988467011], [79.03738594882373, 14.241665115509615], [79.03561761715916, 14.24199497871526], [79.03418744478843, 14.24404966533019], [79.03170398768316, 14.245406833998175], [79.03027674584823, 14.24711710443601], [79.03026180257916, 14.248839028483157], [79.0316681509471, 14.249539455419903], [79.03306256862246, 14.251617416362873], [79.03554013007644, 14.250949013555928]], [[79.03381349243577, 14.24645745597372], [79.03486676209809, 14.24715495376699], [79.03450175466527, 14.248529588185537], [79.0330924167534, 14.248173562985087], [79.03310435377429, 14.246796021339028], [79.03381349243577, 14.24645745597372]]], [[[79.15065832104086, 14.250836013997782], [79.15067796568138, 14.24842515076216], [79.14891525250266, 14.248067050447604], [79.14785032105834, 14.248747646479444], [79.14748316062173, 14.250466947029198], [79.14853124258536, 14.251852805341743], [79.1495905713478, 14.251861025490921], [79.15065832104086, 14.250836013997782]]], [[[79.15731984181178, 14.256742905802403], [79.15909941133476, 14.255034490515222], [79.15911617813806, 14.252968027204378], [79.15841554211572, 14.252273754492755], [79.15523753619165, 14.252249196791407], [79.15169520366683, 14.25359949742433], [79.15168398053454, 14.254977133819937], [79.15308522523623, 14.256365713987131], [79.15731984181178, 14.256742905802403]]], [[[79.14742691799228, 14.257355112679488], [79.14532229199062, 14.255616603314254], [79.142850491024, 14.255597366485883], [79.14107645439482, 14.256616831140937], [79.14106798694901, 14.257650051958517], [79.1456444351495, 14.259407835446243], [79.14741003934739, 14.259421561557861], [79.14742691799228, 14.257355112679488]]], [[[79.02804154572235, 14.260530589186269], [79.0284185952044, 14.257778436996752], [79.02702119820533, 14.256044834396468], [79.02455556226504, 14.255335604427632], [79.02207192835726, 14.256692648188968], [79.0220509053966, 14.259103327882938], [79.02345127789235, 14.260492573724974], [79.0252107656334, 14.261195972272752], [79.02804154572235, 14.260530589186269]], [[79.02383138253299, 14.257396052775857], [79.02559984263743, 14.257066295060401], [79.02664413778716, 14.25879698293623], [79.02487266498778, 14.259471130173212], [79.02381937995807, 14.258773585480736], [79.02383138253299, 14.257396052775857]]], [[[79.15657161369738, 14.261903595914326], [79.1551787200938, 14.259481801318834], [79.15341030338352, 14.259812541943594], [79.15269564139679, 14.26084029805374], [79.15093844535745, 14.259793383405913], [79.14917283472964, 14.259779683065965], [79.14916440220138, 14.26081290836665], [79.15021815432588, 14.261509947985918], [79.15233971096742, 14.261181970468112], [79.15444724825896, 14.26257602042813], [79.15657161369738, 14.261903595914326]]], [[[79.04956882551404, 14.262085344424321], [79.04959548423233, 14.258985848426631], [79.04783887698481, 14.257938234206215], [79.04607338689839, 14.25792377245424], [79.04499925057591, 14.2596370268955], [79.04497846673935, 14.262047739314534], [79.04603184337627, 14.262745200570048], [79.04850358252169, 14.262765450493285], [79.04956882551404, 14.262085344424321]]], [[[79.08311707004823, 14.262013076241544], [79.08349346713261, 14.259260752706338], [79.08279307445079, 14.258566284081496], [79.07996530927423, 14.258887946705295], [79.07854121259146, 14.260254145413967], [79.0785324580722, 14.261287328479622], [79.08063945771873, 14.262681975628587], [79.08311707004823, 14.262013076241544]]], [[[79.16150422481209, 14.263319419226665], [79.163636952277, 14.261613696552619], [79.16329219334376, 14.260577742514974], [79.16011406237601, 14.26055323580768], [79.1576281958414, 14.262256196044538], [79.15902672415001, 14.263989160508734], [79.16150422481209, 14.263319419226665]]], [[[79.12465371483188, 14.278187067356129], [79.12679252829656, 14.275792920190746], [79.1268238520898, 14.27200448008619], [79.12577298910166, 14.27096293683045], [79.12471358553918, 14.270954600028075], [79.1236456269315, 14.271979467794093], [79.12148111999707, 14.277473210556689], [79.12182283964556, 14.278853606194145], [79.12465371483188, 14.278187067356129]]], [[[79.10415986245036, 14.279402474961445], [79.10381825341616, 14.27802206717275], [79.1024056894136, 14.278010814823002], [79.10238837462667, 14.28007720665401], [79.10415986245036, 14.279402474961445]]], [[[79.16183120587166, 14.396616589798017], [79.16432710069114, 14.39388055430214], [79.16435243321816, 14.390780886214312], [79.1636542196226, 14.389742176042896], [79.16188757985529, 14.38972844860112], [79.1611724670315, 14.390756174970933], [79.16114145066936, 14.394544651296435], [79.16183120587166, 14.396616589798017]]], [[[79.25477813602625, 14.258165003366429], [79.25513657501128, 14.257478730587478], [79.25478343606837, 14.25747614626066], [79.25477813602625, 14.258165003366429]]], [[[79.18200797545101, 14.260721201503879], [79.18095411122232, 14.260024291186761], [79.17953883257623, 14.260357923884365], [79.1788215111146, 14.261730186445625], [79.17952224276266, 14.262424409600815], [79.18199416916893, 14.262443275279239], [79.18200797545101, 14.260721201503879]]], [[[79.17031859820675, 14.265109412508362], [79.16892275079451, 14.263032091132704], [79.16645362117637, 14.262668677459098], [79.16644248024673, 14.264046324283049], [79.16749074096359, 14.265432119201579], [79.17031859820675, 14.265109412508362]]], [[[79.28248324757078, 14.283855626497504], [79.28037721753341, 14.282118165452715], [79.27790756409884, 14.281755863534462], [79.27368777607144, 14.279314151124451], [79.26805013066071, 14.277550965308464], [79.26665325417049, 14.275474106051792], [79.26206470319859, 14.275096220072998], [79.25995363436212, 14.274047462080635], [79.25891001780737, 14.271973146896993], [79.2564511340307, 14.270232924402347], [79.25540491368503, 14.268503027244146], [79.25438257698865, 14.26367327269386], [79.25546852072841, 14.260236743604787], [79.25477283570119, 14.25885386043055], [79.252268997196, 14.262968889742112], [79.25225041163242, 14.26537988507659], [79.2547039057256, 14.267808998473173], [79.2546694228032, 14.272286564853554], [79.2567751460111, 14.274024222133322], [79.2585197903265, 14.276792568331526], [79.2606282300437, 14.278185770006681], [79.26131606496638, 14.280601932089462], [79.26308194666336, 14.280614820554575], [79.26415995623697, 14.278211539790522], [79.265219475468, 14.278219260523944], [79.26591791056681, 14.279257695051506], [79.26979757625463, 14.279974816101452], [79.27612592532488, 14.283809674454002], [79.27789184590273, 14.283822455920932], [79.28105743107552, 14.285567592506677], [79.28247018203948, 14.28557779069666], [79.28248324757078, 14.283855626497504]]], [[[79.25109526411214, 14.27777150297948], [79.25146970331669, 14.275018677134332], [79.25006768303024, 14.273630593682615], [79.24653338920702, 14.273949049687827], [79.24615889424351, 14.276701861351476], [79.24685723136669, 14.277740341462566], [79.24861775047324, 14.278442188245178], [79.25038360334722, 14.27845516893901], [79.25109526411214, 14.27777150297948]]], [[[79.19729634766011, 14.292181156437705], [79.19730457979843, 14.291147906003298], [79.19625327541445, 14.290106626170699], [79.1944818876002, 14.290782066147592], [79.19517176236126, 14.29285392346381], [79.19729634766011, 14.292181156437705]]], [[[79.18629803601814, 14.298297410269214], [79.18560270967792, 14.29691436459946], [79.18418443181397, 14.297592411589477], [79.18452656044182, 14.298972764562219], [79.18629803601814, 14.298297410269214]]], [[[79.20600022860349, 14.30809113266246], [79.20814405559193, 14.305007353507248], [79.20888320818125, 14.300879652878354], [79.21030690373688, 14.29951261432511], [79.21031508085093, 14.298479357124265], [79.20961141900068, 14.298129621367057], [79.20500897301612, 14.299472684222826], [79.20215329237895, 14.303239931995751], [79.20211493962422, 14.308061774561947], [79.20316908611079, 14.308758622493919], [79.20600022860349, 14.30809113266246]], [[79.20426975888743, 14.303600365542856], [79.2053320968013, 14.30326394854799], [79.20603303231809, 14.303958116044546], [79.20531022138762, 14.3060192922257], [79.20390013832682, 14.305664203647591], [79.20426975888743, 14.303600365542856]]], [[[79.22471226331744, 14.30926496068816], [79.22472849683618, 14.307198431617955], [79.22261735931501, 14.306149330390792], [79.21979169227504, 14.306128185635204], [79.21872663959687, 14.306809088578843], [79.21907170655965, 14.307844996647752], [79.22083776063567, 14.307858222950758], [79.22259298097892, 14.309249120564509], [79.22471226331744, 14.30926496068816]]], [[[79.26179217279817, 14.310572392354768], [79.26181071796782, 14.308161393861278], [79.25970201220284, 14.306768173522379], [79.25687362454231, 14.307091896106826], [79.25508892688053, 14.309489928243392], [79.25508094787688, 14.310523209551759], [79.25613529681029, 14.311219842386146], [79.26072720152935, 14.311253495464369], [79.26179217279817, 14.310572392354768]]], [[[79.27830446713448, 14.322403901534042], [79.28328394142262, 14.317962090326239], [79.28436982008319, 14.314525424091007], [79.2844325817532, 14.306259045365248], [79.28586374730828, 14.303858207896875], [79.28589247067212, 14.300069445359894], [79.28519649561932, 14.298686620783865], [79.28377843310528, 14.299365294959285], [79.28197574649121, 14.304174595231727], [79.28191028522419, 14.312785396647444], [79.28012577901757, 14.315183640681555], [79.27764263938377, 14.316543452030727], [79.27692302986877, 14.318260483263598], [79.2765408741898, 14.322046658695538], [79.27830446713448, 14.322403901534042]]], [[[79.2656009352598, 14.32058921759288], [79.2659726889883, 14.318180795217085], [79.26527680004672, 14.316797921707428], [79.26281476410561, 14.315402138925647], [79.26174712014397, 14.316427672279707], [79.26242443390309, 14.320221550960511], [79.26347620209836, 14.321262586654953], [79.2656009352598, 14.32058921759288]]], [[[79.23312476835999, 14.317594282942515], [79.23135592905307, 14.31792556164448], [79.23169836989608, 14.319305881585604], [79.23311398931166, 14.318971974108608], [79.23312476835999, 14.317594282942515]]], [[[79.25101675310651, 14.33357119218947], [79.25137801951131, 14.332540518355477], [79.25102476411779, 14.332537915130164], [79.25101675310651, 14.33357119218947]]], [[[79.0916942026631, 14.49972970981166], [79.09311404529328, 14.499052416697602], [79.09419511721903, 14.496650291978577], [79.09703474170091, 14.495295658825935], [79.10021607631234, 14.495321414003032], [79.10199521467419, 14.493958134662083], [79.10308495263884, 14.490522775527191], [79.10557390580264, 14.488820775125586], [79.10879603936866, 14.48402488899581], [79.11128487777944, 14.482322813090677], [79.11235983465797, 14.480609357402063], [79.11555552733894, 14.478912902586513], [79.11806458350178, 14.474799968920896], [79.12126884636734, 14.472070230098037], [79.12736122236892, 14.462130601581709], [79.12948471624249, 14.461803066204965], [79.13370005271464, 14.464936330409149], [79.1358264450948, 14.46426434006052], [79.13585804720489, 14.460475940498586], [79.1309416541643, 14.456648311325818], [79.1306199006251, 14.452857114676906], [79.12957404015873, 14.45112670067633], [79.1299447350317, 14.449063112223088], [79.13385241397876, 14.446683143936193], [79.13705893151344, 14.443608711491358], [79.13849834464564, 14.440520273954746], [79.1431382975251, 14.435046083036683], [79.14988696681843, 14.430966028558991], [79.15555823685939, 14.42894389195506], [79.15731951296027, 14.429646513623618], [79.15730534638546, 14.431368539074537], [79.15373735331566, 14.435473749969713], [79.15371747267193, 14.437884579455789], [79.1551197279014, 14.439273265089684], [79.1692531494296, 14.439727896713054], [79.17102863235928, 14.438708393097139], [79.17385588862842, 14.43873031412698], [79.17984421988152, 14.441187648068128], [79.18335318580422, 14.444314604396215], [79.18437151519468, 14.449488924057343], [79.18717938843753, 14.451921572839362], [79.1885568418251, 14.456409786074557], [79.19066910997898, 14.457459324157169], [79.1924140316941, 14.460228187023688], [79.19131746045376, 14.46469738152662], [79.19448183008463, 14.466788276844724], [79.19516091423556, 14.470237812977192], [79.19475455027933, 14.47677891082548], [79.19613782115674, 14.48057828398856], [79.19611554938248, 14.483333572470709], [79.19432026562309, 14.486764108047776], [79.19358539934488, 14.490202778580771], [79.19001693163399, 14.494308488414731], [79.18646233999871, 14.496692083607986], [79.18643992280343, 14.499447353540862], [79.20269571531885, 14.50026120974817], [79.21861476518502, 14.49900478275215], [79.21968080167288, 14.498323995772123], [79.22184307212602, 14.493173834044084], [79.22863075404621, 14.484269738734794], [79.23149961706228, 14.479124768528639], [79.23367228568074, 14.472596764279686], [79.2340856613876, 14.46502220943028], [79.23271812162504, 14.459156480317006], [79.22957524907358, 14.454310724343783], [79.22816420755359, 14.453955673001163], [79.22177761175296, 14.45700746905651], [79.21576355026136, 14.457650842270237], [79.21363187006962, 14.459012421257057], [79.21221808205702, 14.459001688733004], [79.20940706181207, 14.456913712566873], [79.19986690019768, 14.456496530070373], [79.19741503145502, 14.453722304486384], [79.19638527795965, 14.449925653921039], [79.19464036828099, 14.447156821828326], [79.19465982144033, 14.444745939018537], [79.19821067297813, 14.442706516444696], [79.1978738939245, 14.440637338542603], [79.19470427229983, 14.43923534779406], [79.19081674222846, 14.439205540360456], [79.1872965757583, 14.437456333890257], [79.18413825276417, 14.434676572915262], [79.18345100323661, 14.432260257794601], [79.18028160800289, 14.43085809643896], [79.17993660739613, 14.429822140842488], [79.1842331694779, 14.422966621731392], [79.18708253419435, 14.420233072502272], [79.19132310868808, 14.42026561184767], [79.19238880852285, 14.419584910479994], [79.19242212969196, 14.415451963717706], [79.1999038167262, 14.407931567320608], [79.20273348920482, 14.407608682679687], [79.20519326200213, 14.409349567726036], [79.2076750886921, 14.408335108458248], [79.20804220858298, 14.406615712525038], [79.20629191086766, 14.404535809980576], [79.2059550701537, 14.402466635273264], [79.21022830531861, 14.398365803511298], [79.21238405595884, 14.393904434658308], [79.2162927282811, 14.391178456301311], [79.21738281198371, 14.387397855712232], [79.21916313558347, 14.385689075539634], [79.22093525289037, 14.385013534383509], [79.22378640744145, 14.381935007085117], [79.2280426332919, 14.37990028415662], [79.23122798286663, 14.37923523738211], [79.23373642817197, 14.374776238200466], [79.23727501356333, 14.374113735893989], [79.23905239016, 14.37274919707688], [79.24120460059254, 14.368631885269144], [79.24369390250382, 14.36658370423964], [79.24762319228597, 14.361101710958742], [79.25151751563804, 14.360097154143785], [79.25508520220846, 14.355645670036912], [79.25969397620464, 14.353612885661756], [79.26716076600633, 14.347467543673625], [79.26789115344359, 14.34437285112312], [79.27038523634423, 14.34163546992093], [79.27111027072071, 14.339229617305401], [79.27112875501709, 14.336818612678597], [79.2693862113839, 14.333705873555566], [79.2694047066758, 14.331294870013028], [79.27047503834605, 14.329924878089246], [79.27264992676325, 14.322707286391449], [79.27017985923844, 14.322344856947344], [79.26911220823757, 14.323370422926956], [79.26802869015653, 14.326462557130732], [79.26588802412527, 14.329202513575833], [79.26516033229382, 14.331952777845089], [79.26580593632413, 14.339879793027565], [79.2647381752943, 14.34090532630192], [79.26400776256972, 14.34400000639123], [79.26293731807804, 14.345369955634887], [79.25834471389243, 14.345336266896416], [79.25691029552402, 14.348081294285874], [79.25477460566442, 14.350132255428331], [79.24591035517425, 14.354200155734723], [79.23778474252944, 14.354139872571551], [79.2370997329773, 14.351379237142732], [79.24141706711637, 14.341422448367702], [79.24356082075133, 14.338338338187025], [79.24394626526183, 14.33420786217864], [79.24466617918496, 14.332490967261448], [79.24608722906245, 14.331468140414097], [79.24718176886539, 14.326998443892803], [79.24859742610208, 14.326664447156933], [79.2506982129387, 14.329091054486701], [79.25211121311118, 14.329101463731968], [79.25318162857744, 14.327731560279013], [79.25320295435935, 14.324976150030139], [79.25075426853516, 14.321858111606383], [79.25077561481488, 14.319102703581661], [79.24904148743511, 14.314956580283212], [79.24802186911504, 14.309782382078085], [79.2469675556965, 14.309085716755789], [79.24348088284428, 14.30320441092188], [79.24137235218903, 14.301811045471608], [79.23789129041974, 14.295240834937873], [79.23013450046967, 14.293461033702682], [79.22838473129517, 14.291381353484324], [79.22521685924315, 14.289979975874417], [79.2252357661156, 14.287569020694455], [79.2241870347234, 14.286183428951924], [79.22206796919589, 14.286167609142584], [79.22100031643329, 14.28719295648304], [79.2213345475331, 14.289606546353358], [79.22062276606133, 14.290290108020477], [79.21815319516452, 14.28992718673189], [79.21640899858221, 14.28715859258591], [79.21324127612264, 14.28575707044726], [79.21220623047297, 14.2826493357717], [79.20974221204517, 14.281597499247892], [79.20694141515506, 14.278476466465731], [79.20341525832399, 14.27776101115373], [79.20061186315576, 14.274984336648899], [79.19849840742009, 14.2742794842421], [79.19359818546305, 14.268731372154512], [79.19148756332072, 14.267682050183671], [79.18901556675699, 14.267663276177661], [79.1858235065713, 14.26936117698624], [79.18476407451895, 14.269353108017388], [79.1816023617128, 14.267262385982153], [79.18018980218739, 14.26725160284589], [79.17805989105447, 14.268613067726116], [79.17453680213508, 14.267552799828737], [79.17452848040394, 14.268586039223846], [79.17522921589548, 14.269280275588876], [79.1907537830664, 14.271120850878322], [79.19635205981673, 14.277707619735176], [79.19952501965031, 14.278420507020448], [79.20515103595126, 14.281562931481217], [79.2072454940178, 14.284678667352148], [79.21005725676484, 14.286422027017947], [79.21110045023887, 14.288496510170393], [79.21601780911828, 14.29197783141636], [79.21811793343846, 14.294404656343985], [79.22447265217829, 14.294796613356898], [79.2276351845903, 14.296886852394316], [79.23362337284587, 14.298998059447449], [79.2350173536737, 14.301419514406223], [79.23747635613489, 14.303159974013933], [79.24026715598137, 14.307658422832302], [79.24202251193189, 14.309049190472518], [79.24411237263371, 14.312853532730596], [79.24440669778406, 14.320433491481555], [79.24258689534999, 14.327308916958074], [79.23434094227501, 14.342747645144172], [79.23396608595912, 14.345500392362787], [79.23180591403275, 14.350650921030223], [79.23002327836998, 14.352704265244387], [79.22825415553832, 14.353035487724144], [79.22545773512017, 14.349225717939483], [79.22229183453157, 14.347479796294905], [79.2184385032648, 14.34331759506132], [79.21705267873219, 14.339862784096981], [79.21565054015461, 14.33847448277331], [79.21177290143875, 14.33741196708785], [79.20821571894531, 14.34048507063944], [79.20573468046362, 14.341499628257704], [79.20287839277935, 14.345266811468878], [79.19932647261808, 14.347650919905899], [79.19963295367373, 14.353508667265896], [79.19854281529881, 14.357289180779066], [79.19675984674684, 14.359342232320492], [79.1953163288263, 14.36312003017791], [79.19211733316916, 14.365506676992203], [79.18961378478743, 14.369276328413813], [79.18288160383702, 14.371635784890419], [79.17793257240787, 14.371942174579791], [79.1743827737739, 14.373981413201555], [79.1690831995835, 14.373940475621724], [79.16697179511841, 14.372890841535432], [79.16485198252765, 14.372874415588685], [79.16130488969576, 14.374569034471634], [79.15702573052458, 14.379357750723596], [79.15312800206549, 14.380705068406145], [79.15027883656956, 14.38343822698657], [79.1484838844029, 14.386868452470658], [79.1449307771952, 14.38925159056368], [79.14420990453645, 14.390968063958073], [79.14064528413546, 14.394728735366252], [79.13919770933335, 14.39885044361531], [79.13986728235636, 14.403333240430777], [79.13771577522758, 14.407104959271946], [79.13732238970736, 14.411923797942558], [79.13590037180987, 14.412945847198245], [79.13343259263054, 14.412237502235836], [79.12636258115, 14.412525924565854], [79.12387180053003, 14.414572676271698], [79.12315066891016, 14.416289052675626], [79.11960838979284, 14.417294123160348], [79.11853674107842, 14.418663266435551], [79.11605450786742, 14.419676725757943], [79.1135519636565, 14.423100933248259], [79.11035711129652, 14.424797463371826], [79.10892908836186, 14.426508115580901], [79.10958352239201, 14.432712903376029], [79.10850300478045, 14.435115169033198], [79.10565258785587, 14.437847627775326], [79.10105849585115, 14.437810662206656], [79.0975011713216, 14.440537310441284], [79.09747774989432, 14.44329245389234], [79.10308250626878, 14.449192736883964], [79.10306790225809, 14.450914705955624], [79.100564766246, 14.454338700184103], [79.10017623015999, 14.458468565668834], [79.09447448013691, 14.463933130138177], [79.08917596749988, 14.463545751924531], [79.08847794697571, 14.4625068398752], [79.08850740225597, 14.459062934177068], [79.08534725424741, 14.456626353687524], [79.0828733325442, 14.456606221678701], [79.07966891369635, 14.459335410483897], [79.0764436656544, 14.464475261805015], [79.07498247055217, 14.469973903819517], [79.07492308878206, 14.476861653000803], [79.07594186860992, 14.481691756743787], [79.0801062793169, 14.490680528014254], [79.08640373092743, 14.498308999345445], [79.08744053959308, 14.501072752708168], [79.09097542798781, 14.501101522462957], [79.0916942026631, 14.49972970981166]], [[79.10849219709264, 14.47816734674102], [79.09833877644152, 14.466719717940677], [79.09835929585901, 14.464308971031317], [79.10156944935676, 14.460890723066534], [79.10265019749137, 14.458488518437663], [79.10267942598907, 14.45504458307431], [79.10518254178277, 14.451620563560768], [79.10451073640817, 14.44748214630713], [79.10065249862666, 14.444006899811825], [79.09996616549743, 14.441590447453178], [79.10210115022434, 14.439885564343731], [79.10598849637164, 14.439916835925041], [79.10990493010497, 14.436504088263327], [79.11134173421651, 14.433760250584248], [79.11104643599288, 14.426869500027626], [79.11459758771622, 14.42483139146182], [79.11781266156252, 14.420724017036177], [79.12136366014128, 14.418685786270025], [79.12348673545652, 14.41835825515644], [79.1270549130579, 14.414253530210646], [79.13623941976117, 14.41467064422993], [79.13872724697175, 14.412968150468943], [79.13912060725892, 14.408149306453833], [79.14163400709016, 14.403347145188032], [79.14096439812205, 14.398864349146125], [79.14241194196258, 14.394742626189732], [79.14525850810378, 14.392353997404038], [79.14633554692915, 14.39029588693881], [79.15024765306637, 14.38722668231903], [79.15097130005636, 14.385165777865074], [79.1545327675859, 14.381749314939738], [79.15807437512564, 14.380743631566228], [79.1627096645164, 14.375613232897496], [79.1648379317308, 14.374596456604806], [79.16977579441765, 14.375667986450532], [79.17401548663544, 14.375700737440555], [79.1779186226727, 14.373664228357331], [79.18393039204794, 14.373021566532813], [79.1903093055087, 14.370659383467514], [79.19316892481703, 14.366548007844425], [79.19708003386083, 14.36347789825793], [79.19780868005427, 14.36072795712018], [79.19959165253843, 14.358674898072618], [79.20140484644712, 14.35283324806043], [79.2010873199312, 14.34835316105873], [79.20428596921916, 14.345966350251938], [79.20678624400189, 14.342540894914382], [79.20820203228789, 14.34220715786195], [79.21175924499612, 14.339134058116542], [79.2145798581866, 14.33984418364353], [79.2163270841766, 14.342268405215997], [79.21631345769217, 14.343990499834838], [79.2148867525759, 14.345701959789803], [79.2152291112638, 14.347082293677511], [79.22122385874876, 14.348505106216589], [79.22403919967309, 14.349903975941665], [79.22614259449685, 14.35198637040076], [79.22647418131172, 14.354744378442943], [79.22397402267536, 14.358170057188804], [79.22395772193701, 14.360236576556028], [79.22571333302186, 14.361627494481443], [79.22783853359046, 14.36095452226473], [79.22857764108792, 14.356826758254735], [79.23107501332747, 14.353745442170375], [79.23284143814256, 14.353758620521397], [79.2377685732428, 14.35620640811683], [79.24518767736551, 14.356261468567375], [79.25511455155123, 14.35185698580622], [79.259741864067, 14.347413203574709], [79.26292138966278, 14.347436520582141], [79.26184294947684, 14.349839743581338], [79.2597072806846, 14.351890752089027], [79.25332408371494, 14.3549438048257], [79.25082162157594, 14.358714238254102], [79.24692732115282, 14.359718786095566], [79.24479142800958, 14.361769632477507], [79.24051413940528, 14.366560098691393], [79.23728850945314, 14.37239162602233], [79.23304061509072, 14.373393278928733], [79.2316165196933, 14.3747604079719], [79.23053217560465, 14.377852271412065], [79.22202521854406, 14.381232898078107], [79.21988344156979, 14.383972303596474], [79.21811133064868, 14.38464783750494], [79.21633100922057, 14.38635660992685], [79.21488483989421, 14.39047895436614], [79.21133225226107, 14.392863166324654], [79.20917649439781, 14.397324524691667], [79.20454715494385, 14.401767067894598], [79.2041745094756, 14.4041752866147], [79.20521530364326, 14.4065942481922], [79.20098047766768, 14.405873159950803], [79.19885201990344, 14.406890243663849], [79.19065803820897, 14.415094015589025], [79.19028242650582, 14.417846601697953], [79.1863869184989, 14.418849997799452], [79.1828252170282, 14.422266918796092], [79.18174550771195, 14.424669621954413], [79.17960840045116, 14.426719728149626], [79.17744883594379, 14.431525082034723], [79.1792046202159, 14.43291636899017], [79.18132221989755, 14.43327714264648], [79.18271346053768, 14.436043320700021], [79.18517612926908, 14.437440018573362], [79.18657581048244, 14.439172950126222], [79.18903854033665, 14.440569614104987], [79.19362457960045, 14.4416381074252], [79.19219700649347, 14.443349324853296], [79.19218031152228, 14.445415793290849], [79.19286211701439, 14.448520918933472], [79.19391127370265, 14.449906696891262], [79.1942368948874, 14.453353522509401], [79.19563117861283, 14.455775241219746], [79.19526661942196, 14.457150179026852], [79.19385285747917, 14.457139337608572], [79.1906941941718, 14.45435962711616], [79.18860705898916, 14.450210397850956], [79.18649765930915, 14.44881643956756], [79.18582152905607, 14.44502248543418], [79.1840795851103, 14.441909183719133], [79.18021443277502, 14.439123921884237], [79.17703655760971, 14.438754934802182], [79.17351653089848, 14.437005535786364], [79.16431674198253, 14.438311788696982], [79.15619128844132, 14.437903942755028], [79.15550150805116, 14.435831985724459], [79.15835419590732, 14.432754442012952], [79.15943985259032, 14.42966307069358], [79.15839383900263, 14.427932767793173], [79.15557241437601, 14.427221867851204], [79.14883818143285, 14.429580094966662], [79.14208954175943, 14.433660122567957], [79.1395957626679, 14.436051427450794], [79.13494135718673, 14.443247537107665], [79.13209398149965, 14.445635940852885], [79.12996776650436, 14.446307918396071], [79.12782712974409, 14.448701869188229], [79.12745641676517, 14.450765452086957], [79.1288412692327, 14.45422067593306], [79.12950489254789, 14.45939227488068], [79.1273814220487, 14.459719813261254], [79.12489295871963, 14.461422107934697], [79.12237551754433, 14.466568343790351], [79.11309587163733, 14.477171083043647], [79.10990602370846, 14.47817871670078], [79.10849219709264, 14.47816734674102]], [[79.26866118395718, 14.33611172189457], [79.26899594232178, 14.338525301569378], [79.267930847002, 14.339206423065859], [79.26760139144402, 14.33610398591736], [79.26866118395718, 14.33611172189457]]], [[[79.16406497751183, 14.425910407786352], [79.17046809772054, 14.420793709839266], [79.17047371980848, 14.420104893971857], [79.17756647853959, 14.417059896545904], [79.18184327273065, 14.412615266123241], [79.18752499546424, 14.409214623169975], [79.1918014456058, 14.40476976884428], [79.1935959537547, 14.401339157895203], [79.20000324926076, 14.395532658755126], [79.20251800731634, 14.390385259351163], [79.20501613199318, 14.38730431090268], [79.20646244759178, 14.383182044379788], [79.2078867372481, 14.381815091508184], [79.20863180618669, 14.376998613915202], [79.21042305859821, 14.373912228791113], [79.21045045920157, 14.370468059077218], [79.20975206725873, 14.369429465785132], [79.20692837218418, 14.36906365963659], [79.1977038576287, 14.373815716096104], [79.1938091562119, 14.374819331206476], [79.19131659298999, 14.377211336216583], [79.18773348234805, 14.383383728069965], [79.18559686307732, 14.385433947767265], [79.18487351949233, 14.387494995685973], [79.17988785838135, 14.392278724190904], [79.17915326450594, 14.39571738614832], [79.1769968685823, 14.400178371977933], [79.17377751451805, 14.404975542421914], [79.16950355327472, 14.409075619646764], [79.16625573513859, 14.41731672311468], [79.16234888529108, 14.419697336501077], [79.1598526422209, 14.422433308485047], [79.15983850249086, 14.424155337448482], [79.16159410893314, 14.425546736687751], [79.16406497751183, 14.425910407786352]], [[79.16232629597687, 14.422452587229778], [79.16375392208845, 14.420741559031896], [79.16587982135755, 14.420069234226732], [79.1676607794937, 14.418360922958373], [79.17126754526589, 14.40943371658414], [79.17554148585486, 14.405333604538175], [79.17876081125951, 14.400536406344777], [79.18165174780628, 14.392636730438365], [79.1862812749241, 14.38819466354165], [79.18700460916587, 14.386133610179813], [79.18914122459783, 14.384083377146945], [79.19272431271501, 14.37791096108665], [79.19557018350213, 14.375521634679803], [79.19804612956374, 14.375196064446936], [79.20585198015667, 14.37112212698994], [79.20832787525593, 14.370796441657038], [79.2090207791411, 14.372523872178377], [79.20865375409913, 14.374243281653573], [79.20722403071005, 14.376299078587724], [79.20683775388592, 14.380429395065534], [79.20433698814334, 14.383854791718814], [79.20360555631086, 14.386949163695673], [79.20146626923305, 14.38934395401355], [79.19930760713767, 14.394149619031687], [79.19254421682659, 14.400297812591413], [79.18896625054786, 14.405781348698902], [79.18469530289947, 14.409537320517458], [79.18114770912774, 14.411232181678633], [79.17687093248253, 14.4156768014646], [79.17013439918769, 14.418380114572823], [79.16478867212791, 14.423849467101745], [79.16231499952741, 14.423830212340333], [79.16232629597687, 14.422452587229778]]]]}}, {"type": "Feature", "properties": {"depth_class": 2, "depth_lo_m": 1.0, "t_s": 79200.45547094768}, "geometry": {"type": "MultiPolygon", "coordinates": [[[[79.02027459039152, 14.219826087145787], [79.02065159775512, 14.21707394186038], [79.01960750057071, 14.215343252802397], [79.01819839683871, 14.214987168333762], [79.01610126561869, 14.2125589214722], [79.01291806577964, 14.213221304854397], [79.01254398765876, 14.215629045399083], [79.01324101536012, 14.216668060368143], [79.01641525626744, 14.217038827487833], [79.01815339219868, 14.220152915754356], [79.02027459039152, 14.219826087145787]], [[79.01430610767282, 14.21598809505003], [79.013974124304, 14.213574486052321], [79.01644227872582, 14.213939381788796], [79.0164272670522, 14.215661296171254], [79.01430610767282, 14.21598809505003]]], [[[79.15890271052439, 14.235744762761133], [79.1582244551067, 14.232295207249601], [79.1561087649173, 14.231934450296858], [79.156100381072, 14.232967682060588], [79.15890271052439, 14.235744762761133]]], [[[79.08152913049344, 14.240990763783339], [79.0847533076638, 14.235505943341071], [79.08476782352267, 14.233783961502166], [79.0840674948359, 14.23308950458502], [79.08159311890579, 14.233414059554859], [79.07911000429254, 14.234771773679837], [79.07768315945009, 14.236482383125871], [79.07800125995254, 14.240617964216305], [79.07870158792157, 14.241312439113432], [79.08152913049344, 14.240990763783339]], [[79.0794456043216, 14.23684098520907], [79.08121678335148, 14.236166388189131], [79.08155531211784, 14.237891203576662], [79.07978120804124, 14.238910196697084], [79.0794456043216, 14.23684098520907]]], [[[79.03450175466527, 14.248529588185537], [79.034166569858, 14.24646036522745], [79.03310435377429, 14.246796021339028], [79.03344251277102, 14.248520859106744], [79.03450175466527, 14.248529588185537]]], [[[79.02628804568184, 14.259138443746428], [79.02630303036523, 14.257416525317973], [79.02383138253299, 14.257396052775857], [79.02416947409795, 14.259120895213629], [79.02628804568184, 14.259138443746428]]], [[[79.2056661606867, 14.30567754065602], [79.20603303231809, 14.303958116044546], [79.20497889601857, 14.303261282138413], [79.20391108492419, 14.304286532920559], [79.20390013832682, 14.305664203647591], [79.2056661606867, 14.30567754065602]]], [[[79.26899594232178, 14.338525301569378], [79.26866118395718, 14.33611172189457], [79.26760139144402, 14.33610398591736], [79.267930847002, 14.339206423065859], [79.26899594232178, 14.338525301569378]]], [[[79.10849219709264, 14.47816734674102], [79.11309587163733, 14.477171083043647], [79.11559913329944, 14.473746969444491], [79.11951609965655, 14.470334125157652], [79.12059672392357, 14.467931822003454], [79.12237551754433, 14.466568343790351], [79.12489295871963, 14.461422107934697], [79.1273814220487, 14.459719813261254], [79.12950489254789, 14.45939227488068], [79.1288412692327, 14.45422067593306], [79.12745641676517, 14.450765452086957], [79.12818630724078, 14.448015880102217], [79.13494135718673, 14.443247537107665], [79.1395957626679, 14.436051427450794], [79.14208954175943, 14.433660122567957], [79.14883818143285, 14.429580094966662], [79.1541560352871, 14.427555215143565], [79.15768989687447, 14.427582843155074], [79.15943985259032, 14.42966307069358], [79.15835419590732, 14.432754442012952], [79.15550150805116, 14.435831985724459], [79.15619128844132, 14.437903942755028], [79.16431674198253, 14.438311788696982], [79.17351653089848, 14.437005535786364], [79.17703655760971, 14.438754934802182], [79.18021443277502, 14.439123921884237], [79.1840795851103, 14.441909183719133], [79.18582152905607, 14.44502248543418], [79.18649765930915, 14.44881643956756], [79.18860705898916, 14.450210397850956], [79.1906941941718, 14.45435962711616], [79.19385285747917, 14.457139337608572], [79.19526661942196, 14.457150179026852], [79.19563117861283, 14.455775241219746], [79.1942368948874, 14.453353522509401], [79.19391127370265, 14.449906696891262], [79.19286211701439, 14.448520918933472], [79.19218031152228, 14.445415793290849], [79.19219700649347, 14.443349324853296], [79.19362457960045, 14.4416381074252], [79.18903854033665, 14.440569614104987], [79.18657581048244, 14.439172950126222], [79.18517612926908, 14.437440018573362], [79.18271346053768, 14.436043320700021], [79.18132221989755, 14.43327714264648], [79.1792046202159, 14.43291636899017], [79.17744883594379, 14.431525082034723], [79.17960840045116, 14.426719728149626], [79.18174550771195, 14.424669621954413], [79.1828252170282, 14.422266918796092], [79.1863869184989, 14.418849997799452], [79.19028242650582, 14.417846601697953], [79.19065803820897, 14.415094015589025], [79.19885201990344, 14.406890243663849], [79.20098047766768, 14.405873159950803], [79.20521530364326, 14.4065942481922], [79.2041745094756, 14.4041752866147], [79.20454715494385, 14.401767067894598], [79.20917649439781, 14.397324524691667], [79.21133225226107, 14.392863166324654], [79.21488483989421, 14.39047895436614], [79.21633100922057, 14.38635660992685], [79.21811133064868, 14.38464783750494], [79.21988344156979, 14.383972303596474], [79.22202521854406, 14.381232898078107], [79.23053217560465, 14.377852271412065], [79.2316165196933, 14.3747604079719], [79.23304061509072, 14.373393278928733], [79.23728850945314, 14.37239162602233], [79.24051413940528, 14.366560098691393], [79.24479142800958, 14.361769632477507], [79.24692732115282, 14.359718786095566], [79.25082162157594, 14.358714238254102], [79.25332408371494, 14.3549438048257], [79.2597072806846, 14.351890752089027], [79.26184294947684, 14.349839743581338], [79.26292138966278, 14.347436520582141], [79.259741864067, 14.347413203574709], [79.25511455155123, 14.35185698580622], [79.24518767736551, 14.356261468567375], [79.2377685732428, 14.35620640811683], [79.23284143814256, 14.353758620521397], [79.23107501332747, 14.353745442170375], [79.22857764108792, 14.356826758254735], [79.22783853359046, 14.36095452226473], [79.22571333302186, 14.361627494481443], [79.22395772193701, 14.360236576556028], [79.22397402267536, 14.358170057188804], [79.22647418131172, 14.354744378442943], [79.22614259449685, 14.35198637040076], [79.22403919967309, 14.349903975941665], [79.22122385874876, 14.348505106216589], [79.2152291112638, 14.347082293677511], [79.2148867525759, 14.345701959789803], [79.21631345769217, 14.343990499834838], [79.2163270841766, 14.342268405215997], [79.2145798581866, 14.33984418364353], [79.21175924499612, 14.339134058116542], [79.20820203228789, 14.34220715786195], [79.20678624400189, 14.342540894914382], [79.20428596921916, 14.345966350251938], [79.2010873199312, 14.34835316105873], [79.20140484644712, 14.35283324806043], [79.19959165253843, 14.358674898072618], [79.19780868005427, 14.36072795712018], [79.19708003386083, 14.36347789825793], [79.19316892481703, 14.366548007844425], [79.1903093055087, 14.370659383467514], [79.18393039204794, 14.373021566532813], [79.1779186226727, 14.373664228357331], [79.17401548663544, 14.375700737440555], [79.16977579441765, 14.375667986450532], [79.1648379317308, 14.374596456604806], [79.1627096645164, 14.375613232897496], [79.15807437512564, 14.380743631566228], [79.1545327675859, 14.381749314939738], [79.15097130005636, 14.385165777865074], [79.15024765306637, 14.38722668231903], [79.14740404442132, 14.38927098197991], [79.14525850810378, 14.392353997404038], [79.14241194196258, 14.394742626189732], [79.14096439812205, 14.398864349146125], [79.14163400709016, 14.403347145188032], [79.13912060725892, 14.408149306453833], [79.13872724697175, 14.412968150468943], [79.13623941976117, 14.41467064422993], [79.1270549130579, 14.414253530210646], [79.12348673545652, 14.41835825515644], [79.12136366014128, 14.418685786270025], [79.11781266156252, 14.420724017036177], [79.11459758771622, 14.42483139146182], [79.11104643599288, 14.426869500027626], [79.11134173421651, 14.433760250584248], [79.10990493010497, 14.436504088263327], [79.10598849637164, 14.439916835925041], [79.10210115022434, 14.439885564343731], [79.09996616549743, 14.441590447453178], [79.10065249862666, 14.444006899811825], [79.10451073640817, 14.44748214630713], [79.10518254178277, 14.451620563560768], [79.10267942598907, 14.45504458307431], [79.10265019749137, 14.458488518437663], [79.10156944935676, 14.460890723066534], [79.09835929585901, 14.464308971031317], [79.09833877644152, 14.466719717940677], [79.10743766780533, 14.477470025947476], [79.10849219709264, 14.47816734674102]], [[79.16406497751183, 14.425910407786352], [79.15983850249086, 14.424155337448482], [79.16021167538864, 14.421747252380573], [79.16625573513859, 14.41731672311468], [79.16950355327472, 14.409075619646764], [79.17377751451805, 14.404975542421914], [79.1769968685823, 14.400178371977933], [79.17915326450594, 14.39571738614832], [79.17988785838135, 14.392278724190904], [79.18487351949233, 14.387494995685973], [79.18559686307732, 14.385433947767265], [79.18773348234805, 14.383383728069965], [79.19131659298999, 14.377211336216583], [79.1938091562119, 14.374819331206476], [79.1977038576287, 14.373815716096104], [79.20692837218418, 14.36906365963659], [79.20975206725873, 14.369429465785132], [79.21045045920157, 14.370468059077218], [79.21042305859821, 14.373912228791113], [79.20863180618669, 14.376998613915202], [79.2078867372481, 14.381815091508184], [79.20646244759178, 14.383182044379788], [79.20501613199318, 14.38730431090268], [79.20251800731634, 14.390385259351163], [79.20000324926076, 14.395532658755126], [79.1935959537547, 14.401339157895203], [79.1918014456058, 14.40476976884428], [79.18930571232985, 14.407506117520395], [79.18539088571046, 14.41092039664103], [79.18184327273065, 14.412615266123241], [79.17756647853959, 14.417059896545904], [79.17047371980848, 14.420104893971857], [79.16583754269811, 14.425235338890987], [79.16406497751183, 14.425910407786352]], [[79.16183120587166, 14.396616589798017], [79.1611724670315, 14.390756174970933], [79.16188757985529, 14.38972844860112], [79.1636542196226, 14.389742176042896], [79.16435243321816, 14.390780886214312], [79.16432710069114, 14.39388055430214], [79.16253788319776, 14.396622085095585], [79.16183120587166, 14.396616589798017]], [[79.21250460694398, 14.378750089299478], [79.21430129616662, 14.374974835521796], [79.21399993776363, 14.368428234015257], [79.20944261029926, 14.363916122876711], [79.2080568419316, 14.360461266284664], [79.20525522546211, 14.357340121992587], [79.20566338618984, 14.350454465973744], [79.20851696984921, 14.347031670333006], [79.2092235098163, 14.34703700804362], [79.2095576235061, 14.349450598620658], [79.21060650390174, 14.350836271641738], [79.21448162829209, 14.352243249721775], [79.21588383421197, 14.353631565512217], [79.2218896332685, 14.35367670276306], [79.21831321021445, 14.35916087253994], [79.21969641378026, 14.362960105724195], [79.21685093925547, 14.365349772929843], [79.21683183526945, 14.36776070132915], [79.2192858841933, 14.370190244809638], [79.22352830881957, 14.369877677726679], [79.2260313403685, 14.36610760255849], [79.2295806323072, 14.364067518881289], [79.23065407149866, 14.36235333457318], [79.23175183726003, 14.357539351117744], [79.234224875057, 14.357557794831678], [79.23704042185103, 14.358956531252765], [79.24092666124227, 14.358985418725682], [79.24233446390073, 14.359684754109411], [79.24232639719735, 14.360718023982974], [79.23984254215355, 14.362077352036591], [79.23663046897103, 14.36618676749647], [79.23554354551376, 14.369623090410684], [79.23093968126112, 14.370966498208313], [79.22844751328782, 14.373358945860591], [79.22772731340572, 14.375075756772766], [79.21851106509013, 14.378795389527928], [79.2142411152713, 14.382552020615018], [79.2124772213351, 14.382194260487767], [79.21250460694398, 14.378750089299478]]]]}}, {"type": "Feature", "properties": {"depth_class": 3, "depth_lo_m": 2.0, "t_s": 79200.45547094768}, "geometry": {"type": "MultiPolygon", "coordinates": [[[[79.01360606965545, 14.215293465045868], [79.0164272670522, 14.215661296171254], [79.01644227872582, 14.213939381788796], [79.013974124304, 14.213574486052321], [79.01360606965545, 14.215293465045868]]], [[[79.07943104488227, 14.238562961220072], [79.08155531211784, 14.237891203576662], [79.08121678335148, 14.236166388189131], [79.0794456043216, 14.23684098520907], [79.07943104488227, 14.238562961220072]]], [[[79.2124772213351, 14.382194260487767], [79.2160159504233, 14.381532097293416], [79.21851106509013, 14.378795389527928], [79.22772731340572, 14.375075756772766], [79.22844751328782, 14.373358945860591], [79.23093968126112, 14.370966498208313], [79.23518753329712, 14.369964878661637], [79.23734517264991, 14.365158761695552], [79.24019853421362, 14.361735554336338], [79.24232639719735, 14.360718023982974], [79.24233446390073, 14.359684754109411], [79.24092666124227, 14.358985418725682], [79.23704042185103, 14.358956531252765], [79.234224875057, 14.357557794831678], [79.23175183726003, 14.357539351117744], [79.23065407149866, 14.36235333457318], [79.2295806323072, 14.364067518881289], [79.2260313403685, 14.36610760255849], [79.22352830881957, 14.369877677726679], [79.2192858841933, 14.370190244809638], [79.21683183526945, 14.36776070132915], [79.21685093925547, 14.365349772929843], [79.21969641378026, 14.362960105724195], [79.21831321021445, 14.35916087253994], [79.2218896332685, 14.35367670276306], [79.21588383421197, 14.353631565512217], [79.21448162829209, 14.352243249721775], [79.21060650390174, 14.350836271641738], [79.2095576235061, 14.349450598620658], [79.2092235098163, 14.34703700804362], [79.20851696984921, 14.347031670333006], [79.20566338618984, 14.350454465973744], [79.20525522546211, 14.357340121992587], [79.2080568419316, 14.360461266284664], [79.20944261029926, 14.363916122876711], [79.21399993776363, 14.368428234015257], [79.21430129616662, 14.374974835521796], [79.21250460694398, 14.378750089299478], [79.2124772213351, 14.382194260487767]]]]}}]}