{"type": "FeatureCollection", "features": [{"type": "Feature", "properties": {"depth_class": 1, "depth_lo_m": 0.3, "t_s": 18900.435319794095}, "geometry": {"type": "MultiPolygon", "coordinates": [[[[79.11786526607071, 14.245068727831828], [79.11929190187223, 14.243357848271986], [79.12003229640511, 14.239230573316137], [79.1182897012808, 14.236461439867858], [79.11652430504742, 14.236447520136123], [79.1154507821643, 14.238161174283247], [79.11506625877367, 14.241946812098366], [79.11645289576765, 14.245057583993178], [79.11786526607071, 14.245068727831828]]], [[[79.11501764852505, 14.247801648612484], [79.11537932323857, 14.246771231569063], [79.11396122131968, 14.247448875456062], [79.11395549795864, 14.248137679152391], [79.11501764852505, 14.247801648612484]]], [[[79.06163919632816, 14.254606677490525], [79.06341643566408, 14.253243454873884], [79.06342819307822, 14.251865888818777], [79.06272494936596, 14.251515762834925], [79.06025331179576, 14.25149567584121], [79.0581170840914, 14.253544780647442], [79.0581082408887, 14.254577951797485], [79.0588114845263, 14.254928091619247], [79.06163919632816, 14.254606677490525]]], [[[79.18354873021936, 14.420205898245765], [79.1867430826816, 14.4185083019912], [79.18957289017492, 14.41818559320712], [79.19065525921216, 14.415438427550875], [79.19955598046509, 14.40724004595359], [79.20238840337052, 14.406572750067207], [79.2059082593794, 14.408321692899774], [79.20662049696222, 14.407638230289104], [79.20663426087788, 14.405916154058986], [79.20523183181137, 14.404527758099146], [79.20489224644776, 14.402802998049895], [79.20916550585407, 14.398702188620074], [79.21167736760702, 14.393899089345467], [79.21522996993527, 14.391514873864544], [79.21703494285349, 14.386706356399747], [79.2198752574515, 14.385005558777234], [79.22272642486939, 14.381927045918953], [79.22662389912746, 14.380578534664929], [79.22769202320922, 14.379553217686112], [79.2308773682089, 14.378888175171744], [79.23338581532138, 14.374429179936971], [79.2369243955298, 14.373766682351532], [79.23905778275501, 14.37206035241931], [79.2408593686643, 14.367595992094147], [79.24762587323237, 14.360757286707756], [79.25152019043323, 14.359752729143999], [79.25508787068472, 14.35530124425014], [79.26004992675128, 14.353271052952037], [79.26325608805327, 14.349850101146846], [79.26680483520681, 14.347809389473591], [79.26789380017294, 14.344028422659202], [79.27039052106116, 14.340946611912514], [79.27042750621753, 14.336124604682285], [79.26868233370604, 14.333356290849919], [79.2686955500156, 14.331634146107211], [79.27013234521137, 14.32854458651944], [79.26978965533185, 14.32716429477284], [79.26802076051236, 14.327495844091066], [79.26659188428569, 14.329552102745087], [79.26580328720446, 14.340224221229635], [79.26473552434639, 14.341249754278731], [79.26436369041396, 14.34365816448827], [79.26329324976695, 14.345028115803675], [79.26117358762603, 14.345012581738175], [79.25629431452639, 14.336365601185195], [79.25460794049619, 14.326019821152878], [79.2518193184076, 14.321177062889767], [79.25115018657398, 14.316349895576074], [79.2501065065007, 14.314275535759966], [79.25012518134496, 14.311864553077367], [79.25155139960775, 14.310152821387481], [79.25155939453036, 14.309119541999587], [79.24769535564275, 14.306335519983692], [79.24630387784185, 14.303569695670653], [79.24174698282572, 14.299058258285964], [79.24001045907193, 14.29525652365106], [79.2312290723473, 14.288991412173385], [79.23125060518639, 14.286236025557947], [79.23020183892365, 14.28485045664695], [79.2273845166658, 14.283796164575625], [79.22279054798, 14.284106353614508], [79.21821555138179, 14.282005505398327], [79.21857685054893, 14.280974884913933], [79.225281668125, 14.281713841697538], [79.2253113583435, 14.277925194855738], [79.2239040999233, 14.277225818551672], [79.21507502789795, 14.277159808384464], [79.21156244637653, 14.274722373007469], [79.2048497377808, 14.275016314858716], [79.20454024827694, 14.269502953005821], [79.20244594505932, 14.266387210355253], [79.20103884114793, 14.265687714850912], [79.19750469241258, 14.266005449747752], [79.19470973259075, 14.262195477205816], [79.1915425101999, 14.260793720187355], [79.18979059710473, 14.259058238066729], [79.18349496000445, 14.25143275883265], [79.17997761661314, 14.249683769177285], [79.17892933342902, 14.248298027035187], [79.16907561601656, 14.244089404638748], [79.16519707032167, 14.243370750169815], [79.16310076179212, 14.240599159878956], [79.1609877714422, 14.23989402483392], [79.16032342354085, 14.234722414493623], [79.15927532883865, 14.23333660697375], [79.15750991557495, 14.23332299310593], [79.15712889742743, 14.236764375922748], [79.15605285991586, 14.238822660278322], [79.15286944469403, 14.239486913340095], [79.15073687757206, 14.241192557979225], [79.14999140514246, 14.246008812910349], [79.14679100786984, 14.248739420362433], [79.14606791922691, 14.250800382467505], [79.13933630074479, 14.253503400889183], [79.12415263224054, 14.253384463896005], [79.11996385811159, 14.247496249548607], [79.11855147100083, 14.247485116270903], [79.1178024335305, 14.25264558477687], [79.11638715710288, 14.252978836956004], [79.11357377455262, 14.2515789047543], [79.11147236029164, 14.249495732654967], [79.10865044633017, 14.249128953435688], [79.10372435723613, 14.247023312949448], [79.09350205013735, 14.244875326642552], [79.08961229695689, 14.245533059104373], [79.0871435871275, 14.245168862209272], [79.08363307335924, 14.242729761263544], [79.08721320787818, 14.2369033420698], [79.08726829265048, 14.230359801006113], [79.08586764068862, 14.228970900644397], [79.08445539673735, 14.22895958002015], [79.08125749985075, 14.231344848665294], [79.07842425484944, 14.232355326381601], [79.07628545678543, 14.234749035156186], [79.07240463398355, 14.234373321346716], [79.06955376444122, 14.237450043387208], [79.06566998906618, 14.237418608160958], [79.06424009905616, 14.239473514061874], [79.06386647336035, 14.241881394307883], [79.06101539379246, 14.244957985928508], [79.05781409778629, 14.24768726834773], [79.05356232385564, 14.249374687771638], [79.05109368041754, 14.24901011975387], [79.04864577302759, 14.246234806788529], [79.04546508934637, 14.246553185889905], [79.0462394058053, 14.238638039354557], [79.04519502163049, 14.23690742729389], [79.04378276244645, 14.236895859994302], [79.04236160050378, 14.237917447218035], [79.04056953145968, 14.241002449587638], [79.03880418076247, 14.240987950893782], [79.03810399139434, 14.240293374473723], [79.03386120938336, 14.240947285193], [79.03242804608703, 14.243346345645735], [79.02851434966108, 14.246758139049657], [79.02813733775612, 14.249510296286669], [79.03024685731484, 14.250560952266914], [79.03128817936503, 14.252636006265805], [79.0312553051519, 14.256424239386895], [79.03054314032353, 14.25710717698657], [79.02912777554351, 14.25743989118288], [79.02597091652174, 14.255002916507191], [79.02314620707452, 14.254979517169998], [79.02136274281503, 14.257031171963757], [79.02273607525026, 14.261519865956506], [79.01954616031614, 14.262871013134491], [79.01319942877693, 14.261784975448053], [79.01140676004609, 14.264869677280247], [79.00823792926933, 14.263809999528478], [79.00790298557615, 14.261740770186314], [79.01076400325131, 14.257631796245153], [79.01257169320522, 14.25282518646603], [79.01260788618332, 14.248692614028412], [79.01085759594277, 14.24695599706102], [79.00698891289484, 14.245201686245617], [78.9978060911915, 14.24546921560785], [78.99640597662675, 14.244079849940885], [78.99642421004874, 14.242013582835064], [78.99927905196111, 14.238593492157053], [79.00247777430876, 14.236209446995503], [79.01311462609102, 14.231132101529997], [79.01668418774678, 14.226684473117343], [79.0181323838533, 14.22256359707371], [79.02096866992005, 14.221209469120577], [79.02168672354301, 14.21983777971867], [79.02172266370303, 14.215705172999746], [79.02103158677058, 14.213977410345805], [79.01752235037748, 14.211537483288634], [79.01363913874474, 14.211505259444257], [79.01222104809472, 14.2121822902303], [79.01114392998348, 14.214239775182309], [79.01144878729457, 14.219752819826976], [79.00928839570648, 14.224556523639322], [79.00502474556892, 14.227620611225566], [78.9961622869596, 14.231679279670445], [78.9915300717188, 14.236462006166182], [78.98936907600611, 14.241265447426967], [78.98967334689925, 14.246778443755712], [78.9924674357053, 14.250245994642905], [78.99738921000703, 14.252698188461716], [79.00445384033526, 14.252412998064305], [79.0048008640535, 14.253104710638027], [78.99800113617117, 14.263379827444762], [78.99796768008173, 14.267167980414733], [78.99865867886301, 14.268895800905279], [79.00075300200511, 14.271668611847513], [79.00286255385494, 14.272719518788453], [79.01168432476985, 14.2734821314918], [79.01381207186992, 14.272466666368745], [79.01875868139938, 14.272163454322099], [79.02300807661982, 14.270821129711665], [79.02510574381186, 14.273249383954301], [79.02722144975203, 14.273611324609554], [79.02864590969492, 14.272245484252013], [79.02974418518589, 14.267777256071618], [79.03152468914715, 14.266069925932106], [79.03682130929369, 14.266113619492065], [79.03788659743498, 14.265433572343943], [79.03898762345301, 14.26062088528242], [79.04219526097722, 14.257203136639777], [79.04360764511952, 14.257214729476958], [79.04391915507637, 14.26203904867702], [79.04531672548858, 14.263772572639155], [79.04990415776616, 14.264154564095811], [79.05380609162525, 14.262119978487263], [79.05521851618754, 14.262131506460909], [79.05696634010552, 14.264212244000463], [79.05943811137199, 14.264232382600747], [79.06050333555099, 14.26355222441499], [79.06685932145001, 14.263603861040847], [79.0686395457757, 14.261896213092882], [79.07182338475606, 14.26123315526068], [79.07468041556089, 14.257467658314432], [79.07786126522461, 14.257148903801832], [79.07855580189945, 14.258532173427596], [79.0753544724648, 14.261261690984977], [79.07604607977672, 14.26298936092216], [79.07816767232394, 14.26266205894579], [79.08062196399001, 14.264748343797958], [79.08379709723289, 14.2651183125081], [79.08731374057335, 14.266868658398083], [79.08906482512792, 14.268604805002521], [79.08974784744976, 14.271365639002743], [79.09254677785326, 14.274487846694136], [79.09642256703329, 14.27555211646002], [79.09993659465346, 14.277646704896014], [79.10097002248315, 14.280754740867371], [79.10483155837473, 14.283540886228206], [79.10800127619227, 14.284599368299666], [79.10905210248629, 14.285640986642719], [79.11117102850376, 14.285657811699226], [79.11611806622382, 14.285352595714992], [79.1232011703135, 14.282997576833715], [79.12819086797208, 14.277526045445105], [79.12890853901125, 14.276153980129727], [79.12860660114575, 14.269951933004794], [79.13288109305913, 14.265507915236517], [79.14134488091858, 14.266951789653177], [79.14418403368784, 14.265251771032068], [79.14700907174567, 14.26527375264831], [79.15051508495299, 14.268400859230846], [79.1547330878581, 14.270844578436696], [79.1607280967594, 14.271924232652974], [79.1660252525122, 14.271965071840796], [79.17377223549101, 14.27478005919587], [79.17621933162874, 14.277898719499357], [79.17938389100303, 14.279645109260098], [79.18288231605504, 14.283805058411835], [79.18496541217566, 14.288298614443956], [79.18528544117909, 14.292434282510808], [79.18598351675482, 14.293472913152272], [79.18704306234619, 14.293480990030448], [79.18882000188964, 14.29211678038205], [79.19305816949905, 14.292149006110566], [79.19446264869877, 14.293192979991828], [79.1976440422652, 14.292872665932938], [79.198010940628, 14.291153256657646], [79.19661194339815, 14.289420469659456], [79.1906272108789, 14.28696398298835], [79.18957871256201, 14.285578263688482], [79.18960074679703, 14.282822939238185], [79.19102166597042, 14.281800430407127], [79.19243432469038, 14.281811160046031], [79.1959357869958, 14.285626532135842], [79.20684320502725, 14.29087554448429], [79.20894321217007, 14.293302438007599], [79.2117578122195, 14.294701370969216], [79.21349383262078, 14.298503256804132], [79.21561028615452, 14.298863586425], [79.2198621975444, 14.297173245265148], [79.22233455815582, 14.297191736701885], [79.2226715124882, 14.299260904748726], [79.22160108427519, 14.300630668038451], [79.22158212064184, 14.303041615805641], [79.21733281871423, 14.304387555408656], [79.21626505094011, 14.305412867525815], [79.21587921809862, 14.309543255468666], [79.21693070300518, 14.310584467963034], [79.21941134843537, 14.30956974547015], [79.22153063010532, 14.309585614303973], [79.2254024616811, 14.311336766021784], [79.22644859530479, 14.313066785658188], [79.2275082562713, 14.313074692956526], [79.22929325478113, 14.310676905475399], [79.231746906605, 14.313106274948593], [79.23487206685945, 14.320018375335788], [79.23664092094009, 14.319687071778098], [79.23631458694061, 14.316240214986568], [79.2374145785574, 14.311081724179651], [79.23882208652478, 14.311781047690676], [79.24091190966833, 14.31558541400796], [79.24012492095, 14.32591290290049], [79.23759842115224, 14.332783026592177], [79.2347454435457, 14.336206247974566], [79.23290356857964, 14.3458369183617], [79.23002327836998, 14.352704265244387], [79.22789274344801, 14.354066108783952], [79.22720243805915, 14.35199430009091], [79.22439790558329, 14.349217781947317], [79.21839766364965, 14.348483883635586], [79.21628619929359, 14.347434688285654], [79.21559056388763, 14.346051696748896], [79.21701726671043, 14.344340232242319], [79.21703633624179, 14.341929298845875], [79.21599562317579, 14.339510396664663], [79.21318046585942, 14.338111450997197], [79.21105819375856, 14.338439894717709], [79.20465844082445, 14.343558108778408], [79.2028674071764, 14.3466444766692], [79.20002750864714, 14.348345116624671], [79.20070654430933, 14.35179463782776], [79.20033675867307, 14.353858449405706], [79.19566133856375, 14.364155965158995], [79.19246509630996, 14.366198201416655], [79.18960547041654, 14.370309567663437], [79.18677349897064, 14.370976761205101], [79.1839331728107, 14.372677154625194], [79.17933184607598, 14.373675103689436], [79.17613812999069, 14.375372674157436], [79.17506702632909, 14.376742143655395], [79.17504745866502, 14.379153014033326], [79.17713662169464, 14.382957869712223], [79.18098969531006, 14.387120720236481], [79.18310687639917, 14.387481428810114], [79.18773348234805, 14.383383728069965], [79.19095496616097, 14.37824187474077], [79.19451301264155, 14.375169136792625], [79.19805164867275, 14.374507235355713], [79.20656683169099, 14.37009423256252], [79.20868666723874, 14.370110281999258], [79.20938779703489, 14.37080446124636], [79.20936037949663, 14.374248628854332], [79.20756636471803, 14.3776794201207], [79.20718283557545, 14.381465321073328], [79.20540246919063, 14.383174004932425], [79.2043122196737, 14.386954530597611], [79.2021729392928, 14.389349328180453], [79.20001429147014, 14.394155001404851], [79.19324814581508, 14.40064763032114], [79.18930849180256, 14.407161705585645], [79.18503751998476, 14.410917680777002], [79.18326511340192, 14.411592914863716], [79.17933894227532, 14.416384712647762], [79.17932216134106, 14.41845117102176], [79.18072169235354, 14.420184120788697], [79.18354873021936, 14.420205898245765]], [[79.20245460426338, 14.398306800268971], [79.2042764325656, 14.391431929694942], [79.20605962983949, 14.389378848393452], [79.20715261539816, 14.385253897391564], [79.20965610315535, 14.381484051619124], [79.209675303101, 14.37907313548298], [79.21183083230633, 14.374611744633288], [79.21186916289643, 14.369789903301628], [79.20906190537119, 14.367357620584448], [79.2065887938905, 14.367338901823837], [79.20303928006194, 14.369378610088575], [79.19737262882401, 14.371057709563331], [79.19525556060537, 14.370697143679982], [79.19491330975913, 14.369316793592246], [79.19955308997461, 14.363496711358614], [79.19992841718407, 14.360744074677058], [79.20280421730921, 14.35456604831018], [79.20283993806284, 14.350088638934935], [79.20783507886296, 14.343926575253265], [79.2099628748676, 14.342909331636685], [79.21138959350618, 14.3411979032251], [79.21385969586849, 14.341560957157878], [79.21419931634766, 14.34328571005468], [79.21205513764596, 14.34636950182614], [79.21204147446403, 14.348091591823815], [79.21731331553873, 14.351575686710815], [79.22226466057624, 14.350923994973813], [79.22437347522771, 14.352317563907546], [79.22471046961215, 14.35438673159091], [79.22149827154017, 14.358495925196042], [79.22148194769974, 14.360562441719368], [79.22534646036435, 14.363346948119469], [79.22640635692247, 14.363354887508466], [79.22818369675478, 14.36199042696545], [79.22892822149461, 14.357173820140718], [79.2303630319105, 14.35442900962943], [79.23213757119265, 14.353408929173053], [79.23601291512797, 14.35481557528024], [79.2381191686091, 14.356553457924049], [79.24305986879413, 14.357279031266463], [79.24624218751936, 14.356958163647217], [79.2529788073561, 14.353907924238232], [79.25189488005566, 14.356999935567158], [79.25047100140445, 14.358367204704708], [79.24657670629482, 14.359371747311007], [79.24088359913482, 14.364496186436844], [79.2387422154633, 14.367235810932158], [79.2380113262771, 14.370330354114566], [79.23694059319523, 14.371700150805133], [79.23198337472633, 14.373040942826712], [79.22912431113653, 14.377152858035911], [79.21990799002052, 14.380872537486376], [79.21847831177611, 14.382928408391079], [79.2145670809196, 14.38599886167187], [79.2131208836214, 14.390121191966179], [79.20921494513463, 14.39250269961543], [79.20599635628521, 14.397300405426988], [79.2042213514052, 14.398320232523481], [79.20245460426338, 14.398306800268971]], [[79.22537089690462, 14.360247167396166], [79.22467788800812, 14.358519772920628], [79.22610733190459, 14.3564638361658], [79.227169907829, 14.356127347853768], [79.22678407302499, 14.360257749816213], [79.22537089690462, 14.360247167396166]], [[79.2406083479106, 14.354505295332634], [79.24027927590697, 14.351402864091417], [79.2424419585822, 14.345907813445237], [79.24281939900611, 14.34281061727937], [79.24532445666428, 14.338695834243145], [79.24642709585729, 14.33319287509292], [79.24749488967016, 14.33216742893454], [79.24855465231691, 14.33217525259572], [79.25167520711179, 14.339776061228513], [79.2562330484388, 14.344287409362439], [79.25727955740814, 14.346017332904898], [79.25726624005861, 14.347739465096968], [79.25477193771127, 14.350476681307223], [79.24626096178338, 14.354547194618227], [79.2406083479106, 14.354505295332634]], [[79.25439730308754, 14.353229486087077], [79.26009780363279, 14.347071369509614], [79.26256545323682, 14.347778359296617], [79.25970994136863, 14.351546325343062], [79.25545716864444, 14.353237290131688], [79.25439730308754, 14.353229486087077]], [[79.23356691429873, 14.351352935014233], [79.2357674923428, 14.34103604852235], [79.23719402020636, 14.339324440601143], [79.23864742385068, 14.334168588293448], [79.24295891006228, 14.324900561050262], [79.2430285932946, 14.315945522323515], [79.24025642825839, 14.309036120466105], [79.23675651051937, 14.304876855599723], [79.23393891003597, 14.30382261064978], [79.23148801456819, 14.301048847920551], [79.22901829708256, 14.300686024219969], [79.22410864493011, 14.296171663966224], [79.21633840814825, 14.296113523586051], [79.21494194891088, 14.294036405054099], [79.21071731450104, 14.292282468357573], [79.20756320928139, 14.289158772704504], [79.19735670139663, 14.284603984398201], [79.19595774396278, 14.282871197993444], [79.19562653340842, 14.280113187124867], [79.19211415474497, 14.277675484453678], [79.18931642109946, 14.274209861687464], [79.18615183941083, 14.272463603155083], [79.17945032287349, 14.271379176688052], [79.17802943130174, 14.2724016188398], [79.17765966261405, 14.274465399080142], [79.17695336181508, 14.274459994208096], [79.17310203646402, 14.270297277276363], [79.16500765017379, 14.266790744670303], [79.15336261940071, 14.265667498111862], [79.14878597223796, 14.263909841240997], [79.14384218353356, 14.263871391909392], [79.14207090344334, 14.2645464490511], [79.13254215050118, 14.263783123175122], [79.126843780629, 14.269593653903987], [79.12714282316492, 14.276140101140326], [79.12393030514414, 14.280247921488598], [79.12073481943838, 14.282289269847814], [79.1143695039459, 14.283272207867862], [79.11190318964624, 14.282563812361401], [79.11227643853405, 14.280155809220851], [79.11512454201048, 14.277422982299703], [79.11866455307475, 14.276417701975433], [79.12044455071371, 14.274709632388431], [79.12188280361522, 14.271621151048231], [79.12545119018313, 14.267171719768852], [79.12510945621258, 14.265791327512535], [79.1222930051352, 14.264735876604787], [79.11240268898493, 14.265002173512114], [79.1099394462991, 14.263949381282453], [79.10887433948908, 14.26462977885659], [79.10885710055754, 14.266696180764757], [79.10815085162781, 14.266690574928292], [79.10745035390784, 14.265996166971146], [79.10747047965214, 14.263585366533722], [79.10360633397094, 14.261143697038696], [79.10081025878083, 14.257677218652479], [79.09588697894425, 14.255227005546976], [79.08777141261636, 14.254473228693245], [79.08670630043935, 14.255153524939157], [79.07540415405214, 14.255406996650773], [79.06937215157929, 14.258802401595597], [79.06545569354425, 14.262559225985866], [79.05804336909445, 14.262154537336999], [79.05523328454039, 14.260409558543737], [79.05205239681392, 14.26072800106451], [79.0492127575077, 14.262426843176296], [79.04638791610468, 14.262403707256382], [79.045340477013, 14.261017472528652], [79.04535235087403, 14.259639922220554], [79.04715047069354, 14.255866122795348], [79.04610008525285, 14.254824281861104], [79.0436284361784, 14.25480401806459], [79.03793428168098, 14.259923396792871], [79.03577690420762, 14.264382962912599], [79.03153665131704, 14.264692387650486], [79.02797863772851, 14.267762650533893], [79.02689832179853, 14.270164565480936], [79.0208984234242, 14.269770391319632], [79.01841460280126, 14.271127372140706], [79.0148834819596, 14.271097973421266], [79.01098716577515, 14.272443094854482], [79.00322477065635, 14.271689343808072], [78.9997210330773, 14.268560318976318], [78.99905434561268, 14.264077478510961], [79.00299907863331, 14.257222481986815], [79.00549188947298, 14.254832514417005], [79.00586918898902, 14.252080430910741], [79.00446595484833, 14.251035480866598], [78.99775140605661, 14.251668019254812], [78.99247962102494, 14.248868487326728], [78.9903916787273, 14.245406886511857], [78.99079350319495, 14.239899833118924], [78.99258618706254, 14.236815291105389], [78.99828359991074, 14.231352664908693], [79.00465961113905, 14.228995182750491], [79.01034449665323, 14.224909726696495], [79.01250788101302, 14.21976162908677], [79.012202997849, 14.21424858245104], [79.01363012086742, 14.21253840655277], [79.0164542866189, 14.212561850093463], [79.02031055616503, 14.2156934839632], [79.02063361758911, 14.21914024383072], [79.0174353174422, 14.221524591603732], [79.01419483739461, 14.228730236510863], [79.0113493813941, 14.231117409823582], [79.003199018565, 14.234493456009684], [78.9985820401928, 14.237554437762379], [78.99536806331194, 14.241660311076956], [78.99534069837848, 14.244759709673593], [78.99709083955537, 14.246496423145295], [79.00662677123822, 14.246231876834589], [79.0111955815446, 14.24868084452192], [79.01188061505243, 14.251097396722407], [79.01006688770704, 14.25659276249701], [79.00613145178922, 14.262414767694958], [79.0061132795873, 14.264481043565999], [79.00681342282077, 14.265175709636274], [79.00893202860078, 14.265193419692539], [79.01103552824591, 14.266933012296917], [79.01315717465643, 14.266606306268793], [79.01494682296006, 14.263865971531954], [79.0163531986724, 14.264566493960801], [79.01953111835894, 14.264592923725615], [79.0244955675997, 14.26222327047282], [79.02556986136445, 14.260510130289084], [79.02311319130135, 14.258767730895348], [79.02277210609154, 14.25738727099776], [79.02348729300179, 14.256359976619962], [79.0266621154757, 14.256730680286294], [79.02805651862143, 14.25880866913229], [79.02982199646219, 14.258823265128845], [79.03266170126558, 14.257124666486485], [79.03305062713851, 14.252994957419], [79.03201824632697, 14.249886753586578], [79.0302647913926, 14.248494643694796], [79.03027674584823, 14.24711710443601], [79.0324101384422, 14.245412657804613], [79.03491445592748, 14.24164477981035], [79.0377419954663, 14.241323631976782], [79.03879228337632, 14.242365497935895], [79.04091071728232, 14.242382896555565], [79.04304992872983, 14.239989562838398], [79.04446220652206, 14.240001136930715], [79.04478858920476, 14.243103521197119], [79.04370265825064, 14.246194330236964], [79.04404386729993, 14.247574775596169], [79.04897517176116, 14.24899280360767], [79.0531885567311, 14.251782532957222], [79.06168626628022, 14.249096418704728], [79.06909525828966, 14.249845334053784], [79.07406482815585, 14.246785750544287], [79.07478560459677, 14.245069479480026], [79.07267879714799, 14.243674803726943], [79.06809460812579, 14.242948904950529], [79.06634387672023, 14.241212645793189], [79.06635853817643, 14.239490683476228], [79.06707054707259, 14.238807617154364], [79.07095434940977, 14.23883903260281], [79.07203403165892, 14.236436833618454], [79.07309908391404, 14.235756596397211], [79.07415829134953, 14.23576514197381], [79.07625629252826, 14.238192981104712], [79.07734174704468, 14.235101960869208], [79.0787656721174, 14.233735747696524], [79.0837318528652, 14.23102029435414], [79.085844435894, 14.23172607434666], [79.08616269126503, 14.23586166391974], [79.08293853945825, 14.241346506890036], [79.08115859049458, 14.243054298225754], [79.08185311671743, 14.244437556891421], [79.0853781552246, 14.245154703804051], [79.08783525583814, 14.24689650523286], [79.09489994976497, 14.246608596601329], [79.1047692580686, 14.248753729291254], [79.11637286074587, 14.254700847735679], [79.12238139822281, 14.254059378067902], [79.12378813306083, 14.254759300916678], [79.13226560637942, 14.25448141733137], [79.13649727740601, 14.255203376777418], [79.14640696036328, 14.252525167204208], [79.14853686258625, 14.251163988216373], [79.1506470938833, 14.252213649902187], [79.15736459611036, 14.251232342460117], [79.158774243368, 14.251587659423887], [79.16052583989526, 14.253323335388489], [79.16016155432854, 14.254698254799697], [79.15696392469489, 14.257084586850207], [79.15765897372788, 14.258467685121799], [79.15977491022156, 14.258828457647214], [79.16508290227489, 14.257491634996867], [79.17107764801335, 14.258570993420637], [79.17424468055077, 14.259973004028835], [79.17636621470686, 14.259644806623653], [79.17815121669749, 14.257247406790952], [79.17816781272042, 14.255180921761173], [79.17149461685725, 14.250652204546794], [79.16656218293106, 14.249236612153403], [79.15950001777779, 14.249182234518514], [79.15950839610538, 14.248149002171035], [79.16128787558773, 14.246440559291177], [79.16166886631814, 14.242999166836945], [79.16272816164529, 14.24300732370141], [79.16483283576565, 14.244745683120986], [79.16836107764723, 14.24511722347495], [79.18277769598794, 14.25280504047256], [79.18662345468732, 14.257656424081851], [79.18835331968614, 14.262147253515764], [79.19327523818822, 14.264940110317923], [79.19642608592467, 14.268408356013618], [79.20137011915891, 14.268445726620982], [79.20311400214553, 14.27121439682093], [79.2027335315784, 14.274655916837876], [79.20448293136637, 14.276735746047642], [79.21012804563613, 14.277467119550389], [79.21187481909844, 14.279891324338752], [79.2181965774486, 14.284416452476393], [79.22559974651541, 14.286193965022935], [79.23401959811078, 14.293489905073773], [79.23859499774501, 14.295590491076544], [79.24068202030553, 14.299739271472983], [79.2480298799556, 14.308749104614602], [79.2507462625092, 14.322891389443114], [79.25249913310853, 14.324626524972267], [79.25282838036912, 14.327728960590939], [79.25175796296162, 14.32909886220829], [79.24858673436148, 14.328042148767747], [79.24680979230472, 14.329406810760865], [79.24430756406981, 14.333177202959732], [79.24284892704051, 14.33902195389978], [79.2349800409105, 14.351363462176757], [79.23356691429873, 14.351352935014233]], [[79.10699940547528, 14.27770295477249], [79.10454182859395, 14.27596129545781], [79.10207563496915, 14.275252811296815], [79.09646886343539, 14.27004175446737], [79.09294049344368, 14.269669117394105], [79.09259896186458, 14.268288702744973], [79.0947206004934, 14.267961256652745], [79.09647464909675, 14.269352959029087], [79.0975340278527, 14.26936142043259], [79.10037058808115, 14.268006367060643], [79.10531434339198, 14.268045728922955], [79.10812210322648, 14.27013457585978], [79.11059114181904, 14.270498592599154], [79.11302003385951, 14.275684197736615], [79.11017480663493, 14.27807259919616], [79.10699940547528, 14.27770295477249]], [[79.18859359263388, 14.276270985220158], [79.1818974736095, 14.27449778438626], [79.18155261562428, 14.273461845554392], [79.18473096569862, 14.27348608799625], [79.18859910088685, 14.27558215400999], [79.18859359263388, 14.276270985220158]], [[79.0809954850429, 14.262340423976362], [79.08065694864703, 14.260615607080691], [79.0827814288598, 14.259943865122075], [79.0834701820318, 14.262015915593148], [79.08275813394825, 14.262699026698666], [79.0809954850429, 14.262340423976362]], [[79.10112876408019, 14.261812818296384], [79.09125605890331, 14.260011867671185], [79.08771914935676, 14.26067236228833], [79.08631542544354, 14.259627840118924], [79.08632704930766, 14.258250256183377], [79.08774238057197, 14.257917192221903], [79.08984941899669, 14.259311761454345], [79.09126185615334, 14.2593230737528], [79.09269456749556, 14.256923596660624], [79.09587252467436, 14.256948995508589], [79.09903894257188, 14.258351946391665], [79.10149341309042, 14.26043803504572], [79.10112876408019, 14.261812818296384]], [[79.17109708681187, 14.256160103991684], [79.17145853571586, 14.255129573281561], [79.17498696017329, 14.255501035882324], [79.17462552583282, 14.256531573756142], [79.17109708681187, 14.256160103991684]], [[79.15670592439702, 14.245371911974496], [79.1563612137128, 14.244335953351209], [79.15743169171714, 14.242966492425253], [79.1595446944355, 14.243671660911], [79.15917484080083, 14.245735402650737], [79.15670592439702, 14.245371911974496]]], [[[79.22320729606979, 14.32096471798731], [79.22356865731834, 14.319934097694945], [79.22215573630534, 14.319923525210056], [79.22108519206073, 14.321293272228626], [79.22320729606979, 14.32096471798731]]], [[[79.22036487919857, 14.367787282492515], [79.22284617456286, 14.366772599630263], [79.22250375252722, 14.36539227008871], [79.22109326984639, 14.365037239252652], [79.2196718942985, 14.366059876155632], [79.22036487919857, 14.367787282492515]]]]}}, {"type": "Feature", "properties": {"depth_class": 2, "depth_lo_m": 1.0, "t_s": 18900.435319794095}, "geometry": {"type": "MultiPolygon", "coordinates": [[[[79.0809954850429, 14.262340423976362], [79.0834701820318, 14.262015915593148], [79.08313162649624, 14.260291099872974], [79.08136899486506, 14.259932502116824], [79.08065694864703, 14.260615607080691], [79.0809954850429, 14.262340423976362]]], [[[79.23498273928429, 14.35101903999091], [79.23783592828083, 14.347595840854613], [79.24284892704051, 14.33902195389978], [79.24430756406981, 14.333177202959732], [79.24680979230472, 14.329406810760865], [79.24858673436148, 14.328042148767747], [79.25175796296162, 14.32909886220829], [79.25282838036912, 14.327728960590939], [79.25249913310853, 14.324626524972267], [79.2507462625092, 14.322891389443114], [79.2480298799556, 14.308749104614602], [79.24068202030553, 14.299739271472983], [79.23859499774501, 14.295590491076544], [79.23401959811078, 14.293489905073773], [79.22559974651541, 14.286193965022935], [79.2181965774486, 14.284416452476393], [79.21187481909844, 14.279891324338752], [79.21012804563613, 14.277467119550389], [79.20448293136637, 14.276735746047642], [79.2027335315784, 14.274655916837876], [79.20311400214553, 14.27121439682093], [79.20137011915891, 14.268445726620982], [79.19642608592467, 14.268408356013618], [79.19327523818822, 14.264940110317923], [79.18835331968614, 14.262147253515764], [79.18662345468732, 14.257656424081851], [79.18277769598794, 14.25280504047256], [79.16836107764723, 14.24511722347495], [79.16483283576565, 14.244745683120986], [79.16272816164529, 14.24300732370141], [79.16166886631814, 14.242999166836945], [79.16128787558773, 14.246440559291177], [79.15950839610538, 14.248149002171035], [79.15950001777779, 14.249182234518514], [79.16656218293106, 14.249236612153403], [79.17149461685725, 14.250652204546794], [79.17816781272042, 14.255180921761173], [79.17815121669749, 14.257247406790952], [79.17636621470686, 14.259644806623653], [79.17424468055077, 14.259973004028835], [79.17107764801335, 14.258570993420637], [79.16508290227489, 14.257491634996867], [79.15977491022156, 14.258828457647214], [79.15765897372788, 14.258467685121799], [79.15696392469489, 14.257084586850207], [79.16016155432854, 14.254698254799697], [79.16052583989526, 14.253323335388489], [79.158774243368, 14.251587659423887], [79.15736459611036, 14.251232342460117], [79.15205953632295, 14.252224596803508], [79.14853686258625, 14.251163988216373], [79.14640696036328, 14.252525167204208], [79.13649727740601, 14.255203376777418], [79.13226560637942, 14.25448141733137], [79.12378813306083, 14.254759300916678], [79.12238139822281, 14.254059378067902], [79.11637286074587, 14.254700847735679], [79.1047692580686, 14.248753729291254], [79.09489994976497, 14.246608596601329], [79.08783525583814, 14.24689650523286], [79.0853781552246, 14.245154703804051], [79.08185311671743, 14.244437556891421], [79.08115859049458, 14.243054298225754], [79.08293853945825, 14.241346506890036], [79.08616269126503, 14.23586166391974], [79.085844435894, 14.23172607434666], [79.0837318528652, 14.23102029435414], [79.0787656721174, 14.233735747696524], [79.07734174704468, 14.235101960869208], [79.07625629252826, 14.238192981104712], [79.07415829134953, 14.23576514197381], [79.07309908391404, 14.235756596397211], [79.07203403165892, 14.236436833618454], [79.07095434940977, 14.23883903260281], [79.06707054707259, 14.238807617154364], [79.06635853817643, 14.239490683476228], [79.06634387672023, 14.241212645793189], [79.06809460812579, 14.242948904950529], [79.07267879714799, 14.243674803726943], [79.07478560459677, 14.245069479480026], [79.07406482815585, 14.246785750544287], [79.06909525828966, 14.249845334053784], [79.06168626628022, 14.249096418704728], [79.0531885567311, 14.251782532957222], [79.04897517176116, 14.24899280360767], [79.04404386729993, 14.247574775596169], [79.04370265825064, 14.246194330236964], [79.04478858920476, 14.243103521197119], [79.04446220652206, 14.240001136930715], [79.04304992872983, 14.239989562838398], [79.04091071728232, 14.242382896555565], [79.03879228337632, 14.242365497935895], [79.0377419954663, 14.241323631976782], [79.03491445592748, 14.24164477981035], [79.0324101384422, 14.245412657804613], [79.03027674584823, 14.24711710443601], [79.0302647913926, 14.248494643694796], [79.03201824632697, 14.249886753586578], [79.03305062713851, 14.252994957419], [79.03266170126558, 14.257124666486485], [79.02982199646219, 14.258823265128845], [79.02805651862143, 14.25880866913229], [79.0266621154757, 14.256730680286294], [79.02348729300179, 14.256359976619962], [79.02277210609154, 14.25738727099776], [79.02311319130135, 14.258767730895348], [79.02556986136445, 14.260510130289084], [79.0244955675997, 14.26222327047282], [79.01953111835894, 14.264592923725615], [79.0163531986724, 14.264566493960801], [79.01494682296006, 14.263865971531954], [79.01315717465643, 14.266606306268793], [79.01103552824591, 14.266933012296917], [79.00963520738411, 14.265543698861135], [79.00681342282077, 14.265175709636274], [79.0061132795873, 14.264481043565999], [79.00613145178922, 14.262414767694958], [79.00970775605876, 14.257278576054865], [79.01151546347596, 14.252471976697812], [79.01188664935533, 14.250408634945504], [79.0111955815446, 14.24868084452192], [79.00662677123822, 14.246231876834589], [78.99709083955537, 14.246496423145295], [78.99534069837848, 14.244759709673593], [78.99536806331194, 14.241660311076956], [78.9985820401928, 14.237554437762379], [79.003199018565, 14.234493456009684], [79.0113493813941, 14.231117409823582], [79.01419483739461, 14.228730236510863], [79.0174353174422, 14.221524591603732], [79.02063361758911, 14.21914024383072], [79.02031055616503, 14.2156934839632], [79.0164542866189, 14.212561850093463], [79.01363012086742, 14.21253840655277], [79.012202997849, 14.21424858245104], [79.01250788101302, 14.21976162908677], [79.01034449665323, 14.224909726696495], [79.00465961113905, 14.228995182750491], [78.99828359991074, 14.231352664908693], [78.99258618706254, 14.236815291105389], [78.99079350319495, 14.239899833118924], [78.9903916787273, 14.245406886511857], [78.99247962102494, 14.248868487326728], [78.99775140605661, 14.251668019254812], [79.00446595484833, 14.251035480866598], [79.00586918898902, 14.252080430910741], [79.00549188947298, 14.254832514417005], [79.00299907863331, 14.257222481986815], [78.99905434561268, 14.264077478510961], [78.9997210330773, 14.268560318976318], [79.00322477065635, 14.271689343808072], [79.01098716577515, 14.272443094854482], [79.0148834819596, 14.271097973421266], [79.01841460280126, 14.271127372140706], [79.0208984234242, 14.269770391319632], [79.02689832179853, 14.270164565480936], [79.02797863772851, 14.267762650533893], [79.03153665131704, 14.264692387650486], [79.03577690420762, 14.264382962912599], [79.03793428168098, 14.259923396792871], [79.0436284361784, 14.25480401806459], [79.04610008525285, 14.254824281861104], [79.04715047069354, 14.255866122795348], [79.04535235087403, 14.259639922220554], [79.045340477013, 14.261017472528652], [79.04638791610468, 14.262403707256382], [79.0492127575077, 14.262426843176296], [79.05382087068733, 14.260398032018902], [79.05628964385116, 14.26076258777541], [79.05804336909445, 14.262154537336999], [79.06545569354425, 14.262559225985866], [79.06937215157929, 14.258802401595597], [79.07540415405214, 14.255406996650773], [79.08670630043935, 14.255153524939157], [79.08777141261636, 14.254473228693245], [79.09588697894425, 14.255227005546976], [79.10081025878083, 14.257677218652479], [79.10360633397094, 14.261143697038696], [79.10747047965214, 14.263585366533722], [79.10745035390784, 14.265996166971146], [79.10815085162781, 14.266690574928292], [79.10885710055754, 14.266696180764757], [79.10887433948908, 14.26462977885659], [79.1099394462991, 14.263949381282453], [79.11240268898493, 14.265002173512114], [79.1222930051352, 14.264735876604787], [79.12510945621258, 14.265791327512535], [79.12545119018313, 14.267171719768852], [79.12188280361522, 14.271621151048231], [79.12044455071371, 14.274709632388431], [79.11866455307475, 14.276417701975433], [79.11512454201048, 14.277422982299703], [79.11227643853405, 14.280155809220851], [79.11190318964624, 14.282563812361401], [79.1143695039459, 14.283272207867862], [79.12073481943838, 14.282289269847814], [79.12393030514414, 14.280247921488598], [79.12714282316492, 14.276140101140326], [79.126843780629, 14.269593653903987], [79.13254215050118, 14.263783123175122], [79.13889275509372, 14.26452165278807], [79.14878597223796, 14.263909841240997], [79.15336261940071, 14.265667498111862], [79.16500765017379, 14.266790744670303], [79.17310203646402, 14.270297277276363], [79.17695336181508, 14.274459994208096], [79.17765966261405, 14.274465399080142], [79.17802943130174, 14.2724016188398], [79.17945032287349, 14.271379176688052], [79.18615183941083, 14.272463603155083], [79.18931642109946, 14.274209861687464], [79.19211415474497, 14.277675484453678], [79.19562653340842, 14.280113187124867], [79.19595774396278, 14.282871197993444], [79.19735670139663, 14.284603984398201], [79.20756320928139, 14.289158772704504], [79.21071731450104, 14.292282468357573], [79.21494194891088, 14.294036405054099], [79.21633840814825, 14.296113523586051], [79.22410864493011, 14.296171663966224], [79.22901829708256, 14.300686024219969], [79.23148801456819, 14.301048847920551], [79.23393891003597, 14.30382261064978], [79.23675651051937, 14.304876855599723], [79.24025642825839, 14.309036120466105], [79.2430285932946, 14.315945522323515], [79.24295891006228, 14.324900561050262], [79.23504478210769, 14.343097326822777], [79.23356691429873, 14.351352935014233], [79.23498273928429, 14.35101903999091]], [[79.24722456004639, 14.321487640120184], [79.24723525499691, 14.320109938758629], [79.24829763284491, 14.31977333157937], [79.24863751000265, 14.32149806462569], [79.24722456004639, 14.321487640120184]], [[79.24551189138103, 14.31458609573155], [79.24448432901406, 14.310445167069064], [79.24308751839358, 14.308368176340641], [79.24097894621838, 14.306974802741804], [79.2374790412586, 14.30281554996824], [79.23571838601387, 14.302113604326854], [79.23291966501658, 14.29864838835099], [79.2290425721652, 14.297586220987746], [79.22447265217829, 14.294796613356898], [79.21777288402836, 14.293368748664353], [79.21039953944684, 14.287802360535533], [79.20547144305968, 14.285698616855608], [79.20373017182958, 14.282585532387627], [79.19564025389165, 14.278391102863425], [79.18827624259661, 14.271790896182353], [79.18405226730721, 14.270036555921731], [79.17628864197367, 14.269288386899333], [79.16361742643336, 14.264024574777844], [79.15655201233902, 14.264314464474095], [79.15162223188321, 14.262554131001592], [79.14774065563219, 14.26217957034972], [79.12725666543061, 14.26236394684987], [79.12654473112292, 14.263047205008004], [79.12301351028621, 14.263019423886895], [79.11878748489586, 14.26160840802244], [79.11596253815878, 14.261586097601132], [79.11348211760814, 14.262599752586015], [79.1124284946923, 14.261902563703787], [79.1113892196796, 14.25948336605489], [79.10822268908427, 14.258080568005907], [79.1068016213129, 14.25910255744099], [79.10503606078085, 14.259088531012589], [79.10223710165916, 14.25596646854985], [79.09942667862015, 14.2542219771135], [79.09061361431442, 14.252429479996591], [79.08072105809353, 14.25303891916742], [79.08001777752719, 14.252688840418278], [79.08039126812425, 14.250280917564856], [79.07969091026403, 14.249586443996863], [79.07616291452987, 14.249213601082472], [79.07473886639634, 14.250579782865833], [79.07648681350933, 14.252660390483564], [79.07577185941685, 14.253687876273991], [79.07222918323494, 14.255036934589432], [79.07009594206232, 14.25674176288261], [79.0654997609692, 14.257393350185614], [79.06370779410857, 14.260478542215422], [79.05841122031907, 14.260435462672914], [79.05665455329556, 14.259387906967278], [79.05242028849251, 14.259008940933759], [79.04752134949908, 14.253802685095534], [79.04364031503935, 14.253426468454396], [79.04080369913592, 14.254780828118651], [79.03972656806035, 14.256838442562467], [79.0368809467311, 14.259225904437942], [79.03437941118091, 14.26264939191258], [79.03083941494062, 14.263653400165397], [79.0255038743977, 14.268086564079526], [79.0209104533947, 14.268392862321585], [79.01771741601743, 14.270088351963002], [79.01383320298432, 14.270056001437993], [79.0106431240188, 14.271407006011863], [79.00323387507156, 14.270656208368704], [79.00078338472602, 14.268224831887466], [79.00010452371745, 14.265119503728355], [79.00369616048881, 14.258261532398954], [79.00690422746932, 14.254844322660059], [79.00727546116661, 14.252780994435389], [79.00482811652908, 14.25000529622708], [78.99846667450448, 14.250640811894549], [78.99284182983932, 14.247838327390488], [78.99144783131396, 14.245760181477905], [78.99185267736334, 14.239908746204305], [78.99791841699013, 14.232727219597137], [79.00465054089656, 14.230028322689375], [79.01033244088508, 14.226287251847037], [79.01357299083301, 14.219081669374207], [79.01326507341415, 14.213913002803396], [79.01574223877931, 14.213244757903844], [79.01924248119025, 14.2167178619947], [79.0192244886985, 14.218784162259048], [79.01709429302007, 14.22014413126449], [79.01600214445426, 14.223923550486735], [79.01349175608958, 14.228379983689015], [79.01100236086151, 14.230425707363544], [79.00532942678663, 14.233133640874888], [79.00320809837079, 14.233460317373616], [78.99823808868727, 14.236518342458302], [78.99431192043227, 14.241307035062935], [78.99428149931785, 14.24475080909456], [78.99637558109617, 14.247523627606304], [79.00697077134765, 14.247267966173588], [79.01048037292296, 14.249708098557344], [79.01081835682506, 14.251432946340286], [79.00938488730115, 14.253831826211615], [79.0093697781821, 14.25555372745479], [79.00471906733398, 14.262402948740876], [79.00469481994885, 14.26515798077457], [79.00609207500827, 14.266891698268346], [79.00785759220547, 14.266906465033477], [79.01067033309319, 14.268307585287353], [79.01314208007423, 14.268328209631864], [79.015628906835, 14.266626902423042], [79.02128761400203, 14.26564073597917], [79.03406810690012, 14.25782508636238], [79.04014213511788, 14.249609224441162], [79.03980392338309, 14.247884389580905], [79.0387506325131, 14.247186911256918], [79.0366321565481, 14.247169487724628], [79.03483694310408, 14.250598811120843], [79.03238625711815, 14.248167740093324], [79.03239819841795, 14.24679019903323], [79.0359677092851, 14.242342270569965], [79.03737999569461, 14.242353888425255], [79.03983663447192, 14.244096134253493], [79.04196696557383, 14.242735976215398], [79.04337925952264, 14.242747558897195], [79.04264639084658, 14.245841255955552], [79.04262857291585, 14.247907580385982], [79.04332879828733, 14.248602147887068], [79.04896332912051, 14.250370358129912], [79.05211450520481, 14.253495830856567], [79.05458024648304, 14.254204784252176], [79.0563280124934, 14.256285519272561], [79.0580876039948, 14.25698868411261], [79.0602061987952, 14.25700592882804], [79.06410205319526, 14.25565992915172], [79.06872751375502, 14.251564439061832], [79.07510948480264, 14.248516268503534], [79.07653643466547, 14.246805688028253], [79.07866370227931, 14.245789572561838], [79.08113530464482, 14.245809461064404], [79.0846603602318, 14.246526620896553], [79.08782365076904, 14.248274091694622], [79.09806045210584, 14.248700340162998], [79.10157987599482, 14.250106060506777], [79.10405155848495, 14.250125717551507], [79.1103757828726, 14.253964557961885], [79.11284465529134, 14.254328530528099], [79.11565234247017, 14.25641727857352], [79.12660447537219, 14.255814720657483], [79.13825153368627, 14.256594792314843], [79.14250583656717, 14.254561394442417], [79.14603977950668, 14.2542444629511], [79.14709630515345, 14.25459710371011], [79.14743816892059, 14.255977479884466], [79.1491925080035, 14.2573688236645], [79.15202026180552, 14.25704632500503], [79.15799810920667, 14.260192464343282], [79.1675324936727, 14.260265940304672], [79.17033805436422, 14.262698525424366], [79.1738610432119, 14.263758844505288], [79.17630526958096, 14.267221906102096], [79.1791276165217, 14.267587924041052], [79.18090160981495, 14.26656816667969], [79.18408262115956, 14.26624799133562], [79.18338462342547, 14.265209363834957], [79.1816189384351, 14.26519589870496], [79.17810694764079, 14.262758031696958], [79.17884640315103, 14.258630458762077], [79.18134313960962, 14.255549593736772], [79.18240250517299, 14.255557670262927], [79.18555581134267, 14.258681611747427], [79.18728565951923, 14.263172446989403], [79.18938796615164, 14.265255047553705], [79.1946603632403, 14.268394984538912], [79.19605375065387, 14.270816603249797], [79.19850662333107, 14.273246231571862], [79.20062006985358, 14.273951082834467], [79.20306483017399, 14.277413928239234], [79.20799545241931, 14.279173280263908], [79.21185578060292, 14.282302263479579], [79.21430351850431, 14.28542060155698], [79.21676488994844, 14.286816818472717], [79.21887853478368, 14.287521528233919], [79.22382845163365, 14.286869637569557], [79.22592592736024, 14.289640821000726], [79.22838742794852, 14.291036930794524], [79.23048769080573, 14.293463660991348], [79.23717684896158, 14.296268873774947], [79.24066326129395, 14.302150244363835], [79.24276643525232, 14.304232465935907], [79.24415251875986, 14.307687156663011], [79.24730207266008, 14.31149930145845], [79.24692212383967, 14.314940950964882], [79.24551189138103, 14.31458609573155]], [[79.0581082408887, 14.254577951797485], [79.05847607168076, 14.252858874385105], [79.06025331179576, 14.25149567584121], [79.06342819307822, 14.251865888818777], [79.06341643566408, 14.253243454873884], [79.06234832974981, 14.254268025125167], [79.06093006100139, 14.254945327468517], [79.0581082408887, 14.254577951797485]], [[79.16798295933377, 14.248214225356163], [79.16516645213835, 14.247159281970644], [79.16552790737029, 14.246128761024632], [79.16870028928575, 14.246841996665797], [79.16869195358451, 14.247875234471014], [79.16798295933377, 14.248214225356163]], [[79.07798960057846, 14.241995543439558], [79.07728927323237, 14.24130106649824], [79.07804205795068, 14.23579643561188], [79.08265813278273, 14.232733774121671], [79.08442346535888, 14.23274794055078], [79.08510637876446, 14.235508775112384], [79.08295307527833, 14.239624527726834], [79.08046116067713, 14.242015433739383], [79.07798960057846, 14.241995543439558]], [[79.07377893886826, 14.238861840571756], [79.0737701763776, 14.239895022583438], [79.073064025337, 14.239889323289509], [79.07307279103513, 14.238856141708217], [79.07377893886826, 14.238861840571756]]], [[[79.25439730308754, 14.353229486087077], [79.25970994136863, 14.351546325343062], [79.26256545323682, 14.347778359296617], [79.26009780363279, 14.347071369509614], [79.25439730308754, 14.353229486087077]]], [[[79.20422410615622, 14.397975817482118], [79.20742074847901, 14.395933467614968], [79.21063928608473, 14.391135736080829], [79.2131208836214, 14.390121191966179], [79.2145670809196, 14.38599886167187], [79.21847831177611, 14.382928408391079], [79.21990799002052, 14.380872537486376], [79.22912431113653, 14.377152858035911], [79.23198337472633, 14.373040942826712], [79.23694059319523, 14.371700150805133], [79.2380113262771, 14.370330354114566], [79.2387422154633, 14.367235810932158], [79.24088359913482, 14.364496186436844], [79.24657670629482, 14.359371747311007], [79.25047100140445, 14.358367204704708], [79.25189488005566, 14.356999935567158], [79.2529788073561, 14.353907924238232], [79.24624218751936, 14.356958163647217], [79.24305986879413, 14.357279031266463], [79.2381191686091, 14.356553457924049], [79.23601291512797, 14.35481557528024], [79.23213757119265, 14.353408929173053], [79.2303630319105, 14.35442900962943], [79.22892822149461, 14.357173820140718], [79.22818369675478, 14.36199042696545], [79.22640635692247, 14.363354887508466], [79.22534646036435, 14.363346948119469], [79.22148194769974, 14.360562441719368], [79.22149827154017, 14.358495925196042], [79.22471046961215, 14.35438673159091], [79.22437347522771, 14.352317563907546], [79.22226466057624, 14.350923994973813], [79.21731331553873, 14.351575686710815], [79.21204147446403, 14.348091591823815], [79.21205513764596, 14.34636950182614], [79.21419931634766, 14.34328571005468], [79.21385969586849, 14.341560957157878], [79.21138959350618, 14.3411979032251], [79.2099628748676, 14.342909331636685], [79.20783507886296, 14.343926575253265], [79.20283993806284, 14.350088638934935], [79.20280421730921, 14.35456604831018], [79.19992841718407, 14.360744074677058], [79.19955308997461, 14.363496711358614], [79.19491330975913, 14.369316793592246], [79.19525556060537, 14.370697143679982], [79.19737262882401, 14.371057709563331], [79.20303928006194, 14.369378610088575], [79.2065887938905, 14.367338901823837], [79.20906190537119, 14.367357620584448], [79.21186916289643, 14.369789903301628], [79.21183083230633, 14.374611744633288], [79.209675303101, 14.37907313548298], [79.20929454773633, 14.382514626822708], [79.20715261539816, 14.385253897391564], [79.20677729762969, 14.388006545653461], [79.20463527681812, 14.390745782576385], [79.2024711479142, 14.396240311871086], [79.20245460426338, 14.398306800268971], [79.20422410615622, 14.397975817482118]], [[79.2200142989776, 14.367440207836976], [79.2196718942985, 14.366059876155632], [79.22038394538204, 14.36537634944748], [79.22179987114819, 14.365042546000536], [79.22285433422702, 14.36573934118808], [79.22284617456286, 14.366772599630263], [79.2217780987943, 14.367797900214837], [79.2200142989776, 14.367440207836976]]]]}}, {"type": "Feature", "properties": {"depth_class": 3, "depth_lo_m": 2.0, "t_s": 18900.435319794095}, "geometry": {"type": "MultiPolygon", "coordinates": [[[[79.07833976585556, 14.242342781326807], [79.08188220944793, 14.240993601389416], [79.08474459721744, 14.236539132318489], [79.08511798946911, 14.234131189377038], [79.08442346535888, 14.23274794055078], [79.08265813278273, 14.232733774121671], [79.07804205795068, 14.23579643561188], [79.07728927323237, 14.24130106649824], [79.07833976585556, 14.242342781326807]], [[79.07871032889388, 14.240279254219443], [79.07874237313216, 14.236490908799674], [79.0833526454299, 14.234117026733674], [79.08368828473411, 14.236186237133245], [79.08189675289896, 14.23927162324468], [79.08047280508059, 14.24063785251368], [79.07871032889388, 14.240279254219443]]], [[[79.07377893886826, 14.238861840571756], [79.07307279103513, 14.238856141708217], [79.073064025337, 14.239889323289509], [79.0737701763776, 14.239895022583438], [79.07377893886826, 14.238861840571756]]], [[[79.16586709750607, 14.24785353570824], [79.16869195358451, 14.247875234471014], [79.1683499625748, 14.246494873797255], [79.16517201974989, 14.246470458100939], [79.16586709750607, 14.24785353570824]]], [[[79.24692212383967, 14.314940950964882], [79.24660632031588, 14.310116387792382], [79.24485092456513, 14.308725649974377], [79.24276643525232, 14.304232465935907], [79.24066326129395, 14.302150244363835], [79.23717684896158, 14.296268873774947], [79.23048769080573, 14.293463660991348], [79.22838742794852, 14.291036930794524], [79.22592592736024, 14.289640821000726], [79.22382845163365, 14.286869637569557], [79.22100302349607, 14.286848535056366], [79.21993807171621, 14.287529455422224], [79.21676488994844, 14.286816818472717], [79.21430351850431, 14.28542060155698], [79.21185578060292, 14.282302263479579], [79.20799545241931, 14.279173280263908], [79.20306483017399, 14.277413928239234], [79.20062006985358, 14.273951082834467], [79.19850662333107, 14.273246231571862], [79.19605375065387, 14.270816603249797], [79.1946603632403, 14.268394984538912], [79.18938796615164, 14.265255047553705], [79.18728565951923, 14.263172446989403], [79.18555581134267, 14.258681611747427], [79.18240250517299, 14.255557670262927], [79.18134313960962, 14.255549593736772], [79.17884640315103, 14.258630458762077], [79.17810694764079, 14.262758031696958], [79.1816189384351, 14.26519589870496], [79.18338462342547, 14.265209363834957], [79.18408262115956, 14.26624799133562], [79.18090160981495, 14.26656816667969], [79.1791276165217, 14.267587924041052], [79.17630526958096, 14.267221906102096], [79.1738610432119, 14.263758844505288], [79.17033805436422, 14.262698525424366], [79.1675324936727, 14.260265940304672], [79.15799810920667, 14.260192464343282], [79.15202026180552, 14.25704632500503], [79.1491925080035, 14.2573688236645], [79.14743816892059, 14.255977479884466], [79.14709630515345, 14.25459710371011], [79.14603977950668, 14.2542444629511], [79.14250583656717, 14.254561394442417], [79.13825153368627, 14.256594792314843], [79.13401416167977, 14.256561671411475], [79.1326073770472, 14.255861803799421], [79.11565234247017, 14.25641727857352], [79.11284465529134, 14.254328530528099], [79.1103757828726, 14.253964557961885], [79.10405155848495, 14.250125717551507], [79.10157987599482, 14.250106060506777], [79.09806045210584, 14.248700340162998], [79.08782365076904, 14.248274091694622], [79.0846603602318, 14.246526620896553], [79.08113530464482, 14.245809461064404], [79.07866370227931, 14.245789572561838], [79.07653643466547, 14.246805688028253], [79.07510948480264, 14.248516268503534], [79.06872751375502, 14.251564439061832], [79.06410205319526, 14.25565992915172], [79.0602061987952, 14.25700592882804], [79.0580876039948, 14.25698868411261], [79.0563280124934, 14.256285519272561], [79.05458024648304, 14.254204784252176], [79.05211450520481, 14.253495830856567], [79.04896332912051, 14.250370358129912], [79.04332879828733, 14.248602147887068], [79.04262857291585, 14.247907580385982], [79.04337925952264, 14.242747558897195], [79.04196696557383, 14.242735976215398], [79.03983663447192, 14.244096134253493], [79.03737999569461, 14.242353888425255], [79.0359677092851, 14.242342270569965], [79.03239819841795, 14.24679019903323], [79.03238625711815, 14.248167740093324], [79.03483694310408, 14.250598811120843], [79.0366321565481, 14.247169487724628], [79.0387506325131, 14.247186911256918], [79.03980392338309, 14.247884389580905], [79.04014213511788, 14.249609224441162], [79.03406810690012, 14.25782508636238], [79.02128761400203, 14.26564073597917], [79.015628906835, 14.266626902423042], [79.01314208007423, 14.268328209631864], [79.01067033309319, 14.268307585287353], [79.00785759220547, 14.266906465033477], [79.00609207500827, 14.266891698268346], [79.00469481994885, 14.26515798077457], [79.00471906733398, 14.262402948740876], [79.0093697781821, 14.25555372745479], [79.00938488730115, 14.253831826211615], [79.01081835682506, 14.251432946340286], [79.01048037292296, 14.249708098557344], [79.00697077134765, 14.247267966173588], [78.99637558109617, 14.247523627606304], [78.99428149931785, 14.24475080909456], [78.99431192043227, 14.241307035062935], [78.99823808868727, 14.236518342458302], [79.00320809837079, 14.233460317373616], [79.00532942678663, 14.233133640874888], [79.01100236086151, 14.230425707363544], [79.01349175608958, 14.228379983689015], [79.01600214445426, 14.223923550486735], [79.01709429302007, 14.22014413126449], [79.0192244886985, 14.218784162259048], [79.01924248119025, 14.2167178619947], [79.01574223877931, 14.213244757903844], [79.01326507341415, 14.213913002803396], [79.01357299083301, 14.219081669374207], [79.01033244088508, 14.226287251847037], [79.00465054089656, 14.230028322689375], [78.99791841699013, 14.232727219597137], [78.99185267736334, 14.239908746204305], [78.99144783131396, 14.245760181477905], [78.99284182983932, 14.247838327390488], [78.99846667450448, 14.250640811894549], [79.00482811652908, 14.25000529622708], [79.00727546116661, 14.252780994435389], [79.00690422746932, 14.254844322660059], [79.00369616048881, 14.258261532398954], [79.00010452371745, 14.265119503728355], [79.00078338472602, 14.268224831887466], [79.00323387507156, 14.270656208368704], [79.0106431240188, 14.271407006011863], [79.01383320298432, 14.270056001437993], [79.01771741601743, 14.270088351963002], [79.0209104533947, 14.268392862321585], [79.0255038743977, 14.268086564079526], [79.03083941494062, 14.263653400165397], [79.03437941118091, 14.26264939191258], [79.0368809467311, 14.259225904437942], [79.03972656806035, 14.256838442562467], [79.04080369913592, 14.254780828118651], [79.04364031503935, 14.253426468454396], [79.04752134949908, 14.253802685095534], [79.05242028849251, 14.259008940933759], [79.05665455329556, 14.259387906967278], [79.05841122031907, 14.260435462672914], [79.06370779410857, 14.260478542215422], [79.0654997609692, 14.257393350185614], [79.07009594206232, 14.25674176288261], [79.07222918323494, 14.255036934589432], [79.07577185941685, 14.253687876273991], [79.07648681350933, 14.252660390483564], [79.07473886639634, 14.250579782865833], [79.07616291452987, 14.249213601082472], [79.07969091026403, 14.249586443996863], [79.08039126812425, 14.250280917564856], [79.08001777752719, 14.252688840418278], [79.08072105809353, 14.25303891916742], [79.09061361431442, 14.252429479996591], [79.09942667862015, 14.2542219771135], [79.10223710165916, 14.25596646854985], [79.10503606078085, 14.259088531012589], [79.1068016213129, 14.25910255744099], [79.10822268908427, 14.258080568005907], [79.1113892196796, 14.25948336605489], [79.1124284946923, 14.261902563703787], [79.11348211760814, 14.262599752586015], [79.11596253815878, 14.261586097601132], [79.11878748489586, 14.26160840802244], [79.12301351028621, 14.263019423886895], [79.12654473112292, 14.263047205008004], [79.12725666543061, 14.26236394684987], [79.14774065563219, 14.26217957034972], [79.15162223188321, 14.262554131001592], [79.15655201233902, 14.264314464474095], [79.16361742643336, 14.264024574777844], [79.17628864197367, 14.269288386899333], [79.18405226730721, 14.270036555921731], [79.18827624259661, 14.271790896182353], [79.19564025389165, 14.278391102863425], [79.20373017182958, 14.282585532387627], [79.20547144305968, 14.285698616855608], [79.21039953944684, 14.287802360535533], [79.21777288402836, 14.293368748664353], [79.22447265217829, 14.294796613356898], [79.2290425721652, 14.297586220987746], [79.23291966501658, 14.29864838835099], [79.23571838601387, 14.302113604326854], [79.2374790412586, 14.30281554996824], [79.24097894621838, 14.306974802741804], [79.24308751839358, 14.308368176340641], [79.24448432901406, 14.310445167069064], [79.24551189138103, 14.31458609573155], [79.24692212383967, 14.314940950964882]], [[79.22308423381675, 14.29168626966669], [79.2241464958402, 14.291349758504989], [79.22484476119716, 14.292388295596368], [79.2237824947669, 14.292724809405575], [79.22308423381675, 14.29168626966669]], [[79.19988912993857, 14.277045506167912], [79.19565945949572, 14.275980184458149], [79.19391289935992, 14.273555883796623], [79.19215263539044, 14.272853656254588], [79.19075928268414, 14.270432018545375], [79.19077028103952, 14.269054353754017], [79.19323954944838, 14.26941752803612], [79.19567866151542, 14.273569265540484], [79.19988912993857, 14.277045506167912]], [[79.00325208171684, 14.268589937204657], [79.0029080803256, 14.267553842231465], [79.00396739143237, 14.267562718409685], [79.00502064055149, 14.268260347789251], [79.00501154587145, 14.269293484565258], [79.00325208171684, 14.268589937204657]], [[79.00869383267501, 14.25210403012087], [79.0058933989559, 14.24932539388536], [79.00589945063965, 14.248636634523505], [79.00801487823068, 14.24899871274143], [79.00941509948971, 14.250388022933905], [79.00869383267501, 14.25210403012087]], [[79.04119246871394, 14.250651085475543], [79.04190755425066, 14.249623721822193], [79.04367297536695, 14.24963820615764], [79.04578258654116, 14.25068873402126], [79.04612677719398, 14.251724790415038], [79.04153069257013, 14.2523759198699], [79.04119246871394, 14.250651085475543]], [[79.03666194084092, 14.243725625660955], [79.0377152094083, 14.244423110517893], [79.03770925607647, 14.245111883411223], [79.03629695223806, 14.245100265303337], [79.03666194084092, 14.243725625660955]], [[78.99754715803596, 14.234790529676296], [78.99932757875368, 14.233083433455908], [79.00109282574707, 14.233098215978186], [78.99930938363781, 14.235149705785206], [78.99789413973922, 14.235482246985187], [78.99754715803596, 14.234790529676296]], [[79.00357325217067, 14.232085750635767], [79.01103551000985, 14.22663751255505], [79.01427303882005, 14.219776300773434], [79.01465011739343, 14.217024174375837], [79.01396510657922, 14.21460763319327], [79.01467716385987, 14.213924732001205], [79.01608625288439, 14.21428083569582], [79.0171273157982, 14.216355919156216], [79.01710930457828, 14.218422216827662], [79.01603819863755, 14.219790959443802], [79.01529606747549, 14.22391768680759], [79.01314473164936, 14.22768828389053], [79.00710978226194, 14.231426477024703], [79.00357325217067, 14.232085750635767]]], [[[79.24863751000265, 14.32149806462569], [79.24864819634249, 14.320120362219912], [79.24759116324837, 14.319768119979255], [79.24722456004639, 14.321487640120184], [79.24863751000265, 14.32149806462569]]]]}}, {"type": "Feature", "properties": {"depth_class": 4, "depth_lo_m": 3.0, "t_s": 18900.435319794095}, "geometry": {"type": "MultiPolygon", "coordinates": [[[[79.0060476159491, 14.231762016979925], [79.01172050729191, 14.229054060525652], [79.01457796164361, 14.225289349873789], [79.01603819863755, 14.219790959443802], [79.01710930457828, 14.218422216827662], [79.0171273157982, 14.216355919156216], [79.01608625288439, 14.21428083569582], [79.01467716385987, 14.213924732001205], [79.01396510657922, 14.21460763319327], [79.01465011739343, 14.217024174375837], [79.01427303882005, 14.219776300773434], [79.01103551000985, 14.22663751255505], [79.006421811488, 14.229354302093059], [79.00357325217067, 14.232085750635767], [79.0060476159491, 14.231762016979925]]], [[[78.99789413973922, 14.235482246985187], [78.99931241635971, 14.234805327090019], [79.00109282574707, 14.233098215978186], [78.99932757875368, 14.233083433455908], [78.99754715803596, 14.234790529676296], [78.99789413973922, 14.235482246985187]]], [[[79.08082879363903, 14.240296296208783], [79.08368828473411, 14.236186237133245], [79.0833526454299, 14.234117026733674], [79.07874237313216, 14.236490908799674], [79.07871032889388, 14.240279254219443], [79.08082879363903, 14.240296296208783]]], [[[79.03770925607647, 14.245111883411223], [79.03666194084092, 14.243725625660955], [79.03629695223806, 14.245100265303337], [79.03770925607647, 14.245111883411223]]], [[[79.00834075193171, 14.252101082046169], [79.00941509948971, 14.250388022933905], [79.00801487823068, 14.24899871274143], [79.00589945063965, 14.248636634523505], [79.00834075193171, 14.252101082046169]]], [[[79.04153069257013, 14.2523759198699], [79.04612677719398, 14.251724790415038], [79.04613270786554, 14.251036014422322], [79.04472926186864, 14.249991278249633], [79.04190755425066, 14.249623721822193], [79.04119246871394, 14.250651085475543], [79.04153069257013, 14.2523759198699]]], [[[79.00501154587145, 14.269293484565258], [79.00396739143237, 14.267562718409685], [79.0029080803256, 14.267553842231465], [79.00289897648847, 14.268586977733062], [79.00395222600118, 14.269284611974648], [79.00501154587145, 14.269293484565258]]], [[[79.19988912993857, 14.277045506167912], [79.19567866151542, 14.273569265540484], [79.19323954944838, 14.26941752803612], [79.19077028103952, 14.269054353754017], [79.19075928268414, 14.270432018545375], [79.19215263539044, 14.272853656254588], [79.19391289935992, 14.273555883796623], [79.19565945949572, 14.275980184458149], [79.19812333658619, 14.277032152445488], [79.19988912993857, 14.277045506167912]]], [[[79.22484746343561, 14.292043873598407], [79.22344012427192, 14.29134448534433], [79.2230788240424, 14.29237511301157], [79.22448887077478, 14.292730082048116], [79.22484746343561, 14.292043873598407]]]]}}]}