{"type": "FeatureCollection", "features": [{"type": "Feature", "properties": {"depth_class": 1, "depth_lo_m": 0.3, "t_s": 85500.13001060703}, "geometry": {"type": "MultiPolygon", "coordinates": [[[[79.01424296778274, 14.223220123053174], [79.01602618186206, 14.221168489959858], [79.01813838663901, 14.221874831035088], [79.02096866992005, 14.221209469120577], [79.02168672354301, 14.21983777971867], [79.02171966913033, 14.216049556950844], [79.02067556682104, 14.2143188719775], [79.01926646668736, 14.213962794386443], [79.0178693710617, 14.212229176129327], [79.0139921575822, 14.211508191486345], [79.01150297172912, 14.213553947723556], [79.01148190310485, 14.215964620613429], [79.01217892634699, 14.21700363815606], [79.01144276519125, 14.220441583183506], [79.01283382962676, 14.222864001902288], [79.01424296778274, 14.223220123053174]], [[79.01815339219868, 14.220152915754356], [79.01641525626744, 14.217038827487833], [79.01324101536012, 14.216668060368143], [79.01254398765876, 14.215629045399083], [79.01291806577964, 14.213221304854397], [79.01610126561869, 14.2125589214722], [79.01819839683871, 14.214987168333762], [79.02030755945819, 14.21603786761961], [79.02063361758911, 14.21914024383072], [79.01991855910141, 14.220167546157368], [79.01815339219868, 14.220152915754356]]], [[[79.16062073082857, 14.241613360551185], [79.16141333288863, 14.230942045023951], [79.16388767401897, 14.23061664514664], [79.16425188065335, 14.229241710064466], [79.16320934656169, 14.227167095131888], [79.16109368959671, 14.226806387010601], [79.15898919719153, 14.225068015579426], [79.15722384841197, 14.225054407334662], [79.15543614648841, 14.227796071131706], [79.15331770701934, 14.227779705115275], [79.15189701514774, 14.228802013680765], [79.15187180994066, 14.23190170211306], [79.15291425045393, 14.233976355919092], [79.15572493499282, 14.235720239400475], [79.15708977487797, 14.241586124182863], [79.15814347395816, 14.242283121995076], [79.15990895746806, 14.242296739560603], [79.16062073082857, 14.241613360551185]], [[79.15890271052439, 14.235744762761133], [79.156100381072, 14.232967682060588], [79.1561087649173, 14.231934450296858], [79.1582244551067, 14.232295207249601], [79.15890271052439, 14.235744762761133]]], [[[79.08222365445923, 14.242374021086396], [79.08616269126503, 14.23586166391974], [79.08618589922843, 14.233106490654498], [79.08513830521576, 14.231720413936236], [79.08160765648091, 14.231692080612673], [79.07699159319492, 14.234754722914893], [79.07591197079478, 14.23715695226768], [79.07450552261072, 14.236456777950805], [79.07203110878068, 14.236781227347615], [79.07130157375234, 14.239530672437589], [79.07234910500024, 14.240916802965831], [79.07411156974005, 14.241275447603545], [79.07588571359318, 14.240256502362405], [79.07693036170394, 14.241987011201704], [79.07868701807759, 14.243034413726718], [79.08222365445923, 14.242374021086396]], [[79.07800708917237, 14.239929174541674], [79.07804205795068, 14.23579643561188], [79.08230215997636, 14.233075335192929], [79.0840674948359, 14.23308950458502], [79.08476782352267, 14.233783961502166], [79.0847533076638, 14.235505943341071], [79.08224110502438, 14.240307647104727], [79.08082006229033, 14.241329482389697], [79.07870158792157, 14.241312439113432], [79.07800708917237, 14.239929174541674]]], [[[79.11821835883717, 14.245071512487145], [79.12036827828598, 14.241299773694987], [79.1203882306469, 14.238888950273804], [79.11899871194554, 14.236122600929617], [79.11653001572947, 14.235758714744671], [79.1143801013723, 14.239530419205416], [79.11400413678402, 14.242282846396957], [79.11680598822896, 14.245060370735448], [79.11821835883717, 14.245071512487145]]], [[[79.03554013007644, 14.250949013555928], [79.03698821392922, 14.246828006718907], [79.03947166355192, 14.245470781105054], [79.03843921133668, 14.242362596340547], [79.03738594882373, 14.241665115509615], [79.03561761715916, 14.24199497871526], [79.03418744478843, 14.24404966533019], [79.03170398768316, 14.245406833998175], [79.03027674584823, 14.24711710443601], [79.03026180257916, 14.248839028483157], [79.03341565390926, 14.251620327758394], [79.03554013007644, 14.250949013555928]], [[79.03451368344689, 14.247152045410301], [79.03450175466527, 14.248529588185537], [79.0330924167534, 14.248173562985087], [79.03310435377429, 14.246796021339028], [79.03451368344689, 14.247152045410301]]], [[[79.14888435209784, 14.251855545913502], [79.15101704145654, 14.250149933078053], [79.15067796568138, 14.24842515076216], [79.14820623550241, 14.248405978891922], [79.14749159442616, 14.24943372182049], [79.1478306459271, 14.251158505782573], [79.14888435209784, 14.251855545913502]]], [[[79.15838479078947, 14.256062268996695], [79.15911338385736, 14.253312437782343], [79.15806243004766, 14.252271027947508], [79.15523753619165, 14.252249196791407], [79.15169520366683, 14.25359949742433], [79.15168398053454, 14.254977133819937], [79.1534383426815, 14.256368448666375], [79.15696672300872, 14.25674017679889], [79.15838479078947, 14.256062268996695]]], [[[79.14670942610012, 14.25872725670527], [79.14567259149406, 14.255963757223753], [79.14178268532561, 14.256622335625408], [79.14212733827675, 14.257658308524725], [79.14459070861554, 14.258710778365167], [79.14670942610012, 14.25872725670527]]], [[[79.02804154572235, 14.260530589186269], [79.0284185952044, 14.257778436996752], [79.02702119820533, 14.256044834396468], [79.02455556226504, 14.255335604427632], [79.02207192835726, 14.256692648188968], [79.0220509053966, 14.259103327882938], [79.02345127789235, 14.260492573724974], [79.0252107656334, 14.261195972272752], [79.02804154572235, 14.260530589186269]], [[79.02383138253299, 14.257396052775857], [79.02559984263743, 14.257066295060401], [79.02664413778716, 14.25879698293623], [79.02487266498778, 14.259471130173212], [79.02381937995807, 14.258773585480736], [79.02383138253299, 14.257396052775857]]], [[[79.15411374593728, 14.260162420518064], [79.15410253210774, 14.261540058043924], [79.15551503536479, 14.261550991483684], [79.15517311684107, 14.260170620556886], [79.15411374593728, 14.260162420518064]]], [[[79.04956882551404, 14.262085344424321], [79.04994266195278, 14.259677513925018], [79.04924534627528, 14.258638571089168], [79.04783887698481, 14.257938234206215], [79.04571732170355, 14.258265266255668], [79.04499925057591, 14.2596370268955], [79.04532860188453, 14.262395022668189], [79.04850358252169, 14.262765450493285], [79.04956882551404, 14.262085344424321]]], [[[79.08311707004823, 14.262013076241544], [79.08349346713261, 14.259260752706338], [79.08279307445079, 14.258566284081496], [79.07996530927423, 14.258887946705295], [79.07854121259146, 14.260254145413967], [79.0785324580722, 14.261287328479622], [79.08063945771873, 14.262681975628587], [79.08311707004823, 14.262013076241544]]], [[[79.16115388816888, 14.262972284503498], [79.16152097986257, 14.26125295454551], [79.15975534730913, 14.261239331187477], [79.15868757862737, 14.262264381647123], [79.15973578074197, 14.263650204214839], [79.16115388816888, 14.262972284503498]]], [[[79.12430056920495, 14.278184285909846], [79.1267953762938, 14.275448516597354], [79.1268210048519, 14.272348883784531], [79.12612327569242, 14.271310118309394], [79.12400161420601, 14.271637845878384], [79.12183711982674, 14.277131593484134], [79.12217598581242, 14.278856391441359], [79.12430056920495, 14.278184285909846]]], [[[79.10415986245036, 14.279402474961445], [79.10381825341616, 14.27802206717275], [79.1024056894136, 14.278010814823002], [79.10238837462667, 14.28007720665401], [79.10415986245036, 14.279402474961445]]], [[[79.16325019523511, 14.395938763805482], [79.16469732128584, 14.391816852267345], [79.16435524757058, 14.390436478596232], [79.16330370727142, 14.389395024164664], [79.16224372503379, 14.389386787904952], [79.16117528625266, 14.390411767968924], [79.16113581035978, 14.395233465036565], [79.16182838638849, 14.396960996747023], [79.16325019523511, 14.395938763805482]]], [[[79.16938705731988, 14.249258304748714], [79.17010993633328, 14.247197245588358], [79.16906450611407, 14.245467055631995], [79.166601126252, 14.244414841240927], [79.16306732832118, 14.244732099680535], [79.16305060756646, 14.246798569016825], [79.16479663885218, 14.249223037317808], [79.16620350837614, 14.249922722342431], [79.16938705731988, 14.249258304748714]]], [[[79.17953330293352, 14.261046752498341], [79.17987813950289, 14.262082691937437], [79.18164379854345, 14.26209616708329], [79.18165484556424, 14.260718508312914], [79.17953330293352, 14.261046752498341]]], [[[79.25368158569283, 14.262979242705228], [79.25261948988177, 14.263315906768009], [79.25260621715833, 14.265038046618047], [79.25436666515834, 14.265739842371413], [79.25368158569283, 14.262979242705228]]], [[[79.18230035577693, 14.268301018317963], [79.18089055349533, 14.267945824197145], [79.18017597550713, 14.268973673934395], [79.18264521240141, 14.269336955965668], [79.18230035577693, 14.268301018317963]]], [[[79.25109792356513, 14.277427075676373], [79.25111387879397, 14.275360511638743], [79.24971185907492, 14.27397242613669], [79.24723971534708, 14.273954248115146], [79.24652805770609, 14.274637902796464], [79.24650939521348, 14.27704888834821], [79.24721040037154, 14.277742941132871], [79.25038626401482, 14.278110741787053], [79.25109792356513, 14.277427075676373]]], [[[79.28212744890516, 14.284197510851772], [79.28037721753341, 14.282118165452715], [79.2786113079278, 14.282105403906657], [79.27439150476228, 14.279663702458864], [79.2680474969544, 14.277895395722918], [79.26594691596534, 14.275468964637811], [79.26065467728176, 14.274741479072274], [79.25750531490723, 14.270929532559371], [79.25575011777772, 14.269538897832955], [79.25468799201647, 14.269875567790638], [79.2550225847878, 14.27228915197494], [79.25642993266892, 14.272988352090747], [79.25782139800924, 14.275754116597865], [79.26028034889656, 14.277494332176964], [79.26166924116484, 14.280604510828995], [79.26379358117734, 14.279931113155232], [79.2638067833007, 14.278208965166383], [79.2648715794588, 14.277527827812962], [79.26592054777277, 14.278913265065997], [79.26874331227553, 14.27927825383253], [79.27647910930071, 14.283812231794178], [79.27930196582497, 14.284177103957763], [79.28035367247766, 14.285218057835943], [79.28211960797627, 14.28523080917934], [79.28212744890516, 14.284197510851772]]], [[[79.1965844932961, 14.29286463658808], [79.19730457979843, 14.291147906003298], [79.19590009693927, 14.290103948688941], [79.1944818876002, 14.290782066147592], [79.19482132783448, 14.292506827563852], [79.1965844932961, 14.29286463658808]]], [[[79.18594208401116, 14.298639130953813], [79.18489633572469, 14.296908974996596], [79.18418443181397, 14.297592411589477], [79.18452656044182, 14.298972764562219], [79.18594208401116, 14.298639130953813]]], [[[79.20529107657886, 14.308430217393926], [79.20814678575539, 14.30466293501843], [79.2081631652099, 14.30259642386567], [79.20995643416137, 14.299165536995902], [79.20960869236679, 14.298474040321588], [79.20500350512633, 14.300161520301698], [79.20215055337047, 14.303584349389983], [79.20211767958072, 14.307717357303872], [79.20281861619223, 14.30841153449807], [79.20529107657886, 14.308430217393926]], [[79.20426702303047, 14.303944783328154], [79.20568256402228, 14.303611032496708], [79.20531295606911, 14.305674874302634], [79.20390287508543, 14.305319785981538], [79.20426702303047, 14.303944783328154]]], [[[79.22471496908393, 14.308920539202616], [79.22437528615868, 14.307195793304903], [79.2229678601415, 14.30649639236486], [79.22013947597351, 14.306819671970894], [79.22329940813685, 14.309254402702955], [79.22471496908393, 14.308920539202616]]], [[[79.26072720152935, 14.311253495464369], [79.26214804485217, 14.310230547289763], [79.26215864008213, 14.30885283362684], [79.25970201220284, 14.306768173522379], [79.2575827132906, 14.306752647965006], [79.25544746490188, 14.308803666948748], [79.25508360761555, 14.310178782459415], [79.25613529681029, 14.311219842386146], [79.26072720152935, 14.311253495464369]]], [[[79.27936682633405, 14.322067151341288], [79.28328394142262, 14.317962090326239], [79.28436982008319, 14.314525424091007], [79.28443519595284, 14.30591461278796], [79.28586635887082, 14.303513774991094], [79.28588985980487, 14.300413878369925], [79.28519388395554, 14.299031053707871], [79.28377581915312, 14.299709727606846], [79.28197312887683, 14.304519027413525], [79.28191028522419, 14.312785396647444], [79.28012577901757, 14.315183640681555], [79.27764263938377, 14.316543452030727], [79.27692302986877, 14.318260483263598], [79.27724736180657, 14.3220517850061], [79.27936682633405, 14.322067151341288]]], [[[79.2656009352598, 14.32058921759288], [79.26562474354697, 14.317489358616273], [79.26422504096193, 14.315756895028189], [79.26245888386103, 14.315743984041505], [79.26174446935318, 14.316772100416568], [79.26242443390309, 14.320221550960511], [79.26382944219844, 14.321265169362539], [79.2656009352598, 14.32058921759288]]], [[[79.23171185464673, 14.317583768970971], [79.23134783658851, 14.31895882901564], [79.23275806314423, 14.319313768838931], [79.23312476835999, 14.317594282942515], [79.23171185464673, 14.317583768970971]]], [[[79.09274287509906, 14.50111588740989], [79.09418628383592, 14.497683463943686], [79.09525556607741, 14.496658895421524], [79.09809518587507, 14.495304248666374], [79.10021314150838, 14.495665805917056], [79.10199228290544, 14.494302526972632], [79.1030820232775, 14.490867168156472], [79.10593030315161, 14.488479231586608], [79.10915242380028, 14.483683338906893], [79.11021573709763, 14.483347473106296], [79.11235983465797, 14.480609357402063], [79.11555552733894, 14.478912902586513], [79.11806458350178, 14.474799968920896], [79.12126884636734, 14.472070230098037], [79.12736122236892, 14.462130601581709], [79.12948471624249, 14.461803066204965], [79.13370005271464, 14.464936330409149], [79.1358264450948, 14.46426434006052], [79.13585804720489, 14.460475940498586], [79.1309416541643, 14.456648311325818], [79.1306199006251, 14.452857114676906], [79.12957404015873, 14.45112670067633], [79.1299447350317, 14.449063112223088], [79.13670265613288, 14.443950317812027], [79.13849834464564, 14.440520273954746], [79.1431382975251, 14.435046083036683], [79.14988696681843, 14.430966028558991], [79.15520484864294, 14.428941128085839], [79.15732234605055, 14.429302108501687], [79.1569462857565, 14.432054587337548], [79.15373735331566, 14.435473749969713], [79.15372031298904, 14.437540175275261], [79.1551197279014, 14.439273265089684], [79.16889974147334, 14.439725151352329], [79.17067522566006, 14.438705650587046], [79.17385588862842, 14.43873031412698], [79.18054824502016, 14.441537515256059], [79.18300536091247, 14.44362306000335], [79.18404884144195, 14.445697692279094], [79.18437151519468, 14.449488924057343], [79.18753002804495, 14.4522687033352], [79.18855963229363, 14.456065375707631], [79.19137041766903, 14.458153577317473], [79.1924140316941, 14.460228187023688], [79.19239731837472, 14.462294652755553], [79.19132861154779, 14.463319738852764], [79.19131746045376, 14.46469738152662], [79.19448183008463, 14.466788276844724], [79.19550324472874, 14.471618169621628], [79.19475455027933, 14.47677891082548], [79.19613782115674, 14.48057828398856], [79.19611833361111, 14.482989161447524], [79.19323469683161, 14.48985565016487], [79.18576094289836, 14.495997805655534], [79.18468361452913, 14.498056061737058], [79.1850202905567, 14.500125244820051], [79.19845081255323, 14.500573110326272], [79.20126777527976, 14.501972438853704], [79.20304644869836, 14.500608327327088], [79.22461623939365, 14.500083544706571], [79.22993263803899, 14.49840149501485], [79.23140679491306, 14.49083496806601], [79.23502082684978, 14.480873422840853], [79.23648918791592, 14.47399565837447], [79.23622545615797, 14.462627180600082], [79.23275623709449, 14.454334618549368], [79.2299532264054, 14.451213616749126], [79.2288929128226, 14.451205645847834], [79.22674497775166, 14.454633866664683], [79.22071453429004, 14.45734387465788], [79.21576355026136, 14.457650842270237], [79.21363187006962, 14.459012421257057], [79.21221808205702, 14.459001688733004], [79.20905361883575, 14.4569110242712], [79.19986690019768, 14.456496530070373], [79.19706437268846, 14.453375186710112], [79.19638527795965, 14.449925653921039], [79.19463758896464, 14.44750123361601], [79.19466260016951, 14.444401527146283], [79.19714209422966, 14.443731644513134], [79.19821344583521, 14.442362103836881], [79.19752325240412, 14.440290223379682], [79.19399744798943, 14.439229933023794], [79.19081674222846, 14.439205540360456], [79.18764719564389, 14.437803461993157], [79.18413825276417, 14.434676572915262], [79.1827497943598, 14.431565991935932], [79.17992821186039, 14.430855369247846], [79.1799394057601, 14.429477731352897], [79.18315347017398, 14.425369332575032], [79.18387699400755, 14.423308312350244], [79.18708253419435, 14.420233072502272], [79.19132310868808, 14.42026561184767], [79.19239158569096, 14.419240498307849], [79.19242212969196, 14.415451963717706], [79.1999038167262, 14.407931567320608], [79.20202952144164, 14.407258889167432], [79.2044892843722, 14.408999780521484], [79.20731897061992, 14.408676841729644], [79.20769434730816, 14.405924200406961], [79.20594130446563, 14.40418871136191], [79.20595782307265, 14.402122220023923], [79.20987220834371, 14.398707543186212], [79.21238405595884, 14.393904434658308], [79.21593665216254, 14.391520207696006], [79.21845373995309, 14.38602817154469], [79.22129131079639, 14.384671773216287], [79.22307702965408, 14.38227411923166], [79.23158401676557, 14.378893457710731], [79.23302708570463, 14.375115384697665], [79.2369216956683, 14.374111104239184], [79.23941109783732, 14.372062980519711], [79.24120729282689, 14.368287462426254], [79.2436965905293, 14.366239280875424], [79.24691391137846, 14.361440906749923], [79.2518734885675, 14.35975533646388], [79.25544116251191, 14.355303845462329], [79.26004992675128, 14.353271052952037], [79.26325608805327, 14.349850101146846], [79.26680483520681, 14.347809389473591], [79.26789380017294, 14.344028422659202], [79.27002932012576, 14.341977322307196], [79.27111555229908, 14.338540758892883], [79.27078077088025, 14.336127179663677], [79.26903559370747, 14.333358867942309], [79.26904880732364, 14.331636722877157], [79.27048031828993, 14.329236019369839], [79.27158755795537, 14.323044005039671], [79.27053046375592, 14.322691859450677], [79.26946281233384, 14.323717426973595], [79.26909636180187, 14.32543699847885], [79.2658853771873, 14.329546942102095], [79.26580328720446, 14.340224221229635], [79.26293731807804, 14.345369955634887], [79.25869532968359, 14.345683288232062], [79.25548383986644, 14.349793030409248], [79.24626364353631, 14.354202770429298], [79.23778204782718, 14.354484295188646], [79.23637968651418, 14.35309609301099], [79.23639856102928, 14.350685136016446], [79.24284892704051, 14.33902195389978], [79.24395699013179, 14.33283016471843], [79.24573933240235, 14.330776679976003], [79.24683119846178, 14.326651410317616], [79.24824952695253, 14.325972990101377], [79.25105146287538, 14.329093657585664], [79.25246713066304, 14.328759638658054], [79.25318429454826, 14.327387134034513], [79.25320295435935, 14.324976150030139], [79.2507489312555, 14.322546963507994], [79.25077294677833, 14.31944712962135], [79.24868825999152, 14.314953976708203], [79.24801652819932, 14.310471233668155], [79.24451910977837, 14.30596763947839], [79.24417659874321, 14.304587329893657], [79.24066862136833, 14.301461395018695], [79.23788860740576, 14.295585259279088], [79.2290749298922, 14.293453148694407], [79.22767835800023, 14.291376092890715], [79.22486367535456, 14.289977341391207], [79.22488798837402, 14.286877542375036], [79.2241870347234, 14.286183428951924], [79.22171208601512, 14.286509392255759], [79.22132642600758, 14.290639810549946], [79.21744140411087, 14.290610737627453], [79.21534674970532, 14.28749507024724], [79.21253492621108, 14.28575176695229], [79.21219807142239, 14.283682595415113], [79.20903587646225, 14.281592186885518], [79.20728912507292, 14.27916796360372], [79.20376295600539, 14.278452512094246], [79.20060639165912, 14.275673172472922], [79.19849292978093, 14.274968319303325], [79.19568963248885, 14.272191597357514], [79.19499704912761, 14.2704641619745], [79.1925387517817, 14.268723338090783], [79.18971910032947, 14.26801305884595], [79.18793686490787, 14.27006613212667], [79.19110968024854, 14.270779116278895], [79.19600438697422, 14.277016110717941], [79.19847375574327, 14.277379241688271], [79.20445289541128, 14.280524350087182], [79.21285818605385, 14.28954303762364], [79.21461865658107, 14.290245133763639], [79.21847383527418, 14.29406288089464], [79.22482854625473, 14.2944548273646], [79.22869477041824, 14.296894745666874], [79.23292504730158, 14.297959541686453], [79.23818276997089, 14.303165209746851], [79.23957414073607, 14.305931070062115], [79.24412575645648, 14.311131407636069], [79.24479205705813, 14.316303002922393], [79.2458437184953, 14.3173441057664], [79.24583034171273, 14.319066231554205], [79.24368147251866, 14.322839240700432], [79.24329874851828, 14.326625297264313], [79.23863935520673, 14.335201858330512], [79.23754997569091, 14.338982642610482], [79.23469421048271, 14.342750275027555], [79.2318005076475, 14.351339764227772], [79.22966728863204, 14.353046047761557], [79.22860473018929, 14.353382549459681], [79.22440333375836, 14.348528941396314], [79.22158800620288, 14.347130077563591], [79.21984068753804, 14.344705884823073], [79.21843305892284, 14.344006433674272], [79.21600107318234, 14.33882155870877], [79.2131859239081, 14.337422614021554], [79.21106365841842, 14.337751058562247], [79.20785972166102, 14.340826819136899], [79.20537867808076, 14.341841372377132], [79.20181035101335, 14.34629202504285], [79.19968249333044, 14.347309187177329], [79.19930720572309, 14.350061828690619], [79.19999173654277, 14.352822519714401], [79.19891813499981, 14.354536544564994], [79.19854005997851, 14.357633595922874], [79.1971158915519, 14.359000506382923], [79.19495751229653, 14.36380616649828], [79.19211733316916, 14.365506676992203], [79.19103806598868, 14.367909477153567], [79.1892577117866, 14.36961803954903], [79.18323490736975, 14.371638496733313], [79.17828587544649, 14.37194489386351], [79.1743827737739, 14.373981413201555], [79.1690831995835, 14.373940475621724], [79.1652052844399, 14.372877154563152], [79.16201431213669, 14.374230115477365], [79.15702573052458, 14.379357750723596], [79.15490304231808, 14.379685634569974], [79.1527718601626, 14.381046715592044], [79.14956369866307, 14.384465914802108], [79.1484838844029, 14.386868452470658], [79.1449307771952, 14.38925159056368], [79.14456607547524, 14.390626433385519], [79.14064528413546, 14.394728735366252], [79.13919770933335, 14.39885044361531], [79.13986728235636, 14.403333240430777], [79.13771577522758, 14.407104959271946], [79.13732238970736, 14.411923797942558], [79.13590037180987, 14.412945847198245], [79.13307923519028, 14.41223470839221], [79.12636258115, 14.412525924565854], [79.12387180053003, 14.414572676271698], [79.12279442373476, 14.416630641398728], [79.12067136489405, 14.416958168184593], [79.11605450786742, 14.419676725757943], [79.1135519636565, 14.423100933248259], [79.11035711129652, 14.424797463371826], [79.10892908836186, 14.426508115580901], [79.10958352239201, 14.432712903376029], [79.10850300478045, 14.435115169033198], [79.10565258785587, 14.437847627775326], [79.10105849585115, 14.437810662206656], [79.0975011713216, 14.440537310441284], [79.09747774989432, 14.44329245389234], [79.10203688811859, 14.44746222791707], [79.10308250626878, 14.449192736883964], [79.10306790225809, 14.450914705955624], [79.100564766246, 14.454338700184103], [79.0998198789405, 14.458810106065599], [79.09483084767128, 14.463591599977658], [79.08988282643466, 14.46355149035182], [79.08918185746855, 14.462856970649034], [79.08921719075366, 14.458724282101933], [79.08184853502918, 14.452464912861293], [79.07690375923528, 14.452080172269058], [79.07442100378906, 14.45309312166575], [79.07088690967396, 14.453064196662375], [79.06875753385827, 14.45407997657369], [79.06695772992985, 14.457853727024599], [79.06693688151447, 14.460264430760047], [79.06902764285586, 14.463725702037241], [79.06899192348813, 14.467858339702346], [79.06646423252656, 14.474036965023105], [79.06644633725685, 14.47610327910375], [79.06714428102546, 14.47714224803425], [79.07101731452666, 14.478896108914464], [79.07100243189007, 14.480618041273393], [79.06709357689068, 14.48299680441585], [79.06671027933737, 14.486437751973217], [79.06980200486856, 14.496795478769824], [79.07011969922175, 14.500931012673242], [79.09274287509906, 14.50111588740989]], [[79.10635392822694, 14.480216637613655], [79.10144944277779, 14.47501083518195], [79.0972696677935, 14.467744322203448], [79.09836515785373, 14.463620186104306], [79.10228800167039, 14.459518849821215], [79.10267942598907, 14.45504458307431], [79.10518545963282, 14.451276169365038], [79.10451073640817, 14.44748214630713], [79.10065249862666, 14.444006899811825], [79.09996616549743, 14.441590447453178], [79.10210115022434, 14.439885564343731], [79.10598849637164, 14.439916835925041], [79.11026122795025, 14.43616252578407], [79.11170673701025, 14.432385496945493], [79.11101449103663, 14.430657856297513], [79.11104643599288, 14.426869500027626], [79.11424131589807, 14.425172963802403], [79.11745640136148, 14.421065595734914], [79.12136366014128, 14.418685786270025], [79.12419634746819, 14.41801947440272], [79.12563284005584, 14.41527550996789], [79.1270549130579, 14.414253530210646], [79.13306203319556, 14.41430111346336], [79.13552983261042, 14.415009464776514], [79.13872438868054, 14.413312552430758], [79.13911775056813, 14.408493708633113], [79.14163115524813, 14.403691548000404], [79.14096154617887, 14.399208751957444], [79.14205006177892, 14.395773058485927], [79.14561468011101, 14.392012365360793], [79.14633554692915, 14.39029588693881], [79.1498886598085, 14.38791272811565], [79.15132745167541, 14.384824134611442], [79.1545327675859, 14.381749314939738], [79.15807437512564, 14.380743631566228], [79.16306297030363, 14.375615975579507], [79.1651912363444, 14.374599195921087], [79.16906918008785, 14.37566252057723], [79.17436879480256, 14.375703463265616], [79.17862523422642, 14.373669667076816], [79.18428369796288, 14.373024277066385], [79.18995323098656, 14.371001095478942], [79.1977948936667, 14.362450031537232], [79.20139934626613, 14.353522079683664], [79.20108457028704, 14.348697576945147], [79.20428322493864, 14.346310766814454], [79.20713950657684, 14.34254356579287], [79.20891129341332, 14.341868077198425], [79.21140325482077, 14.339475812844237], [79.21422659839838, 14.339841524334034], [79.21597654587212, 14.341921329179877], [79.2159601910737, 14.343987842355245], [79.2145334835515, 14.345699299875184], [79.2148731116876, 14.347424052554569], [79.22227824845592, 14.349201895765502], [79.2261398824218, 14.352330790907178], [79.22647689335126, 14.354399957943892], [79.22361801520294, 14.358511828414779], [79.22395500489492, 14.360580996413825], [79.22571061839055, 14.361971914627915], [79.22712380559535, 14.361982496264448], [79.22819182909606, 14.360957165107358], [79.22857493178226, 14.357171179076532], [79.23071902315851, 14.354087226234077], [79.23283873595841, 14.354103042228587], [79.23847245917842, 14.356556084650965], [79.24518499356647, 14.35660589249734], [79.25511188378334, 14.352201411697756], [79.25973920423066, 14.347757630446326], [79.26221217186406, 14.347775770030696], [79.26184560650073, 14.349495316383782], [79.25935399340389, 14.351888157838484], [79.25332675474745, 14.354599379343172], [79.2511775929999, 14.358372421454462], [79.24799257317014, 14.35903777827377], [79.24515009769577, 14.361083402632792], [79.24016083275136, 14.366557473220128], [79.2387179506816, 14.370335612292628], [79.2369351942598, 14.372388994695928], [79.2326872991365, 14.373390641084072], [79.23017885312755, 14.377849629022938], [79.22805620554095, 14.378178183737889], [79.22238126830217, 14.380891134286248], [79.21953011152377, 14.383969644205655], [79.21775799988282, 14.384645175345558], [79.21561887307752, 14.387040114201149], [79.2145287631285, 14.390820703539214], [79.21097616651475, 14.393204909017623], [79.20882039785931, 14.397666262815141], [79.20454990988296, 14.401422652891677], [79.204514089985, 14.40590004710765], [79.20062711683772, 14.405870468331276], [79.19920814615135, 14.406548524284728], [79.19066081713223, 14.414749603616622], [79.19028520655942, 14.417502189877418], [79.18567737435032, 14.419188976503435], [79.1792522121104, 14.427061410153296], [79.17746004562993, 14.430147446124712], [79.17744603333708, 14.431869490985795], [79.181672823671, 14.433624277908631], [79.18236285163154, 14.435696186421533], [79.18692643148111, 14.439520079437346], [79.18938916752998, 14.440916740411799], [79.19291774812747, 14.441632688536892], [79.19183523951378, 14.444379847283829], [79.19390571164811, 14.450595520017686], [79.19388624214399, 14.453006400627], [79.19492986269327, 14.455080999955511], [79.19456808219886, 14.456111524871178], [79.19209958185905, 14.455403718705648], [79.19069698093648, 14.454015216280924], [79.1886098481319, 14.44986598729358], [79.1865004514178, 14.448472029373157], [79.18616936481277, 14.445714026860058], [79.18443020554561, 14.442256316718268], [79.18056784201963, 14.439126650173826], [79.17738996564503, 14.438757667786772], [79.17422334013042, 14.437011011129755], [79.16360993257535, 14.438306283175425], [79.16114175990852, 14.437598185946932], [79.15584072302318, 14.437556773563742], [79.15549867082356, 14.43617639030177], [79.15835136369626, 14.433098847234993], [79.1594426824251, 14.429318665159895], [79.15733934301947, 14.427235677547875], [79.15521902887215, 14.427219104325669], [79.14990403440137, 14.428899606591928], [79.13995488111753, 14.435365412951285], [79.13601305181407, 14.441878324024342], [79.13209398149965, 14.445635940852885], [79.12996776650436, 14.446307918396071], [79.12782712974409, 14.448701869188229], [79.12745641676517, 14.450765452086957], [79.1288412692327, 14.45422067593306], [79.12950489254789, 14.45939227488068], [79.1273814220487, 14.459719813261254], [79.12524928112276, 14.461080525485258], [79.11915685262387, 14.471020092242767], [79.11559622677194, 14.474091365061756], [79.1152311462538, 14.475466114782453], [79.11309296053169, 14.477515478062582], [79.10954673329925, 14.478864663562325], [79.1081212257183, 14.480230866771821], [79.10635392822694, 14.480216637613655]], [[79.2260964794278, 14.357841517582882], [79.2268003478559, 14.358191227275537], [79.22643620519801, 14.359566264327817], [79.22573233342393, 14.359216553162183], [79.2260964794278, 14.357841517582882]]], [[[79.16441836271555, 14.425913157819762], [79.17118328438038, 14.419765964073454], [79.17685412966892, 14.417743257114008], [79.18255279921875, 14.412276297014921], [79.18859064805714, 14.40853393356916], [79.19251370837192, 14.404086352287221], [79.19430819954138, 14.400655733829016], [79.20071545730134, 14.394849210632357], [79.20287409938902, 14.390043530301298], [79.20537221526493, 14.386962576996135], [79.20574479700734, 14.384554348258723], [79.20824555218888, 14.38112893531998], [79.20899060950597, 14.376312455177064], [79.2104175776055, 14.374601062607724], [79.21045319886224, 14.37012364204801], [79.20940150307742, 14.369082377048121], [79.20657506806197, 14.36906098361437], [79.1973505478415, 14.373813025443066], [79.1948746171472, 14.374138590090242], [79.19096050820637, 14.377553048529684], [79.18737738183992, 14.38372543303476], [79.1852407560802, 14.385775648695196], [79.1845174078737, 14.38783669495527], [79.18024677429491, 14.391592623024], [79.17735580841452, 14.39949227816339], [79.17306519847708, 14.405658895373449], [79.16986253223294, 14.408389542094584], [79.16589954565934, 14.417658384569393], [79.16270508314607, 14.419355681488339], [79.1598526422209, 14.422433308485047], [79.15983850249086, 14.424155337448482], [79.16124072486916, 14.425543982493322], [79.16441836271555, 14.425913157819762]], [[79.16197291664471, 14.422449834709067], [79.16730459003509, 14.41870258656327], [79.17126754526589, 14.40943371658414], [79.17554148585486, 14.405333604538175], [79.17698008576828, 14.402244830477786], [79.17911974673743, 14.399850309301767], [79.18129562276138, 14.39297842317867], [79.1862812749241, 14.38819466354165], [79.18700460916587, 14.386133610179813], [79.18914122459783, 14.384083377146945], [79.19272431271501, 14.37791096108665], [79.19557018350213, 14.375521634679803], [79.19804612956374, 14.375196064446936], [79.2065613404129, 14.370783065142055], [79.20868118244286, 14.370799115380118], [79.20901255193152, 14.373557122213297], [79.20722128487739, 14.376643494827066], [79.20683500663898, 14.380773811111842], [79.20433423638288, 14.384199207191894], [79.20324671658696, 14.387635309798448], [79.20218120737438, 14.388316083408345], [79.19930760713767, 14.394149619031687], [79.19290033982097, 14.399956102446435], [79.18967852449408, 14.405097942135015], [79.18433915191568, 14.409879014782756], [79.18221338788022, 14.410551524374416], [79.1765147601179, 14.41601848120746], [79.16977821300316, 14.418721782354309], [79.16549825574278, 14.42351055682707], [79.16266555734684, 14.424177370926053], [79.16197291664471, 14.422449834709067]]]]}}, {"type": "Feature", "properties": {"depth_class": 2, "depth_lo_m": 1.0, "t_s": 85500.13001060703}, "geometry": {"type": "MultiPolygon", "coordinates": [[[[79.01815339219868, 14.220152915754356], [79.02063361758911, 14.21914024383072], [79.02065159775512, 14.21707394186038], [79.01960750057071, 14.215343252802397], [79.01819839683871, 14.214987168333762], [79.01610126561869, 14.2125589214722], [79.01291806577964, 14.213221304854397], [79.01254398765876, 14.215629045399083], [79.01324101536012, 14.216668060368143], [79.01641525626744, 14.217038827487833], [79.01815339219868, 14.220152915754356]], [[79.01395608813061, 14.215640780239521], [79.013974124304, 14.213574486052321], [79.01644227872582, 14.213939381788796], [79.0164272670522, 14.215661296171254], [79.01395608813061, 14.215640780239521]]], [[[79.15890271052439, 14.235744762761133], [79.1582244551067, 14.232295207249601], [79.1561087649173, 14.231934450296858], [79.156100381072, 14.232967682060588], [79.15890271052439, 14.235744762761133]]], [[[79.08152913049344, 14.240990763783339], [79.0847533076638, 14.235505943341071], [79.08476782352267, 14.233783961502166], [79.0840674948359, 14.23308950458502], [79.08159311890579, 14.233414059554859], [79.08087825806406, 14.23444157273225], [79.07911000429254, 14.234771773679837], [79.07768315945009, 14.236482383125871], [79.07800125995254, 14.240617964216305], [79.07870158792157, 14.241312439113432], [79.08152913049344, 14.240990763783339]], [[79.07943104488227, 14.238562961220072], [79.08015465913117, 14.236502269065609], [79.0815669463746, 14.236513620989646], [79.08048735883516, 14.238915875745315], [79.07943104488227, 14.238562961220072]]], [[[79.03450175466527, 14.248529588185537], [79.0345166654432, 14.246807659690159], [79.03310435377429, 14.246796021339028], [79.03344251277102, 14.248520859106744], [79.03450175466527, 14.248529588185537]]], [[[79.02628804568184, 14.259138443746428], [79.02630303036523, 14.257416525317973], [79.02383138253299, 14.257396052775857], [79.02416947409795, 14.259120895213629], [79.02628804568184, 14.259138443746428]]], [[[79.20566889475792, 14.305333122655647], [79.20568256402228, 14.303611032496708], [79.20462296006193, 14.303603033067423], [79.20390287508543, 14.305319785981538], [79.20566889475792, 14.305333122655647]]], [[[79.1088310635089, 14.479892160631234], [79.10954673329925, 14.478864663562325], [79.11309296053169, 14.477515478062582], [79.1152311462538, 14.475466114782453], [79.11559622677194, 14.474091365061756], [79.11915685262387, 14.471020092242767], [79.12524928112276, 14.461080525485258], [79.1273814220487, 14.459719813261254], [79.12950489254789, 14.45939227488068], [79.1288412692327, 14.45422067593306], [79.12745641676517, 14.450765452086957], [79.12818630724078, 14.448015880102217], [79.12996776650436, 14.446307918396071], [79.13209398149965, 14.445635940852885], [79.13601305181407, 14.441878324024342], [79.13673706401386, 14.439817509047554], [79.13815926488577, 14.438795476960511], [79.14066739144928, 14.434682184859403], [79.14990403440137, 14.428899606591928], [79.15521902887215, 14.427219104325669], [79.15733934301947, 14.427235677547875], [79.1594426824251, 14.429318665159895], [79.15835136369626, 14.433098847234993], [79.15549867082356, 14.43617639030177], [79.15584072302318, 14.437556773563742], [79.16114175990852, 14.437598185946932], [79.16360993257535, 14.438306283175425], [79.17422334013042, 14.437011011129755], [79.17738996564503, 14.438757667786772], [79.18056784201963, 14.439126650173826], [79.18443020554561, 14.442256316718268], [79.18616936481277, 14.445714026860058], [79.1865004514178, 14.448472029373157], [79.1886098481319, 14.44986598729358], [79.19069698093648, 14.454015216280924], [79.19209958185905, 14.455403718705648], [79.19456808219886, 14.456111524871178], [79.19492986269327, 14.455080999955511], [79.19388624214399, 14.453006400627], [79.19390571164811, 14.450595520017686], [79.19183523951378, 14.444379847283829], [79.19291774812747, 14.441632688536892], [79.18938916752998, 14.440916740411799], [79.18692643148111, 14.439520079437346], [79.18236285163154, 14.435696186421533], [79.181672823671, 14.433624277908631], [79.17744603333708, 14.431869490985795], [79.17746004562993, 14.430147446124712], [79.1792522121104, 14.427061410153296], [79.18567737435032, 14.419188976503435], [79.19028520655942, 14.417502189877418], [79.19066081713223, 14.414749603616622], [79.19920814615135, 14.406548524284728], [79.20062711683772, 14.405870468331276], [79.204514089985, 14.40590004710765], [79.20454990988296, 14.401422652891677], [79.20882039785931, 14.397666262815141], [79.21097616651475, 14.393204909017623], [79.2145287631285, 14.390820703539214], [79.21561887307752, 14.387040114201149], [79.21775799988282, 14.384645175345558], [79.21953011152377, 14.383969644205655], [79.22238126830217, 14.380891134286248], [79.22805620554095, 14.378178183737889], [79.23017885312755, 14.377849629022938], [79.2326872991365, 14.373390641084072], [79.2369351942598, 14.372388994695928], [79.2387179506816, 14.370335612292628], [79.24016083275136, 14.366557473220128], [79.24515009769577, 14.361083402632792], [79.24799257317014, 14.35903777827377], [79.2511775929999, 14.358372421454462], [79.25332675474745, 14.354599379343172], [79.25935399340389, 14.351888157838484], [79.26184560650073, 14.349495316383782], [79.26221217186406, 14.347775770030696], [79.25973920423066, 14.347757630446326], [79.25511188378334, 14.352201411697756], [79.24518499356647, 14.35660589249734], [79.23847245917842, 14.356556084650965], [79.23283873595841, 14.354103042228587], [79.23071902315851, 14.354087226234077], [79.22857493178226, 14.357171179076532], [79.22819182909606, 14.360957165107358], [79.22712380559535, 14.361982496264448], [79.22571061839055, 14.361971914627915], [79.22395500489492, 14.360580996413825], [79.22361801520294, 14.358511828414779], [79.22647689335126, 14.354399957943892], [79.2261398824218, 14.352330790907178], [79.22227824845592, 14.349201895765502], [79.2148731116876, 14.347424052554569], [79.2145334835515, 14.345699299875184], [79.2159601910737, 14.343987842355245], [79.21597654587212, 14.341921329179877], [79.21422659839838, 14.339841524334034], [79.21140325482077, 14.339475812844237], [79.20891129341332, 14.341868077198425], [79.20713950657684, 14.34254356579287], [79.20428322493864, 14.346310766814454], [79.20108457028704, 14.348697576945147], [79.20139934626613, 14.353522079683664], [79.1977948936667, 14.362450031537232], [79.18995323098656, 14.371001095478942], [79.18428369796288, 14.373024277066385], [79.17862523422642, 14.373669667076816], [79.17436879480256, 14.375703463265616], [79.16906918008785, 14.37566252057723], [79.1651912363444, 14.374599195921087], [79.16306297030363, 14.375615975579507], [79.15807437512564, 14.380743631566228], [79.1545327675859, 14.381749314939738], [79.15132745167541, 14.384824134611442], [79.1498886598085, 14.38791272811565], [79.14633554692915, 14.39029588693881], [79.14561468011101, 14.392012365360793], [79.14205006177892, 14.395773058485927], [79.14096154617887, 14.399208751957444], [79.14163115524813, 14.403691548000404], [79.13911775056813, 14.408493708633113], [79.13872438868054, 14.413312552430758], [79.13552983261042, 14.415009464776514], [79.13306203319556, 14.41430111346336], [79.1270549130579, 14.414253530210646], [79.12563284005584, 14.41527550996789], [79.12419634746819, 14.41801947440272], [79.12136366014128, 14.418685786270025], [79.11745640136148, 14.421065595734914], [79.11424131589807, 14.425172963802403], [79.11104643599288, 14.426869500027626], [79.11101449103663, 14.430657856297513], [79.11170673701025, 14.432385496945493], [79.11026122795025, 14.43616252578407], [79.10598849637164, 14.439916835925041], [79.10210115022434, 14.439885564343731], [79.09996616549743, 14.441590447453178], [79.10065249862666, 14.444006899811825], [79.10451073640817, 14.44748214630713], [79.10518545963282, 14.451276169365038], [79.10267942598907, 14.45504458307431], [79.10228800167039, 14.459518849821215], [79.09836515785373, 14.463620186104306], [79.0972696677935, 14.467744322203448], [79.10005322627313, 14.47293306177669], [79.10459833136167, 14.478824822155417], [79.10635392822694, 14.480216637613655], [79.1088310635089, 14.479892160631234]], [[79.16229805261271, 14.425896649688905], [79.15983850249086, 14.424155337448482], [79.16021167538864, 14.421747252380573], [79.16270508314607, 14.419355681488339], [79.16589954565934, 14.417658384569393], [79.16986253223294, 14.408389542094584], [79.17306519847708, 14.405658895373449], [79.17735580841452, 14.39949227816339], [79.18024677429491, 14.391592623024], [79.1845174078737, 14.38783669495527], [79.1852407560802, 14.385775648695196], [79.18737738183992, 14.38372543303476], [79.19203152838546, 14.376183496218868], [79.19416523234914, 14.374477613517172], [79.1973505478415, 14.373813025443066], [79.20657506806197, 14.36906098361437], [79.20940150307742, 14.369082377048121], [79.21045319886224, 14.37012364204801], [79.2104175776055, 14.374601062607724], [79.20899060950597, 14.376312455177064], [79.20824555218888, 14.38112893531998], [79.20574479700734, 14.384554348258723], [79.20537221526493, 14.386962576996135], [79.20287409938902, 14.390043530301298], [79.20071545730134, 14.394849210632357], [79.19430819954138, 14.400655733829016], [79.18965907352164, 14.40750882637201], [79.18610040246803, 14.410581415563172], [79.18255279921875, 14.412276297014921], [79.17827602480995, 14.416720942830606], [79.17118328438038, 14.419765964073454], [79.16548133856489, 14.425576997933737], [79.16229805261271, 14.425896649688905]], [[79.16147786732063, 14.396613841357873], [79.16117528625266, 14.390411767968924], [79.16224372503379, 14.389386787904952], [79.16330370727142, 14.389395024164664], [79.16469732128584, 14.391816852267345], [79.1643242855931, 14.394224961814686], [79.16253506479703, 14.396966492181543], [79.16147786732063, 14.396613841357873]]]]}}, {"type": "Feature", "properties": {"depth_class": 3, "depth_lo_m": 2.0, "t_s": 85500.13001060703}, "geometry": {"type": "MultiPolygon", "coordinates": [[[[79.01360606965545, 14.215293465045868], [79.0164272670522, 14.215661296171254], [79.01644227872582, 14.213939381788796], [79.013974124304, 14.213574486052321], [79.01360606965545, 14.215293465045868]]], [[[79.08048735883516, 14.238915875745315], [79.0815582207986, 14.237546807945652], [79.0815669463746, 14.236513620989646], [79.07944269258934, 14.237185380432265], [79.07943104488227, 14.238562961220072], [79.08048735883516, 14.238915875745315]]]]}}]}