{"type": "FeatureCollection", "features": [{"type": "Feature", "properties": {"depth_class": 1, "depth_lo_m": 0.3, "t_s": 8100.782999701602}, "geometry": {"type": "MultiPolygon", "coordinates": [[[[79.22294077739609, 14.309940604174006], [79.22611971220266, 14.309964353752909], [79.22614674656243, 14.306520135991992], [79.2254457350124, 14.30582601988645], [79.21909341717631, 14.30508963261291], [79.21660738719977, 14.306793197764524], [79.21659107992458, 14.308859717751526], [79.21729206936566, 14.309553857761003], [79.2204791256004, 14.308544420173183], [79.22294077739609, 14.309940604174006]]], [[[79.19744963930695, 14.405501806461173], [79.20346227762238, 14.404858742445612], [79.203834932631, 14.402450525999532], [79.20881490250478, 14.398355094645876], [79.21168285241137, 14.39321025617398], [79.21523544290156, 14.390826039214376], [79.21668160905986, 14.386703692260207], [79.21810586894489, 14.38533667359698], [79.21987798556324, 14.384661140394163], [79.22237309748972, 14.381924391142743], [79.2308800782623, 14.37854375454975], [79.23303249767433, 14.374426542421599], [79.23834575804871, 14.37274393903343], [79.24086206122452, 14.367251569285303], [79.24371271718458, 14.364172740469845], [79.24798185253981, 14.360415475685615], [79.25152019043323, 14.359752729143999], [79.25508787068472, 14.35530124425014], [79.26040587621884, 14.352929219576172], [79.26361202720062, 14.349508261702308], [79.26502781712836, 14.349174180700885], [79.26716341444703, 14.347123115432964], [79.26789644683197, 14.343683994184826], [79.2700319631286, 14.341632893383125], [79.27042486487693, 14.336469033838132], [79.26833436158687, 14.33266485549554], [79.26978173334315, 14.328197582637754], [79.26837136840041, 14.327842850167663], [79.26658659235291, 14.330240960024582], [79.26655483484735, 14.33437410282333], [79.26583772027017, 14.33574665378684], [79.26616185451144, 14.339537947272342], [79.26473287332806, 14.341594182245075], [79.26436369041396, 14.34365816448827], [79.26258404040955, 14.345367367347825], [79.2604696923364, 14.344662972425633], [79.2552505138019, 14.33429125145314], [79.25349755336214, 14.332556126677575], [79.25423338013624, 14.328772635449168], [79.25390411350742, 14.325670199675441], [79.25146341332508, 14.32151888844619], [79.24908419576894, 14.309445765434564], [79.24069005881158, 14.298705997220182], [79.23965190338973, 14.295942759502976], [79.2378966562333, 14.294551986224098], [79.23190852779545, 14.292440895018686], [79.2308597329847, 14.291055325916195], [79.22664039128671, 14.288612818902761], [79.22489879228895, 14.285499853651745], [79.21890021560456, 14.284766159793742], [79.21503973816404, 14.28163727525273], [79.211165767369, 14.280230438696712], [79.20906311468946, 14.278147993078894], [79.20343164882311, 14.275694500718465], [79.20203268712838, 14.273961749801545], [79.19816442637493, 14.271865890414393], [79.19431819408226, 14.267014640941147], [79.19255797681058, 14.266312421873215], [79.18905133432163, 14.263185868288438], [79.18696832171645, 14.258692356769643], [79.18486609334883, 14.256609743603576], [79.18134866153773, 14.254860764110713], [79.17959963916805, 14.252780806370788], [79.17608231339389, 14.25103176051613], [79.17293201882562, 14.247563306577891], [79.1704658187216, 14.246855540408271], [79.16766043112094, 14.244422977012334], [79.16271980111476, 14.244040558368194], [79.16200802474756, 14.244723943354925], [79.16198850570575, 14.24713482277384], [79.15879939066798, 14.248487963991847], [79.15914132330744, 14.249868331531932], [79.16197456129869, 14.248856879187944], [79.16549450455281, 14.250261704560797], [79.16761316819431, 14.250277987763093], [79.16974016695245, 14.24926101397432], [79.17150294149609, 14.249618965357099], [79.17324077066927, 14.253076624616202], [79.17711952038147, 14.253795170557812], [79.17957753181166, 14.255536122415624], [79.17671103489427, 14.26068074878674], [79.1738860067263, 14.260659125943171], [79.17002105388907, 14.258218452383684], [79.16614505172907, 14.257155372995479], [79.16544716556965, 14.25611670532603], [79.16438780745392, 14.256108553193021], [79.16225235131213, 14.25815870127163], [79.15871833884063, 14.258475868461039], [79.15802048615211, 14.257437182746576], [79.16015876128078, 14.25504266553094], [79.16228025302142, 14.254714590321742], [79.16439338107347, 14.255419730140476], [79.16510797426082, 14.25439193007735], [79.16441845867911, 14.252320025886231], [79.16088732868086, 14.252292825691747], [79.15913573601422, 14.250557152865706], [79.15560184484963, 14.250874287757515], [79.153474782581, 14.251891125841112], [79.1418108945421, 14.25317826416851], [79.13649444834157, 14.255547782868014], [79.13261871670754, 14.254484182472467], [79.11602547322131, 14.254009254367558], [79.11391828866041, 14.252614902156152], [79.10933942577476, 14.251200956208685], [79.10512810430473, 14.248067733891933], [79.09455553165594, 14.245572583118417], [79.08855013457956, 14.245868973184335], [79.0846865097285, 14.243427056420607], [79.08151167257954, 14.243057136781996], [79.0804669830344, 14.241326643147532], [79.07870158792157, 14.241312439113432], [79.07620961350597, 14.24370329243814], [79.07231401953761, 14.24504952624518], [79.07093387256786, 14.241249786463829], [79.0681268356478, 14.239160584126486], [79.06529931826358, 14.239482101115643], [79.06458143234661, 14.240853945368634], [79.05711087704535, 14.247337128427576], [79.05463043822213, 14.248350158607137], [79.05180576288863, 14.248327109142412], [79.04936377025436, 14.244863025487938], [79.04618606965943, 14.244837028593185], [79.04766943808465, 14.236583261262037], [79.04627494898862, 14.234505377968652], [79.04486566737192, 14.234149430736503], [79.042735437678, 14.235509628120402], [79.04022240510106, 14.240310776723705], [79.03775687382719, 14.23960169908553], [79.0349293560694, 14.239922849896148], [79.03244296693222, 14.241624418557075], [79.03065372434516, 14.244364939443443], [79.02781717237475, 14.245719150134383], [79.02707510148879, 14.249845922467701], [79.03058499577406, 14.252285791504548], [79.03091118110913, 14.25538816969255], [79.03019602849068, 14.256415491161167], [79.02843056898529, 14.256400900343598], [79.0256238218951, 14.25431122611828], [79.02279912165069, 14.254287823782086], [79.02065956581374, 14.25668092825479], [79.02134471647057, 14.25909746792875], [79.02097659529221, 14.260816449814115], [79.01814580216191, 14.261481745788796], [79.01250229091596, 14.260745946058428], [79.01035954644817, 14.263483315072264], [79.00930025025957, 14.263474469774886], [79.0085970781154, 14.263124190461932], [79.00860917695447, 14.261746671010423], [79.01147320232965, 14.25729330632733], [79.01328087430143, 14.252486688737939], [79.01296397756757, 14.248351173921645], [79.01226687379148, 14.247312148247044], [79.00769807466044, 14.244863202907194], [78.99781216569518, 14.244780459435985], [78.99712425975045, 14.242708265666183], [78.9989138571782, 14.239968046852738], [79.00282780138025, 14.2365567799184], [79.01169037714872, 14.23249787478392], [79.01560401391428, 14.229086354471365], [79.02062462642395, 14.22017339467386], [79.02138760565317, 14.213635948035812], [79.02492980365821, 14.212287596170123], [79.0249387700915, 14.211254441951432], [79.0235356595231, 14.210209622047206], [79.02106452911158, 14.210189187231627], [79.0192904470511, 14.211207726105], [79.01470119969657, 14.21116967139719], [79.01257707523628, 14.211840842354107], [79.01114694015935, 14.213895393393887], [79.01109876768066, 14.219405500745733], [79.00894138914894, 14.223864819949856], [79.00645201448445, 14.225910498004701], [79.00256253209066, 14.226566821675787], [79.00006701569211, 14.229301179467061], [78.99687748648918, 14.230652068158161], [78.99118006434304, 14.236114658949187], [78.98902211558433, 14.240573720280885], [78.98931722802455, 14.247119844858304], [78.99420845548809, 14.253015862463588], [78.99596776809818, 14.253719458030808], [79.00338853869904, 14.253092891353795], [79.00337641582432, 14.254470407406364], [78.99980914608538, 14.258573357901549], [78.9976541231337, 14.262688106180297], [78.9976115357265, 14.26750939080869], [78.99934664603717, 14.270967998203691], [79.0025064059966, 14.273060936180139], [79.0053252409326, 14.27377336694655], [79.01274064835572, 14.273835352668316], [79.01451528121808, 14.272816934830756], [79.01910878467929, 14.27251077279895], [79.02194272526826, 14.271501101000625], [79.02334616793651, 14.27254597327099], [79.02473460982496, 14.27531275332873], [79.02825982190984, 14.276030781720314], [79.03003441919209, 14.275012241554213], [79.03075263615519, 14.273640545549076], [79.03044741197996, 14.268127478900556], [79.03116260770301, 14.267100162229152], [79.03222791445992, 14.266420143222435], [79.03787169193325, 14.267155501650231], [79.03929902916879, 14.26544519725343], [79.03932881278638, 14.262001334928897], [79.04183027208458, 14.25857778481441], [79.04323969315365, 14.258933768093707], [79.04391024170987, 14.263072210328952], [79.04531078681528, 14.264461347561426], [79.05025134229791, 14.264846229990322], [79.05485950096481, 14.262817404199287], [79.05696043662282, 14.264901023691095], [79.05943221538772, 14.264921163303649], [79.06155972018571, 14.263905233083939], [79.06544100048251, 14.264281184059806], [79.06969887237034, 14.26190479382784], [79.07182045625285, 14.261577548233086], [79.0739712850541, 14.257806348354922], [79.07538954416046, 14.25712896588803], [79.08068317978893, 14.257516053549223], [79.08351965692928, 14.256161193654625], [79.08705069001498, 14.256189546321114], [79.08811580663634, 14.255509249070455], [79.09235304651098, 14.255543182845981], [79.09658162816761, 14.256610235840105], [79.10185517421648, 14.259407649640455], [79.10219963981952, 14.260443658194443], [79.10465704267578, 14.262185320778707], [79.1106514274584, 14.26326617930156], [79.11311180093084, 14.264663364916078], [79.1233523781665, 14.26474422060976], [79.12830750126832, 14.263405480227268], [79.14561063761555, 14.263540727930618], [79.15055161462708, 14.263923548326773], [79.1568939425726, 14.26569483473111], [79.16290000017572, 14.265396776099056], [79.17626923973482, 14.271699280686693], [79.18191958341107, 14.271742469148661], [79.18896602195525, 14.273862761107193], [79.19352404157542, 14.278030621074], [79.20196159638188, 14.282916620033967], [79.20510734524095, 14.287073627645169], [79.20932638107945, 14.289516486650173], [79.21107594554323, 14.291596285420361], [79.21740884063746, 14.294743784718877], [79.22305177084698, 14.29581932910877], [79.22832268843811, 14.29930307246526], [79.23149609584094, 14.300015578917685], [79.23429480738123, 14.303480810717287], [79.23850645365442, 14.3069564928057], [79.24198231313166, 14.314215560023023], [79.24225510854686, 14.324550907439628], [79.2379489841094, 14.333130073108165], [79.23545195969675, 14.336211503666126], [79.23328113808194, 14.342739752340448], [79.23290086804533, 14.34618134031007], [79.23037926702897, 14.352362482058878], [79.22752590634343, 14.355785570169152], [79.22678136030122, 14.360602170202926], [79.22571876206834, 14.360938654156994], [79.22431373200101, 14.35989480512099], [79.22433002906841, 14.357828285293824], [79.227183463351, 14.354405244802852], [79.22649587561229, 14.35198901415675], [79.22404191448015, 14.349559555758542], [79.21732966695104, 14.34950917332607], [79.21451711103293, 14.347765810762372], [79.21418021459958, 14.345696639434873], [79.21597109456229, 14.342610166946963], [79.21422387051946, 14.340185942953303], [79.21210977223153, 14.339481139211937], [79.20678350422338, 14.34288531204981], [79.20428048058521, 14.346655183366467], [79.20108457028704, 14.348697576945147], [79.20104056604954, 14.35420822969924], [79.19780868005427, 14.36072795712018], [79.19743332737188, 14.363480587422787], [79.19316615942172, 14.366892421696132], [79.19101591249877, 14.370664784102978], [79.19099375430784, 14.373420090378886], [79.19169483211435, 14.374114316719284], [79.19416799773754, 14.374133199695054], [79.20302277381683, 14.371445103814231], [79.20621901808828, 14.369402723325315], [79.20869215174366, 14.369421448576347], [79.20974384525371, 14.370462716504193], [79.20971643384514, 14.373906884884363], [79.20828123355795, 14.376651522561541], [79.2075361592971, 14.381467998446722], [79.20539696913286, 14.383862836311456], [79.20466555146453, 14.386957213257707], [79.20288236466293, 14.389010285190539], [79.20072097609508, 14.39416038166793], [79.1953654850572, 14.40100824586716], [79.1953461009095, 14.403419138533025], [79.19639509718154, 14.404804887681154], [79.19744963930695, 14.405501806461173]], [[79.2231042530783, 14.378829928122858], [79.21851106509013, 14.378795389527928], [79.21746475261347, 14.377065315792052], [79.21714146840367, 14.373274054428485], [79.2178699231809, 14.370524028912378], [79.21893802908623, 14.36949874973603], [79.22212323967007, 14.36883381118485], [79.22390608580665, 14.366780552058755], [79.22427569541752, 14.364716683247979], [79.22782226502137, 14.363021045490344], [79.22889842032302, 14.360962449213758], [79.22928421950522, 14.356832039724997], [79.23107230844569, 14.354089863548229], [79.23354530746575, 14.354108310018532], [79.23776587811132, 14.356550830671004], [79.24341047473145, 14.357626074329897], [79.24694877309082, 14.356963392503388], [79.25014446850805, 14.354920347153532], [79.2522668839919, 14.354591565049125], [79.25082697268638, 14.358025388420801], [79.24728866175438, 14.358688127542507], [79.24053029564958, 14.36449356188536], [79.23803020694803, 14.367919398493195], [79.23765801418216, 14.37032772423555], [79.23623396518448, 14.371694886834932], [79.23127674440104, 14.37303566358181], [79.22877641583027, 14.376461373102922], [79.22629774428339, 14.37713168836357], [79.22593898901276, 14.377817879252838], [79.2231042530783, 14.378829928122858]], [[79.24484243856811, 14.35522558024572], [79.23990446392587, 14.354155625442182], [79.24065407475689, 14.348650100494899], [79.24283013747161, 14.341432921651618], [79.24497655397835, 14.338004372083068], [79.24571790648822, 14.333532077846701], [79.24785884327555, 14.330792336760295], [79.24892127274396, 14.330455732694313], [79.24994629369694, 14.334941080592795], [79.25168588911734, 14.338398358694299], [79.25728222066583, 14.345672906435075], [79.25726357637649, 14.348083891503972], [79.25583712313254, 14.349795630055562], [79.25193230423088, 14.352177982384001], [79.24484243856811, 14.35522558024572]], [[79.25617441105913, 14.351864785914879], [79.25938592342263, 14.347755036973863], [79.26221217186406, 14.347775770030696], [79.26184826345407, 14.349150889175753], [79.25935665462741, 14.351543731157362], [79.2579381815358, 14.352222201987752], [79.25617441105913, 14.351864785914879]], [[79.23610189388395, 14.343449634563875], [79.23753920688566, 14.34036033459809], [79.23967762045501, 14.337965111031844], [79.24113632724452, 14.332120387703656], [79.24328266202035, 14.328691843737156], [79.24474922267865, 14.321813801887652], [79.2461835750436, 14.319068840109624], [79.24619694913589, 14.317346713995152], [79.24479473360157, 14.315958577898169], [79.24446559592526, 14.312856142732358], [79.24272894590057, 14.30905441480485], [79.23957414073607, 14.305931070062115], [79.23853060975883, 14.303856675280976], [79.23502004220136, 14.301075090768125], [79.2336260630214, 14.29865363599925], [79.21919105774386, 14.292690486170759], [79.21673503743244, 14.290605444834869], [79.21251044606078, 14.288851545352705], [79.20444470225839, 14.281557605514784], [79.20197800631266, 14.280850112146128], [79.19952228159988, 14.278764924632032], [79.19529807102185, 14.277010759291045], [79.19004748754121, 14.271115486051492], [79.18758647375326, 14.269719030408933], [79.18901831854856, 14.267318860248906], [79.1911371693107, 14.2673349534177], [79.19359818546305, 14.268731372154512], [79.19744442549958, 14.27358263421147], [79.2013127055127, 14.275678507672325], [79.20341525832399, 14.27776101115373], [79.20728912507292, 14.27916796360372], [79.21219807142239, 14.283682595415113], [79.21288538194052, 14.286098838892126], [79.21605039142085, 14.287844786509217], [79.21743869088567, 14.290955158275908], [79.21920190091794, 14.291312802396137], [79.22062005774028, 14.290634529276367], [79.2217039680472, 14.287542656933242], [79.22347527286422, 14.28686700158749], [79.22486367535456, 14.289977341391207], [79.22767835800023, 14.291376092890715], [79.2294281200129, 14.293455777554211], [79.23717953319274, 14.295924449585913], [79.2399675738446, 14.300767318153724], [79.2473127593621, 14.310121598884097], [79.2480085162927, 14.311504510974869], [79.24797646226959, 14.315637619261016], [79.25005046109585, 14.321508480734371], [79.24932796022455, 14.323569827807255], [79.24755373447414, 14.324590075072944], [79.24467957792658, 14.330768844494287], [79.24217998300746, 14.33419478401554], [79.2421558236358, 14.337294599743306], [79.24035726509933, 14.341414587886446], [79.23750958676983, 14.344148986699631], [79.23643360439364, 14.34620764309222], [79.23610189388395, 14.343449634563875]], [[79.25142339402132, 14.326685278799868], [79.2493119324847, 14.32563638150834], [79.24932528911216, 14.323914253450253], [79.25073558681429, 14.324269093079009], [79.25178464385333, 14.325654602314865], [79.25142339402132, 14.326685278799868]], [[79.02827181263176, 14.274653247303458], [79.02509973960326, 14.273938149945653], [79.0244115212662, 14.271865995847271], [79.02230485650425, 14.2704708853873], [79.01098111901517, 14.273131854984053], [79.00462811295307, 14.272734315381266], [79.00110914967036, 14.27132719710113], [78.99867084318706, 14.26751829049742], [78.99834815110714, 14.26407154844285], [78.99943479103352, 14.260981041433723], [79.00479177843975, 14.254137848585044], [79.00480692072507, 14.252415951953909], [78.99562685690582, 14.252338981213306], [78.9900294647044, 14.246437041971214], [78.99009043524302, 14.239549511848645], [78.9911678825102, 14.237492166631315], [78.99793358763628, 14.231005327136904], [79.00076704416033, 14.229995848629938], [79.00290649535333, 14.22760291216487], [79.00644295443334, 14.226943639341831], [79.00928538036423, 14.224900904731014], [79.01179880797584, 14.220100138525106], [79.01220600642452, 14.213904200440556], [79.01469218686076, 14.212202819202595], [79.01786337170361, 14.212917942609588], [79.01996052664111, 14.21534617680958], [79.01992755346873, 14.219134395756436], [79.01777934697716, 14.22256066891458], [79.01704924629941, 14.22530987299625], [79.01240852797072, 14.23112622641068], [79.00319296495671, 14.23518221504769], [78.99856990194989, 14.238931951546371], [78.99606506909568, 14.242699374253473], [78.99639989817004, 14.2447686055584], [78.99780305381799, 14.245813593677951], [79.00663281932864, 14.245543116985921], [79.01120463439567, 14.247647702063457], [79.01225179372932, 14.249034053454894], [79.01221861050507, 14.252822243984001], [79.00755291612234, 14.261393439324126], [79.00752870494742, 14.26414847636265], [79.01140676004609, 14.264869677280247], [79.01319942877693, 14.261784975448053], [79.0188399607343, 14.262865144247522], [79.02273607525026, 14.261519865956506], [79.02310418531725, 14.259800879871703], [79.02205691235756, 14.258414562308824], [79.02207493131674, 14.25634826533336], [79.02314320604114, 14.255323900288664], [79.02561483027353, 14.255344377050646], [79.02877168908675, 14.25778135649801], [79.03089324387611, 14.257454477880028], [79.03196148999164, 14.256430068927038], [79.03199136533564, 14.252986219222029], [79.03095302348217, 14.250566782446304], [79.02884050856295, 14.249860516751042], [79.0288674264217, 14.24676105620212], [79.03242207719096, 14.244035116407485], [79.03492041622309, 14.240956007876251], [79.03739487792105, 14.24063195605721], [79.03879823222832, 14.241676724435887], [79.04056358827168, 14.241691223859608], [79.04449482108816, 14.236212868516862], [79.04590115169773, 14.236913207815627], [79.04475892949772, 14.24654740024963], [79.04828973190745, 14.246576307582545], [79.05214406839426, 14.250051938649777], [79.057093188801, 14.249403470467378], [79.06205993673221, 14.246688547677609], [79.06592332043871, 14.249130806785514], [79.06839200945919, 14.249495224419332], [79.0769041091184, 14.245086561906888], [79.08290946199286, 14.244790464429004], [79.08853853471933, 14.24724656034157], [79.09348469620541, 14.24694171347502], [79.10511372768724, 14.249789734150315], [79.10897197464959, 14.25292016090571], [79.11179106985361, 14.253631343350037], [79.11741503479254, 14.256775626138717], [79.11704762878331, 14.258494848960465], [79.1156265911461, 14.259516895581367], [79.10821981650608, 14.258424968408768], [79.10679587133622, 14.25979135760948], [79.1046771925027, 14.259774523482193], [79.10292891326736, 14.257694084706008], [79.09976535817478, 14.255946784823777], [79.09518655435909, 14.254532569948342], [79.08813031823883, 14.253787266713774], [79.08564990089374, 14.254800627734319], [79.07504813167363, 14.255748540443928], [79.06936628809318, 14.259491186671362], [79.06793626290916, 14.261546097819975], [79.06580586477692, 14.262906483305981], [79.06086528169949, 14.262521925493397], [79.05768141149389, 14.263184830449308], [79.05628373980157, 14.261451367387178], [79.054168063715, 14.261089693197336], [79.04991008235655, 14.263465787262318], [79.04637901374619, 14.26343687040528], [79.04532563290437, 14.262739410176732], [79.04431680698498, 14.256876135304173], [79.04220120595826, 14.256514362586165], [79.03791342232819, 14.262334098928479], [79.03788957829676, 14.265089186451055], [79.0364682007264, 14.26611071024517], [79.03400241673043, 14.265401560743223], [79.03117457297286, 14.265722624367305], [79.02902898105123, 14.26880456732606], [79.02934016063526, 14.273628863445941], [79.02827181263176, 14.274653247303458]], [[79.18299835590358, 14.269339649281136], [79.17876340644399, 14.268962881079705], [79.1794779902729, 14.26793503633747], [79.183006639492, 14.268306405065571], [79.18299835590358, 14.269339649281136]], [[79.17629418480514, 14.268599560008775], [79.16819700989207, 14.265437548763401], [79.16398171382846, 14.26264965038396], [79.15832326104379, 14.263639294205602], [79.1526928357597, 14.261184707154912], [79.14951190479415, 14.261504466638646], [79.14669816848522, 14.260104888613181], [79.1403532817707, 14.258677765277703], [79.1392939267543, 14.258669500254408], [79.13786731531113, 14.260380504123003], [79.13291796311319, 14.261030648222132], [79.13010152013047, 14.259975292028903], [79.12268890134975, 14.259572610992961], [79.12164381441919, 14.257842251701067], [79.13189547975857, 14.256545082761134], [79.1354124621876, 14.258294749165252], [79.13964986994282, 14.25832784916416], [79.14179114888127, 14.25558911429831], [79.14567822186116, 14.255274941453585], [79.14846940276725, 14.259429790956982], [79.15164188311421, 14.260143268811683], [79.15588216507682, 14.259831674886483], [79.15693313831301, 14.260873096723916], [79.16682067290668, 14.260949334416082], [79.16821927151179, 14.262682252553073], [79.17314645154995, 14.264786671270425], [79.17665286737117, 14.267913435529419], [79.17629418480514, 14.268599560008775]], [[79.15557384963861, 14.254318386832622], [79.15698910683032, 14.25398489601157], [79.15733662691399, 14.254676444862966], [79.15556824969947, 14.25500720652207], [79.15557384963861, 14.254318386832622]], [[79.16763263199815, 14.247867101349243], [79.16551955766946, 14.247161997049817], [79.16588101137076, 14.246131475377023], [79.1679968575194, 14.246492163029512], [79.16763263199815, 14.247867101349243]]]]}}, {"type": "Feature", "properties": {"depth_class": 2, "depth_lo_m": 1.0, "t_s": 8100.782999701602}, "geometry": {"type": "MultiPolygon", "coordinates": [[[[79.02615309354026, 14.274635697735832], [79.02934016063526, 14.273628863445941], [79.02902898105123, 14.26880456732606], [79.03010627428898, 14.266747022954354], [79.03188377677225, 14.26538407322689], [79.03717740003262, 14.265772142490864], [79.0389906015953, 14.260276499022856], [79.04220120595826, 14.256514362586165], [79.04431680698498, 14.256876135304173], [79.04532563290437, 14.262739410176732], [79.04637901374619, 14.26343687040528], [79.04991008235655, 14.263465787262318], [79.054168063715, 14.261089693197336], [79.05628373980157, 14.261451367387178], [79.05768141149389, 14.263184830449308], [79.06086528169949, 14.262521925493397], [79.06580586477692, 14.262906483305981], [79.06793626290916, 14.261546097819975], [79.06936628809318, 14.259491186671362], [79.07504813167363, 14.255748540443928], [79.08564990089374, 14.254800627734319], [79.08813031823883, 14.253787266713774], [79.09518655435909, 14.254532569948342], [79.09976535817478, 14.255946784823777], [79.10292891326736, 14.257694084706008], [79.1046771925027, 14.259774523482193], [79.10679587133622, 14.25979135760948], [79.10821981650608, 14.258424968408768], [79.1156265911461, 14.259516895581367], [79.11704762878331, 14.258494848960465], [79.11741503479254, 14.256775626138717], [79.11179106985361, 14.253631343350037], [79.10897197464959, 14.25292016090571], [79.10511372768724, 14.249789734150315], [79.09348469620541, 14.24694171347502], [79.08853853471933, 14.24724656034157], [79.08290946199286, 14.244790464429004], [79.0769041091184, 14.245086561906888], [79.06839200945919, 14.249495224419332], [79.06592332043871, 14.249130806785514], [79.06205993673221, 14.246688547677609], [79.057093188801, 14.249403470467378], [79.05214406839426, 14.250051938649777], [79.04828973190745, 14.246576307582545], [79.04475892949772, 14.24654740024963], [79.04590115169773, 14.236913207815627], [79.04449482108816, 14.236212868516862], [79.04056358827168, 14.241691223859608], [79.03879823222832, 14.241676724435887], [79.03739487792105, 14.24063195605721], [79.03492041622309, 14.240956007876251], [79.03242207719096, 14.244035116407485], [79.0288674264217, 14.24676105620212], [79.02884050856295, 14.249860516751042], [79.03095302348217, 14.250566782446304], [79.03199136533564, 14.252986219222029], [79.03196148999164, 14.256430068927038], [79.03089324387611, 14.257454477880028], [79.02877168908675, 14.25778135649801], [79.02561483027353, 14.255344377050646], [79.02314320604114, 14.255323900288664], [79.02207493131674, 14.25634826533336], [79.02205691235756, 14.258414562308824], [79.02310418531725, 14.259800879871703], [79.02273607525026, 14.261519865956506], [79.0188399607343, 14.262865144247522], [79.01319942877693, 14.261784975448053], [79.01140676004609, 14.264869677280247], [79.00752870494742, 14.26414847636265], [79.00755291612234, 14.261393439324126], [79.01221861050507, 14.252822243984001], [79.01225179372932, 14.249034053454894], [79.01120463439567, 14.247647702063457], [79.00663281932864, 14.245543116985921], [78.99780305381799, 14.245813593677951], [78.99639989817004, 14.2447686055584], [78.99606506909568, 14.242699374253473], [78.99856990194989, 14.238931951546371], [79.00319296495671, 14.23518221504769], [79.01240852797072, 14.23112622641068], [79.01704924629941, 14.22530987299625], [79.01777934697716, 14.22256066891458], [79.01992755346873, 14.219134395756436], [79.01996052664111, 14.21534617680958], [79.01786337170361, 14.212917942609588], [79.01469218686076, 14.212202819202595], [79.01220600642452, 14.213904200440556], [79.01216387904202, 14.21872554762965], [79.00928538036423, 14.224900904731014], [79.00644295443334, 14.226943639341831], [79.00290649535333, 14.22760291216487], [79.00076704416033, 14.229995848629938], [78.99793358763628, 14.231005327136904], [78.9911678825102, 14.237492166631315], [78.99009043524302, 14.239549511848645], [78.9900294647044, 14.246437041971214], [78.99562685690582, 14.252338981213306], [79.00480692072507, 14.252415951953909], [79.00479177843975, 14.254137848585044], [78.99943479103352, 14.260981041433723], [78.99834815110714, 14.26407154844285], [78.99867084318706, 14.26751829049742], [79.00110914967036, 14.27132719710113], [79.00462811295307, 14.272734315381266], [79.01098111901517, 14.273131854984053], [79.02230485650425, 14.2704708853873], [79.0244115212662, 14.271865995847271], [79.02509973960326, 14.273938149945653], [79.02615309354026, 14.274635697735832]], [[79.0265182133511, 14.273261090853994], [79.02337020172146, 14.269790911657292], [79.02054531255963, 14.269767457752558], [79.01877072647615, 14.270785927389227], [79.01453037031774, 14.271095030674966], [79.01240263929363, 14.2721105044161], [79.00604662329043, 14.27205738517328], [79.00146833366708, 14.270641403554269], [78.99938008837329, 14.267179843233583], [78.99941959848516, 14.262702931165926], [79.00513577684976, 14.255173940399034], [79.00586616237956, 14.252424810491426], [79.00446595484833, 14.251035480866598], [79.00198834477975, 14.251703548687413], [78.99669217320026, 14.251659125155065], [78.99388277819669, 14.249913499139787], [78.99073864895658, 14.246098612922705], [78.99079350319495, 14.239899833118924], [78.99187094662877, 14.237842484163682], [78.99721535583686, 14.232376920598366], [79.001470105365, 14.23034613698308], [79.00360652913007, 14.22829757354379], [79.00714601788466, 14.22729391096992], [79.01034751039381, 14.224565345382533], [79.01286993856053, 14.218731418463626], [79.01290904349517, 14.214254451361333], [79.01397713005143, 14.21323010365096], [79.01715132626141, 14.213600855005101], [79.01924547965814, 14.216373478580488], [79.0192244886985, 14.218784162259048], [79.01455389943452, 14.228044407025543], [79.01170544322702, 14.23077596778647], [79.00248988644704, 14.234831929598679], [78.99786682162765, 14.238581651989936], [78.99536198278412, 14.242349066394526], [78.99569072447493, 14.245107053133822], [78.99709083955537, 14.246496423145295], [79.0062737000726, 14.24622892689046], [79.00979233746456, 14.247635925097844], [79.0115426230163, 14.24937254941549], [79.01151546347596, 14.252471976697812], [79.01006990886377, 14.256248382152929], [79.00613145178922, 14.262414767694958], [79.0061132795873, 14.264481043565999], [79.00681342282077, 14.265175709636274], [79.01210088235494, 14.26625309102671], [79.01389657266046, 14.262824003541404], [79.01706241478558, 14.264227989317817], [79.01918102493781, 14.264245607151167], [79.02485166752057, 14.261881813397864], [79.02556986136445, 14.260510130289084], [79.02311619313582, 14.258423347882134], [79.02313120110654, 14.256701432657884], [79.02384038362332, 14.256362903136472], [79.02560583793188, 14.256377527888132], [79.02840961402981, 14.258811589375915], [79.03230263230158, 14.25781052279399], [79.03337684638039, 14.256097336526384], [79.03339774441557, 14.253686639718746], [79.03202123270508, 14.249542368463292], [79.03061189458985, 14.249186328318268], [79.02991470090682, 14.248147343536857], [79.03027674584823, 14.24711710443601], [79.03347831454698, 14.2443882329107], [79.0352675261025, 14.241647686474783], [79.03773901955564, 14.241668018523457], [79.04019862743692, 14.243065873143701], [79.04340596501935, 14.239648069377127], [79.04446220652206, 14.240001136930715], [79.04369375421783, 14.247227493123697], [79.04509717923256, 14.248272232826169], [79.04827196437371, 14.248642638872909], [79.05247942153223, 14.252121157385414], [79.05671355945616, 14.252500106244518], [79.05704600629348, 14.25491371405526], [79.058449546181, 14.255958388391207], [79.06198346605544, 14.25564272062767], [79.06446690451546, 14.254285228786141], [79.0666089590316, 14.251547276440574], [79.0786549575705, 14.246822756951698], [79.08395127708766, 14.246865347082803], [79.09274957497712, 14.250380045544015], [79.09238779403671, 14.251410414508964], [79.09097250785351, 14.251743512149854], [79.0828425543439, 14.252711562783109], [79.08107998080872, 14.252352970112023], [79.08145054784383, 14.25028943930003], [79.08075309870043, 14.249250573303431], [79.07722510429754, 14.248877746534927], [79.0761599951813, 14.249557995283434], [79.07579522378751, 14.250932723954046], [79.0775519376384, 14.251980142148662], [79.07789628072949, 14.253016171175123], [79.0732884800529, 14.255045495348826], [79.06938094622163, 14.257769223903061], [79.06655319314287, 14.258090726223633], [79.06546744658239, 14.261181659337284], [79.06475829358338, 14.261520318655956], [79.05875547997634, 14.261471509250569], [79.05664865094695, 14.260076686808], [79.0524114158137, 14.260042108102805], [79.05064294413334, 14.260372066786548], [79.04886557906843, 14.261735176511383], [79.0467469544419, 14.26171782544373], [79.04641758548662, 14.258959829408644], [79.04925127047802, 14.257949794209145], [79.04891002158408, 14.256569351395799], [79.04610305134078, 14.254479893964769], [79.04221309496832, 14.255136814352527], [79.03721615999072, 14.261295127098053], [79.03648311574739, 14.264388782242472], [79.03224585128754, 14.26435383492061], [79.03082744944359, 14.265030937987094], [79.02832875109797, 14.268109956517524], [79.02793368186713, 14.272928405791012], [79.0265182133511, 14.273261090853994]]], [[[79.16798851883074, 14.247525400456862], [79.16764653248764, 14.246145039311449], [79.165525124211, 14.246473173043482], [79.1662202042559, 14.247856249880241], [79.16798851883074, 14.247525400456862]]], [[[79.15733662691399, 14.254676444862966], [79.15698910683032, 14.25398489601157], [79.15557384963861, 14.254318386832622], [79.15556824969947, 14.25500720652207], [79.15733662691399, 14.254676444862966]]], [[[79.17665009667616, 14.268257849068764], [79.17314645154995, 14.264786671270425], [79.1692731008587, 14.263379215864369], [79.16682067290668, 14.260949334416082], [79.15693313831301, 14.260873096723916], [79.15588216507682, 14.259831674886483], [79.15164188311421, 14.260143268811683], [79.14846940276725, 14.259429790956982], [79.14567822186116, 14.255274941453585], [79.14179114888127, 14.25558911429831], [79.13964986994282, 14.25832784916416], [79.1354124621876, 14.258294749165252], [79.13189547975857, 14.256545082761134], [79.12164381441919, 14.257842251701067], [79.12268890134975, 14.259572610992961], [79.13010152013047, 14.259975292028903], [79.13291796311319, 14.261030648222132], [79.13786731531113, 14.260380504123003], [79.1392939267543, 14.258669500254408], [79.1403532817707, 14.258677765277703], [79.14669816848522, 14.260104888613181], [79.14951190479415, 14.261504466638646], [79.1526928357597, 14.261184707154912], [79.15832326104379, 14.263639294205602], [79.16398171382846, 14.26264965038396], [79.16819700989207, 14.265437548763401], [79.17031303863713, 14.26579823729533], [79.17558790282278, 14.268594153262912], [79.17665009667616, 14.268257849068764]]], [[[79.183006639492, 14.268306405065571], [79.1794779902729, 14.26793503633747], [79.17876340644399, 14.268962881079705], [79.18299835590358, 14.269339649281136], [79.183006639492, 14.268306405065571]]], [[[79.23608033043645, 14.346205015179788], [79.23750958676983, 14.344148986699631], [79.24035726509933, 14.341414587886446], [79.2421558236358, 14.337294599743306], [79.24217998300746, 14.33419478401554], [79.24467957792658, 14.330768844494287], [79.24755373447414, 14.324590075072944], [79.24932796022455, 14.323569827807255], [79.25005046109585, 14.321508480734371], [79.24797646226959, 14.315637619261016], [79.2480085162927, 14.311504510974869], [79.2473127593621, 14.310121598884097], [79.2399675738446, 14.300767318153724], [79.23717953319274, 14.295924449585913], [79.2294281200129, 14.293455777554211], [79.22767835800023, 14.291376092890715], [79.22486367535456, 14.289977341391207], [79.22347527286422, 14.28686700158749], [79.2217039680472, 14.287542656933242], [79.22062005774028, 14.290634529276367], [79.21920190091794, 14.291312802396137], [79.21743869088567, 14.290955158275908], [79.21605039142085, 14.287844786509217], [79.21393675556921, 14.287140052306988], [79.21288538194052, 14.286098838892126], [79.21219807142239, 14.283682595415113], [79.20728912507292, 14.27916796360372], [79.20341525832399, 14.27776101115373], [79.2013127055127, 14.275678507672325], [79.19744442549958, 14.27358263421147], [79.19359818546305, 14.268731372154512], [79.1911371693107, 14.2673349534177], [79.18901831854856, 14.267318860248906], [79.18758647375326, 14.269719030408933], [79.19004748754121, 14.271115486051492], [79.19529807102185, 14.277010759291045], [79.19952228159988, 14.278764924632032], [79.20197800631266, 14.280850112146128], [79.20444470225839, 14.281557605514784], [79.21251044606078, 14.288851545352705], [79.21673503743244, 14.290605444834869], [79.21919105774386, 14.292690486170759], [79.2336260630214, 14.29865363599925], [79.23502004220136, 14.301075090768125], [79.23853060975883, 14.303856675280976], [79.23957414073607, 14.305931070062115], [79.24272894590057, 14.30905441480485], [79.24446559592526, 14.312856142732358], [79.24479473360157, 14.315958577898169], [79.24619694913589, 14.317346713995152], [79.2461835750436, 14.319068840109624], [79.24474922267865, 14.321813801887652], [79.24328266202035, 14.328691843737156], [79.24113632724452, 14.332120387703656], [79.23967762045501, 14.337965111031844], [79.23753920688566, 14.34036033459809], [79.23610189388395, 14.343449634563875], [79.23608033043645, 14.346205015179788]]], [[[79.25177930824248, 14.326343454377234], [79.25073558681429, 14.324269093079009], [79.2489693758849, 14.324256074271467], [79.25036365551908, 14.326677470871276], [79.25177930824248, 14.326343454377234]]], [[[79.2579381815358, 14.352222201987752], [79.26184826345407, 14.349150889175753], [79.2618615471624, 14.347428752978576], [79.25938592342263, 14.347755036973863], [79.25617174490965, 14.352209212001371], [79.2579381815358, 14.352222201987752]]], [[[79.21992162551837, 14.379150444834977], [79.22877641583027, 14.376461373102922], [79.23127674440104, 14.37303566358181], [79.23623396518448, 14.371694886834932], [79.23765801418216, 14.37032772423555], [79.23803020694803, 14.367919398493195], [79.24053029564958, 14.36449356188536], [79.24728866175438, 14.358688127542507], [79.25082697268638, 14.358025388420801], [79.2522668839919, 14.354591565049125], [79.25014446850805, 14.354920347153532], [79.24694877309082, 14.356963392503388], [79.24341047473145, 14.357626074329897], [79.23776587811132, 14.356550830671004], [79.23354530746575, 14.354108310018532], [79.23107230844569, 14.354089863548229], [79.22928421950522, 14.356832039724997], [79.22889842032302, 14.360962449213758], [79.22782226502137, 14.363021045490344], [79.22498772944103, 14.364033140516725], [79.22354734400994, 14.367466740949489], [79.22141390371675, 14.369172923164093], [79.21893802908623, 14.36949874973603], [79.21750842764261, 14.371554623965505], [79.21712508702561, 14.375340563464945], [79.21780988190358, 14.378101231634737], [79.21992162551837, 14.379150444834977]]]]}}, {"type": "Feature", "properties": {"depth_class": 3, "depth_lo_m": 2.0, "t_s": 8100.782999701602}, "geometry": {"type": "MultiPolygon", "coordinates": [[[[79.01348573636794, 14.229068747406965], [79.01598711846293, 14.225645462973903], [79.0192244886985, 14.218784162259048], [79.01890144867049, 14.215337403226565], [79.01644828283301, 14.213250615962167], [79.01397713005143, 14.21323010365096], [79.01290904349517, 14.214254451361333], [79.01286993856053, 14.218731418463626], [79.01034751039381, 14.224565345382533], [79.00714601788466, 14.22729391096992], [79.00360652913007, 14.22829757354379], [79.001470105365, 14.23034613698308], [78.99721535583686, 14.232376920598366], [78.99187094662877, 14.237842484163682], [78.99079350319495, 14.239899833118924], [78.99073864895658, 14.246098612922705], [78.99388277819669, 14.249913499139787], [78.99669217320026, 14.251659125155065], [79.00198834477975, 14.251703548687413], [79.00446595484833, 14.251035480866598], [79.00586616237956, 14.252424810491426], [79.00513577684976, 14.255173940399034], [79.00013793911084, 14.261331345143846], [78.99904826630613, 14.264766234096381], [79.00076819437845, 14.269946721999592], [79.00357788078752, 14.271692303426258], [79.01240263929363, 14.2721105044161], [79.01453037031774, 14.271095030674966], [79.01877072647615, 14.270785927389227], [79.02054531255963, 14.269767457752558], [79.02337020172146, 14.269790911657292], [79.0265182133511, 14.273261090853994], [79.02722444860073, 14.273266941167611], [79.02829279331804, 14.272242561667625], [79.02796665125729, 14.269140185501254], [79.02904695015636, 14.266738263427046], [79.03224585128754, 14.26435383492061], [79.0361270265571, 14.26473025838723], [79.03721615999072, 14.261295127098053], [79.0404327577911, 14.25684424718889], [79.04221309496832, 14.255136814352527], [79.04433758999588, 14.254465422798447], [79.0475094938684, 14.255180237865531], [79.0492542324608, 14.257605405753338], [79.04889520938893, 14.258291293364268], [79.04712971543903, 14.258276839081086], [79.04641758548662, 14.258959829408644], [79.0467469544419, 14.26171782544373], [79.04886557906843, 14.261735176511383], [79.05064294413334, 14.260372066786548], [79.0524114158137, 14.260042108102805], [79.05664865094695, 14.260076686808], [79.05875547997634, 14.261471509250569], [79.06475829358338, 14.261520318655956], [79.06546744658239, 14.261181659337284], [79.06655319314287, 14.258090726223633], [79.06938094622163, 14.257769223903061], [79.0732884800529, 14.255045495348826], [79.07789628072949, 14.253016171175123], [79.0775519376384, 14.251980142148662], [79.07579522378751, 14.250932723954046], [79.0761599951813, 14.249557995283434], [79.07722510429754, 14.248877746534927], [79.08075309870043, 14.249250573303431], [79.08145054784383, 14.25028943930003], [79.08107998080872, 14.252352970112023], [79.0828425543439, 14.252711562783109], [79.0927437860298, 14.251068840576904], [79.09239937407166, 14.250032824727276], [79.09028949796114, 14.248982682892857], [79.08746765726836, 14.248615657977554], [79.08395127708766, 14.246865347082803], [79.0786549575705, 14.246822756951698], [79.0666089590316, 14.251547276440574], [79.06446690451546, 14.254285228786141], [79.06198346605544, 14.25564272062767], [79.058449546181, 14.255958388391207], [79.05704600629348, 14.25491371405526], [79.05671355945616, 14.252500106244518], [79.05247942153223, 14.252121157385414], [79.04827196437371, 14.248642638872909], [79.04509717923256, 14.248272232826169], [79.04369375421783, 14.247227493123697], [79.04446220652206, 14.240001136930715], [79.04340596501935, 14.239648069377127], [79.04019862743692, 14.243065873143701], [79.03773901955564, 14.241668018523457], [79.0352675261025, 14.241647686474783], [79.03347831454698, 14.2443882329107], [79.03027674584823, 14.24711710443601], [79.02991470090682, 14.248147343536857], [79.03061189458985, 14.249186328318268], [79.03202123270508, 14.249542368463292], [79.03339774441557, 14.253686639718746], [79.03337684638039, 14.256097336526384], [79.03230263230158, 14.25781052279399], [79.02840961402981, 14.258811589375915], [79.02560583793188, 14.256377527888132], [79.02384038362332, 14.256362903136472], [79.02313120110654, 14.256701432657884], [79.02311619313582, 14.258423347882134], [79.02556986136445, 14.260510130289084], [79.02485166752057, 14.261881813397864], [79.01918102493781, 14.264245607151167], [79.01706241478558, 14.264227989317817], [79.01389657266046, 14.262824003541404], [79.01210088235494, 14.26625309102671], [79.01033536567257, 14.266238356348646], [79.00893202860078, 14.265193419692539], [79.00681342282077, 14.265175709636274], [79.0061132795873, 14.264481043565999], [79.00613145178922, 14.262414767694958], [79.01006990886377, 14.256248382152929], [79.01151546347596, 14.252471976697812], [79.0115426230163, 14.24937254941549], [79.00979233746456, 14.247635925097844], [79.0062737000726, 14.24622892689046], [78.99709083955537, 14.246496423145295], [78.99569072447493, 14.245107053133822], [78.99536198278412, 14.242349066394526], [78.99893509621343, 14.237557397319963], [79.00248988644704, 14.234831929598679], [79.01170544322702, 14.23077596778647], [79.0127736223162, 14.229751637597396], [79.01207054082828, 14.229401380491169], [79.01135540849101, 14.230428647119988], [79.00249594203068, 14.234143170837006], [78.99894116377965, 14.236868640215672], [78.99573328295915, 14.240285765161557], [78.99464977448976, 14.243031889218589], [78.9953315752721, 14.24579284234917], [78.99708476210134, 14.24718517891339], [79.00697379514072, 14.246923586211961], [79.00978629803228, 14.248324686154781], [79.01118350994838, 14.250058367652207], [79.01116841863998, 14.251780271327732], [79.00936373396986, 14.256242487878191], [79.00542525939993, 14.262408859262449], [79.00574806157961, 14.265855605904544], [79.0124449264532, 14.2672891780323], [79.0135102790119, 14.266609250143855], [79.01459070659811, 14.264207411412004], [79.01670027462463, 14.265258195672653], [79.0202343160559, 14.26494317349469], [79.02343026375186, 14.262903254668176], [79.02626106821268, 14.26223789625329], [79.02804753512171, 14.25984182119631], [79.03371501182103, 14.257822174692953], [79.03516617053619, 14.25335680539739], [79.03376873927574, 14.25162323863203], [79.03308644776479, 14.24886233374492], [79.03203317742012, 14.248164827864807], [79.03204512085934, 14.246787287097776], [79.03561463788162, 14.242339364802293], [79.03737999569461, 14.242353888425255], [79.03878038471889, 14.243743044809591], [79.04089883145738, 14.243760445180795], [79.04161389228491, 14.242733079241043], [79.04338222711712, 14.242403171214832], [79.04263154276924, 14.24756319300723], [79.04368188106436, 14.248605043491969], [79.0486132037949, 14.250023081446491], [79.05176141303883, 14.25349294675923], [79.05317082702865, 14.253848869396993], [79.05702535760845, 14.257324444777877], [79.06338115588794, 14.257376152029368], [79.06336645264582, 14.25909810873036], [79.0623012580757, 14.259778283695276], [79.05877022076922, 14.259749557610698], [79.05666045532915, 14.258699127084453], [79.05242324589426, 14.25866455185635], [79.0489277936091, 14.254503020686164], [79.04646504003068, 14.253449622661577], [79.04434649581182, 14.253432260138023], [79.04044465782314, 14.255466700455981], [79.03507666272205, 14.263688370803433], [79.03189872580954, 14.263662149876598], [79.03048032781723, 14.264339251335596], [79.02762852543044, 14.267415344164075], [79.02654520903643, 14.270161640724071], [79.0237293198009, 14.269105075387667], [79.020198219064, 14.269075759479824], [79.01771440342193, 14.270432733511798], [79.01453640539427, 14.270406268938723], [79.01099321221264, 14.271754334682658], [79.00358394940697, 14.27100354632856], [79.00043028060023, 14.268221868832837], [78.9997605404426, 14.264083406489785], [79.0026308271534, 14.258941418109108], [79.00548280585744, 14.255865652651346], [79.0065723238866, 14.252430713573675], [79.00411893452066, 14.250343768238764], [78.9984605993825, 14.251329568005676], [78.99494200107985, 14.249922404643709], [78.99144173707236, 14.246448934898591], [78.99114046862572, 14.240591558298787], [78.99222095750112, 14.23818983080873], [78.99720928503609, 14.23306567723154], [79.00146404835664, 14.23103489553036], [79.00360047950159, 14.22898633310991], [79.00820514393477, 14.227302743868119], [79.0106975355774, 14.224912666309974], [79.01321394389446, 14.219767499323385], [79.01361508946322, 14.214260318189869], [79.01573923569902, 14.213589140674712], [79.01854242417193, 14.216023244243942], [79.01851842628706, 14.218778310167199], [79.01563708315676, 14.225298148622887], [79.01313871118151, 14.228377047502683], [79.01348573636794, 14.229068747406965]], [[79.02488166270166, 14.258437980061599], [79.02453756722771, 14.257401904684098], [79.02594694026573, 14.257757985868682], [79.02629104277847, 14.258794060081827], [79.02488166270166, 14.258437980061599]]], [[[79.01277663344636, 14.22940725591269], [79.01313269039174, 14.22906581107271], [79.01277964449604, 14.229062874217453], [79.01277663344636, 14.22940725591269]]], [[[79.03837076439318, 14.250283486884262], [79.03873872940582, 14.248564457541043], [79.03732938125526, 14.248208456507921], [79.03696140679426, 14.249927482428504], [79.03837076439318, 14.250283486884262]]]]}}, {"type": "Feature", "properties": {"depth_class": 4, "depth_lo_m": 3.0, "t_s": 8100.782999701602}, "geometry": {"type": "MultiPolygon", "coordinates": [[[[79.01099321221264, 14.271754334682658], [79.01453640539427, 14.270406268938723], [79.01771440342193, 14.270432733511798], [79.020198219064, 14.269075759479824], [79.0237293198009, 14.269105075387667], [79.02654520903643, 14.270161640724071], [79.02762852543044, 14.267415344164075], [79.03048032781723, 14.264339251335596], [79.03189872580954, 14.263662149876598], [79.03507666272205, 14.263688370803433], [79.04044465782314, 14.255466700455981], [79.04434649581182, 14.253432260138023], [79.04646504003068, 14.253449622661577], [79.0489277936091, 14.254503020686164], [79.05242324589426, 14.25866455185635], [79.05666045532915, 14.258699127084453], [79.05877022076922, 14.259749557610698], [79.0623012580757, 14.259778283695276], [79.06336645264582, 14.25909810873036], [79.06338115588794, 14.257376152029368], [79.05702535760845, 14.257324444777877], [79.05317082702865, 14.253848869396993], [79.05176141303883, 14.25349294675923], [79.0486132037949, 14.250023081446491], [79.04368188106436, 14.248605043491969], [79.04263154276924, 14.24756319300723], [79.04338222711712, 14.242403171214832], [79.04161389228491, 14.242733079241043], [79.04089883145738, 14.243760445180795], [79.03878038471889, 14.243743044809591], [79.03737999569461, 14.242353888425255], [79.03561463788162, 14.242339364802293], [79.03204512085934, 14.246787287097776], [79.03203317742012, 14.248164827864807], [79.03308644776479, 14.24886233374492], [79.03376873927574, 14.25162323863203], [79.03516617053619, 14.25335680539739], [79.03371501182103, 14.257822174692953], [79.02804753512171, 14.25984182119631], [79.02626106821268, 14.26223789625329], [79.02343026375186, 14.262903254668176], [79.0202343160559, 14.26494317349469], [79.01670027462463, 14.265258195672653], [79.01459070659811, 14.264207411412004], [79.0135102790119, 14.266609250143855], [79.0124449264532, 14.2672891780323], [79.00574806157961, 14.265855605904544], [79.00542525939993, 14.262408859262449], [79.00936373396986, 14.256242487878191], [79.01116841863998, 14.251780271327732], [79.01118350994838, 14.250058367652207], [79.00978629803228, 14.248324686154781], [79.00697379514072, 14.246923586211961], [78.99708476210134, 14.24718517891339], [78.9953315752721, 14.24579284234917], [78.99464977448976, 14.243031889218589], [78.99573328295915, 14.240285765161557], [78.99894116377965, 14.236868640215672], [79.00249594203068, 14.234143170837006], [79.01135540849101, 14.230428647119988], [79.01420386341077, 14.227697090442883], [79.01851842628706, 14.218778310167199], [79.01854242417193, 14.216023244243942], [79.01573923569902, 14.213589140674712], [79.01361508946322, 14.214260318189869], [79.01321394389446, 14.219767499323385], [79.0106975355774, 14.224912666309974], [79.00820514393477, 14.227302743868119], [79.00360047950159, 14.22898633310991], [79.00146404835664, 14.23103489553036], [78.99720928503609, 14.23306567723154], [78.99222095750112, 14.23818983080873], [78.99114046862572, 14.240591558298787], [78.99144173707236, 14.246448934898591], [78.99494200107985, 14.249922404643709], [78.9984605993825, 14.251329568005676], [79.00411893452066, 14.250343768238764], [79.0065723238866, 14.252430713573675], [79.00548280585744, 14.255865652651346], [79.00048495871903, 14.26202306358206], [78.9997605404426, 14.264083406489785], [79.00043028060023, 14.268221868832837], [79.00358394940697, 14.27100354632856], [79.01099321221264, 14.271754334682658]], [[79.0373144902818, 14.249930387717798], [79.03697332187184, 14.248549937773994], [79.03873872940582, 14.248564457541043], [79.03837076439318, 14.250283486884262], [79.0373144902818, 14.249930387717798]]], [[[79.02629104277847, 14.258794060081827], [79.02594694026573, 14.257757985868682], [79.02453756722771, 14.257401904684098], [79.02487866354375, 14.258782363442682], [79.02629104277847, 14.258794060081827]]]]}}]}