{"type": "FeatureCollection", "features": [{"type": "Feature", "properties": {"depth_class": 1, "depth_lo_m": 0.3, "t_s": 20700.40457196977}, "geometry": {"type": "MultiPolygon", "coordinates": [[[[79.11821835883717, 14.245071512487145], [79.1200123397684, 14.241641396174037], [79.12003514704855, 14.238886170008819], [79.11829255398747, 14.236117036826895], [79.11688023898621, 14.236105902364683], [79.11545363952872, 14.237816771855584], [79.11471317150728, 14.241944023379135], [79.11680598822896, 14.245060370735448], [79.11821835883717, 14.245071512487145]]], [[[79.17928579351263, 14.422928496194245], [79.18211565735004, 14.422605884794272], [79.18674029698568, 14.41885271310505], [79.18992348749717, 14.41853271535373], [79.1910114116159, 14.415096723811622], [79.20026546869954, 14.406901018338571], [79.20309236980073, 14.406922542343578], [79.20484816266641, 14.408313637227861], [79.2062616250962, 14.408324377067611], [79.20663426087788, 14.405916154058986], [79.20523458625085, 14.404183343046759], [79.2052511113564, 14.402116852511108], [79.20952160376622, 14.398360450133973], [79.21167736760702, 14.393899089345467], [79.21558604699099, 14.391173123657676], [79.2166761421605, 14.387392527694674], [79.2191685941871, 14.385000239070406], [79.22058464803527, 14.384666457859588], [79.22237037374117, 14.382268810073878], [79.22875471089498, 14.37921673512319], [79.2308773682089, 14.378888175171744], [79.23338581532138, 14.374429179936971], [79.23834306056331, 14.373088361215226], [79.24121267708135, 14.367598616708984], [79.24405795938539, 14.365208630664245], [79.24477799990278, 14.363491750856692], [79.24726989284524, 14.361099097062537], [79.25222946041737, 14.359413518116972], [79.254375948061, 14.355984891550458], [79.25969397620464, 14.353612885661756], [79.26360937287366, 14.349852689223475], [79.26538110122227, 14.349176766018745], [79.26716076600633, 14.347467543673625], [79.26789115344359, 14.34437285112312], [79.2703878787378, 14.341291040921956], [79.27043014748796, 14.335780175515978], [79.2690329507735, 14.333703296923975], [79.26905144983614, 14.331292293832764], [79.27012442399577, 14.329577874452273], [79.2697949363066, 14.326475436143982], [79.26659453014656, 14.329207674089657], [79.26580593632413, 14.339879793027565], [79.26293997256714, 14.345025528107046], [79.26188014139083, 14.345017761862863], [79.26082828359877, 14.343976709406459], [79.25874587717037, 14.339139178384393], [79.25699551551807, 14.337059646146981], [79.25595969475576, 14.333952018856964], [79.25599430741721, 14.32947447254831], [79.25426801399455, 14.32429509132579], [79.25182198518449, 14.320832636706944], [79.2511608535878, 14.314972190717645], [79.2504597331525, 14.314278137106411], [79.25047840423183, 14.311867153967594], [79.25508094787688, 14.310523209551759], [79.25686034176744, 14.308814033558198], [79.25722684124729, 14.307094486123765], [79.255118177777, 14.30570122930834], [79.25264568035266, 14.305683067982555], [79.25157538246057, 14.3070529829417], [79.24945342238996, 14.307381810792354], [79.24771137564541, 14.304268964727315], [79.24209750676366, 14.2994052943525], [79.24071149168817, 14.295950598753045], [79.237902021761, 14.293863137468543], [79.23615485648102, 14.291439081774675], [79.23228862327643, 14.28899928518635], [79.23229400369567, 14.288310438200021], [79.23759175190622, 14.288349730613987], [79.23900984721462, 14.287671339171988], [79.24008010859514, 14.286301476881496], [79.24009081962433, 14.284923776752025], [79.23868882313657, 14.283535628326774], [79.23515974700575, 14.283165047189668], [79.2323504807873, 14.28107754232145], [79.22952511182343, 14.281056549272739], [79.22777273569127, 14.27932129715171], [79.22638433872775, 14.276210974616138], [79.2242653639583, 14.27619518515089], [79.22178511852432, 14.277210005927135], [79.21648767638847, 14.2771703919805], [79.21366781296005, 14.276460375737889], [79.21085885153838, 14.274372648666299], [79.20520289447293, 14.275018976310173], [79.2045020405699, 14.274324815545771], [79.20419528742563, 14.26846703525398], [79.20209553402259, 14.26604012793685], [79.197154290362, 14.265658361007654], [79.19541326110789, 14.262545242241366], [79.19189564214444, 14.26079639875066], [79.18840008840299, 14.25629218075578], [79.18558886934785, 14.254548624751871], [79.18349496000445, 14.25143275883265], [79.18103143320644, 14.250380678318583], [79.17822587786972, 14.247948221193903], [79.16907561601656, 14.244089404638748], [79.16449365534588, 14.243020908041258], [79.16345107153585, 14.24094628856591], [79.16099056014036, 14.239549613505563], [79.16033736604327, 14.233000357648441], [79.15788533272813, 14.230570429348603], [79.15506070899055, 14.230548628614347], [79.15399588135188, 14.231229265184252], [79.15397909464753, 14.233295726270056], [79.15608361136444, 14.235034145305885], [79.15605565587562, 14.23847824987855], [79.1532197353866, 14.239834054990235], [79.15214644909483, 14.241547905629828], [79.15072846361079, 14.242225785802088], [79.14963268996074, 14.246694892928751], [79.14714692369384, 14.24839775454757], [79.14642383963208, 14.25045871831144], [79.1442939342921, 14.25181987776215], [79.1379210340206, 14.253836784125342], [79.12415263224054, 14.253384463896005], [79.12239849811591, 14.251992957832297], [79.12171224333525, 14.249576574618544], [79.11995815293992, 14.248185055628856], [79.11889885928261, 14.248176706033187], [79.11817838625394, 14.249893150293028], [79.1185086426808, 14.252651156648831], [79.11568094779783, 14.25297325867941], [79.11146662852265, 14.250184535241635], [79.10442766713189, 14.247373324286823], [79.09455842225749, 14.245228185084356], [79.08749377244213, 14.245516088937682], [79.08363016672101, 14.243074157165422], [79.0840006848063, 14.24101061607348], [79.0872161077741, 14.236558945266134], [79.08725669818084, 14.231737388913183], [79.0869152290995, 14.23035697343116], [79.08551167872236, 14.22931246794819], [79.07913329588995, 14.232016611584644], [79.07592947208815, 14.235090585065354], [79.07275770075695, 14.234376171149195], [79.07098067115109, 14.235739491168069], [79.07025990643572, 14.237455752104811], [79.06708520044191, 14.237085653749855], [79.06566705633264, 14.237763000564394], [79.06421955001501, 14.241884258206625], [79.06066231303174, 14.244955116685992], [79.06065642906336, 14.245643899000715], [79.05462158251179, 14.249383328059576], [79.05144380867317, 14.24935739310643], [79.0486398520605, 14.24692358409378], [79.04511200938244, 14.246550293330625], [79.04623051822863, 14.239671204464374], [79.04588930088232, 14.23829076119373], [79.04413286186629, 14.237243140597581], [79.04235863233632, 14.238261834818582], [79.04056953145968, 14.241002449587638], [79.03880418076247, 14.240987950893782], [79.03810399139434, 14.240293374473723], [79.03457032775985, 14.240608714926983], [79.03206900391055, 14.244032205058147], [79.02851135857252, 14.247102523523841], [79.02849041871593, 14.24951321454811], [79.03059994035861, 14.250563867617533], [79.03163230272646, 14.253672075324573], [79.03161437430911, 14.255738384707877], [79.03018705630359, 14.257448644767491], [79.02877468211655, 14.257436972277128], [79.02667409900207, 14.255353144975475], [79.0234992954752, 14.25498244391417], [79.02135973862474, 14.25737555465096], [79.0216978108935, 14.259100398166925], [79.02309818092728, 14.260489645803197], [79.02237997321282, 14.26186131954046], [79.01919005171868, 14.263212461017737], [79.01707145120574, 14.263194844512682], [79.01602119255011, 14.26215288497352], [79.01390562257355, 14.261790860604712], [79.01284029559181, 14.262470793610872], [79.01211296267617, 14.264875568991961], [79.01105063728578, 14.265211110943248], [79.01000040185689, 14.264169127396386], [79.00753475822565, 14.26345971716637], [79.00754383753736, 14.262426578292764], [79.01076400325131, 14.257631796245153], [79.01257169320522, 14.25282518646603], [79.01294588622065, 14.250417460837525], [79.01225782599579, 14.24834529140339], [79.01015446851562, 14.246605728235028], [79.00663584325271, 14.245198737045765], [78.9978060911915, 14.24546921560785], [78.99640293743899, 14.24442422775492], [78.99642421004874, 14.242013582835064], [78.99892599425614, 14.238590532897298], [79.00176257684394, 14.237236675870957], [79.00283385670434, 14.235868021113442], [79.01311462609102, 14.231132101529997], [79.0170432387047, 14.225998638381537], [79.0181323838533, 14.22256359707371], [79.02132470169113, 14.220868008578503], [79.02172565819563, 14.215360789038128], [79.01963147923345, 14.212588184267691], [79.01752235037748, 14.211537483288634], [79.01363913874474, 14.211505259444257], [79.01222104809472, 14.2121822902303], [79.01114392998348, 14.214239775182309], [79.01144878729457, 14.219752819826976], [79.00964444858272, 14.224215083564895], [79.00395957186029, 14.228300523796342], [78.99758357643012, 14.230657988982585], [78.9915300717188, 14.236462006166182], [78.9900965305055, 14.238860758604169], [78.98935992807293, 14.24229857660714], [78.98967334689925, 14.246778443755712], [78.99352056927947, 14.250943660675386], [78.997742289312, 14.252701152863452], [79.0048038924297, 14.252760331301248], [79.00443566613988, 14.25447927354424], [79.00158672921033, 14.2572106486942], [78.99799809511417, 14.263724205040322], [78.9979707219501, 14.266823602924841], [78.9997027942877, 14.270626585675462], [79.00286255385494, 14.272719518788453], [79.01133121010174, 14.273479183523746], [79.0152275436786, 14.272134058613624], [79.01875868139938, 14.272163454322099], [79.02124251265622, 14.270806471222905], [79.02371430276628, 14.270826989448912], [79.02546186252493, 14.272907928378242], [79.02687133093593, 14.273264016272156], [79.02865190238568, 14.271556716685685], [79.02938808117955, 14.268118720060349], [79.03152468914715, 14.266069925932106], [79.0364682007264, 14.26611071024517], [79.03788957829676, 14.265089186451055], [79.03863154421983, 14.260962366514624], [79.04255132888875, 14.256861648537813], [79.04361061550863, 14.256870342163934], [79.04395777142022, 14.257562013756305], [79.04392212603999, 14.261694661438638], [79.04566983229152, 14.26377546831531], [79.0502602279324, 14.263813064569666], [79.05486836429239, 14.261784235761013], [79.05626602576221, 14.26351770596978], [79.05837878035703, 14.264223754906453], [79.06085939078598, 14.26321070687943], [79.06579705054658, 14.263939658366434], [79.06935162800872, 14.26121314917669], [79.0714732053753, 14.260885905904452], [79.07432731248431, 14.257464806836436], [79.07786418361177, 14.256804509474085], [79.07926492977056, 14.258193469186791], [79.07819394140193, 14.25956251048745], [79.07571342665656, 14.260575754130407], [79.07534570278588, 14.262294872022604], [79.07604607977672, 14.26298936092216], [79.07852078428965, 14.262664905753283], [79.08062487980594, 14.26440394912935], [79.08415312472938, 14.264776756084983], [79.08731664667731, 14.26652426243697], [79.08977107216515, 14.268610468126937], [79.09045410337058, 14.27137130117466], [79.0932501458856, 14.274837898709174], [79.09607232592796, 14.275204896196053], [79.09958923432553, 14.276955090660413], [79.10132027952085, 14.281101955765497], [79.10764812396393, 14.284596560933686], [79.1093995034199, 14.286332591804934], [79.11081787397598, 14.285655008831336], [79.11682437657716, 14.285358185088702], [79.12391033008848, 14.282658741483512], [79.1289056940792, 14.276498384120444], [79.12860660114575, 14.269951933004794], [79.13288109305913, 14.265507915236517], [79.13605924432288, 14.265532793318236], [79.14099174942315, 14.266949035073317], [79.14383090426895, 14.265249020978604], [79.14771533201149, 14.265279242826946], [79.15016476032059, 14.268053709563914], [79.15508622817609, 14.270847313390544], [79.16637839682434, 14.271967790270773], [79.17166167424281, 14.27373056618618], [79.17377223549101, 14.27478005919587], [79.17586894996299, 14.277551601443365], [79.17868311313588, 14.278950880370108], [79.18218428016851, 14.28276642308184], [79.18461776393478, 14.287607091555222], [79.18561652327777, 14.29519229233678], [79.18523846831161, 14.298289327411155], [79.18842544978918, 14.2972803170204], [79.19123442992131, 14.29936831428023], [79.19370402451872, 14.299731521922414], [79.19548098383106, 14.298367264213722], [79.19586439451903, 14.29458136347323], [79.19835589384618, 14.292189182237923], [79.19836686344169, 14.290811514165672], [79.19731829856691, 14.28942582173663], [79.18992637452116, 14.286269780860277], [79.18960074679703, 14.282822939238185], [79.19137483054043, 14.28180311360169], [79.19628621408, 14.285973625532115], [79.2015673836494, 14.28808021940318], [79.20754411198575, 14.291569704268369], [79.20929367201994, 14.293649515752437], [79.21210555658288, 14.2953928647974], [79.21278744283103, 14.29849794943135], [79.21631667817728, 14.29886888554848], [79.22021539170099, 14.297175888470496], [79.22233185107734, 14.297536158079891], [79.22232102204242, 14.29891384348734], [79.21982966271587, 14.301306295545412], [79.21592815406707, 14.303343697145928], [79.21484950624863, 14.305746681865674], [79.21517007247152, 14.309882370851081], [79.21657205147862, 14.311270657260087], [79.21833812990896, 14.311283905231491], [79.2211747050259, 14.309927391611835], [79.22399230029345, 14.310981789353555], [79.22539164046883, 14.312714452137088], [79.2253591699208, 14.316847509478277], [79.22464188811041, 14.318219915639034], [79.21967769602851, 14.320593843596573], [79.22035972287746, 14.32369892113883], [79.22141943020678, 14.323706861347159], [79.22497345666923, 14.32097792540318], [79.22674232405551, 14.320646698173935], [79.22924195891203, 14.317220927229437], [79.23030164096825, 14.317228824314526], [79.23275267197039, 14.320002614206611], [79.23237517106455, 14.323099788559155], [79.23376386468648, 14.326210107111299], [79.23407937272854, 14.331034652336234], [79.23689729846987, 14.33208893234707], [79.2365332769896, 14.33346399969108], [79.23440566635792, 14.334481506658612], [79.2336856698565, 14.33619836049712], [79.23290896943313, 14.34514807443352], [79.23002598458294, 14.352359844022336], [79.2278954531855, 14.353721687999737], [79.22650400978712, 14.350955752376324], [79.22439790558329, 14.349217781947317], [79.21840038679686, 14.348139464470744], [79.21593838062081, 14.346743192668201], [79.21738687638044, 14.342276373504635], [79.2149440245271, 14.338469167313509], [79.2107049368513, 14.338437230420183], [79.20465844082445, 14.343558108778408], [79.20215812324811, 14.346983536306205], [79.20038628022836, 14.347658967092235], [79.20033675867307, 14.353858449405706], [79.19889058975251, 14.357980697041922], [79.19710761779805, 14.36003375081947], [79.19637620686119, 14.363128103787002], [79.1921090325636, 14.366539918004447], [79.19067368846014, 14.369284430927635], [79.18464256324229, 14.372338162976906], [79.17756252629755, 14.374005918863542], [79.17258826037387, 14.377411876971863], [79.17257146472333, 14.379478334343393], [79.17465499115401, 14.383972026836533], [79.17920631252355, 14.389173588049424], [79.18061684524774, 14.3895288779521], [79.18309852112986, 14.388514662736387], [79.18523519320212, 14.386464472240489], [79.19059610732165, 14.378927999237614], [79.19415693574395, 14.375510854920389], [79.19805164867275, 14.374507235355713], [79.20656683169099, 14.37009423256252], [79.20868666723874, 14.370110281999258], [79.20938505560827, 14.371148878054472], [79.20936312157765, 14.373904212140848], [79.20793066201011, 14.376304430804007], [79.20718283557545, 14.381465321073328], [79.20540246919063, 14.383174004932425], [79.2043122196737, 14.386954530597611], [79.20253178547772, 14.38866318450139], [79.20001429147014, 14.394155001404851], [79.19289202205904, 14.40098934090546], [79.18895235121165, 14.407503408140757], [79.18468415433279, 14.410914964384828], [79.18326790296919, 14.411248504204487], [79.17791985246892, 14.417062624723068], [79.1771823001927, 14.420845669856217], [79.17928579351263, 14.422928496194245]], [[79.19924407355555, 14.402071143407833], [79.19926341395973, 14.399660245274761], [79.20211780195261, 14.396237624239037], [79.20428193907688, 14.390743099180396], [79.20642396377887, 14.388003865956424], [79.20679653753483, 14.385595634655258], [79.20929729156266, 14.382170210361663], [79.20968078814538, 14.378384302206554], [79.2118390472023, 14.373578493092824], [79.21186095039661, 14.370823155189008], [79.21116802732548, 14.369095730830551], [79.2094124666027, 14.36770470950031], [79.20623274698144, 14.367680641921465], [79.2030365292035, 14.36972302573581], [79.19736710901758, 14.37174653859639], [79.19383404759017, 14.371719607128828], [79.19385063854199, 14.369653123936876], [79.19919979602466, 14.363494025351851], [79.19957512747966, 14.360741389733194], [79.20100204700607, 14.359030048652707], [79.20281520962347, 14.35318838407611], [79.20284543246913, 14.349399806565806], [79.20533480071691, 14.347352041343221], [79.20676980423916, 14.344607397569497], [79.21174558673911, 14.340856148882972], [79.21315863076401, 14.340866798480219], [79.2145607652849, 14.342255114223759], [79.21419385906776, 14.34397454707291], [79.2124111391206, 14.346027747456148], [79.21239474675531, 14.348094255884437], [79.21344637175577, 14.34913549958326], [79.21521001525903, 14.349493223646341], [79.21731604095501, 14.351231267839598], [79.2219141002037, 14.350576925350822], [79.22472675652243, 14.352320210359375], [79.22506375421588, 14.35438937791357], [79.22185156197021, 14.358498577047966], [79.22183524136827, 14.360565093968793], [79.2253491758237, 14.363002528081095], [79.22711838043561, 14.362671337054513], [79.22818640760715, 14.361646006356585], [79.22893363895471, 14.356484978354654], [79.23250166557817, 14.352033877539167], [79.23542500892805, 14.339655730217302], [79.24224974429139, 14.325239756038597], [79.24233285819437, 14.314562598052014], [79.23850645365442, 14.3069564928057], [79.23640061399918, 14.305218659356509], [79.23357762890049, 14.304853256467588], [79.2318331367027, 14.302084743669699], [79.22900750628942, 14.302063714273581], [79.22796409149984, 14.299989285647916], [79.22375545159173, 14.296169026721618], [79.21951984824105, 14.29579291803977], [79.21845484739792, 14.29647382587616], [79.21527611551001, 14.296449995792413], [79.21423557250645, 14.294031103601371], [79.21001366999619, 14.291932735792734], [79.20721003008319, 14.289156112176766], [79.19770712952925, 14.28495107579956], [79.19595499959792, 14.283215614797859], [79.195276115421, 14.279766093780891], [79.19211415474497, 14.277675484453678], [79.1882624727718, 14.273512974367291], [79.18509515138146, 14.272111118890441], [79.17909717689271, 14.271376477738391], [79.17695613330443, 14.274115580789212], [79.17275167045636, 14.269950156391424], [79.16395103215915, 14.266438173485788], [79.15406888343675, 14.265672969616254], [79.14949222896861, 14.26391532564279], [79.14313592920719, 14.263865890787919], [79.14101151998186, 14.264538188332663], [79.13218902571536, 14.263780356156335], [79.12720260549914, 14.268907622230888], [79.12749881318325, 14.2757984742617], [79.12393030514414, 14.280247921488598], [79.12037880904091, 14.282630883934159], [79.11648554901548, 14.283633384204617], [79.11189744532496, 14.283252613213588], [79.11084374031812, 14.282555407226582], [79.11085523447875, 14.28117780624009], [79.11192616386946, 14.27980860853229], [79.11548341557815, 14.276736974589362], [79.11760512834991, 14.276409330445507], [79.12009141136195, 14.274706845366078], [79.1222445004561, 14.270590726361116], [79.12509236377309, 14.26785774858478], [79.12545973468156, 14.266138509007556], [79.1233523781665, 14.26474422060976], [79.11275867872305, 14.264660568951422], [79.11135479783934, 14.263616177294306], [79.10852983823807, 14.26359377573766], [79.10712886115705, 14.262204962221844], [79.10395944882937, 14.26114650588158], [79.10221404975759, 14.258721662387268], [79.09940648119169, 14.256632768165233], [79.09095222429062, 14.254154291800457], [79.07505105403123, 14.255404146647116], [79.07114353080163, 14.258127905915755], [79.06830990636625, 14.259138213562613], [79.06581174053854, 14.262217699879729], [79.05804631863869, 14.261810147195725], [79.05593949193987, 14.260415318672655], [79.0513491494816, 14.2603778404939], [79.04886261560148, 14.26207956476817], [79.04639088339914, 14.26205931951901], [79.04569061140413, 14.261364755246055], [79.0457084189832, 14.259298429347265], [79.04820382911976, 14.256563571975622], [79.04715640005404, 14.255177346618932], [79.04433758999588, 14.254465422798447], [79.04185702967375, 14.255478302276677], [79.03864941557062, 14.258896049300546], [79.03686604035528, 14.260947833596745], [79.03577988804419, 14.26403857742668], [79.0311835460874, 14.264689470860178], [79.02584198394443, 14.269811406389048], [79.02196076250482, 14.269434806430763], [79.01806149035542, 14.271124434620518], [79.01417725875635, 14.271092087406055], [79.0120495266079, 14.2721075577895], [79.00252158659445, 14.271339044683351], [79.00041812634142, 14.269599380645886], [78.99904522653122, 14.265110611873245], [78.99977573193512, 14.262361516596444], [79.00584800102597, 14.254491087753927], [79.00621621693746, 14.252772141937866], [79.00481903309814, 14.251038434459035], [78.99810448383766, 14.251670982911035], [78.99353274883075, 14.24956615254699], [78.99073560072557, 14.246442989478183], [78.99079045642914, 14.240244209864414], [78.99329837862855, 14.236132472365615], [78.9979275196211, 14.23169408415263], [79.00359442954965, 14.229675092633874], [79.00962937413789, 14.22593698934121], [79.01250487160272, 14.220106010992328], [79.012202997849, 14.21424858245104], [79.01363012086742, 14.21253840655277], [79.0164542866189, 14.212561850093463], [79.01856041921545, 14.21395694435964], [79.02065759050254, 14.216385174452778], [79.02063062061421, 14.21948462745562], [79.01707927945424, 14.221866045438217], [79.01562806523692, 14.226331295798825], [79.01277061110555, 14.230096019271565], [79.00248988644704, 14.234831929598679], [78.99893813003706, 14.237213018773094], [78.99500892009189, 14.242346100578919], [78.99534069837848, 14.244759709673593], [78.99673777004095, 14.246493459042222], [79.0062737000726, 14.24622892689046], [79.00908921014762, 14.247285653088724], [79.01119256376643, 14.249025225320313], [79.01151848152496, 14.252127595930862], [79.01044413852492, 14.253840665284622], [79.01042903743287, 14.255562567639256], [79.00613448020673, 14.262070388346158], [79.00611025060414, 14.264825422840874], [79.00928210552199, 14.265540749461666], [79.01068242391878, 14.266930064690753], [79.01315415590105, 14.266950686962526], [79.01458769054854, 14.264551792475443], [79.01882190371859, 14.264931436040152], [79.02484866756222, 14.262226196673481], [79.02592295888992, 14.260513054555341], [79.02311319130135, 14.258767730895348], [79.02312819967261, 14.257045815723822], [79.02384038362332, 14.256362903136472], [79.0263090236787, 14.256727757872786], [79.02805352420144, 14.259153053164173], [79.03017509226991, 14.258826182761675], [79.03301778148204, 14.256783194454025], [79.03340072953041, 14.25334225441836], [79.0327005258168, 14.252647660033633], [79.03237132869964, 14.249889666181426], [79.03096796339699, 14.248844857929285], [79.0306268355835, 14.247464403957132], [79.0352675261025, 14.241647686474783], [79.03738892526901, 14.241320729036003], [79.03914238148492, 14.242712785816925], [79.0405546728943, 14.242724385188632], [79.0437531009624, 14.240339738756333], [79.04445330997672, 14.241034300822658], [79.04442364967582, 14.24447817977854], [79.04370562610305, 14.245849942587006], [79.0443939814518, 14.24792205768202], [79.04756579684005, 14.248636860707848], [79.05248237735555, 14.251776768097475], [79.05990610980892, 14.250804022514753], [79.05776693869754, 14.253197515091813], [79.0577551457773, 14.254575076356998], [79.05845544128725, 14.255269607574613], [79.06057402050186, 14.255286846989685], [79.06412556259963, 14.252904796308735], [79.06378422378812, 14.25152436371772], [79.06131846906875, 14.250815505438364], [79.0616803836358, 14.249785201200204], [79.06838614698766, 14.250184009631534], [79.0744179145661, 14.246788600321546], [79.07548885297597, 14.245419569892832], [79.07549761119053, 14.244386387310042], [79.07374096300282, 14.243338961939633], [79.06950692539097, 14.242960333244204], [79.06739724343436, 14.241910009825283], [79.06669988476753, 14.240871113382696], [79.06706761616381, 14.239152009803744], [79.0709514243811, 14.239183426043038], [79.07274309327181, 14.236098140722714], [79.07485859305883, 14.236459625055708], [79.07554722781786, 14.238531684221885], [79.07625337567391, 14.238537375641812], [79.07697993270257, 14.236132301993182], [79.0787656721174, 14.233735747696524], [79.08337588448842, 14.23136185761245], [79.0847881424665, 14.231373186487032], [79.08583573281663, 14.232759264311921], [79.08580381556219, 14.23654762671003], [79.08258255180432, 14.24168806650696], [79.08116150087595, 14.242709902823666], [79.08114694819166, 14.244431879729094], [79.08467198300636, 14.245149036790023], [79.08748216647317, 14.246893675282621], [79.09348758872052, 14.24659731569585], [79.10547257499586, 14.249103738362619], [79.10828012454861, 14.251192557745027], [79.11601975337902, 14.254698058507678], [79.13191249612699, 14.254478651668158], [79.13755661455018, 14.255211652254312], [79.14676007049576, 14.252527911046192], [79.14818094372106, 14.25150565575944], [79.14994087311307, 14.252208173319229], [79.15842113229573, 14.251584933537838], [79.16017551844888, 14.252976200986552], [79.15980564455754, 14.25503994104787], [79.15696672300872, 14.25674017679889], [79.15695832784317, 14.25777340692145], [79.15836242051635, 14.258817551476994], [79.16472978076132, 14.257488917345858], [79.17601031761524, 14.259986518932514], [79.17850987172358, 14.256561276090496], [79.1785181680181, 14.25552803335642], [79.17711675325164, 14.254139584593803], [79.1743001198954, 14.253084735746508], [79.17008772284127, 14.249952548290878], [79.15985312532788, 14.249184958358763], [79.15986429414193, 14.247807314933763], [79.16128787558773, 14.246440559291177], [79.16166886631814, 14.242999166836945], [79.16272816164529, 14.24300732370141], [79.16483283576565, 14.244745683120986], [79.16836107764723, 14.24511722347495], [79.18277769598794, 14.25280504047256], [79.18662345468732, 14.257656424081851], [79.18835331968614, 14.262147253515764], [79.19362837692742, 14.264942787076393], [79.19642608592467, 14.268408356013618], [79.2017232649372, 14.26844839202965], [79.20311673322969, 14.270869978309516], [79.2027362639272, 14.274311498497896], [79.20413250277942, 14.276388664670959], [79.21013076730532, 14.277122699891306], [79.21433340040629, 14.281631978587557], [79.21749565343546, 14.283722322463113], [79.22630610284318, 14.286199229917868], [79.23015874748052, 14.290361226714799], [79.23929602642463, 14.296284569954725], [79.24103254334956, 14.30008630902499], [79.2427878514666, 14.301477065662596], [79.24873097693035, 14.309443162903177], [79.24904415723871, 14.314612154433561], [79.25075159993082, 14.322202537562417], [79.25284971045828, 14.324973550862676], [79.25317629642315, 14.328420412736632], [79.25139136708415, 14.33081838938829], [79.24963846355462, 14.32908324203927], [79.24822546537031, 14.329072818091397], [79.24537536629724, 14.332151767431583], [79.24391676599005, 14.33799652933047], [79.24177033459816, 14.341425067477013], [79.23923826942466, 14.348984032137423], [79.23673836332762, 14.35240987677702], [79.23637159636239, 14.354129360137076], [79.23882844333184, 14.35621428810068], [79.24482901723091, 14.356947699621053], [79.25582379110384, 14.351517760372639], [79.2576035405247, 14.349808620398756], [79.25939656450122, 14.346377329683927], [79.26327732501014, 14.347094681201968], [79.26326936168005, 14.34812796375981], [79.2597072806846, 14.351890752089027], [79.25332675474745, 14.354599379343172], [79.25082429716666, 14.35836981334269], [79.24693000289419, 14.35937436193324], [79.23909552291146, 14.367238438640697], [79.237293907308, 14.37170278200017], [79.23233668999667, 14.373043581659045], [79.23055656642323, 14.374752485745594], [79.22947763231696, 14.377155501873888], [79.22026131527255, 14.380875195753184], [79.21883163998292, 14.382931069164254], [79.21492041319671, 14.386001528841906], [79.21383303736437, 14.389437697392216], [79.20956828660088, 14.392505375961406], [79.20741524952201, 14.39662229901689], [79.20065473127356, 14.402426326459585], [79.19924407355555, 14.402071143407833]], [[79.22502031840527, 14.359900100408778], [79.225036608996, 14.357833579787934], [79.22681390823533, 14.356469124869696], [79.22678678567678, 14.359913329419008], [79.22502031840527, 14.359900100408778]], [[79.24237747547252, 14.354173979856487], [79.24132836946575, 14.352788423638543], [79.24239897440854, 14.35141859172353], [79.24386847585268, 14.344196163754685], [79.24566164178518, 14.340764994069486], [79.24642174096402, 14.333881724738202], [79.24749221408852, 14.332511853989725], [79.24855197835122, 14.332519677846697], [79.2520071108573, 14.342534069857814], [79.25412140430569, 14.343238535148387], [79.25657566658133, 14.345667712382175], [79.25691029552402, 14.348081294285874], [79.25548383986644, 14.349793030409248], [79.25051648475548, 14.352511980715137], [79.24910333911048, 14.352501545334993], [79.24555438405135, 14.354541964572332], [79.24237747547252, 14.354173979856487]], [[79.25626501802502, 14.340154292743373], [79.25590908550329, 14.3404961218196], [79.25591174978521, 14.340151695442069], [79.25626501802502, 14.340154292743373]], [[79.25555848161619, 14.340149097615246], [79.252403095137, 14.337025861510057], [79.25207118655133, 14.334267852587262], [79.2541854057984, 14.334972309009219], [79.25591707813668, 14.339462842655612], [79.25555848161619, 14.340149097615246]], [[79.23519568445002, 14.32380965419333], [79.23485591099089, 14.322084913556077], [79.23593714675894, 14.319337402264996], [79.2369807069497, 14.321411811340456], [79.23696456873827, 14.32347835167518], [79.23625270973652, 14.324161951479223], [79.23519568445002, 14.32380965419333]], [[79.23419522584318, 14.316224470789454], [79.23421407311481, 14.313813509171316], [79.2349232101019, 14.313474335153051], [79.23525490606971, 14.316232345248649], [79.23419522584318, 14.316224470789454]], [[79.23423022512532, 14.311746970233502], [79.2342463745571, 14.309680430919142], [79.23458344480358, 14.311749594722858], [79.23423022512532, 14.311746970233502]], [[79.22542139603107, 14.308925814917144], [79.22119097166745, 14.30786086663861], [79.21730022053698, 14.308520597478921], [79.2173192374058, 14.306109656454412], [79.21803108331166, 14.305426112474521], [79.22156315347395, 14.30545256306025], [79.22543491840717, 14.307203706671373], [79.22542139603107, 14.308925814917144]], [[79.22349959937331, 14.283767204105983], [79.21891918253125, 14.282355211859961], [79.21892731013088, 14.281321948303042], [79.2217499612848, 14.28168748918413], [79.2238581773381, 14.283080995360624], [79.22349959937331, 14.283767204105983]], [[79.18645535760652, 14.278665765640948], [79.18644984159532, 14.279354595852801], [79.18539036245524, 14.279346524142975], [79.1853958816846, 14.278657694336475], [79.18645535760652, 14.278665765640948]], [[79.10699652691747, 14.278047354365318], [79.10101911293114, 14.274899968194413], [79.09646307746539, 14.270730549863613], [79.09258446881867, 14.270010687516969], [79.09189561410963, 14.267938651280474], [79.09507661868851, 14.267619682479339], [79.09577707810688, 14.268314122669345], [79.09860207557111, 14.268336682620888], [79.09966722613774, 14.26765633716157], [79.1053172224035, 14.267701329378063], [79.10882836287271, 14.27014018310497], [79.11129740360983, 14.270504192667422], [79.1126640249836, 14.276025800305312], [79.10982166413746, 14.278069796306903], [79.10699652691747, 14.278047354365318]], [[79.1857711099361, 14.27590506510929], [79.1843667746229, 14.274861055870964], [79.1818974736095, 14.27449778438626], [79.18155261562428, 14.273461845554392], [79.18649120451072, 14.274188368243774], [79.18789830240719, 14.274887950173024], [79.18859359263388, 14.276270985220158], [79.1857711099361, 14.27590506510929]], [[79.11838291396984, 14.26780486147777], [79.11909774443635, 14.266777230503557], [79.12156963361254, 14.266796728390439], [79.11979257038983, 14.268160413710463], [79.11838291396984, 14.26780486147777]], [[79.08771043637232, 14.261705550889852], [79.0852531913415, 14.259963730274018], [79.08492334642287, 14.257205728287888], [79.08810419595976, 14.256886834766712], [79.0891548073041, 14.25792851591548], [79.0909203424615, 14.257942658783035], [79.09199125253589, 14.256573549537784], [79.09516920350639, 14.256598957145814], [79.09868872010826, 14.25800473230635], [79.10184364366266, 14.260785245940493], [79.10183211187795, 14.262162842072529], [79.08771043637232, 14.261705550889852]], [[79.08135442541857, 14.261654476752714], [79.08242249591194, 14.260629815468587], [79.08241375883019, 14.261663000861391], [79.08135442541857, 14.261654476752714]], [[79.17074396617771, 14.256157395491737], [79.1711054166137, 14.255126865508128], [79.17534008062518, 14.255503737979653], [79.17462552583282, 14.256531573756142], [79.17074396617771, 14.256157395491737]], [[79.16759370075201, 14.252688873664624], [79.16865582449473, 14.252352597206407], [79.16865026506004, 14.253041422085792], [79.1679440345403, 14.253035998480328], [79.16759370075201, 14.252688873664624]], [[79.15635282340374, 14.245369184191855], [79.15636680687867, 14.243647132738488], [79.15707859431865, 14.24296376616652], [79.1588440820575, 14.242977392243136], [79.1595446944355, 14.243671660911], [79.15917484080083, 14.245735402650737], [79.15635282340374, 14.245369184191855]]], [[[79.22178354231598, 14.36710906172428], [79.22214773033211, 14.365734037333912], [79.22038122185832, 14.365720768485426], [79.22036760315584, 14.367442863517594], [79.22178354231598, 14.36710906172428]]]]}}, {"type": "Feature", "properties": {"depth_class": 2, "depth_lo_m": 1.0, "t_s": 20700.40457196977}, "geometry": {"type": "MultiPolygon", "coordinates": [[[[79.08171627677272, 14.260624133680299], [79.08135442541857, 14.261654476752714], [79.08241375883019, 14.261663000861391], [79.08242249591194, 14.260629815468587], [79.08171627677272, 14.260624133680299]]], [[[79.1853958816846, 14.278657694336475], [79.18539036245524, 14.279346524142975], [79.18644984159532, 14.279354595852801], [79.18645535760652, 14.278665765640948], [79.1853958816846, 14.278657694336475]]], [[[79.22508170758569, 14.30720106940678], [79.22156315347395, 14.30545256306025], [79.21803108331166, 14.305426112474521], [79.2173192374058, 14.306109656454412], [79.21730022053698, 14.308520597478921], [79.22119097166745, 14.30786086663861], [79.2229489029766, 14.308907340741133], [79.22542139603107, 14.308925814917144], [79.22508170758569, 14.30720106940678]]], [[[79.20101084718773, 14.402084603096538], [79.20741524952201, 14.39662229901689], [79.20956828660088, 14.392505375961406], [79.21383303736437, 14.389437697392216], [79.21492041319671, 14.386001528841906], [79.21883163998292, 14.382931069164254], [79.22026131527255, 14.380875195753184], [79.22947763231696, 14.377155501873888], [79.23055656642323, 14.374752485745594], [79.23233668999667, 14.373043581659045], [79.237293907308, 14.37170278200017], [79.23909552291146, 14.367238438640697], [79.24693000289419, 14.35937436193324], [79.25082429716666, 14.35836981334269], [79.25332675474745, 14.354599379343172], [79.2597072806846, 14.351890752089027], [79.26326936168005, 14.34812796375981], [79.26327732501014, 14.347094681201968], [79.25939656450122, 14.346377329683927], [79.2576035405247, 14.349808620398756], [79.25582379110384, 14.351517760372639], [79.24482901723091, 14.356947699621053], [79.23882844333184, 14.35621428810068], [79.23637159636239, 14.354129360137076], [79.23673836332762, 14.35240987677702], [79.23923826942466, 14.348984032137423], [79.24177033459816, 14.341425067477013], [79.24391676599005, 14.33799652933047], [79.24537536629724, 14.332151767431583], [79.24822546537031, 14.329072818091397], [79.24963846355462, 14.32908324203927], [79.25139136708415, 14.33081838938829], [79.25317629642315, 14.328420412736632], [79.25284971045828, 14.324973550862676], [79.25075159993082, 14.322202537562417], [79.24904415723871, 14.314612154433561], [79.24873097693035, 14.309443162903177], [79.2427878514666, 14.301477065662596], [79.24103254334956, 14.30008630902499], [79.23929602642463, 14.296284569954725], [79.23015874748052, 14.290361226714799], [79.22630610284318, 14.286199229917868], [79.21749565343546, 14.283722322463113], [79.21433340040629, 14.281631978587557], [79.21013076730532, 14.277122699891306], [79.20413250277942, 14.276388664670959], [79.2027362639272, 14.274311498497896], [79.20311673322969, 14.270869978309516], [79.2017232649372, 14.26844839202965], [79.19642608592467, 14.268408356013618], [79.19362837692742, 14.264942787076393], [79.18835331968614, 14.262147253515764], [79.18662345468732, 14.257656424081851], [79.18277769598794, 14.25280504047256], [79.16836107764723, 14.24511722347495], [79.16483283576565, 14.244745683120986], [79.16272816164529, 14.24300732370141], [79.16166886631814, 14.242999166836945], [79.16128787558773, 14.246440559291177], [79.15986429414193, 14.247807314933763], [79.15985312532788, 14.249184958358763], [79.17008772284127, 14.249952548290878], [79.1743001198954, 14.253084735746508], [79.17711675325164, 14.254139584593803], [79.1785181680181, 14.25552803335642], [79.17850987172358, 14.256561276090496], [79.17601031761524, 14.259986518932514], [79.16472978076132, 14.257488917345858], [79.15836242051635, 14.258817551476994], [79.15695832784317, 14.25777340692145], [79.15696672300872, 14.25674017679889], [79.1587379088204, 14.256064995774144], [79.16016434730173, 14.254353844057993], [79.16017551844888, 14.252976200986552], [79.15842113229573, 14.251584933537838], [79.15311886893906, 14.25223280149796], [79.14818094372106, 14.25150565575944], [79.14676007049576, 14.252527911046192], [79.13755661455018, 14.255211652254312], [79.13191249612699, 14.254478651668158], [79.11601975337902, 14.254698058507678], [79.10828012454861, 14.251192557745027], [79.10547257499586, 14.249103738362619], [79.09348758872052, 14.24659731569585], [79.08748216647317, 14.246893675282621], [79.08467198300636, 14.245149036790023], [79.08114694819166, 14.244431879729094], [79.08116150087595, 14.242709902823666], [79.08258255180432, 14.24168806650696], [79.08580381556219, 14.23654762671003], [79.08583573281663, 14.232759264311921], [79.0847881424665, 14.231373186487032], [79.08337588448842, 14.23136185761245], [79.0787656721174, 14.233735747696524], [79.07697993270257, 14.236132301993182], [79.07625337567391, 14.238537375641812], [79.07554722781786, 14.238531684221885], [79.07485859305883, 14.236459625055708], [79.07274309327181, 14.236098140722714], [79.0709514243811, 14.239183426043038], [79.06706761616381, 14.239152009803744], [79.06669988476753, 14.240871113382696], [79.06739724343436, 14.241910009825283], [79.06950692539097, 14.242960333244204], [79.07374096300282, 14.243338961939633], [79.07549761119053, 14.244386387310042], [79.07548885297597, 14.245419569892832], [79.0744179145661, 14.246788600321546], [79.06838614698766, 14.250184009631534], [79.0616803836358, 14.249785201200204], [79.06131846906875, 14.250815505438364], [79.06378422378812, 14.25152436371772], [79.06412556259963, 14.252904796308735], [79.06057402050186, 14.255286846989685], [79.05845544128725, 14.255269607574613], [79.0577551457773, 14.254575076356998], [79.05776693869754, 14.253197515091813], [79.05990610980892, 14.250804022514753], [79.05248237735555, 14.251776768097475], [79.04756579684005, 14.248636860707848], [79.0443939814518, 14.24792205768202], [79.04369375421783, 14.247227493123697], [79.04442364967582, 14.24447817977854], [79.04445330997672, 14.241034300822658], [79.0437531009624, 14.240339738756333], [79.0405546728943, 14.242724385188632], [79.03914238148492, 14.242712785816925], [79.03738892526901, 14.241320729036003], [79.0352675261025, 14.241647686474783], [79.0306268355835, 14.247464403957132], [79.03096796339699, 14.248844857929285], [79.03237132869964, 14.249889666181426], [79.0327005258168, 14.252647660033633], [79.03340072953041, 14.25334225441836], [79.03301778148204, 14.256783194454025], [79.03017509226991, 14.258826182761675], [79.02805352420144, 14.259153053164173], [79.0263090236787, 14.256727757872786], [79.02384038362332, 14.256362903136472], [79.02312819967261, 14.257045815723822], [79.02311319130135, 14.258767730895348], [79.02592295888992, 14.260513054555341], [79.02484866756222, 14.262226196673481], [79.01882190371859, 14.264931436040152], [79.01458769054854, 14.264551792475443], [79.01315415590105, 14.266950686962526], [79.01068242391878, 14.266930064690753], [79.00928210552199, 14.265540749461666], [79.00611025060414, 14.264825422840874], [79.00613448020673, 14.262070388346158], [79.01042903743287, 14.255562567639256], [79.01044413852492, 14.253840665284622], [79.01151848152496, 14.252127595930862], [79.01119256376643, 14.249025225320313], [79.00908921014762, 14.247285653088724], [79.0062737000726, 14.24622892689046], [78.99673777004095, 14.246493459042222], [78.99534069837848, 14.244759709673593], [78.99500892009189, 14.242346100578919], [78.99893813003706, 14.237213018773094], [79.00248988644704, 14.234831929598679], [79.01277061110555, 14.230096019271565], [79.01562806523692, 14.226331295798825], [79.01707927945424, 14.221866045438217], [79.02063062061421, 14.21948462745562], [79.02065759050254, 14.216385174452778], [79.01856041921545, 14.21395694435964], [79.0164542866189, 14.212561850093463], [79.01363012086742, 14.21253840655277], [79.012202997849, 14.21424858245104], [79.01250487160272, 14.220106010992328], [79.00962937413789, 14.22593698934121], [79.00359442954965, 14.229675092633874], [78.9979275196211, 14.23169408415263], [78.99329837862855, 14.236132472365615], [78.99079045642914, 14.240244209864414], [78.99073560072557, 14.246442989478183], [78.99353274883075, 14.24956615254699], [78.99810448383766, 14.251670982911035], [79.00481903309814, 14.251038434459035], [79.00621621693746, 14.252772141937866], [79.00584800102597, 14.254491087753927], [78.99977573193512, 14.262361516596444], [78.99904522653122, 14.265110611873245], [79.00041812634142, 14.269599380645886], [79.00252158659445, 14.271339044683351], [79.0120495266079, 14.2721075577895], [79.01417725875635, 14.271092087406055], [79.01806149035542, 14.271124434620518], [79.02196076250482, 14.269434806430763], [79.02584198394443, 14.269811406389048], [79.0311835460874, 14.264689470860178], [79.03577988804419, 14.26403857742668], [79.03686604035528, 14.260947833596745], [79.03864941557062, 14.258896049300546], [79.04185702967375, 14.255478302276677], [79.04433758999588, 14.254465422798447], [79.04715640005404, 14.255177346618932], [79.04820382911976, 14.256563571975622], [79.0457084189832, 14.259298429347265], [79.04569061140413, 14.261364755246055], [79.04639088339914, 14.26205931951901], [79.04886261560148, 14.26207956476817], [79.0513491494816, 14.2603778404939], [79.05593949193987, 14.260415318672655], [79.05804631863869, 14.261810147195725], [79.06581174053854, 14.262217699879729], [79.06830990636625, 14.259138213562613], [79.07114353080163, 14.258127905915755], [79.07505105403123, 14.255404146647116], [79.09095222429062, 14.254154291800457], [79.09940648119169, 14.256632768165233], [79.10221404975759, 14.258721662387268], [79.10395944882937, 14.26114650588158], [79.10712886115705, 14.262204962221844], [79.10852983823807, 14.26359377573766], [79.11135479783934, 14.263616177294306], [79.11275867872305, 14.264660568951422], [79.1233523781665, 14.26474422060976], [79.12545973468156, 14.266138509007556], [79.12509236377309, 14.26785774858478], [79.1222445004561, 14.270590726361116], [79.12009141136195, 14.274706845366078], [79.11760512834991, 14.276409330445507], [79.11548341557815, 14.276736974589362], [79.11192616386946, 14.27980860853229], [79.11085523447875, 14.28117780624009], [79.11084374031812, 14.282555407226582], [79.11189744532496, 14.283252613213588], [79.11648554901548, 14.283633384204617], [79.12037880904091, 14.282630883934159], [79.12393030514414, 14.280247921488598], [79.12749881318325, 14.2757984742617], [79.12720260549914, 14.268907622230888], [79.13218902571536, 14.263780356156335], [79.13783903136311, 14.263824565760267], [79.13995213719853, 14.264529922911647], [79.14949222896861, 14.26391532564279], [79.15406888343675, 14.265672969616254], [79.16395103215915, 14.266438173485788], [79.17275167045636, 14.269950156391424], [79.17695613330443, 14.274115580789212], [79.17909717689271, 14.271376477738391], [79.18509515138146, 14.272111118890441], [79.1882624727718, 14.273512974367291], [79.19211415474497, 14.277675484453678], [79.195276115421, 14.279766093780891], [79.19595499959792, 14.283215614797859], [79.19770712952925, 14.28495107579956], [79.20721003008319, 14.289156112176766], [79.21001366999619, 14.291932735792734], [79.21423557250645, 14.294031103601371], [79.21527611551001, 14.296449995792413], [79.21845484739792, 14.29647382587616], [79.21951984824105, 14.29579291803977], [79.22375545159173, 14.296169026721618], [79.22796409149984, 14.299989285647916], [79.22900750628942, 14.302063714273581], [79.2318331367027, 14.302084743669699], [79.23357762890049, 14.304853256467588], [79.23640061399918, 14.305218659356509], [79.23850645365442, 14.3069564928057], [79.24233285819437, 14.314562598052014], [79.24224974429139, 14.325239756038597], [79.23542500892805, 14.339655730217302], [79.23250166557817, 14.352033877539167], [79.22893363895471, 14.356484978354654], [79.22818640760715, 14.361646006356585], [79.22711838043561, 14.362671337054513], [79.2253491758237, 14.363002528081095], [79.22183524136827, 14.360565093968793], [79.22185156197021, 14.358498577047966], [79.22506375421588, 14.35438937791357], [79.22472675652243, 14.352320210359375], [79.2219141002037, 14.350576925350822], [79.21731604095501, 14.351231267839598], [79.21521001525903, 14.349493223646341], [79.21344637175577, 14.34913549958326], [79.21239474675531, 14.348094255884437], [79.2124111391206, 14.346027747456148], [79.21419385906776, 14.34397454707291], [79.2145607652849, 14.342255114223759], [79.21315863076401, 14.340866798480219], [79.21174558673911, 14.340856148882972], [79.20676980423916, 14.344607397569497], [79.20533480071691, 14.347352041343221], [79.20284543246913, 14.349399806565806], [79.20281520962347, 14.35318838407611], [79.20100204700607, 14.359030048652707], [79.19957512747966, 14.360741389733194], [79.19919979602466, 14.363494025351851], [79.19385063854199, 14.369653123936876], [79.19383404759017, 14.371719607128828], [79.19736710901758, 14.37174653859639], [79.2030365292035, 14.36972302573581], [79.20623274698144, 14.367680641921465], [79.2094124666027, 14.36770470950031], [79.21116802732548, 14.369095730830551], [79.21186095039661, 14.370823155189008], [79.2118390472023, 14.373578493092824], [79.20968078814538, 14.378384302206554], [79.20929729156266, 14.382170210361663], [79.20679653753483, 14.385595634655258], [79.20642396377887, 14.388003865956424], [79.20428193907688, 14.390743099180396], [79.20211780195261, 14.396237624239037], [79.19890177331285, 14.400690794142232], [79.19924407355555, 14.402071143407833], [79.20101084718773, 14.402084603096538]], [[79.22036760315584, 14.367442863517594], [79.22038122185832, 14.365720768485426], [79.22214773033211, 14.365734037333912], [79.22178082059123, 14.367453480974813], [79.22036760315584, 14.367442863517594]], [[79.24617019917244, 14.320790965962656], [79.2472459488096, 14.318732237229748], [79.24865621035126, 14.319087085305776], [79.248988076445, 14.321845095080596], [79.24827625529132, 14.322528735785301], [79.246510060306, 14.32251570023815], [79.24617019917244, 14.320790965962656]], [[79.24655552791044, 14.316660471049627], [79.24515063781088, 14.315616762339292], [79.24377521301375, 14.310784372452035], [79.2416800141752, 14.307668878837752], [79.23221326729842, 14.29864313860708], [79.22903987522109, 14.29793064361092], [79.22411946091624, 14.294793976900651], [79.2181206463125, 14.294060235667331], [79.2103968160646, 14.28814677993722], [79.20511826966519, 14.285695953855164], [79.20337700362846, 14.282582867372394], [79.1959906706357, 14.27873819552451], [79.18933018361683, 14.272487782595345], [79.18686916131131, 14.271091318451475], [79.18087949599588, 14.269323481547241], [79.17558513037217, 14.268938566577564], [79.16397055789969, 14.264027295294802], [79.15725827343499, 14.264319926023177], [79.14950628350472, 14.262193283549347], [79.1272595099311, 14.262019542777566], [79.12654757684645, 14.26270280109617], [79.12372260385388, 14.262680580937264], [79.11844293927062, 14.26057241397927], [79.11597112238886, 14.260552892004638], [79.11384383131265, 14.261569342845721], [79.11280167561165, 14.259494550920264], [79.10998537513527, 14.25843897063124], [79.10858441578986, 14.25705016794158], [79.10469158293179, 14.2580525250983], [79.10154241723747, 14.254583250633566], [79.09943244862083, 14.253533179575664], [79.09413881842237, 14.253146515898425], [79.09061651234667, 14.252085082953734], [79.08743863304652, 14.25205962257981], [79.08602043420544, 14.252737085511312], [79.08143307733685, 14.252355810597177], [79.0811003665403, 14.249942204062014], [79.07899347159685, 14.24854757407677], [79.07687785022149, 14.24818611176118], [79.07688368607737, 14.247497322978214], [79.08042622000063, 14.246148176408367], [79.08360109606821, 14.246518115606714], [79.0885269336199, 14.248624147330814], [79.09841066097513, 14.249047553522589], [79.10193009281652, 14.250453269595933], [79.10440177959019, 14.250472923481666], [79.10931646811282, 14.253956162506762], [79.11213844323288, 14.254322941248518], [79.11635284264005, 14.257111662386722], [79.12872314404983, 14.255831355468379], [79.13718936136932, 14.25693092532614], [79.14285894908409, 14.254564144441954], [79.14639007839033, 14.254591615720091], [79.14848627177389, 14.257363340837227], [79.15237057474803, 14.257393470536073], [79.15764498489953, 14.260189735698244], [79.16717936735486, 14.260263225763595], [79.16998492370334, 14.262695814585328], [79.17456176333283, 14.264453081078429], [79.17525139830842, 14.26652496940594], [79.17735914765343, 14.26791883886751], [79.18125474866147, 14.266570862066954], [79.18407986208649, 14.266592406350279], [79.18408813908489, 14.265559161274922], [79.18056505652427, 14.264498984586345], [79.17810971501065, 14.262413617718758], [79.17848774502335, 14.25931658958806], [79.18063137190472, 14.256233036088249], [79.18240250517299, 14.255557670262927], [79.18555581134267, 14.258681611747427], [79.18728565951923, 14.263172446989403], [79.18938796615164, 14.265255047553705], [79.19430996282254, 14.268047891757831], [79.19850662333107, 14.273246231571862], [79.20167133082818, 14.27499233826154], [79.20271440309659, 14.277066844925056], [79.20834861620146, 14.27917593780929], [79.21395849592005, 14.284384691223023], [79.21747395717509, 14.286477689030551], [79.22418163047512, 14.286872273028171], [79.22627911092785, 14.289643453847143], [79.228039635967, 14.290345455546559], [79.23049038466813, 14.293119237968579], [79.23753004502677, 14.29627149111448], [79.24066594136681, 14.301805819696488], [79.24207072931256, 14.302849543907287], [79.24450840928654, 14.307345340463643], [79.24731008779324, 14.310466024543363], [79.24726466024403, 14.31632125915161], [79.24655552791044, 14.316660471049627]], [[79.12362851341909, 14.274045886056719], [79.12504962070456, 14.27302379961282], [79.1253856596422, 14.275092999134777], [79.12325254788908, 14.276798327083283], [79.12362851341909, 14.274045886056719]], [[79.01135236916411, 14.271068522440936], [79.00288380180773, 14.270308870024403], [79.00044243356237, 14.266844356850719], [79.00082590692264, 14.263403538168212], [79.00225043195829, 14.26203786693269], [79.00369312921315, 14.258605911343912], [79.00726033720493, 14.25450289361218], [79.0065844255596, 14.251053194593744], [79.00412499203848, 14.249655009682991], [78.9991728272623, 14.250646736150703], [78.99354492708127, 14.248188644249653], [78.99179785199455, 14.2461075300465], [78.9914782976395, 14.242316413741063], [78.99328316716527, 14.237854359184357], [78.99862754705063, 14.232388759569544], [79.00429447122443, 14.230369752991557], [79.01068849547393, 14.225945810410877], [79.01320491862431, 14.220800645452337], [79.01326507341415, 14.213913002803396], [79.0143301516362, 14.213233035542341], [79.01644528081957, 14.213594998880744], [79.01889545106874, 14.216026169960106], [79.01958351677538, 14.218098320663879], [79.0185124260134, 14.219467076542793], [79.01709729549232, 14.219799748398172], [79.01564309470147, 14.224609383786284], [79.01385081940984, 14.227694155446386], [79.01135842191864, 14.230084265752383], [79.00497637625527, 14.233130691666474], [79.00285504779028, 14.233457364963968], [79.00000942505363, 14.235844378907828], [78.99788503443196, 14.236515382081695], [78.99503324453049, 14.239591079652516], [78.99395277494553, 14.2419928226483], [78.99393451906914, 14.244059086619194], [78.99497242368663, 14.246478630702137], [78.99707564531168, 14.24821831248637], [79.00626462572684, 14.247262066361676], [79.00872707297148, 14.24831584750792], [79.01047735383317, 14.250052479175968], [79.01045923760154, 14.252118762666214], [79.00938790888299, 14.253487445931322], [79.00901366932553, 14.255895159825464], [79.00580258491485, 14.259656779247747], [79.00436294024671, 14.26274437166357], [79.00434171975314, 14.265155024135987], [79.00608904545945, 14.267236077469294], [79.0131390609162, 14.268672590272802], [79.01597899728348, 14.266974223926189], [79.02057539043648, 14.266323635677788], [79.03406512181988, 14.258169471672192], [79.04049521878567, 14.249612124961013], [79.04015997789443, 14.247542903389403], [79.03875360809127, 14.246842524659563], [79.03628205682104, 14.246822195890669], [79.03484887165719, 14.249221268305698], [79.03378962631444, 14.249212540353094], [79.03273933689593, 14.248170651800082], [79.03275127605626, 14.24679311044698], [79.03417253452207, 14.245771593880887], [79.03561165852449, 14.242683750878799], [79.03773009134663, 14.242701178100319], [79.03913048464845, 14.244090332940575], [79.04302321770804, 14.243089051608068], [79.04229034259468, 14.246182746726877], [79.04262560298315, 14.248251967754213], [79.04966358298178, 14.25106491033542], [79.05176141303883, 14.25349294675923], [79.05387405898486, 14.254199022553504], [79.05702830765681, 14.256980054706222], [79.0598501536992, 14.257347446664122], [79.06338997689144, 14.25634297788252], [79.06658254713629, 14.254646805758473], [79.06943369928905, 14.251570155760158], [79.07297925402987, 14.24987674036739], [79.0740356045213, 14.250229688516315], [79.07402391288237, 14.251607263410861], [79.07507735173941, 14.252304602002784], [79.07435654715553, 14.254020870354703], [79.07152298574688, 14.255031224806169], [79.0708080022297, 14.256058691741918], [79.06585873534384, 14.256707430954537], [79.06442576286369, 14.259106711239502], [79.06229537270298, 14.26046706582714], [79.05947053366215, 14.260444087982068], [79.05630440259664, 14.25904063856177], [79.05242324589426, 14.25866455185635], [79.04787444125189, 14.253805575529313], [79.04646800526677, 14.253105234650382], [79.04293413458399, 14.253420674682886], [79.04080667325144, 14.254436441315068], [79.03972954425795, 14.256494056040996], [79.03402929464262, 14.262302094567776], [79.03048631147722, 14.26365048255031], [79.02550687464553, 14.267742180836187], [79.0212665689529, 14.268051412721762], [79.01807353875489, 14.269746908151232], [79.0145424401489, 14.269717507160248], [79.01135236916411, 14.271068522440936]], [[79.16762985167749, 14.248211513725446], [79.16516645213835, 14.247159281970644], [79.16552790737029, 14.246128761024632], [79.16764653248764, 14.246145039311449], [79.16869751079287, 14.247186409277989], [79.16762985167749, 14.248211513725446]], [[79.07869576021751, 14.24200122899025], [79.07767441623604, 14.237515567722363], [79.07839804113347, 14.235454882309435], [79.08230215997636, 14.233075335192929], [79.0844205620407, 14.23309233689971], [79.08474750077714, 14.236194736003176], [79.08224110502438, 14.240307647104727], [79.0801080804296, 14.242012593832714], [79.07869576021751, 14.24200122899025]]], [[[79.23459420922697, 14.310371901625397], [79.23389315817685, 14.309677806300035], [79.23458344480358, 14.311749594722858], [79.23459420922697, 14.310371901625397]]], [[[79.23525490606971, 14.316232345248649], [79.23526836069587, 14.314510228873123], [79.23456998766297, 14.313471710859346], [79.23419522584318, 14.316224470789454], [79.23525490606971, 14.316232345248649]]], [[[79.23660863977568, 14.323820151910558], [79.2369807069497, 14.321411811340456], [79.23558391495973, 14.319334778427583], [79.23484783208976, 14.32311818252493], [79.23589947033102, 14.324159327246646], [79.23660863977568, 14.323820151910558]]], [[[79.25626235428209, 14.340498719185867], [79.25591174978521, 14.340151695442069], [79.25590908550329, 14.3404961218196], [79.25626235428209, 14.340498719185867]]], [[[79.25591174978521, 14.340151695442069], [79.2541854057984, 14.334972309009219], [79.25207118655133, 14.334267852587262], [79.25310161649026, 14.338064342749123], [79.25591174978521, 14.340151695442069]]]]}}, {"type": "Feature", "properties": {"depth_class": 3, "depth_lo_m": 2.0, "t_s": 20700.40457196977}, "geometry": {"type": "MultiPolygon", "coordinates": [[[[79.07869576021751, 14.24200122899025], [79.08224110502438, 14.240307647104727], [79.08474750077714, 14.236194736003176], [79.08476782352267, 14.233783961502166], [79.08371733209553, 14.232742275542826], [79.07911000429254, 14.234771773679837], [79.07803914431406, 14.236140830580439], [79.0776452671271, 14.240959515694868], [79.07869576021751, 14.24200122899025]], [[79.07906631912404, 14.23993770079759], [79.0790954445152, 14.236493749648208], [79.08087243988615, 14.235130363886936], [79.08334683488884, 14.234805818909052], [79.08189966135603, 14.23892722758424], [79.08047571598705, 14.240293457181005], [79.07906631912404, 14.23993770079759]]], [[[79.01241472295042, 14.270732982803377], [79.0145424401489, 14.269717507160248], [79.01807353875489, 14.269746908151232], [79.0212665689529, 14.268051412721762], [79.02621609136574, 14.267403648532822], [79.03048631147722, 14.26365048255031], [79.03402929464262, 14.262302094567776], [79.03972954425795, 14.256494056040996], [79.04080667325144, 14.254436441315068], [79.04293413458399, 14.253420674682886], [79.04646800526677, 14.253105234650382], [79.04787444125189, 14.253805575529313], [79.05242324589426, 14.25866455185635], [79.05630440259664, 14.25904063856177], [79.05947053366215, 14.260444087982068], [79.06229537270298, 14.26046706582714], [79.06442576286369, 14.259106711239502], [79.06585873534384, 14.256707430954537], [79.0708080022297, 14.256058691741918], [79.07152298574688, 14.255031224806169], [79.07435654715553, 14.254020870354703], [79.07507735173941, 14.252304602002784], [79.07402391288237, 14.251607263410861], [79.0740356045213, 14.250229688516315], [79.07297925402987, 14.24987674036739], [79.06943369928905, 14.251570155760158], [79.06658254713629, 14.254646805758473], [79.06338997689144, 14.25634297788252], [79.0598501536992, 14.257347446664122], [79.05702830765681, 14.256980054706222], [79.05387405898486, 14.254199022553504], [79.05176141303883, 14.25349294675923], [79.04966358298178, 14.25106491033542], [79.04262560298315, 14.248251967754213], [79.04229034259468, 14.246182746726877], [79.04302321770804, 14.243089051608068], [79.03913048464845, 14.244090332940575], [79.03773009134663, 14.242701178100319], [79.03561165852449, 14.242683750878799], [79.03417253452207, 14.245771593880887], [79.03275127605626, 14.24679311044698], [79.03273933689593, 14.248170651800082], [79.03378962631444, 14.249212540353094], [79.03484887165719, 14.249221268305698], [79.03628205682104, 14.246822195890669], [79.03875360809127, 14.246842524659563], [79.04015997789443, 14.247542903389403], [79.04049521878567, 14.249612124961013], [79.03406512181988, 14.258169471672192], [79.02057539043648, 14.266323635677788], [79.01597899728348, 14.266974223926189], [79.0131390609162, 14.268672590272802], [79.00608904545945, 14.267236077469294], [79.00434171975314, 14.265155024135987], [79.00436294024671, 14.26274437166357], [79.00580258491485, 14.259656779247747], [79.00901366932553, 14.255895159825464], [79.00938790888299, 14.253487445931322], [79.01045923760154, 14.252118762666214], [79.01047735383317, 14.250052479175968], [79.00872707297148, 14.24831584750792], [79.00626462572684, 14.247262066361676], [78.99707564531168, 14.24821831248637], [78.99497242368663, 14.246478630702137], [78.99393451906914, 14.244059086619194], [78.99395277494553, 14.2419928226483], [78.99503324453049, 14.239591079652516], [78.99788503443196, 14.236515382081695], [79.00000942505363, 14.235844378907828], [79.00285504779028, 14.233457364963968], [79.00497637625527, 14.233130691666474], [79.01135842191864, 14.230084265752383], [79.01385081940984, 14.227694155446386], [79.01564309470147, 14.224609383786284], [79.01709729549232, 14.219799748398172], [79.0185124260134, 14.219467076542793], [79.01958351677538, 14.218098320663879], [79.01889545106874, 14.216026169960106], [79.01644528081957, 14.213594998880744], [79.0143301516362, 14.213233035542341], [79.01326507341415, 14.213913002803396], [79.01320491862431, 14.220800645452337], [79.01068849547393, 14.225945810410877], [79.00429447122443, 14.230369752991557], [78.99862754705063, 14.232388759569544], [78.99328316716527, 14.237854359184357], [78.9914782976395, 14.242316413741063], [78.99179785199455, 14.2461075300465], [78.99354492708127, 14.248188644249653], [78.9991728272623, 14.250646736150703], [79.00412499203848, 14.249655009682991], [79.00588432082431, 14.250358532849013], [79.00727848571671, 14.252436614568376], [79.00690120181885, 14.255188702379005], [79.00369312921315, 14.258605911343912], [79.00046369812608, 14.26443371047522], [79.00044243356237, 14.266844356850719], [79.00148351946748, 14.26891951280354], [79.00394009219998, 14.270662126636436], [79.01241472295042, 14.270732982803377]], [[79.04190161137295, 14.250312496151261], [79.04437320898043, 14.250332771588157], [79.04471739259871, 14.251368829154876], [79.04259292848893, 14.252040228109838], [79.04188972466541, 14.25169004468305], [79.04190161137295, 14.250312496151261]], [[79.00765273259789, 14.250028904399022], [79.00870894311093, 14.250382129091411], [79.00870289917862, 14.25107088953485], [79.00799674098272, 14.25106499330849], [79.00765273259789, 14.250028904399022]], [[78.99860934649644, 14.234455031131406], [78.99967456434435, 14.233775148636882], [78.99967153239982, 14.23411952743818], [78.99860934649644, 14.234455031131406]], [[79.00570665609466, 14.230381548490767], [79.00961128214381, 14.228003275925209], [79.01210668092807, 14.225268801229072], [79.01462907675052, 14.219434851189028], [79.01396510657922, 14.21460763319327], [79.01467716385987, 14.213924732001205], [79.01608625288439, 14.21428083569582], [79.01676227947613, 14.21773052229142], [79.01494002246748, 14.224259136483646], [79.01314774176258, 14.227343902068657], [79.0074658501519, 14.231085042214467], [79.00534454174837, 14.231411740655584], [79.00570665609466, 14.230381548490767]]], [[[79.16833884631482, 14.247872523952326], [79.16869751079287, 14.247186409277989], [79.16764653248764, 14.246145039311449], [79.16517201974989, 14.246470458100939], [79.1662202042559, 14.247856249880241], [79.16833884631482, 14.247872523952326]]], [[[79.12325254788908, 14.276798327083283], [79.1253856596422, 14.275092999134777], [79.12504962070456, 14.27302379961282], [79.12362851341909, 14.274045886056719], [79.12325254788908, 14.276798327083283]]], [[[79.24726466024403, 14.31632125915161], [79.24731008779324, 14.310466024543363], [79.24450840928654, 14.307345340463643], [79.24207072931256, 14.302849543907287], [79.24066594136681, 14.301805819696488], [79.23753004502677, 14.29627149111448], [79.23049038466813, 14.293119237968579], [79.228039635967, 14.290345455546559], [79.22627911092785, 14.289643453847143], [79.22418163047512, 14.286872273028171], [79.21747395717509, 14.286477689030551], [79.21395849592005, 14.284384691223023], [79.20834861620146, 14.27917593780929], [79.20271440309659, 14.277066844925056], [79.20167133082818, 14.27499233826154], [79.19850662333107, 14.273246231571862], [79.19430996282254, 14.268047891757831], [79.18938796615164, 14.265255047553705], [79.18728565951923, 14.263172446989403], [79.18555581134267, 14.258681611747427], [79.18240250517299, 14.255557670262927], [79.18063137190472, 14.256233036088249], [79.17848774502335, 14.25931658958806], [79.17810971501065, 14.262413617718758], [79.18056505652427, 14.264498984586345], [79.18408813908489, 14.265559161274922], [79.18407986208649, 14.266592406350279], [79.18125474866147, 14.266570862066954], [79.17735914765343, 14.26791883886751], [79.17525139830842, 14.26652496940594], [79.17456176333283, 14.264453081078429], [79.16998492370334, 14.262695814585328], [79.16717936735486, 14.260263225763595], [79.15764498489953, 14.260189735698244], [79.15237057474803, 14.257393470536073], [79.14848627177389, 14.257363340837227], [79.14639007839033, 14.254591615720091], [79.14285894908409, 14.254564144441954], [79.13718936136932, 14.25693092532614], [79.12872314404983, 14.255831355468379], [79.11635284264005, 14.257111662386722], [79.11213844323288, 14.254322941248518], [79.10931646811282, 14.253956162506762], [79.10440177959019, 14.250472923481666], [79.10193009281652, 14.250453269595933], [79.09841066097513, 14.249047553522589], [79.0885269336199, 14.248624147330814], [79.08360109606821, 14.246518115606714], [79.08042622000063, 14.246148176408367], [79.07688368607737, 14.247497322978214], [79.07687785022149, 14.24818611176118], [79.07899347159685, 14.24854757407677], [79.0811003665403, 14.249942204062014], [79.08143307733685, 14.252355810597177], [79.08602043420544, 14.252737085511312], [79.08743863304652, 14.25205962257981], [79.09061651234667, 14.252085082953734], [79.09413881842237, 14.253146515898425], [79.09943244862083, 14.253533179575664], [79.10154241723747, 14.254583250633566], [79.10469158293179, 14.2580525250983], [79.10858441578986, 14.25705016794158], [79.10998537513527, 14.25843897063124], [79.11280167561165, 14.259494550920264], [79.11384383131265, 14.261569342845721], [79.11597112238886, 14.260552892004638], [79.11844293927062, 14.26057241397927], [79.12372260385388, 14.262680580937264], [79.12654757684645, 14.26270280109617], [79.1272595099311, 14.262019542777566], [79.14950628350472, 14.262193283549347], [79.15725827343499, 14.264319926023177], [79.16397055789969, 14.264027295294802], [79.17558513037217, 14.268938566577564], [79.18087949599588, 14.269323481547241], [79.18686916131131, 14.271091318451475], [79.18933018361683, 14.272487782595345], [79.1959906706357, 14.27873819552451], [79.20337700362846, 14.282582867372394], [79.20511826966519, 14.285695953855164], [79.2103968160646, 14.28814677993722], [79.2181206463125, 14.294060235667331], [79.22411946091624, 14.294793976900651], [79.22903987522109, 14.29793064361092], [79.23221326729842, 14.29864313860708], [79.2416800141752, 14.307668878837752], [79.24377521301375, 14.310784372452035], [79.24515063781088, 14.315616762339292], [79.24655552791044, 14.316660471049627], [79.24726466024403, 14.31632125915161]], [[79.22413027575004, 14.293416289667816], [79.22201926261414, 14.292367197176734], [79.222027382, 14.291333932739539], [79.2241519019608, 14.290660914700434], [79.22626021230748, 14.292054409975925], [79.22660530082855, 14.29309030971492], [79.22413027575004, 14.293416289667816]], [[79.20058997541844, 14.277739679694092], [79.19600987299766, 14.276327276722107], [79.19426330657382, 14.273902977941946], [79.19250303863166, 14.273200752564339], [79.1904171364562, 14.269051672006308], [79.19323954944838, 14.26941752803612], [79.19533099564325, 14.272877756301366], [79.19743346407928, 14.274960303570413], [79.19989734116712, 14.276012252943802], [79.20058997541844, 14.277739679694092]]], [[[79.24863216640638, 14.322186915765831], [79.24900410272575, 14.319778541080545], [79.24830564825484, 14.318740054829595], [79.2472459488096, 14.318732237229748], [79.24615949719465, 14.32216866645681], [79.24863216640638, 14.322186915765831]]]]}}, {"type": "Feature", "properties": {"depth_class": 4, "depth_lo_m": 3.0, "t_s": 20700.40457196977}, "geometry": {"type": "MultiPolygon", "coordinates": [[[[79.00534454174837, 14.231411740655584], [79.01030229582359, 14.2297310639861], [79.01314774176258, 14.227343902068657], [79.01494002246748, 14.224259136483646], [79.01676227947613, 14.21773052229142], [79.01608625288439, 14.21428083569582], [79.01467716385987, 14.213924732001205], [79.01396510657922, 14.21460763319327], [79.01462907675052, 14.219434851189028], [79.01210668092807, 14.225268801229072], [79.00961128214381, 14.228003275925209], [79.00713092112113, 14.229015813677131], [79.00534454174837, 14.231411740655584]]], [[[78.99967153239982, 14.23411952743818], [78.99896846381513, 14.233769232724327], [78.99860934649644, 14.234455031131406], [78.99931544900059, 14.234460948384285], [78.99967153239982, 14.23411952743818]]], [[[79.08083170393309, 14.239951900794148], [79.08333521287501, 14.236183403133879], [79.08334683488884, 14.234805818909052], [79.08016339042103, 14.235469082872582], [79.07873654760753, 14.237179698970483], [79.07871615581955, 14.239590464237615], [79.07941648349772, 14.240284936968603], [79.08083170393309, 14.239951900794148]]], [[[79.00870289917862, 14.25107088953485], [79.00765273259789, 14.250028904399022], [79.00799674098272, 14.25106499330849], [79.00870289917862, 14.25107088953485]]], [[[79.04436133725349, 14.251710322160053], [79.04437320898043, 14.250332771588157], [79.04190161137295, 14.250312496151261], [79.04188972466541, 14.25169004468305], [79.04436133725349, 14.251710322160053]]], [[[79.20058997541844, 14.277739679694092], [79.19989734116712, 14.276012252943802], [79.19743346407928, 14.274960303570413], [79.19533099564325, 14.272877756301366], [79.19323954944838, 14.26941752803612], [79.1904171364562, 14.269051672006308], [79.19180223322147, 14.272506559546152], [79.19426330657382, 14.273902977941946], [79.19600987299766, 14.276327276722107], [79.19953049553219, 14.277731671765899], [79.20058997541844, 14.277739679694092]]], [[[79.22660530082855, 14.29309030971492], [79.22626021230748, 14.292054409975925], [79.2241519019608, 14.290660914700434], [79.222027382, 14.291333932739539], [79.22272022569103, 14.293061318094312], [79.22660530082855, 14.29309030971492]]]]}}]}