{"type": "FeatureCollection", "features": [{"type": "Feature", "properties": {"depth_class": 1, "depth_lo_m": 0.3, "t_s": 67500.5986850135}, "geometry": {"type": "MultiPolygon", "coordinates": [[[[79.01424296778274, 14.223220123053174], [79.01602618186206, 14.221168489959858], [79.01813838663901, 14.221874831035088], [79.02096866992005, 14.221209469120577], [79.02168672354301, 14.21983777971867], [79.02171966913033, 14.216049556950844], [79.02067556682104, 14.2143188719775], [79.01891644127093, 14.213615486208635], [79.0178693710617, 14.212229176129327], [79.0139921575822, 14.211508191486345], [79.01150297172912, 14.213553947723556], [79.01148190310485, 14.215964620613429], [79.01217892634699, 14.21700363815606], [79.01144276519125, 14.220441583183506], [79.01283382962676, 14.222864001902288], [79.01424296778274, 14.223220123053174]], [[79.01815339219868, 14.220152915754356], [79.01641525626744, 14.217038827487833], [79.01324101536012, 14.216668060368143], [79.01254398765876, 14.215629045399083], [79.01291806577964, 14.213221304854397], [79.01610126561869, 14.2125589214722], [79.01819839683871, 14.214987168333762], [79.02030755945819, 14.21603786761961], [79.02063661448385, 14.2187958601953], [79.01991855910141, 14.220167546157368], [79.01815339219868, 14.220152915754356]]], [[[79.16062073082857, 14.241613360551185], [79.16141054658739, 14.231286456682], [79.16388767401897, 14.23061664514664], [79.16425466223365, 14.228897297796511], [79.16320934656169, 14.227167095131888], [79.16074340297509, 14.226459257530584], [79.15898919719153, 14.225068015579426], [79.15722384841197, 14.225054407334662], [79.15543614648841, 14.227796071131706], [79.15331770701934, 14.227779705115275], [79.15189701514774, 14.228802013680765], [79.15187180994066, 14.23190170211306], [79.15291145065518, 14.234320765836308], [79.15572493499282, 14.235720239400475], [79.15708977487797, 14.241586124182863], [79.15814347395816, 14.242283121995076], [79.15990895746806, 14.242296739560603], [79.16062073082857, 14.241613360551185]], [[79.15890271052439, 14.235744762761133], [79.156100381072, 14.232967682060588], [79.1561087649173, 14.231934450296858], [79.1582244551067, 14.232295207249601], [79.15890271052439, 14.235744762761133]]], [[[79.08115859049458, 14.243054298225754], [79.08615978992073, 14.236206060530675], [79.08618589922843, 14.233106490654498], [79.08513830521576, 14.231720413936236], [79.08231669182003, 14.231353355484158], [79.07805953813532, 14.233730065580076], [79.07591488787189, 14.236812557760208], [79.0723871015607, 14.236439684372865], [79.07167511493171, 14.237122769646927], [79.07129864910195, 14.23987506592863], [79.07199602814937, 14.240913951278323], [79.07481772552586, 14.241281144342073], [79.07588279573659, 14.240600896764864], [79.078333936615, 14.24303157099753], [79.08115859049458, 14.243054298225754]], [[79.08011099218182, 14.241668198613514], [79.07765109757193, 14.240270726184372], [79.07768607369903, 14.236137988239372], [79.08301119914269, 14.23273660844995], [79.0844205620407, 14.23309233689971], [79.08475040425927, 14.235850339677373], [79.08259709068597, 14.239966087753174], [79.08011099218182, 14.241668198613514]]], [[[79.11821835883717, 14.245071512487145], [79.12036827828598, 14.241299773694987], [79.1203882306469, 14.238888950273804], [79.11899871194554, 14.236122600929617], [79.11653001572947, 14.235758714744671], [79.1143801013723, 14.239530419205416], [79.11400413678402, 14.242282846396957], [79.11680598822896, 14.245060370735448], [79.11821835883717, 14.245071512487145]]], [[[79.03554013007644, 14.250949013555928], [79.0366291776813, 14.247513873873078], [79.03946571509104, 14.246159554665503], [79.03948355952048, 14.244093233857837], [79.03773901955564, 14.241668018523457], [79.03561761715916, 14.24199497871526], [79.03418744478843, 14.24404966533019], [79.03170398768316, 14.245406833998175], [79.03027674584823, 14.24711710443601], [79.03026180257916, 14.248839028483157], [79.0316681509471, 14.249539455419903], [79.03306256862246, 14.251617416362873], [79.03554013007644, 14.250949013555928]], [[79.0334604150932, 14.246454546198297], [79.03486676209809, 14.24715495376699], [79.03450175466527, 14.248529588185537], [79.0330924167534, 14.248173562985087], [79.0334604150932, 14.246454546198297]]], [[[79.15029959825975, 14.251522094078199], [79.15101704145654, 14.250149933078053], [79.15067796568138, 14.24842515076216], [79.14820623550241, 14.248405978891922], [79.14749159442616, 14.24943372182049], [79.1478306459271, 14.251158505782573], [79.14888154252006, 14.252199954529422], [79.15029959825975, 14.251522094078199]]], [[[79.10085927066307, 14.251822435216557], [79.10016748769252, 14.250094816427694], [79.09804602121694, 14.250422333247732], [79.09839046039713, 14.251458344189968], [79.09944687227471, 14.251811185547377], [79.10085927066307, 14.251822435216557]]], [[[79.10755669027307, 14.253253358832964], [79.10580267471298, 14.251861743289346], [79.10403429391752, 14.252192116182016], [79.1054294439562, 14.254269738937], [79.1075480723171, 14.254286560028078], [79.10755669027307, 14.253253358832964]]], [[[79.15838199476656, 14.256406679343362], [79.15945252790885, 14.25503721604263], [79.15946929150041, 14.252970752320527], [79.15806522571019, 14.251926617543862], [79.15559344707114, 14.251907517589915], [79.1509889781651, 14.253594023422965], [79.15167836851896, 14.255665951954935], [79.15413897267722, 14.25706273547241], [79.15838199476656, 14.256406679343362]]], [[[79.11388679378086, 14.256403320236473], [79.1121413090035, 14.253978539945678], [79.1103757828726, 14.253964557961885], [79.11036430862588, 14.255342161703707], [79.11176813787627, 14.25638655300051], [79.11388679378086, 14.256403320236473]]], [[[79.02804154572235, 14.260530589186269], [79.0287627095181, 14.258814509097384], [79.02702119820533, 14.256044834396468], [79.02455556226504, 14.255335604427632], [79.02207192835726, 14.256692648188968], [79.0220509053966, 14.259103327882938], [79.02345127789235, 14.260492573724974], [79.0252107656334, 14.261195972272752], [79.02804154572235, 14.260530589186269]], [[79.02383138253299, 14.257396052775857], [79.02559984263743, 14.257066295060401], [79.02664413778716, 14.25879698293623], [79.02487266498778, 14.259471130173212], [79.02381937995807, 14.258773585480736], [79.02383138253299, 14.257396052775857]]], [[[79.04850358252169, 14.262765450493285], [79.05028688056876, 14.260713567738918], [79.04994562326007, 14.259333125376621], [79.04783887698481, 14.257938234206215], [79.04607338689839, 14.25792377245424], [79.04499925057591, 14.2596370268955], [79.04497846673935, 14.262047739314534], [79.04603184337627, 14.262745200570048], [79.04850358252169, 14.262765450493285]]], [[[79.08311707004823, 14.262013076241544], [79.08349346713261, 14.259260752706338], [79.08279307445079, 14.258566284081496], [79.07996530927423, 14.258887946705295], [79.07854121259146, 14.260254145413967], [79.0785324580722, 14.261287328479622], [79.07958303760977, 14.26232904852435], [79.08205190822744, 14.262693345098118], [79.08311707004823, 14.262013076241544]]], [[[79.12146112292355, 14.279884027714049], [79.12607199722638, 14.277509381139907], [79.12714851816304, 14.27545129382454], [79.12717414189646, 14.272351660383968], [79.12612897178052, 14.27062131111833], [79.12365133082713, 14.271290661622585], [79.12077197476535, 14.277812040349477], [79.12075768577873, 14.279534051905042], [79.12146112292355, 14.279884027714049]]], [[[79.10415986245036, 14.279402474961445], [79.10381825341616, 14.27802206717275], [79.10204966246354, 14.278352399022232], [79.10238837462667, 14.28007720665401], [79.10415986245036, 14.279402474961445]]], [[[79.16325582934937, 14.395249949285873], [79.16432991571462, 14.393536146779038], [79.16434961879118, 14.391125293821842], [79.16330089151991, 14.389739431609161], [79.16224090765948, 14.389731195144094], [79.16116682836517, 14.391444988943292], [79.16114709068017, 14.393855837514069], [79.16183684461402, 14.395927775868332], [79.16325582934937, 14.395249949285873]]], [[[79.16832216969821, 14.249938998871327], [79.17009883018049, 14.248574897023243], [79.17011271268609, 14.246852832703508], [79.16871418063701, 14.245119933448054], [79.16695422780072, 14.244417553686498], [79.16306454171482, 14.245076511262727], [79.1630478205135, 14.247142980536276], [79.16444353025945, 14.24922032078483], [79.16585039841581, 14.249920007760682], [79.16832216969821, 14.249938998871327]]], [[[79.18198588451543, 14.263476519418992], [79.18483026037245, 14.261087143541937], [79.18378465897786, 14.25935699906072], [79.17990301774284, 14.258982962517432], [79.17776765414075, 14.261033262696097], [79.17775381535169, 14.262755332352416], [79.17880767962201, 14.263452257014952], [79.18198588451543, 14.263476519418992]]], [[[79.28524610401668, 14.292142393247603], [79.28528525080763, 14.286975895167366], [79.2835297459938, 14.28558543384274], [79.2817873327811, 14.282472798054336], [79.26910964899253, 14.277558668390359], [79.26595218876018, 14.274780104427153], [79.26242051268069, 14.274754367266416], [79.26030944481852, 14.27370561257518], [79.2592658260202, 14.271631298703442], [79.25680694246822, 14.269891079946639], [79.25508622336481, 14.264022872645281], [79.25616951064895, 14.260930768144757], [79.25620128773923, 14.256797622766584], [79.25514982120119, 14.25575658731592], [79.25196894344457, 14.256077740585923], [79.25371871640861, 14.258157246861709], [79.2537081090483, 14.259534960168143], [79.2515627033726, 14.262963710125113], [79.2515467666723, 14.265030276804707], [79.2539949427265, 14.268148252467538], [79.25396044494619, 14.27262581702212], [79.25781345107166, 14.27678740233785], [79.26062558493201, 14.278530199042798], [79.26131606496638, 14.280601932089462], [79.26272612779684, 14.280956673259677], [79.26415467667167, 14.278900399146638], [79.2652141991213, 14.278908120267834], [79.2662658119846, 14.279949126799286], [79.26908859025058, 14.280314112961898], [79.27541955758295, 14.283804558203476], [79.27824241082077, 14.284169442736218], [79.28176119202946, 14.285917125329219], [79.28385943109883, 14.28868787771543], [79.28383592244276, 14.291787774075901], [79.28453448397771, 14.292826167125686], [79.28524610401668, 14.292142393247603]]], [[[79.25144311592295, 14.27846295107738], [79.25252654362869, 14.27537088024771], [79.25218666334415, 14.273646150918598], [79.25007566344962, 14.272597311953044], [79.24725037320636, 14.272576541250421], [79.24582172970544, 14.274632702015932], [79.24615356053243, 14.277390714162635], [79.24967193829099, 14.279138832242886], [79.25144311592295, 14.27846295107738]]], [[[79.19693767621268, 14.292867313560018], [79.19660645396279, 14.29010930312891], [79.1948405619527, 14.290095913102396], [79.19412870841725, 14.290779385913611], [79.19446814589384, 14.292504147517246], [79.19693767621268, 14.292867313560018]]], [[[79.27921553937628, 14.295543363498092], [79.27816379614163, 14.294502400653771], [79.2785065126232, 14.295882684111527], [79.27921553937628, 14.295543363498092]]], [[[79.28521477531825, 14.296275590023987], [79.28557059100629, 14.295933702983502], [79.28521738642563, 14.295931157016597], [79.28521477531825, 14.296275590023987]]], [[[79.18629527385743, 14.298641824783541], [79.18595589676492, 14.2969170586152], [79.18418719697677, 14.29724799744926], [79.18417337042638, 14.298970068045566], [79.18523017677414, 14.299322570314558], [79.18629527385743, 14.298641824783541]]], [[[79.20564428549685, 14.308432884282034], [79.20777992800951, 14.30638236454001], [79.20887775152978, 14.301568490342724], [79.21173058210084, 14.29814556508864], [79.20855456660348, 14.297777223669156], [79.20713360449346, 14.29879983348697], [79.20254482351916, 14.298420757041765], [79.20112657397374, 14.299098909909171], [79.20147154966467, 14.300134833405806], [79.20288159369713, 14.300489932073768], [79.20178913363088, 14.304614930115882], [79.20176173197248, 14.308059102498285], [79.20316634754836, 14.309103039921409], [79.20564428549685, 14.308432884282034]], [[79.20355788282053, 14.304283864214044], [79.20462843048256, 14.302914197331662], [79.20604123160949, 14.302924861654477], [79.20638896702644, 14.303616362829203], [79.20601936537709, 14.305680206485256], [79.20459833956438, 14.306702793360037], [79.20354419670437, 14.306005952262131], [79.20355788282053, 14.304283864214044]]], [[[79.22577190545908, 14.30927287367182], [79.22578272164135, 14.30789518687361], [79.22438340355855, 14.306162528826954], [79.22156586328579, 14.305108142055266], [79.21873749676634, 14.305431406784923], [79.21695787859107, 14.30714026763451], [79.21729750355219, 14.308865017583416], [79.22118554974222, 14.308549708338207], [79.22364720684887, 14.309945885528546], [79.22577190545908, 14.30927287367182]]], [[[79.26072720152935, 14.311253495464369], [79.26214804485217, 14.310230547289763], [79.26215864008213, 14.30885283362684], [79.25970201220284, 14.306768173522379], [79.25687362454231, 14.307091896106826], [79.25508892688053, 14.309489928243392], [79.25508094787688, 14.310523209551759], [79.25613529681029, 14.311219842386146], [79.26072720152935, 14.311253495464369]]], [[[79.26382679364954, 14.32160959774138], [79.26631005879281, 14.32024994706456], [79.26563003350341, 14.316800500951], [79.26352387361857, 14.315062875213302], [79.26210830269353, 14.315396972037426], [79.26138063065085, 14.318147227585916], [79.26242178341286, 14.320565979111905], [79.26382679364954, 14.32160959774138]]], [[[79.23277153982411, 14.317591655236583], [79.23135862639774, 14.317581139166496], [79.23169836989608, 14.319305881585604], [79.23311398931166, 14.318971974108608], [79.23277153982411, 14.317591655236583]]], [[[79.23661940130856, 14.322442458700513], [79.23556238298494, 14.32209016385681], [79.23520106966568, 14.32312080813494], [79.23661133026621, 14.323475728623745], [79.23661940130856, 14.322442458700513]]], [[[79.2087967130769, 14.488941503268435], [79.21696011863652, 14.484870364192458], [79.22016349762796, 14.482139154003901], [79.22444915973641, 14.476660569412578], [79.22696725899795, 14.471168565696235], [79.2277097222009, 14.466696466931204], [79.2273999754952, 14.461183124560623], [79.22636694510655, 14.45773096253106], [79.22531480487945, 14.456689720081648], [79.22319413179312, 14.456673725839254], [79.22035834669961, 14.457685619611768], [79.21576355026136, 14.457650842270237], [79.21363187006962, 14.459012421257057], [79.21221808205702, 14.459001688733004], [79.20940706181207, 14.456913712566873], [79.19916279350477, 14.45614671208121], [79.1967192693943, 14.45233924447338], [79.19638805507248, 14.449581241871124], [79.19464314752395, 14.446812410030075], [79.19465982144033, 14.444745939018537], [79.1978517076016, 14.443392638994649], [79.19822453653106, 14.440984453299974], [79.19541109690378, 14.439240760447378], [79.19117015368569, 14.439208252773318], [79.1880006042667, 14.437806178898946], [79.18414104565002, 14.434332162760695], [79.18310319217898, 14.431568715031252], [79.18028440604613, 14.430513686913267], [79.18029559747943, 14.429136048704764], [79.18458934386358, 14.422624930438054], [79.18672636740071, 14.420574768515937], [79.1909669475182, 14.42060731501328], [79.19238603128129, 14.41992932264157], [79.19241935333186, 14.41579637600594], [79.2002571806601, 14.40793426039848], [79.20273348920482, 14.407608682679687], [79.20483989487872, 14.409346881773345], [79.20767233716994, 14.40867952385199], [79.20804770959725, 14.405926881466991], [79.20629466368234, 14.40419139472762], [79.20631117904013, 14.402124902988582], [79.20986946210863, 14.399051959275415], [79.21238131453003, 14.3942488513615], [79.2159339166528, 14.39186462513827], [79.21773614700395, 14.387400518930079], [79.21916040617315, 14.386033493758475], [79.22057646672806, 14.385699713375113], [79.22343035771878, 14.382276773019914], [79.2283959585809, 14.379902930103409], [79.23158130772146, 14.379237878454017], [79.23373372323205, 14.375120659464887], [79.23691899573522, 14.374455526116336], [79.23904969375523, 14.373093619389921], [79.24155791070139, 14.36863450955399], [79.24511518978429, 14.365560910995987], [79.24797649179786, 14.36110432432863], [79.25222678677274, 14.359757943257499], [79.25508253366137, 14.355990095813205], [79.26004726625354, 14.353615479710463], [79.26325343311642, 14.350194528592846], [79.2646692277577, 14.349860450297955], [79.26751404782583, 14.347470125513473], [79.26824443055061, 14.344375431330645], [79.27110234782688, 14.340262904845737], [79.27147674109888, 14.337510045383905], [79.26973947206454, 14.333708449661863], [79.26975796358568, 14.331297445668092], [79.27263674919348, 14.324429436035864], [79.27901095652656, 14.322409022724305], [79.28364241527862, 14.317275778804426], [79.28436720414362, 14.314869856407505], [79.28442735314512, 14.306947910488537], [79.28622479725344, 14.302827455344215], [79.28555492654218, 14.298000301254675], [79.28378366080081, 14.29867642963288], [79.28198098151088, 14.303485730836849], [79.28191290451122, 14.312440964716005], [79.27906082994056, 14.315864829530787], [79.27764263938377, 14.316543452030727], [79.2769098891422, 14.319982637442797], [79.27583964742149, 14.321352669155752], [79.26983189526688, 14.321653424571647], [79.26876424651276, 14.322678989232744], [79.26839515122214, 14.324742988517942], [79.26553477122017, 14.329199932531248], [79.26480707522076, 14.331950195233222], [79.26545266671751, 14.339877209980136], [79.26329590364635, 14.344683688200659], [79.26081765312519, 14.345354418026592], [79.25941252399954, 14.344310768434955], [79.25802869923731, 14.340511698134172], [79.25627567228901, 14.338776586868732], [79.25488926063807, 14.335321932730343], [79.25208719909041, 14.332201297327654], [79.25210587715863, 14.329790315715359], [79.25317363023967, 14.328764838949752], [79.25355353339502, 14.325323175055441], [79.25110750716617, 14.321860713337088], [79.25112618164218, 14.319449730895991], [79.24939738421541, 14.314614757418806], [79.2487283076545, 14.309787588844376], [79.24767399165873, 14.309090926407066], [79.24488569371243, 14.304248120854437], [79.2413803887554, 14.300777771013776], [79.23859767968477, 14.295246066604093], [79.23154995449579, 14.29312711649465], [79.228039635967, 14.290345455546559], [79.22592592736024, 14.289640821000726], [79.22489339047544, 14.286188698034286], [79.22171749763321, 14.285820549085194], [79.21923713325407, 14.286835328973497], [79.21641985430931, 14.285780910266302], [79.21362162837063, 14.2823155201973], [79.21045399185296, 14.280913970306221], [79.20765046585197, 14.278137364744353], [79.20342345390132, 14.276727755983137], [79.20026965167342, 14.273603996893321], [79.19850662333107, 14.273246231571862], [79.19395681911426, 14.268045215439273], [79.18902932498075, 14.26594119642934], [79.18799192921988, 14.263177817076548], [79.18588414319282, 14.261784038653607], [79.18517512215033, 14.26212307819032], [79.1855172302859, 14.263503428006798], [79.18797266005265, 14.265588727819784], [79.1879644007364, 14.26662197512436], [79.1868967154223, 14.267647163787897], [79.18371844338212, 14.26762295992244], [79.18161065040563, 14.266229142390616], [79.17701708737293, 14.266538482926226], [79.17527080403656, 14.264114075946612], [79.17174502350333, 14.263398189034127], [79.16612555889671, 14.25956625552143], [79.16224397934698, 14.259191934352565], [79.15764498489953, 14.260189735698244], [79.1544808824232, 14.258443106900149], [79.14883095729184, 14.258399307825806], [79.14603415066107, 14.254933278922183], [79.14214990377683, 14.25490305114086], [79.13859899612694, 14.25728636191494], [79.13576840982473, 14.257953104502997], [79.13119209037838, 14.256195144016656], [79.12200263083724, 14.257156226872011], [79.12339798382935, 14.25923376765532], [79.13046031679417, 14.259289251860572], [79.13221455873494, 14.260680710730398], [79.14422913495409, 14.25974125264355], [79.14880003213061, 14.26218779983678], [79.15866799924453, 14.264675253015122], [79.1639733469935, 14.263682884082792], [79.16677890189851, 14.266115510951463], [79.16960120573697, 14.266481638340622], [79.17592718346411, 14.270318923705513], [79.18051805742917, 14.270354027794825], [79.18968608508743, 14.27214605066827], [79.19284520107907, 14.274581097888857], [79.19634383140321, 14.278740870789274], [79.19881321962643, 14.279104000462453], [79.20478967686985, 14.282593524293711], [79.20618051938109, 14.285359522612202], [79.20794093215417, 14.286061662201371], [79.21179320053193, 14.290223917050131], [79.21706379427388, 14.293707876355105], [79.21739798383301, 14.296121466748065], [79.22023165199397, 14.295109362367853], [79.22376356530064, 14.295135761636573], [79.22833348123055, 14.297925382604895], [79.2332647916299, 14.29968428255293], [79.23395774301942, 14.301411646856732], [79.2402644741577, 14.308002847256432], [79.24235161636562, 14.312151625502718], [79.24303930951487, 14.314567823430302], [79.24296427202185, 14.324211712168514], [79.23901412306188, 14.332449092963486], [79.23615847613422, 14.33621675725629], [79.23542500892805, 14.339655730217302], [79.23363440607463, 14.34274238380062], [79.23325414135763, 14.346183972954062], [79.22966999545633, 14.352701626615941], [79.22825686452052, 14.352691066842445], [79.2254604476258, 14.348881297470843], [79.22124560739096, 14.345749748359777], [79.21600652289928, 14.338132720710925], [79.21283539763634, 14.337075534639192], [79.21106639063944, 14.337406640468789], [79.2075064616355, 14.340824149643367], [79.20502541694788, 14.341838699004578], [79.20181584704979, 14.34560319284449], [79.19933197678742, 14.346962088730017], [79.19895393289087, 14.350059144774074], [79.19963845924931, 14.352819836313033], [79.19856210049304, 14.35487827447817], [79.19854557054593, 14.356944765624752], [79.19640380086236, 14.359683957586995], [79.19460421875829, 14.363803473581749], [79.1914052061169, 14.366190108620005], [79.19104083484439, 14.367565063737546], [79.18890441024277, 14.369615337063943], [79.1825283003781, 14.371633072520883], [79.17757926944321, 14.371939454769425], [79.1743827737739, 14.373981413201555], [79.16943650400962, 14.373943208480737], [79.16732509747746, 14.372893577349869], [79.16378926560701, 14.373210603524406], [79.15845871911306, 14.376957907190706], [79.15738186376306, 14.379016095993277], [79.15348414288727, 14.380363420545129], [79.14992268601695, 14.383779868770059], [79.14884287961317, 14.386182409064205], [79.14528978730894, 14.388565554441355], [79.14420990453645, 14.390968063958073], [79.14136334826831, 14.393356681142768], [79.14028624848255, 14.39541476120776], [79.13920056390741, 14.398506041139916], [79.13987013683021, 14.402988837954203], [79.13771577522758, 14.407104959271946], [79.13696617120198, 14.412265411624501], [79.13590037180987, 14.412945847198245], [79.13343259263054, 14.412237502235836], [79.12636258115, 14.412525924565854], [79.12387180053003, 14.414572676271698], [79.12279442373476, 14.416630641398728], [79.12067136489405, 14.416958168184593], [79.1156982471943, 14.420018301705996], [79.11390533424846, 14.423103758387592], [79.10928827582553, 14.42582215679162], [79.10890873858264, 14.428918885017515], [79.10958061521313, 14.433057298991576], [79.1085000954354, 14.435459564363056], [79.1052962808548, 14.438189182054543], [79.10070218279509, 14.438152208688916], [79.09749824391386, 14.440881703409858], [79.09748067784342, 14.442948060998148], [79.1030883473332, 14.448503949180914], [79.10342423500298, 14.450573158282983], [79.10128037388063, 14.453311220834902], [79.10017037592239, 14.459157351623336], [79.09625043902774, 14.462914256670292], [79.09409460821723, 14.467029792087223], [79.09442747852646, 14.469443395706104], [79.0986306432198, 14.473954813362939], [79.10811830629686, 14.480575260709115], [79.11023906909375, 14.480592318608537], [79.11520788446576, 14.478221278435303], [79.11735767740034, 14.474794310814417], [79.12091829484807, 14.471723009911807], [79.12199891346476, 14.469320699570822], [79.12377771201135, 14.46795721120271], [79.1259388183901, 14.463152542750796], [79.12736410826591, 14.461786203282085], [79.1298410331852, 14.461461476038572], [79.13124037153591, 14.463194700267403], [79.13370292942854, 14.464591930940381], [79.13547300506715, 14.464261539952583], [79.13583219161528, 14.463575540235732], [79.1351569262198, 14.459781541500881], [79.13128644468996, 14.457684314438545], [79.13059110694955, 14.456301106231678], [79.13061414249808, 14.453545913072778], [79.12957115988289, 14.45147109972358], [79.1299476142319, 14.448718713031848], [79.13634637966602, 14.444291923453862], [79.14100076941668, 14.437095783823551], [79.1431382975251, 14.435046083036683], [79.15130621380692, 14.43028830641349], [79.15626501351721, 14.428949418107106], [79.15731951296027, 14.429646513623618], [79.15730817985022, 14.43102413400552], [79.15337827426876, 14.436159790489127], [79.15476632347675, 14.439270498629053], [79.15688107946342, 14.439975898936883], [79.16394921288791, 14.440031066840357], [79.17350248133481, 14.438727575850427], [79.18230412230974, 14.442928789450317], [79.18404325072432, 14.446386511879764], [79.18471935145479, 14.450180467664522], [79.18717938843753, 14.451921572839362], [79.18820619472615, 14.45606265628207], [79.19136763110915, 14.458497988160575], [79.19241124632464, 14.460572598005456], [79.19096400869967, 14.464694664654706], [79.19342981822378, 14.465746904730699], [79.19447904658355, 14.467132688029368], [79.19516091423556, 14.470237812977192], [79.19509131354302, 14.478848090133564], [79.19648573264266, 14.481269818318202], [79.19536958292069, 14.48814989710894], [79.19783288179254, 14.489546532559663], [79.20560973227373, 14.489606054132295], [79.2087967130769, 14.488941503268435]], [[79.12242182044758, 14.461057987584821], [79.10656995321858, 14.454731482826915], [79.10587186742588, 14.453692615139225], [79.10591561771851, 14.448526699926024], [79.10066126804246, 14.44297371924853], [79.10067295951593, 14.441596145015396], [79.10209530975777, 14.440574352153781], [79.1059826678503, 14.440605625289422], [79.10989911506559, 14.437192879391171], [79.11169802524158, 14.43341868505939], [79.11104062850994, 14.427558292172174], [79.1160226641424, 14.423465095302813], [79.11710014007608, 14.421407173754297], [79.12065404269278, 14.419024557709225], [79.12419634746819, 14.41801947440272], [79.12563284005584, 14.41527550996789], [79.1270549130579, 14.414253530210646], [79.13623941976117, 14.41467064422993], [79.13872724697175, 14.412968150468943], [79.13912346387411, 14.407804904263973], [79.14163685885667, 14.403002742365082], [79.14096724998971, 14.398519946324246], [79.14205291134348, 14.395428655361185], [79.14561752343545, 14.391667961428247], [79.14633838879513, 14.389951482815302], [79.14989149573914, 14.38756832322825], [79.15061514735584, 14.385507420443252], [79.15382331151207, 14.382088207112847], [79.15772106227752, 14.380740880480031], [79.15986349213635, 14.378002122526674], [79.16448462719171, 14.374593716761789], [79.174724898446, 14.375361778504143], [79.17862802324088, 14.373325256206632], [79.18463978363377, 14.37268257503035], [79.18995600212388, 14.370656682359867], [79.1924512635664, 14.36792026994933], [79.19281562732583, 14.366545311757559], [79.19637068718222, 14.363816932900829], [79.19781419409712, 14.360039127279768], [79.19959716030662, 14.357986067435009], [79.19997522217594, 14.354889012849291], [79.20105156886149, 14.35283056676284], [79.20036977567307, 14.349725461574886], [79.20073679954054, 14.348006064276587], [79.20357668916677, 14.34630541465106], [79.20643298149972, 14.342538223510337], [79.2082047697648, 14.341862740438437], [79.2117619764298, 14.33878963993178], [79.21458258545414, 14.339499764947258], [79.21633525919852, 14.341235148318809], [79.2170227155098, 14.343651394181496], [79.21559329084202, 14.34570727804198], [79.21594110718087, 14.346398773915807], [79.21947381436199, 14.346425329706225], [79.22087330348077, 14.348158035605154], [79.22298751682405, 14.348862773257201], [79.22614530649989, 14.351641949883849], [79.22684373473547, 14.352680498653426], [79.22682475524313, 14.355091442756132], [79.22468603438209, 14.357486512729881], [79.22431644835913, 14.359550385176039], [79.22536546706668, 14.360936007630382], [79.22713194279514, 14.360949235000623], [79.22930046735375, 14.354765513782104], [79.23143370661607, 14.353059235973657], [79.23496115028784, 14.353774417184097], [79.23847784721136, 14.355867239269573], [79.24448377947192, 14.355911810901569], [79.25369873660662, 14.352191003929203], [79.25654102469174, 14.350145253984806], [79.25868202347273, 14.34740542177442], [79.26398919246923, 14.346411000444679], [79.26577149227836, 14.344357358838385], [79.26579004055039, 14.341946362083046], [79.26721636849064, 14.340234548422432], [79.26690015670034, 14.335409968919194], [79.2676146186459, 14.334381842560617], [79.26867175939371, 14.334734006455896], [79.26971304963719, 14.337152740192849], [79.26933599252943, 14.340250023445513], [79.2664833434203, 14.343673668614207], [79.26539435796417, 14.347454626587187], [79.26362264380364, 14.348130551512964], [79.25970461992989, 14.35223517882452], [79.25367470408439, 14.355290834140423], [79.2508189459142, 14.359058663155027], [79.24763391564461, 14.359724013891894], [79.24015005833265, 14.367935163952056], [79.23835385007573, 14.371710672425056], [79.23586714530639, 14.373414362722428], [79.23303790935701, 14.37373770010352], [79.23052946515439, 14.378196691989144], [79.22840681436176, 14.378525249525387], [79.22202249439927, 14.381577316964034], [79.21952465443567, 14.384658480870678], [79.21775253709743, 14.385334011304801], [79.215969472627, 14.387387197567994], [79.21523817927597, 14.390481621873509], [79.2109706795458, 14.393893741922524], [79.209173747371, 14.397668940689568], [79.20490051007819, 14.401769752903686], [79.20452786832774, 14.404177972619964], [79.20592753695531, 14.405910787187118], [79.205916521635, 14.40728844765759], [79.20450306599773, 14.407277706508093], [79.20309788612784, 14.406233713178791], [79.19920538199273, 14.406892938124543], [79.1910114116159, 14.415096723811622], [79.19063302459087, 14.418193722865704], [79.18744983879185, 14.418513730881939], [79.18496225092434, 14.420216774290369], [79.17817243701025, 14.429464088820966], [79.17780223265352, 14.43152781306395], [79.17885402169713, 14.432569230614286], [79.18132501683026, 14.432932732991391], [79.18237683000069, 14.433974137394083], [79.18271625589028, 14.435698910858513], [79.18692922105616, 14.439175668889831], [79.19044940938554, 14.440924883425279], [79.19503824342753, 14.441648938849882], [79.19255042476213, 14.443352035957584], [79.19253095084126, 14.445762916235951], [79.19286768144818, 14.447832096084127], [79.19426470266204, 14.449909406627304], [79.19459032935569, 14.453356232388709], [79.19633249888217, 14.456469480860164], [79.19596238331333, 14.458533243493036], [79.19419795166746, 14.458175282967304], [79.19068862042174, 14.455048448754896], [79.18860426977277, 14.450554808397754], [79.18614423359895, 14.448813718382238], [79.18581594406652, 14.445711305753584], [79.18407679060047, 14.442253593641105], [79.18056504267017, 14.439471059503015], [79.17668314964853, 14.438752201288391], [79.17422053145204, 14.437355419299838], [79.17068648283407, 14.43732802073674], [79.16855760468974, 14.438344777376093], [79.15618845184972, 14.438248347406262], [79.15514527121023, 14.43617362498902], [79.1579979683687, 14.43309608677258], [79.1590751402072, 14.431037934258566], [79.15909212314479, 14.428971501563227], [79.15768989687447, 14.427582843155074], [79.15450942110849, 14.427557980324076], [79.14954780243455, 14.42924123788068], [79.14066739144928, 14.434682184859403], [79.13530050335146, 14.44256153319481], [79.13174057166182, 14.44563313867313], [79.12783577666832, 14.44766867280596], [79.12711741864324, 14.449040648970806], [79.12708857898507, 14.45248463472004], [79.12778676837304, 14.453523451042464], [79.12810270516421, 14.458003442844499], [79.12242182044758, 14.461057987584821]], [[79.23920327471477, 14.35346153079881], [79.24032231185512, 14.345892092102671], [79.24284087479602, 14.34005522585627], [79.24426734694086, 14.338343568395873], [79.24465277866253, 14.334213089766914], [79.24643512766347, 14.332159600546488], [79.2475189667046, 14.32906760296692], [79.24929055818684, 14.32839178585732], [79.25033962173515, 14.3297773021946], [79.24995698250373, 14.333563378775635], [79.2516965699876, 14.337020655992605], [79.25450401019721, 14.33945244871518], [79.25693693455442, 14.344637030393988], [79.25691828797603, 14.34704801522825], [79.25442132207144, 14.35012965413933], [79.24485049051539, 14.354192308494722], [79.23990446392587, 14.354155625442182], [79.23920327471477, 14.35346153079881]], [[79.24687667142894, 14.32079618215254], [79.24759383619899, 14.319423694536981], [79.24935466744168, 14.320125570802062], [79.248988076445, 14.321845095080596], [79.24827892773428, 14.322184310296166], [79.24722188613097, 14.321832065434426], [79.24687667142894, 14.32079618215254]]], [[[79.16477456886935, 14.425571500647132], [79.17118609415411, 14.419421555977012], [79.17721310468433, 14.417057167840365], [79.18291174703519, 14.411590195695426], [79.1871716320054, 14.409211910812537], [79.1918042206989, 14.404425356353196], [79.1932426015031, 14.401336456063518], [79.20000600992279, 14.39518824443336], [79.20502163459047, 14.38661547986789], [79.20575029627516, 14.383865516788068], [79.207533412913, 14.381812414595055], [79.20827848927382, 14.376995938990687], [79.21006700518498, 14.374253973948004], [79.20974932666307, 14.369773882701999], [79.20692562734014, 14.369408076029965], [79.19734778738929, 14.374157439880692], [79.19487185283947, 14.37448300404689], [79.19131382261794, 14.37755574940531], [79.1845146249475, 14.388181106534702], [79.18024398406503, 14.391937033674811], [79.17699407163177, 14.400522781754283], [79.17592843137203, 14.401203419780503], [79.17448982622638, 14.404292186772162], [79.16985972267022, 14.408733950256412], [79.16589672812555, 14.418002791695004], [79.1605678797502, 14.421405601424306], [79.15984415860721, 14.42346652589484], [79.16124355109422, 14.425199576489922], [79.16477456886935, 14.425571500647132]], [[79.16232911990252, 14.422108180925699], [79.1676607794937, 14.418360922958373], [79.17126754526589, 14.40943371658414], [79.17447021325742, 14.406703050767831], [79.17840187339402, 14.401222502546407], [79.18165174780628, 14.392636730438365], [79.18556627035953, 14.389222477604363], [79.19308039577733, 14.37756924588024], [79.1959234956249, 14.375524328302644], [79.19839944165865, 14.375198754314995], [79.20797456814176, 14.370793767407319], [79.20867569735603, 14.371487948718924], [79.20865649726083, 14.373898865073542], [79.20722677646991, 14.375954662337863], [79.2064816841442, 14.380771132817989], [79.20433973983086, 14.38351037623521], [79.20289338400619, 14.387632624895447], [79.20146902641518, 14.38899953923404], [79.19931036858951, 14.39380520480194], [79.19183196758934, 14.400981230862387], [79.19003743764338, 14.404411825688932], [79.18505145279967, 14.409195625578228], [79.18186002336057, 14.41054880382484], [79.1772271037631, 14.415335121047002], [79.16942483807019, 14.418719041683719], [79.16478867212791, 14.423849467101745], [79.16231499952741, 14.423830212340333], [79.16232911990252, 14.422108180925699]]]]}}, {"type": "Feature", "properties": {"depth_class": 2, "depth_lo_m": 1.0, "t_s": 67500.5986850135}, "geometry": {"type": "MultiPolygon", "coordinates": [[[[79.02027459039152, 14.219826087145787], [79.02065159775512, 14.21707394186038], [79.01960750057071, 14.215343252802397], [79.01819839683871, 14.214987168333762], [79.01610126561869, 14.2125589214722], [79.01291806577964, 14.213221304854397], [79.01254398765876, 14.215629045399083], [79.01324101536012, 14.216668060368143], [79.01641525626744, 14.217038827487833], [79.01815339219868, 14.220152915754356], [79.02027459039152, 14.219826087145787]], [[79.01430610767282, 14.21598809505003], [79.013974124304, 14.213574486052321], [79.01644227872582, 14.213939381788796], [79.0164272670522, 14.215661296171254], [79.01430610767282, 14.21598809505003]]], [[[79.15890271052439, 14.235744762761133], [79.1582244551067, 14.232295207249601], [79.1561087649173, 14.231934450296858], [79.156100381072, 14.232967682060588], [79.15890271052439, 14.235744762761133]]], [[[79.081173141624, 14.241332321110304], [79.08331196512026, 14.238938571079752], [79.08475040425927, 14.235850339677373], [79.08476782352267, 14.233783961502166], [79.08371733209553, 14.232742275542826], [79.07911000429254, 14.234771773679837], [79.07768607369903, 14.236137988239372], [79.07765109757193, 14.240270726184372], [79.07975791254675, 14.241665358256759], [79.081173141624, 14.241332321110304]], [[79.07942813276097, 14.238907356390781], [79.07908670771496, 14.23752693510326], [79.0801575696389, 14.236157873678428], [79.0819229262152, 14.236172061922813], [79.08191129440726, 14.2375496448375], [79.08048444823977, 14.239260271119985], [79.07942813276097, 14.238907356390781]]], [[[79.03450175466527, 14.248529588185537], [79.034166569858, 14.24646036522745], [79.03310435377429, 14.246796021339028], [79.03344251277102, 14.248520859106744], [79.03450175466527, 14.248529588185537]]], [[[79.02628804568184, 14.259138443746428], [79.02630303036523, 14.257416525317973], [79.02383138253299, 14.257396052775857], [79.02416947409795, 14.259120895213629], [79.02628804568184, 14.259138443746428]]], [[[79.20424513355269, 14.306700125233563], [79.20637803605999, 14.304994035511843], [79.20638896702644, 14.303616362829203], [79.20604123160949, 14.302924861654477], [79.20462843048256, 14.302914197331662], [79.20355788282053, 14.304283864214044], [79.20354419670437, 14.306005952262131], [79.20424513355269, 14.306700125233563]]], [[[79.248988076445, 14.321845095080596], [79.24935466744168, 14.320125570802062], [79.24759383619899, 14.319423694536981], [79.24687667142894, 14.32079618215254], [79.24722188613097, 14.321832065434426], [79.248988076445, 14.321845095080596]]], [[[79.22250103224349, 14.365736689524228], [79.22073452340861, 14.365723423308044], [79.22037032704085, 14.367098444532166], [79.22213412513062, 14.367456134022802], [79.22250103224349, 14.365736689524228]]], [[[79.12242182044758, 14.461057987584821], [79.12810270516421, 14.458003442844499], [79.12778676837304, 14.453523451042464], [79.12708857898507, 14.45248463472004], [79.12711741864324, 14.449040648970806], [79.12783577666832, 14.44766867280596], [79.13174057166182, 14.44563313867313], [79.13530050335146, 14.44256153319481], [79.13995488111753, 14.435365412951285], [79.14244579157325, 14.43331850487228], [79.14954780243455, 14.42924123788068], [79.15450942110849, 14.427557980324076], [79.15768989687447, 14.427582843155074], [79.15909212314479, 14.428971501563227], [79.1590751402072, 14.431037934258566], [79.1579979683687, 14.43309608677258], [79.15514527121023, 14.43617362498902], [79.15618845184972, 14.438248347406262], [79.16855760468974, 14.438344777376093], [79.17068648283407, 14.43732802073674], [79.17422053145204, 14.437355419299838], [79.17668314964853, 14.438752201288391], [79.18056504267017, 14.439471059503015], [79.18407679060047, 14.442253593641105], [79.18581594406652, 14.445711305753584], [79.18614423359895, 14.448813718382238], [79.18860426977277, 14.450554808397754], [79.19068862042174, 14.455048448754896], [79.19419795166746, 14.458175282967304], [79.19596238331333, 14.458533243493036], [79.19633249888217, 14.456469480860164], [79.19459032935569, 14.453356232388709], [79.19426470266204, 14.449909406627304], [79.19286768144818, 14.447832096084127], [79.19253095084126, 14.445762916235951], [79.19255042476213, 14.443352035957584], [79.19503824342753, 14.441648938849882], [79.19044940938554, 14.440924883425279], [79.18692922105616, 14.439175668889831], [79.18271625589028, 14.435698910858513], [79.18237683000069, 14.433974137394083], [79.18132501683026, 14.432932732991391], [79.17885402169713, 14.432569230614286], [79.17780223265352, 14.43152781306395], [79.17817243701025, 14.429464088820966], [79.18496225092434, 14.420216774290369], [79.18744983879185, 14.418513730881939], [79.19063302459087, 14.418193722865704], [79.1910114116159, 14.415096723811622], [79.19920538199273, 14.406892938124543], [79.20309788612784, 14.406233713178791], [79.20450306599773, 14.407277706508093], [79.205916521635, 14.40728844765759], [79.20592753695531, 14.405910787187118], [79.20452786832774, 14.404177972619964], [79.20490051007819, 14.401769752903686], [79.209173747371, 14.397668940689568], [79.2109706795458, 14.393893741922524], [79.21523817927597, 14.390481621873509], [79.215969472627, 14.387387197567994], [79.21775253709743, 14.385334011304801], [79.21952465443567, 14.384658480870678], [79.22202249439927, 14.381577316964034], [79.22840681436176, 14.378525249525387], [79.23052946515439, 14.378196691989144], [79.23303790935701, 14.37373770010352], [79.23586714530639, 14.373414362722428], [79.23835385007573, 14.371710672425056], [79.24015005833265, 14.367935163952056], [79.24763391564461, 14.359724013891894], [79.2508189459142, 14.359058663155027], [79.25367470408439, 14.355290834140423], [79.25970461992989, 14.35223517882452], [79.26362264380364, 14.348130551512964], [79.26539435796417, 14.347454626587187], [79.2664833434203, 14.343673668614207], [79.26933599252943, 14.340250023445513], [79.26971304963719, 14.337152740192849], [79.26867175939371, 14.334734006455896], [79.2676146186459, 14.334381842560617], [79.26690015670034, 14.335409968919194], [79.26721636849064, 14.340234548422432], [79.26579004055039, 14.341946362083046], [79.26577149227836, 14.344357358838385], [79.26398919246923, 14.346411000444679], [79.25868202347273, 14.34740542177442], [79.25654102469174, 14.350145253984806], [79.25369873660662, 14.352191003929203], [79.24448377947192, 14.355911810901569], [79.23847784721136, 14.355867239269573], [79.23496115028784, 14.353774417184097], [79.23143370661607, 14.353059235973657], [79.22930046735375, 14.354765513782104], [79.22713194279514, 14.360949235000623], [79.22536546706668, 14.360936007630382], [79.22431644835913, 14.359550385176039], [79.22468603438209, 14.357486512729881], [79.22682475524313, 14.355091442756132], [79.22684373473547, 14.352680498653426], [79.22614530649989, 14.351641949883849], [79.22298751682405, 14.348862773257201], [79.22087330348077, 14.348158035605154], [79.21947381436199, 14.346425329706225], [79.21594110718087, 14.346398773915807], [79.21559329084202, 14.34570727804198], [79.2170227155098, 14.343651394181496], [79.21633525919852, 14.341235148318809], [79.21458258545414, 14.339499764947258], [79.2117619764298, 14.33878963993178], [79.2082047697648, 14.341862740438437], [79.20643298149972, 14.342538223510337], [79.20357668916677, 14.34630541465106], [79.20073679954054, 14.348006064276587], [79.20036977567307, 14.349725461574886], [79.20105156886149, 14.35283056676284], [79.19997522217594, 14.354889012849291], [79.19959716030662, 14.357986067435009], [79.19781419409712, 14.360039127279768], [79.19637068718222, 14.363816932900829], [79.19281562732583, 14.366545311757559], [79.1924512635664, 14.36792026994933], [79.18995600212388, 14.370656682359867], [79.18463978363377, 14.37268257503035], [79.17862802324088, 14.373325256206632], [79.174724898446, 14.375361778504143], [79.16448462719171, 14.374593716761789], [79.15986349213635, 14.378002122526674], [79.15772106227752, 14.380740880480031], [79.15382331151207, 14.382088207112847], [79.15061514735584, 14.385507420443252], [79.14989149573914, 14.38756832322825], [79.14633838879513, 14.389951482815302], [79.14561752343545, 14.391667961428247], [79.14205291134348, 14.395428655361185], [79.14096724998971, 14.398519946324246], [79.14163685885667, 14.403002742365082], [79.13912346387411, 14.407804904263973], [79.13872724697175, 14.412968150468943], [79.13623941976117, 14.41467064422993], [79.1270549130579, 14.414253530210646], [79.12563284005584, 14.41527550996789], [79.12419634746819, 14.41801947440272], [79.12065404269278, 14.419024557709225], [79.11710014007608, 14.421407173754297], [79.1160226641424, 14.423465095302813], [79.11104062850994, 14.427558292172174], [79.11169802524158, 14.43341868505939], [79.10989911506559, 14.437192879391171], [79.1059826678503, 14.440605625289422], [79.10209530975777, 14.440574352153781], [79.10067295951593, 14.441596145015396], [79.10066126804246, 14.44297371924853], [79.10591561771851, 14.448526699926024], [79.10587186742588, 14.453692615139225], [79.10656995321858, 14.454731482826915], [79.12101098739979, 14.460702308841732], [79.12242182044758, 14.461057987584821]], [[79.16194749307182, 14.425549490353507], [79.15984415860721, 14.42346652589484], [79.1605678797502, 14.421405601424306], [79.16589672812555, 14.418002791695004], [79.16985972267022, 14.408733950256412], [79.17448982622638, 14.404292186772162], [79.17592843137203, 14.401203419780503], [79.17699407163177, 14.400522781754283], [79.18024398406503, 14.391937033674811], [79.1845146249475, 14.388181106534702], [79.19131382261794, 14.37755574940531], [79.19487185283947, 14.37448300404689], [79.19734778738929, 14.374157439880692], [79.20692562734014, 14.369408076029965], [79.20974932666307, 14.369773882701999], [79.21006700518498, 14.374253973948004], [79.20864003719944, 14.375965364395967], [79.207533412913, 14.381812414595055], [79.20539146878353, 14.384551667648395], [79.20430396220435, 14.387987776701074], [79.20287960964463, 14.389354700237991], [79.20000600992279, 14.39518824443336], [79.1932426015031, 14.401336456063518], [79.19002076973428, 14.406478298454982], [79.18503751998476, 14.410917680777002], [79.18291174703519, 14.411590195695426], [79.17721310468433, 14.417057167840365], [79.17118609415411, 14.419421555977012], [79.16548415828092, 14.42523259110906], [79.16194749307182, 14.425549490353507]], [[79.18535465880844, 14.415397739802074], [79.19106141123231, 14.408897305480506], [79.19500105459845, 14.40238319948786], [79.20248217555431, 14.394862652728483], [79.20428469222308, 14.390398683907334], [79.20642396377887, 14.388003865956424], [79.20715536305107, 14.384909481415246], [79.20929729156266, 14.382170210361663], [79.21040113288325, 14.376667563805192], [79.21182809386245, 14.374956161792413], [79.21186916289643, 14.369789903301628], [79.2104696353003, 14.368057139652], [79.20870860351282, 14.367354948055311], [79.20623274698144, 14.367680641921465], [79.19736434900456, 14.372090953097137], [79.19099375430784, 14.373420090378886], [79.19385893302784, 14.368619882198855], [79.19884374605097, 14.363835753840426], [79.20281520962347, 14.35318838407611], [79.20249215998527, 14.34939712804157], [79.20569355516021, 14.346665881652326], [79.20748181398628, 14.34392390515883], [79.20925361147088, 14.34324841522195], [79.21174558673911, 14.340856148882972], [79.2138624245763, 14.341216538647101], [79.2145525815258, 14.343288370029354], [79.2124111391206, 14.346027747456148], [79.21239474675531, 14.348094255884437], [79.21732149157052, 14.350542430065673], [79.2222673782965, 14.350579575153136], [79.22472404221755, 14.352664630590866], [79.22506646834158, 14.354044957668421], [79.22256629913515, 14.357470620173718], [79.22183796164906, 14.360220674508236], [79.22534646036435, 14.363346948119469], [79.22711295498794, 14.363360177802587], [79.22889029122078, 14.361995711467829], [79.22962938554598, 14.357867942698617], [79.23141477571767, 14.355470186006428], [79.2342383780545, 14.355835685399132], [79.23811108440435, 14.357586725720584], [79.24658743470746, 14.357994050818125], [79.238391604356, 14.366888760336854], [79.23623666562534, 14.37135046500519], [79.23198878907684, 14.372352100819738], [79.23020866928249, 14.374061002706956], [79.22948305595729, 14.376466661041865], [79.2202640419761, 14.380530777177613], [79.21847831177611, 14.382928408391079], [79.21492314909705, 14.385657111420239], [79.21383303736437, 14.389437697392216], [79.20992437299329, 14.39216363549065], [79.20776859711866, 14.39662497880162], [79.20349811579473, 14.400381350428582], [79.20170099955435, 14.404156469796453], [79.1978029989368, 14.405504502765249], [79.19103641440101, 14.41199701507339], [79.18855170945253, 14.413355697215168], [79.18747768085674, 14.415069617811698], [79.18535465880844, 14.415397739802074]], [[79.16114709068017, 14.393855837514069], [79.16152861498942, 14.390414515703524], [79.16330089151991, 14.389739431609161], [79.16434961879118, 14.391125293821842], [79.16432991571462, 14.393536146779038], [79.16254351977528, 14.395933270892003], [79.16183684461402, 14.395927775868332], [79.16114709068017, 14.393855837514069]], [[79.24800597235765, 14.357315656273077], [79.24942985680183, 14.355948402785533], [79.25048973232894, 14.355956230487571], [79.25012573529762, 14.357331321134469], [79.24870988110409, 14.357665304549842], [79.24800597235765, 14.357315656273077]]]]}}, {"type": "Feature", "properties": {"depth_class": 3, "depth_lo_m": 2.0, "t_s": 67500.5986850135}, "geometry": {"type": "MultiPolygon", "coordinates": [[[[79.01430610767282, 14.21598809505003], [79.0164272670522, 14.215661296171254], [79.01644227872582, 14.213939381788796], [79.013974124304, 14.213574486052321], [79.01360606965545, 14.215293465045868], [79.01430610767282, 14.21598809505003]]], [[[79.08048735883516, 14.238915875745315], [79.08191129440726, 14.2375496448375], [79.0819229262152, 14.236172061922813], [79.0801575696389, 14.236157873678428], [79.07908670771496, 14.23752693510326], [79.07942813276097, 14.238907356390781], [79.08048735883516, 14.238915875745315]]], [[[79.24800865198176, 14.356971231841491], [79.25012573529762, 14.357331321134469], [79.25048973232894, 14.355956230487571], [79.24800865198176, 14.356971231841491]]], [[[79.18535465880844, 14.415397739802074], [79.19103641440101, 14.41199701507339], [79.1978029989368, 14.405504502765249], [79.2024132336349, 14.403473019604224], [79.20278313801306, 14.401409220263643], [79.20776859711866, 14.39662497880162], [79.20992437299329, 14.39216363549065], [79.21383303736437, 14.389437697392216], [79.21492314909705, 14.385657111420239], [79.21847831177611, 14.382928408391079], [79.2202640419761, 14.380530777177613], [79.22948305595729, 14.376466661041865], [79.23020866928249, 14.374061002706956], [79.23198878907684, 14.372352100819738], [79.2355273374602, 14.371689620757923], [79.23694869106143, 14.370666884890198], [79.238391604356, 14.366888760336854], [79.24515815165766, 14.360050131220358], [79.24658475271107, 14.35833847495707], [79.24623682280314, 14.35764701184687], [79.23811108440435, 14.357586725720584], [79.2342383780545, 14.355835685399132], [79.23141477571767, 14.355470186006428], [79.22962938554598, 14.357867942698617], [79.22889029122078, 14.361995711467829], [79.22711295498794, 14.363360177802587], [79.22534646036435, 14.363346948119469], [79.22183796164906, 14.360220674508236], [79.22256629913515, 14.357470620173718], [79.22506646834158, 14.354044957668421], [79.22472404221755, 14.352664630590866], [79.2222673782965, 14.350579575153136], [79.21732149157052, 14.350542430065673], [79.21239474675531, 14.348094255884437], [79.2124111391206, 14.346027747456148], [79.2145525815258, 14.343288370029354], [79.2138624245763, 14.341216538647101], [79.211036332215, 14.341195238919903], [79.20605779017916, 14.345290887301212], [79.20569355516021, 14.346665881652326], [79.20249215998527, 14.34939712804157], [79.20281520962347, 14.35318838407611], [79.19884374605097, 14.363835753840426], [79.19385893302784, 14.368619882198855], [79.19099375430784, 14.373420090378886], [79.19736434900456, 14.372090953097137], [79.20623274698144, 14.367680641921465], [79.20870860351282, 14.367354948055311], [79.2104696353003, 14.368057139652], [79.21186916289643, 14.369789903301628], [79.21182809386245, 14.374956161792413], [79.21040113288325, 14.376667563805192], [79.20929729156266, 14.382170210361663], [79.20715536305107, 14.384909481415246], [79.20642396377887, 14.388003865956424], [79.20428469222308, 14.390398683907334], [79.20248217555431, 14.394862652728483], [79.19500105459845, 14.40238319948786], [79.19106141123231, 14.408897305480506], [79.18500686130221, 14.41470620128552], [79.18535465880844, 14.415397739802074]], [[79.22037032704085, 14.367098444532166], [79.22073452340861, 14.365723423308044], [79.22250103224349, 14.365736689524228], [79.22213412513062, 14.367456134022802], [79.22037032704085, 14.367098444532166]]]]}}]}