{"type": "FeatureCollection", "features": [{"type": "Feature", "properties": {"depth_class": 1, "depth_lo_m": 0.3, "t_s": 39600.690908234435}, "geometry": {"type": "MultiPolygon", "coordinates": [[[[79.0060445941059, 14.232106397182816], [79.01242961018407, 14.228715555209407], [79.01637621234055, 14.221515803103932], [79.01990356688542, 14.221889463281796], [79.02096866992005, 14.221209469120577], [79.02168672354301, 14.21983777971867], [79.02137562667045, 14.215013483734918], [79.01751935036573, 14.211881866481264], [79.0139921575822, 14.211508191486345], [79.01186201109948, 14.212868119406187], [79.01148190310485, 14.215964620613429], [79.01216989820551, 14.218036783871788], [79.0114397540188, 14.220785964845978], [79.01213678882141, 14.221824984018937], [79.01211571414143, 14.224235656176592], [79.00961429767769, 14.227658894854212], [79.00571572177275, 14.229348407915115], [79.00393537567834, 14.23105556240243], [79.00392327564694, 14.232433081452532], [79.0060445941059, 14.232106397182816]], [[79.0192094927494, 14.220506078856653], [79.01676828428329, 14.217041756548586], [79.01324101536012, 14.216668060368143], [79.01254398765876, 14.215629045399083], [79.01327409385694, 14.212879856043], [79.01610126561869, 14.2125589214722], [79.02030755945819, 14.21603786761961], [79.02027459039152, 14.219826087145787], [79.0192094927494, 14.220506078856653]]], [[[78.99469538900243, 14.237866225863987], [78.9978911047179, 14.235826625361238], [78.99825629536595, 14.234452071723176], [78.99719714246108, 14.23444319037135], [78.99506060331036, 14.23649168030318], [78.99469538900243, 14.237866225863987]]], [[[79.11892739814174, 14.244732677313422], [79.12036827828598, 14.241299773694987], [79.12038538053808, 14.239233353651114], [79.11899586030789, 14.236467004110674], [79.11688309375461, 14.235761499593597], [79.11545935402852, 14.237127966968828], [79.11400699720363, 14.241938444375828], [79.11680598822896, 14.245060370735448], [79.11892739814174, 14.244732677313422]]], [[[78.99290272134358, 14.240950786147714], [78.99324665136155, 14.241986886473097], [78.99325578140996, 14.240953754793368], [78.99290272134358, 14.240950786147714]]], [[[79.08240502104898, 14.262696186159577], [79.08383493512282, 14.260641172777666], [79.08279307445079, 14.258566284081496], [79.08067443677503, 14.258549238154322], [79.07818810437425, 14.260251299107352], [79.0781793482486, 14.261284481958343], [79.07993323293105, 14.262676287759614], [79.08240502104898, 14.262696186159577]]], [[[79.09503319233909, 14.272785643775364], [79.0939737991265, 14.272777169267746], [79.09396800441786, 14.273465963502773], [79.09467137222819, 14.27381601122481], [79.09503319233909, 14.272785643775364]]], [[[79.10344492270777, 14.280430046786059], [79.10451300586506, 14.279405286500827], [79.10452165349058, 14.278372089298285], [79.10240857494219, 14.277666416147708], [79.10169363444099, 14.278693982546603], [79.10203523060076, 14.280074391835095], [79.10344492270777, 14.280430046786059]]], [[[79.18020362702349, 14.265529531495893], [79.17915528116164, 14.264143783217827], [79.1780958774229, 14.264135687505181], [79.17843794267226, 14.265516042510836], [79.18020362702349, 14.265529531495893]]], [[[79.18267558821289, 14.265548394126135], [79.18373224179479, 14.265900885239562], [79.18373500125645, 14.265556470271617], [79.18267558821289, 14.265548394126135]]], [[[79.28224256301492, 14.315543406052273], [79.28401920309079, 14.314178440838434], [79.28442996748394, 14.306603477932107], [79.28622218636744, 14.303171888334688], [79.28625873244589, 14.298349825519429], [79.28803259736095, 14.29732924409275], [79.2880404182072, 14.296295943601487], [79.28628743766443, 14.294561060445755], [79.28594467341787, 14.293180782970603], [79.28633960742567, 14.287672393445503], [79.28564626729691, 14.285945139385008], [79.28214312888217, 14.282130913915438], [79.27826598297118, 14.281069553532452], [79.2743993777549, 14.278630407863638], [79.2691149129762, 14.276869807143289], [79.26701432763876, 14.274443385061513], [79.26136894080871, 14.27371334804691], [79.25751590802426, 14.269551817769477], [79.25683872874922, 14.265757936259604], [79.25579252181873, 14.2640280422006], [79.25724217826301, 14.259216370538155], [79.2569102106796, 14.256458357480172], [79.25621187784097, 14.25541990730737], [79.25374788081027, 14.254368534409984], [79.25305487226893, 14.252641220436342], [79.25093608719882, 14.252625693302946], [79.24949964945117, 14.255715180609895], [79.25019263625249, 14.257442502476895], [79.25265399067587, 14.258838341939194], [79.25085640983266, 14.262958528417832], [79.25083780926614, 14.265369521929108], [79.25293813170855, 14.26779605924938], [79.25291423606801, 14.270895910158476], [79.25149894126208, 14.271229974592842], [79.25009162237293, 14.270530748212442], [79.24799131159422, 14.268104186904491], [79.24304182038433, 14.268756636333185], [79.24162118729912, 14.269779493581014], [79.24160782475317, 14.271501622322436], [79.24476757510115, 14.27393604446728], [79.24543655152655, 14.278763216265276], [79.24789808664295, 14.280159125626602], [79.24823793734484, 14.281883857570788], [79.24397044808791, 14.285641320337], [79.24114500444294, 14.285620458618569], [79.23903932064862, 14.28388266603706], [79.23338580922163, 14.2841852209415], [79.23163068869111, 14.282794415024252], [79.22845482093463, 14.282426360154266], [79.22705561439274, 14.28069373014597], [79.22564293579133, 14.280683206677528], [79.22598261334613, 14.28240795093003], [79.23371748636676, 14.286943232543564], [79.24076773126387, 14.28871767459648], [79.24394639852159, 14.28874115168756], [79.24783944356129, 14.287736509140965], [79.25175374093148, 14.28397638125885], [79.25355683109588, 14.279167356673183], [79.25568382522405, 14.278149604418164], [79.25815602590363, 14.278167700029814], [79.25991394688566, 14.279213896460272], [79.26130284159987, 14.28232407744868], [79.2694338708832, 14.281349971861037], [79.27576749502148, 14.28449597986577], [79.27929411201515, 14.285210400748484], [79.28280246577734, 14.288335801624212], [79.28277110115496, 14.29246899440716], [79.28381502112693, 14.294543236798924], [79.28378366080081, 14.29867642963288], [79.28198098151088, 14.303485730836849], [79.28226351551702, 14.312787950464468], [79.28154919510803, 14.313816137845611], [79.28224256301492, 14.315543406052273]], [[79.24828855252885, 14.275339749314726], [79.24970121509372, 14.275350134661073], [79.25004373794103, 14.276730438308336], [79.24827523522939, 14.27706188343135], [79.24828855252885, 14.275339749314726]], [[79.25714155818046, 14.272304663721691], [79.26064938839829, 14.275430337342526], [79.26064409923276, 14.276119195571095], [79.2592314236021, 14.27610887456434], [79.25782669561445, 14.275065259385757], [79.25714155818046, 14.272304663721691]], [[79.25714155818046, 14.272304663721691], [79.25679104551172, 14.271957651227552], [79.2571442073844, 14.271960235146427], [79.25714155818046, 14.272304663721691]], [[79.25367893296796, 14.26332367090165], [79.25401616618421, 14.265392827250984], [79.25330986415108, 14.26538765194922], [79.25297263750636, 14.263318495335142], [79.25367893296796, 14.26332367090165]]], [[[79.18815224806548, 14.287289590430865], [79.18747072361533, 14.284184476001244], [79.18534895885453, 14.284512746357258], [79.18568832434558, 14.286237512349858], [79.18744314495223, 14.287628626992896], [79.18815224806548, 14.287289590430865]]], [[[79.27607608345609, 14.290353875106941], [79.275034878355, 14.287935176778383], [79.27397530815362, 14.287927494593411], [79.27396742788262, 14.288960788151858], [79.27536969531583, 14.290348756416037], [79.27607608345609, 14.290353875106941]]], [[[79.18452103038055, 14.299661592862634], [79.18736036486241, 14.297961073685252], [79.1873714060301, 14.296583414670911], [79.18596694564367, 14.295539400555736], [79.18383677534699, 14.296900886663858], [79.18346975714817, 14.298620259477635], [79.18452103038055, 14.299661592862634]]], [[[79.19002634689443, 14.449532444000496], [79.19251703869325, 14.447484973260462], [79.19254764299387, 14.44369644745764], [79.19432585392346, 14.442332347964689], [79.19433418997893, 14.441299112296093], [79.18975093776294, 14.439886222111177], [79.18518450459035, 14.436406787722786], [79.18204020339144, 14.431904953991385], [79.17957201658932, 14.431197050907315], [79.18030119275232, 14.428447229537099], [79.18315347017398, 14.425369332575032], [79.18387699400755, 14.423308312350244], [79.18672636740071, 14.420574768515937], [79.1909669475182, 14.42060731501328], [79.19238603128129, 14.41992932264157], [79.19241935333186, 14.41579637600594], [79.2002571806601, 14.40793426039848], [79.2023801253011, 14.407605993365134], [79.20448652782824, 14.409344195292542], [79.20766958557495, 14.409023939235194], [79.20839832203009, 14.406273977600101], [79.20629741642416, 14.403846979464118], [79.20630842666267, 14.402469318304766], [79.21058165620387, 14.398368479408418], [79.21237857302863, 14.394593268054164], [79.21664606903484, 14.391181121831993], [79.21773341506832, 14.387744936830806], [79.21915767669051, 14.386377911966797], [79.22128313273407, 14.385705029129523], [79.22378368585565, 14.382279426281071], [79.23193463264809, 14.379240518998927], [79.23444036104637, 14.375125932124783], [79.23691629573054, 14.37479994798299], [79.23904699727896, 14.37343804169246], [79.2404818192009, 14.370693171170162], [79.24582180192087, 14.365566146277338], [79.24868309103499, 14.361109549489473], [79.25186813998575, 14.360444186583242], [79.25578645200648, 14.356339723867253], [79.2671528202622, 14.348500828332796], [79.26859770772793, 14.344378011012473], [79.27109442430152, 14.341296192291946], [79.27182472912578, 14.338201477779519], [79.27148994007013, 14.335787898690775], [79.2700927328154, 14.333711025242874], [79.27046975812145, 14.330613736766837], [79.27189860962166, 14.328557451714449], [79.27262884181054, 14.325462725697143], [79.27723421992624, 14.323773938931856], [79.27830446713448, 14.322403901534042], [79.27831497320126, 14.321026177477385], [79.27549429687738, 14.320316812711614], [79.27442931022514, 14.320997976228044], [79.26877481098973, 14.321301272163533], [79.26671352109169, 14.313708373779322], [79.26531118489626, 14.312320346704693], [79.264623249702, 14.309904186573194], [79.2604137474604, 14.306084488142375], [79.2565310350055, 14.305711595676264], [79.24979863622143, 14.308417690451112], [79.24839377555195, 14.307374004372228], [79.2473528243633, 14.304955212741072], [79.2420948293394, 14.299749719354992], [79.24000777928056, 14.295600948385827], [79.23578824025715, 14.293158583465747], [79.23298423351714, 14.290382225617858], [79.23052001241851, 14.289330584028509], [79.22701785483186, 14.285515647543665], [79.2185578818886, 14.283385832675895], [79.21470014635328, 14.27991252508151], [79.21506417082094, 14.278537490685844], [79.2129451873842, 14.278521598003257], [79.21013348890195, 14.276778280221773], [79.20484154973086, 14.276049570988675], [79.20344257436581, 14.274316826885903], [79.20347261359956, 14.27052822298415], [79.2020709463513, 14.269139893672637], [79.19818359598518, 14.269454967328306], [79.19151229304492, 14.264582302202678], [79.18835882298953, 14.261458421583106], [79.18732970695523, 14.25766179409852], [79.18348117437392, 14.253154835372378], [79.17926033948854, 14.25105603855359], [79.17821205578726, 14.249670293175535], [79.17609892070841, 14.248965276801195], [79.17294033504372, 14.246530066289273], [79.17082447517446, 14.246169421517601], [79.16731010946252, 14.24407585318736], [79.1641349871232, 14.24370701588545], [79.16098498266953, 14.240238436151824], [79.16141333288863, 14.230942045023951], [79.16388767401897, 14.23061664514664], [79.16425188065335, 14.229241710064466], [79.16320934656169, 14.227167095131888], [79.16109368959671, 14.226806387010601], [79.15898919719153, 14.225068015579426], [79.15722384841197, 14.225054407334662], [79.15543614648841, 14.227796071131706], [79.15260876214182, 14.228118655644048], [79.15189701514774, 14.228802013680765], [79.15187180994066, 14.23190170211306], [79.15291145065518, 14.234320765836308], [79.15572493499282, 14.235720239400475], [79.15673667969335, 14.241583397676939], [79.16060678168324, 14.243335416432428], [79.16058166852626, 14.246435116359985], [79.15383349708794, 14.251205039913666], [79.15171484126459, 14.251188633329052], [79.15138417497859, 14.24843062374223], [79.15068357776136, 14.247736332600658], [79.14891806118031, 14.247722641706089], [79.1474972165871, 14.248744904962354], [79.14641258708667, 14.251836350948494], [79.13685321816553, 14.25486172962141], [79.13297466130196, 14.254142541663983], [79.11567522734317, 14.253662062742135], [79.10863609531387, 14.250850957061237], [79.10442191488252, 14.248062124181336], [79.09243410675604, 14.245900054374367], [79.08783815691174, 14.24655210859117], [79.0853781552246, 14.245154703804051], [79.08185311671743, 14.244437556891421], [79.08150876265516, 14.24340153224502], [79.08400359044403, 14.240666220037259], [79.08651286240047, 14.236208890359142], [79.08619170044399, 14.232417697233274], [79.08443798078574, 14.231025958648765], [79.08267266156659, 14.231011794003475], [79.07735049022652, 14.234068776266986], [79.07627379201774, 14.236126613661588], [79.07274601492497, 14.235753746829014], [79.07024527672858, 14.239177718692648], [79.06777669224788, 14.238813333747071], [79.06635853817643, 14.239490683476228], [79.06634974153773, 14.240523860897927], [79.06845354650918, 14.242262977152699], [79.07692161154333, 14.243020194864632], [79.07832519217021, 14.244064755424843], [79.06838907826256, 14.24983961703069], [79.06203935369513, 14.249099287248185], [79.05283251171561, 14.252124040148752], [79.04932529633305, 14.249340079655543], [79.04404683493453, 14.24723038791548], [79.04479155473977, 14.242759133233985], [79.04374420097179, 14.241372902179782], [79.04197884403057, 14.241358426588812], [79.04020159992284, 14.24272148612804], [79.03739190163478, 14.240976342551871], [79.03527050575549, 14.24130330043984], [79.03383735345864, 14.243702370920316], [79.02956760113453, 14.247455658320076], [79.02990573286178, 14.249180497681904], [79.03201227333153, 14.25057552380154], [79.03235042556521, 14.252300362262302], [79.03340371456555, 14.25299786910744], [79.03624331942763, 14.251299214185584], [79.03733235921138, 14.247864070234352], [79.0390947865122, 14.248222973300864], [79.03835885628497, 14.251661032497152], [79.03336788888421, 14.257130492143009], [79.02911580508626, 14.258817428296695], [79.02702119820533, 14.256044834396468], [79.02526174085733, 14.255341453364995], [79.02314020492764, 14.255668283396787], [79.02170682282063, 14.258067250010889], [79.02380137369316, 14.260839884221653], [79.02556086542226, 14.261543280652045], [79.0244865656379, 14.263256420015733], [79.01880986410224, 14.266308963690841], [79.01491968116159, 14.266965401483196], [79.01349820564982, 14.267986773151325], [79.00678919596984, 14.267930744558237], [79.00503579673443, 14.266538452951291], [79.00507216332653, 14.262405904262797], [79.00936675611631, 14.255898107671765], [79.01010011599607, 14.252804578131752], [79.00977421820004, 14.249702208142079], [79.0059115530376, 14.247259115673184], [79.00308394467652, 14.24757987051854], [79.00095337823907, 14.24893964459023], [78.99671953349619, 14.248559725772381], [78.99392843312683, 14.244747841191726], [78.99252225939533, 14.244047210389779], [78.99214787374466, 14.246454878232443], [78.99389191064576, 14.248880367740206], [78.99671345399861, 14.249248481264654], [78.99846667450448, 14.250640811894549], [79.00482811652908, 14.25000529622708], [79.00762854273783, 14.252783944224094], [79.00726336215875, 14.254158513797927], [79.00298998208022, 14.258255618438985], [78.9997514245743, 14.265116540299012], [79.0000771765555, 14.26821890525573], [79.00358394940697, 14.27100354632856], [79.01806149035542, 14.271124434620518], [79.0208984234242, 14.269770391319632], [79.02372631655419, 14.269449458221024], [79.02975615966488, 14.266399719467541], [79.03296102535795, 14.2633265099652], [79.03793130201197, 14.260267782843856], [79.04149798994612, 14.256164176429747], [79.04398449796459, 14.254462526999149], [79.04610305134078, 14.254479893964769], [79.0478536968138, 14.256216293275108], [79.04784480515373, 14.257249457865361], [79.04572325645445, 14.257576490808612], [79.04464318093981, 14.259978518495476], [79.04532860188453, 14.262395022668189], [79.04779440563087, 14.263104055419756], [79.049565863039, 14.26242973281585], [79.05099900662711, 14.260030565156237], [79.05628964385116, 14.26076258777541], [79.05980890471957, 14.262168914659163], [79.06510552338266, 14.262211968276945], [79.06723591780566, 14.260851588686618], [79.06724472349428, 14.259818412478122], [79.06831283967634, 14.25879382123519], [79.07043439420596, 14.25846658448688], [79.07610743357606, 14.255757089103605], [79.09094932632932, 14.25449868885139], [79.09799405406301, 14.256621506179926], [79.10115760117424, 14.258368828960153], [79.1039536893634, 14.261835304795303], [79.11100167762112, 14.263613378928255], [79.1127558116519, 14.265004970069533], [79.12546543063395, 14.26544970178091], [79.125095212703, 14.267513345098967], [79.12331530922752, 14.269221461657782], [79.11973255487493, 14.275392862243585], [79.11830855033006, 14.276759313872322], [79.11441252257643, 14.278106193073931], [79.11263245522254, 14.279814208214905], [79.11226495387402, 14.281533411458664], [79.1136632011003, 14.283266612011166], [79.11825131244056, 14.283647349345186], [79.12072910209139, 14.282978074228465], [79.12606059866916, 14.27888699464039], [79.12784626273519, 14.276490058086514], [79.12790602415028, 14.269257576468807], [79.13110693778968, 14.266527289961012], [79.13218335087828, 14.264469166135655], [79.15125225512513, 14.264617844956437], [79.15300948749497, 14.265664761575817], [79.15900434871469, 14.266744442159979], [79.16430137829683, 14.266785305155427], [79.17344962743324, 14.270988810608122], [79.17694504690361, 14.275493234401946], [79.18360522696504, 14.28174396245741], [79.18854951603484, 14.281781633394953], [79.18998970132188, 14.278348220191328], [79.18717545863366, 14.276949067507108], [79.17976472967608, 14.27620367079698], [79.17836319428993, 14.274815215540352], [79.17837704064435, 14.273093147036304], [79.1797979356347, 14.272070703195052], [79.18121052487916, 14.272081492216373], [79.18720026408428, 14.273849329349597], [79.1900089669905, 14.275937309323902], [79.19069601936694, 14.278353587848652], [79.1935158000701, 14.279063870483348], [79.1956183002406, 14.281146437556218], [79.19630267946332, 14.283907124647772], [79.19770438740863, 14.28529549287698], [79.2072045730028, 14.289844949685211], [79.21000549540835, 14.292965993389934], [79.21176597984092, 14.293668112529392], [79.21246691129657, 14.294362260417646], [79.2121028342894, 14.295737284302096], [79.20714452592483, 14.297422159516328], [79.20114301091242, 14.297032405775697], [79.1965460508667, 14.297686468529506], [79.19478834671496, 14.296639822590029], [79.19445165343, 14.29457064481536], [79.19799996859263, 14.292530924419598], [79.1976659900465, 14.290117330862266], [79.19238207146101, 14.288355065358898], [79.19026026852322, 14.28868337564251], [79.19059967464482, 14.290408139212671], [79.19235455913332, 14.291799224532237], [79.19198211202982, 14.29420745128196], [79.19020241497749, 14.295916099989647], [79.19053631346057, 14.29832969455503], [79.19298938163023, 14.300759402566863], [79.19472510343442, 14.304561392175115], [79.1975671881912, 14.302516333404034], [79.20145511201007, 14.302201337375868], [79.20104983353048, 14.30874259088106], [79.20210123874783, 14.309783860695205], [79.20599202603753, 14.309124386581315], [79.20813040368444, 14.306729445794295], [79.20993734843523, 14.301576469704866], [79.21455069866316, 14.298855633810518], [79.22163358513826, 14.29649761353098], [79.22339414235672, 14.297199653745668], [79.22479070131004, 14.299276733360282], [79.22584759455457, 14.299629062569755], [79.22617647604771, 14.302731495246796], [79.22546466130032, 14.303415067610121], [79.22369863747521, 14.303401879681958], [79.22264714712871, 14.302360696805419], [79.22088384448459, 14.302003067940786], [79.21805823192628, 14.301981908584443], [79.21663999393762, 14.302660156660236], [79.21485494636919, 14.305057842388063], [79.21482774287, 14.308502039357457], [79.2158683402547, 14.310920934635384], [79.21868863039957, 14.311630973538891], [79.22011234949703, 14.310263878375983], [79.22223163848525, 14.310279741713087], [79.22504383286999, 14.312022970910297], [79.22536999458872, 14.315469823865353], [79.2228730389936, 14.318551129118068], [79.22004178686657, 14.319218810130346], [79.21897395156618, 14.320244126514233], [79.2189032924978, 14.329199045198799], [79.21567506579784, 14.335374711956462], [79.21000662498503, 14.337398646599935], [79.20715320168271, 14.340821479624346], [79.20467215588783, 14.34183602510649], [79.20288663121569, 14.344233562458387], [79.19897870880858, 14.346959405417248], [79.19860341384327, 14.349712044956718], [79.19928242873824, 14.353161567800331], [79.19855383584857, 14.35591152009875], [79.1946069813338, 14.363459059366232], [79.19140797406538, 14.36584569508399], [79.18926048371017, 14.369273626522752], [79.18500698376026, 14.370963223732296], [79.17828587544649, 14.37194489386351], [79.17367336619047, 14.374320371602757], [79.16908039583306, 14.374284884633903], [79.16696898834954, 14.373235250169708], [79.16484917251732, 14.373218823812989], [79.16201149750592, 14.374574523112123], [79.15737621828401, 14.37970490917436], [79.15454407733868, 14.380371690987044], [79.15134161638238, 14.383102108215772], [79.14883153015244, 14.38756002789199], [79.14599074841175, 14.389259904334272], [79.1452670397001, 14.391320785813699], [79.14312999602843, 14.393370565307139], [79.14169387833338, 14.396114683685964], [79.14200730925369, 14.400939104088744], [79.14727047871453, 14.405457975092334], [79.15181012171335, 14.412037649770298], [79.15176754358743, 14.417203716918735], [79.14888655510613, 14.423725234534025], [79.14920864167131, 14.427516447098442], [79.15026310899935, 14.428213570848163], [79.15627351699686, 14.427916203264234], [79.15767856773198, 14.428960464065586], [79.15729967923126, 14.432057349180822], [79.15409075154325, 14.435476517261176], [79.15442143749615, 14.43823451878022], [79.15688391534377, 14.439631494201205], [79.1692559662298, 14.439383489570883], [79.17103144622135, 14.438363985582269], [79.17385869814666, 14.438385906067264], [79.18301374999497, 14.442589830941873], [79.18545973024533, 14.446052994193858], [79.18614423359895, 14.448813718382238], [79.18755235570421, 14.44951342070844], [79.19002634689443, 14.449532444000496]], [[79.17704497128165, 14.437721708755484], [79.1710483278325, 14.436297540270855], [79.16891946131273, 14.437314301612524], [79.15690376440833, 14.437220660754956], [79.15656170571239, 14.43584027828212], [79.16013248819587, 14.431390613681721], [79.16052264697827, 14.426916095878001], [79.16547569890913, 14.426265811551362], [79.17153666131158, 14.419768702306328], [79.17721030464637, 14.41740157716735], [79.18291174703519, 14.411590195695426], [79.18503751998476, 14.410917680777002], [79.18895235121165, 14.407503408140757], [79.1936014969838, 14.400650332018197], [79.20000877051169, 14.394843830101061], [79.2025262744322, 14.389352014472887], [79.20466830326758, 14.386612797801936], [79.20539696913286, 14.383862836311456], [79.20718008865067, 14.381809737154867], [79.2082867219079, 14.375962689671695], [79.20971369230445, 14.374251301664556], [79.20974384525371, 14.370462716504193], [79.20904271516669, 14.369768538289305], [79.2069228824233, 14.369752492412829], [79.19805440811749, 14.37416282079432], [79.1934503123048, 14.375505461879857], [79.18881287768268, 14.380980958799423], [79.18773348234805, 14.383383728069965], [79.18559964379132, 14.385089535900674], [79.18452019072618, 14.387492283365297], [79.17989623069413, 14.391245492441882], [79.17701644516234, 14.39776750324803], [79.17451503756085, 14.401192503732037], [79.17131245706052, 14.40392318070307], [79.16954850721126, 14.403565089050506], [79.1649859219969, 14.399740969722288], [79.16507034582598, 14.389408740718212], [79.16366829492972, 14.38802013837277], [79.15836559877086, 14.388323328165448], [79.15520829914412, 14.385543292994617], [79.1552196078689, 14.384165668956275], [79.15629086232259, 14.382796308729741], [79.15841640178151, 14.382124009058021], [79.16447619419839, 14.375626941039839], [79.17401269007838, 14.376045147353738], [79.17756252629755, 14.374005918863542], [79.18109837699339, 14.373688686003451], [79.18960269881255, 14.3706539807256], [79.19138305988538, 14.368945416529384], [79.19246232990803, 14.366542615144233], [79.19566133856375, 14.364155965158995], [79.197460905911, 14.360036439312728], [79.19924387499302, 14.357983382501533], [79.20070104240872, 14.352483469245962], [79.20003025983604, 14.348000700928857], [79.20393819125665, 14.345274841477266], [79.20537045249543, 14.342874623012975], [79.20820750716902, 14.34151832300443], [79.21176743907941, 14.338100803530798], [79.21599562317579, 14.339510396664663], [79.21843305892284, 14.344006433674272], [79.2201912363019, 14.345052956254824], [79.22088418024765, 14.346780356983794], [79.22615073028992, 14.350953108818564], [79.22754487928984, 14.353374625288707], [79.22752590634343, 14.355785570169152], [79.2257486166736, 14.357150031622028], [79.22537904112116, 14.359213906966108], [79.2267894982566, 14.359568909011307], [79.22788190377867, 14.355443791815897], [79.23179780434722, 14.351684185810816], [79.23395798920893, 14.346533658800178], [79.23544657011591, 14.336900349060173], [79.2382941683279, 14.334165965832224], [79.23973943960006, 14.330043369073458], [79.24260298659783, 14.325242371019488], [79.24303395154729, 14.31525667289782], [79.24026179226264, 14.30834727167011], [79.23851450633228, 14.305923220391534], [79.23500122100437, 14.3034860560153], [79.23184929666978, 14.300018205362875], [79.22797488701612, 14.298611596135165], [79.22376086080304, 14.29548018334204], [79.21775931697306, 14.295090851715774], [79.21600966191491, 14.293011092407895], [79.2128418650433, 14.29160955636065], [79.20722639957961, 14.287089599400407], [79.20511280759862, 14.286384790771079], [79.20267066744478, 14.282577535772132], [79.19458351934274, 14.278038655880758], [79.19002822906356, 14.273526397943929], [79.18721679774427, 14.271782836773863], [79.18193063654299, 14.270364811278771], [79.17522366955257, 14.269969102029975], [79.16326150480182, 14.264366264803147], [79.15760860520928, 14.264667065972189], [79.15232567898084, 14.262904015472927], [79.1459750296365, 14.262165844089436], [79.12196270334923, 14.261977870320276], [79.1173835887206, 14.26056405055269], [79.11384669601229, 14.261224941411886], [79.11245142789667, 14.259147354271589], [79.11033561764862, 14.258786170323805], [79.10858154397704, 14.257394568446362], [79.10503893833125, 14.258744131265242], [79.10294619484667, 14.25562768835414], [79.09978555077824, 14.253535993129727], [79.09413881842237, 14.253146515898425], [79.08956011811, 14.251732204020172], [79.08320147041324, 14.252025609646374], [79.08217128598018, 14.248573140763241], [79.08006148181518, 14.247522915911611], [79.08465454837886, 14.247215412886808], [79.08923311824157, 14.248629804290454], [79.09911685099213, 14.249053181400292], [79.10087368168976, 14.250100439511058], [79.10369846075577, 14.250122910968004], [79.10686485080159, 14.25152575281688], [79.10861600067207, 14.25326176169642], [79.11249441445925, 14.253981334776226], [79.11565520334656, 14.256072876631308], [79.1326073770472, 14.255861803799421], [79.13471755754857, 14.256911602485584], [79.13683624631119, 14.256928166486986], [79.14286176828693, 14.254219737073033], [79.146746005049, 14.254249951847344], [79.14883938985118, 14.257366082511986], [79.15307681262642, 14.257398941873914], [79.15729745749346, 14.259498186468896], [79.16789118475896, 14.259579830156113], [79.17140300181258, 14.26201782942266], [79.1752818913969, 14.26273642231114], [79.17668610994663, 14.263780472241285], [79.17774827931906, 14.263444160141741], [79.17777042167698, 14.260688848733459], [79.18062860961187, 14.256577450729225], [79.18380672142052, 14.25660167743541], [79.18590893882583, 14.258684298786484], [79.18659316231334, 14.261444996746405], [79.1883395601427, 14.263869333164488], [79.19149580722188, 14.26664880095075], [79.19395956347661, 14.267700798578083], [79.19780579720525, 14.272552054046576], [79.20062280527364, 14.273606664875414], [79.20377388173354, 14.27707483832857], [79.20870450423386, 14.27883417549144], [79.21010354734787, 14.280566896011862], [79.21502887732376, 14.28301495701077], [79.21783526921088, 14.285447071261316], [79.22454021256343, 14.286186063754819], [79.22698817672035, 14.289304295491291], [79.22980286768663, 14.290703022470263], [79.2312021498431, 14.292435644502536], [79.23824180253966, 14.295587875439718], [79.2406793406608, 14.300083696203023], [79.24802720974647, 14.309093530446214], [79.2507462625092, 14.322891389443114], [79.25284704444526, 14.325317977115319], [79.25282304713787, 14.328417812918406], [79.25139937477634, 14.329785111882417], [79.24999438437924, 14.328741421097023], [79.24787489033388, 14.328725785566593], [79.24466081918969, 14.333179816295042], [79.24427539164921, 14.337310295497115], [79.24248492449307, 14.340397032484567], [79.23886614500105, 14.351392368484653], [79.23884729591805, 14.353803328549557], [79.23954848484325, 14.354497424224022], [79.24413854438052, 14.354875921954036], [79.24839676671438, 14.352496324489008], [79.25193230423088, 14.352177982384001], [79.25726091262362, 14.348428317900499], [79.25835003681901, 14.344647413515], [79.26187482910689, 14.345706616519694], [79.2643583862425, 14.344347020134698], [79.26508349493925, 14.341941194687253], [79.26650982770683, 14.340229385877105], [79.26659188428569, 14.329552102745087], [79.26981077754591, 14.324408860006608], [79.26981869721779, 14.323375571796854], [79.27158755795537, 14.323044005039671], [79.26976852862447, 14.329919728870243], [79.26833964911776, 14.331975997717002], [79.2686770466904, 14.334045148673818], [79.27007688343427, 14.335777600073637], [79.27004253443779, 14.34025517758222], [79.26932277282702, 14.341972167525881], [79.26790173993915, 14.342995137204676], [79.26609827084094, 14.347804223035661], [79.26326139771548, 14.349161246223433], [79.26005524753486, 14.352582199403757], [79.25508787068472, 14.35530124425014], [79.25116956763394, 14.359405696352727], [79.2479845328041, 14.360071051348381], [79.24369927848345, 14.365894857500724], [79.2404979805891, 14.368626635119679], [79.2376364276575, 14.3730831009335], [79.23338852065822, 14.374084758717359], [79.23052675463228, 14.378541112555718], [79.22840410052446, 14.378869669685656], [79.22201977018223, 14.381921735839445], [79.2198752574515, 14.385005558777234], [79.21845920086473, 14.385339335361952], [79.2166788756464, 14.387048109982699], [79.21559151873022, 14.39048428885348], [79.21132402354007, 14.393896415897759], [79.20952709695543, 14.397671618036327], [79.20489500106416, 14.402458583011693], [79.20487847227177, 14.404525073082823], [79.20663150824048, 14.40626056932609], [79.20662324989108, 14.407293815064158], [79.20450030981853, 14.407622121331853], [79.20203780091703, 14.406225646038848], [79.19955874415518, 14.406895632057228], [79.1910114116159, 14.415096723811622], [79.19027686617798, 14.418535425307361], [79.18603075323185, 14.419191692933534], [79.18246904091616, 14.422608607186294], [79.1813893258807, 14.425011308007363], [79.17925501096758, 14.42671700071483], [79.17675045337835, 14.43048639188043], [79.17673643528826, 14.432208436009352], [79.18095483124775, 14.434996464345557], [79.18128865093884, 14.437410057682879], [79.17704497128165, 14.437721708755484]], [[79.16090147396986, 14.42381919799006], [79.16092125715667, 14.421408355853645], [79.16625010122972, 14.41800553751315], [79.16697937283581, 14.415255768623656], [79.17020465445223, 14.409769913047752], [79.17519093156221, 14.404986465685303], [79.17841025797088, 14.40018927243421], [79.18129841158976, 14.39263401235614], [79.18592516394504, 14.388536365034165], [79.19236545960085, 14.378597088980218], [79.19556741998196, 14.375866048728838], [79.19875275382672, 14.375201443656264], [79.20584923325512, 14.371466543119757], [79.2079718245543, 14.371138183948473], [79.20866472630951, 14.372865615270367], [79.20687071516922, 14.376296401689311], [79.20648717964647, 14.380082300848489], [79.20289613865953, 14.387288209795356], [79.20111293431275, 14.389341266139091], [79.19895426508114, 14.394146927053823], [79.19219086641952, 14.40029510937843], [79.1893251670939, 14.405095233755631], [79.18505145279967, 14.409195625578228], [79.18150386678599, 14.410890493088843], [79.17687093248253, 14.4156768014646], [79.16977821300316, 14.418721782354309], [79.16478585162537, 14.424193873831975], [79.16230935085458, 14.424519024832165], [79.16090147396986, 14.42381919799006]], [[79.2275611390092, 14.351308100696308], [79.22335708537123, 14.346798900500058], [79.22232171754824, 14.343691176536488], [79.2198624470772, 14.341950528164443], [79.21917768247305, 14.33918986771946], [79.22241674179506, 14.331636468864097], [79.22456062544482, 14.32855254717252], [79.22422093238221, 14.32682780048874], [79.22281881582722, 14.325439544361785], [79.22283237432278, 14.323717440943604], [79.22390292220668, 14.322347686412705], [79.22709285176498, 14.32099375698527], [79.22888332955385, 14.31790713786198], [79.23030164096825, 14.317228824314526], [79.23099190808934, 14.319300620793221], [79.23274728050974, 14.320691459532432], [79.23236708021521, 14.32413305605205], [79.23341331838907, 14.325863056187888], [79.23293866899904, 14.341359432079043], [79.23255299688006, 14.345489863364804], [79.2296754088893, 14.352012784293246], [79.2275611390092, 14.351308100696308]], [[79.25124711940619, 14.349417368385286], [79.25126582985474, 14.34700639134887], [79.25270297445297, 14.343916979220788], [79.25482261670722, 14.343932587817346], [79.25587177812363, 14.345318090005852], [79.25585311923055, 14.34772907332945], [79.2530081884082, 14.350119243724325], [79.25124711940619, 14.349417368385286]], [[79.24774644219072, 14.345258184564784], [79.24601758848891, 14.340423182198737], [79.24605509323845, 14.335601237501816], [79.24713895947652, 14.33250924498696], [79.24855465231691, 14.33217525259572], [79.25166719486258, 14.340809338019248], [79.25165116844825, 14.342875891318032], [79.24880091416024, 14.345954863915567], [79.24774644219072, 14.345258184564784]], [[79.26153483398744, 14.343981890193907], [79.25664757690903, 14.336368197246504], [79.25564638099003, 14.328783023430525], [79.25426535027661, 14.324639517859568], [79.2518193184076, 14.321177062889767], [79.25115818694077, 14.315316616947934], [79.25011184252544, 14.313586683617196], [79.25012518134496, 14.311864553077367], [79.25154873449169, 14.310497247829215], [79.25401862169471, 14.310859853427921], [79.2554182129132, 14.312592365564473], [79.2614230479619, 14.312636377847209], [79.26141244532694, 14.314014090532613], [79.25998626688083, 14.315725886627078], [79.2599676920208, 14.318136881244586], [79.26239792582817, 14.32366583200419], [79.26520534735315, 14.326097494917809], [79.26446971467252, 14.329881042771875], [79.26509939718127, 14.339874626407191], [79.26295058981847, 14.34364781789101], [79.26153483398744, 14.343981890193907]], [[79.2566102965115, 14.341190169010096], [79.2559064211506, 14.34084054818666], [79.25591174978521, 14.340151695442069], [79.25661562313165, 14.3405013160266], [79.2566102965115, 14.341190169010096]], [[79.25591174978521, 14.340151695442069], [79.2555611463663, 14.339804671292232], [79.25591441399634, 14.339807269054075], [79.25591174978521, 14.340151695442069]], [[79.25520787880706, 14.33980207300488], [79.25275368932351, 14.33737288936714], [79.25277503529465, 14.334617481982477], [79.25453066926275, 14.336008186754848], [79.2555664756541, 14.339115818614797], [79.25520787880706, 14.33980207300488]], [[79.23484783208976, 14.32311818252493], [79.2352118392377, 14.321743115892556], [79.2362742365358, 14.321406565500943], [79.23660863977568, 14.323820151910558], [79.23589947033102, 14.324159327246646], [79.23484783208976, 14.32311818252493]], [[79.23842051840792, 14.317978059367906], [79.23774630538776, 14.313839734408555], [79.23673232829566, 14.307976669888237], [79.23778928564543, 14.308328952558117], [79.23917530713297, 14.311783665362608], [79.2391269789176, 14.317983297597877], [79.23842051840792, 14.317978059367906]], [[79.2579226552425, 14.308477375345747], [79.25968875128676, 14.308490313620997], [79.26003401492376, 14.3095261838314], [79.25756146917041, 14.309508068884064], [79.2579226552425, 14.308477375345747]], [[79.22506547729266, 14.30926759887369], [79.21942220361586, 14.308192063480442], [79.21729750355219, 14.308865017583416], [79.21696602985647, 14.306107007331857], [79.21803379849837, 14.3050816921326], [79.22050624309148, 14.305100212581983], [79.22438069783061, 14.306506950330064], [79.22543221407592, 14.307548128341452], [79.22506547729266, 14.30926759887369]], [[79.20247636538691, 14.307031194094845], [79.20321836777127, 14.302559107008136], [79.2042943783225, 14.300500605004013], [79.20535943451718, 14.299819768008575], [79.20782907473803, 14.300182832094778], [79.2067203098404, 14.30637437294149], [79.2045873952276, 14.308080464328917], [79.20317456301696, 14.308069787607515], [79.20247636538691, 14.307031194094845]], [[79.12182569583409, 14.278509203673144], [79.12399305962828, 14.272671055298021], [79.1257644430198, 14.271996147360465], [79.1257302518544, 14.276128988535971], [79.12288513295421, 14.27851755763591], [79.12182569583409, 14.278509203673144]], [[79.0622983154286, 14.260122674766471], [79.05243211762597, 14.257631384560954], [79.05173775252266, 14.256248059186559], [79.04682998934007, 14.252074962189715], [79.04506751299205, 14.251716111027768], [79.04188378083558, 14.25237881888577], [79.0411865232201, 14.25133985944976], [79.04155744212017, 14.24927643628221], [79.04332582926587, 14.248946535379973], [79.04578258654116, 14.25068873402126], [79.04895444630993, 14.251403523911081], [79.05104931214775, 14.254175954878384], [79.0559631086402, 14.257660200299334], [79.06055340873444, 14.257697582698244], [79.06267789630547, 14.257026023905945], [79.06870699419346, 14.253975187182366], [79.07155811123465, 14.250898506907143], [79.07261738831892, 14.250907068214653], [79.07436531603523, 14.25298768920518], [79.07435947019346, 14.253676476648707], [79.07223796245063, 14.254003754825852], [79.0697516327002, 14.255705726662804], [79.06621770734219, 14.256021510871188], [79.06407265937928, 14.259103844258666], [79.0622983154286, 14.260122674766471]], [[79.02381937995807, 14.258773585480736], [79.02418747474859, 14.257054595714866], [79.02665312699128, 14.257763831658707], [79.0262850485052, 14.25948282740048], [79.0245195693085, 14.259468204560951], [79.02381937995807, 14.258773585480736]], [[79.17601862737077, 14.258953277937476], [79.1668568609245, 14.256471979514433], [79.1651274705301, 14.25198104788753], [79.16549172050149, 14.25060611645418], [79.17008216872675, 14.250641373861978], [79.17252899026651, 14.25376004092171], [79.17640774769096, 14.254478599531884], [79.1774588048889, 14.255519939597349], [79.17744773659038, 14.256897595741028], [79.17601862737077, 14.258953277937476]], [[79.15908543694705, 14.256756542986516], [79.16015317496161, 14.255731486962034], [79.16227188329067, 14.255747823716565], [79.16226072260696, 14.257125468096524], [79.16084265645097, 14.257803399499798], [79.15907705141913, 14.257789774343715], [79.15908543694705, 14.256756542986516]], [[79.05669586091545, 14.254566446903356], [79.0570578038099, 14.253536153410813], [79.0609594935659, 14.251501417591864], [79.06413143916625, 14.252216012992807], [79.06234538835909, 14.254612416364708], [79.05986488174291, 14.255625493308859], [79.05774630026075, 14.255608247195397], [79.05669586091545, 14.254566446903356]], [[79.15274052140802, 14.255329751011027], [79.15204270618426, 14.254291051998234], [79.15240142946816, 14.253604969337282], [79.1584043608601, 14.253651396277037], [79.15839597413478, 14.254684627505391], [79.15626608417176, 14.256045897365704], [79.15274052140802, 14.255329751011027]], [[79.03273635190656, 14.248515037112027], [79.03275426064708, 14.246448725082372], [79.03417253452207, 14.245771593880887], [79.03522878336997, 14.246124703970947], [79.03520791632631, 14.24853540496254], [79.03449578979664, 14.24921835950996], [79.03273635190656, 14.248515037112027]], [[79.1651608842294, 14.247848105798527], [79.16447138050475, 14.245776203012134], [79.16553347346584, 14.245439936955572], [79.16729898886169, 14.245453502816419], [79.16905339502456, 14.246844706458022], [79.16833328773953, 14.248561348967147], [79.1651608842294, 14.247848105798527]], [[79.03629695223806, 14.245100265303337], [79.03631184566606, 14.24337833445277], [79.03737106540459, 14.243387047719759], [79.03771223278214, 14.244767496969818], [79.03629695223806, 14.245100265303337]], [[79.0776452671271, 14.240959515694868], [79.07768898787008, 14.23579359334238], [79.08301410452049, 14.23239221237592], [79.08442346535888, 14.23274794055078], [79.08510347589437, 14.23585317151999], [79.08295016826963, 14.239968923580472], [79.08046116067713, 14.242015433739383], [79.07869576021751, 14.24200122899025], [79.0776452671271, 14.240959515694868]], [[79.15890271052439, 14.235744762761133], [79.156100381072, 14.232967682060588], [79.1561087649173, 14.231934450296858], [79.1582244551067, 14.232295207249601], [79.15890271052439, 14.235744762761133]]]]}}, {"type": "Feature", "properties": {"depth_class": 2, "depth_lo_m": 1.0, "t_s": 39600.690908234435}, "geometry": {"type": "MultiPolygon", "coordinates": [[[[79.0192094927494, 14.220506078856653], [79.02063361758911, 14.21914024383072], [79.02030755945819, 14.21603786761961], [79.01610126561869, 14.2125589214722], [79.01327409385694, 14.212879856043], [79.01255902867392, 14.213907135081932], [79.01324101536012, 14.216668060368143], [79.01676828428329, 14.217041756548586], [79.01815339219868, 14.220152915754356], [79.0192094927494, 14.220506078856653]], [[79.01360606965545, 14.215293465045868], [79.013974124304, 14.213574486052321], [79.01609225821912, 14.213592070037937], [79.01678929857849, 14.214631076117234], [79.01571821188715, 14.215999819776169], [79.01360606965545, 14.215293465045868]]], [[[79.15857195433291, 14.232986751943363], [79.1575210856344, 14.23194534967712], [79.1561087649173, 14.231934450296858], [79.156100381072, 14.232967682060588], [79.15890271052439, 14.235744762761133], [79.15857195433291, 14.232986751943363]]], [[[79.08046116067713, 14.242015433739383], [79.08295016826963, 14.239968923580472], [79.08510347589437, 14.23585317151999], [79.08512089195133, 14.233786792916971], [79.0837202364047, 14.232397879326076], [79.07911291601458, 14.234427378454674], [79.07733008837847, 14.236479540191871], [79.07729510490226, 14.24061227715191], [79.07799251553878, 14.241651148649499], [79.08046116067713, 14.242015433739383]], [[79.07871615581955, 14.239590464237615], [79.0790983566263, 14.236149354475526], [79.08334683488884, 14.234805818909052], [79.08189966135603, 14.23892722758424], [79.0801226384128, 14.240290617631718], [79.07871615581955, 14.239590464237615]]], [[[79.03735617999757, 14.245108979666721], [79.03737106540459, 14.243387047719759], [79.03631184566606, 14.24337833445277], [79.0359468558568, 14.244752973396318], [79.03735617999757, 14.245108979666721]]], [[[79.16833328773953, 14.248561348967147], [79.16905339502456, 14.246844706458022], [79.16729898886169, 14.245453502816419], [79.16447138050475, 14.245776203012134], [79.16446024129917, 14.247153850246677], [79.1655112072996, 14.248195232980912], [79.16833328773953, 14.248561348967147]]], [[[79.03449578979664, 14.24921835950996], [79.03522878336997, 14.246124703970947], [79.03311032180659, 14.246107250452802], [79.03238625711815, 14.248167740093324], [79.03343654469286, 14.249209629991963], [79.03449578979664, 14.24921835950996]]], [[[79.15450049737834, 14.25603223997931], [79.15839597413478, 14.254684627505391], [79.15805404261219, 14.253304259095668], [79.1520455113946, 14.253946642825278], [79.15274052140802, 14.255329751011027], [79.15450049737834, 14.25603223997931]]], [[[79.06371661562484, 14.259445368136353], [79.06621770734219, 14.256021510871188], [79.0697516327002, 14.255705726662804], [79.07223796245063, 14.254003754825852], [79.07435947019346, 14.253676476648707], [79.07436531603523, 14.25298768920518], [79.07261738831892, 14.250907068214653], [79.07155811123465, 14.250898506907143], [79.06870699419346, 14.253975187182366], [79.06267789630547, 14.257026023905945], [79.06055340873444, 14.257697582698244], [79.0559631086402, 14.257660200299334], [79.05104931214775, 14.254175954878384], [79.04895444630993, 14.251403523911081], [79.04578258654116, 14.25068873402126], [79.04332582926587, 14.248946535379973], [79.04155744212017, 14.24927643628221], [79.0411865232201, 14.25133985944976], [79.04188378083558, 14.25237881888577], [79.04506751299205, 14.251716111027768], [79.04682998934007, 14.252074962189715], [79.05383860295908, 14.258331695909412], [79.05595720493781, 14.258348979955821], [79.05982658474079, 14.26010257148532], [79.06371661562484, 14.259445368136353]]], [[[79.02630003358851, 14.257760909024753], [79.02418747474859, 14.257054595714866], [79.02381937995807, 14.258773585480736], [79.0245195693085, 14.259468204560951], [79.0262850485052, 14.25948282740048], [79.02630003358851, 14.257760909024753]]], [[[79.12288513295421, 14.27851755763591], [79.1257302518544, 14.276128988535971], [79.1257644430198, 14.271996147360465], [79.12399305962828, 14.272671055298021], [79.12255767979015, 14.275415149084429], [79.12182569583409, 14.278509203673144], [79.12288513295421, 14.27851755763591]]], [[[79.25367893296796, 14.26332367090165], [79.25297263750636, 14.263318495335142], [79.25330986415108, 14.26538765194922], [79.25401616618421, 14.265392827250984], [79.25367893296796, 14.26332367090165]]], [[[79.25714155818046, 14.272304663721691], [79.25852773404611, 14.27575928220231], [79.26064409923276, 14.276119195571095], [79.26064938839829, 14.275430337342526], [79.25714155818046, 14.272304663721691]]], [[[79.25678839577162, 14.272302079737898], [79.2571442073844, 14.271960235146427], [79.25679104551172, 14.271957651227552], [79.25678839577162, 14.272302079737898]]], [[[79.24968790852057, 14.277072270081954], [79.24970121509372, 14.275350134661073], [79.24829121577568, 14.27499532246012], [79.24792473122237, 14.276714858723707], [79.24968790852057, 14.277072270081954]]], [[[79.2045873952276, 14.308080464328917], [79.20743764756101, 14.305002027881466], [79.20782907473803, 14.300182832094778], [79.20712541265647, 14.299833088855058], [79.2042943783225, 14.300500605004013], [79.20285421691133, 14.303934107721538], [79.20282409402782, 14.307722699724584], [79.2045873952276, 14.308080464328917]]], [[[79.22543221407592, 14.307548128341452], [79.22438069783061, 14.306506950330064], [79.22050624309148, 14.305100212581983], [79.21803379849837, 14.3050816921326], [79.21696602985647, 14.306107007331857], [79.21729750355219, 14.308865017583416], [79.22189468409613, 14.308210573429074], [79.22506547729266, 14.30926759887369], [79.22543221407592, 14.307548128341452]]], [[[79.26003931885015, 14.308837327756306], [79.2579253102552, 14.308132947671192], [79.25756146917041, 14.309508068884064], [79.25932491978232, 14.309865438646172], [79.26003931885015, 14.308837327756306]]], [[[79.23662478164572, 14.321753612032701], [79.23556776640817, 14.321401317562295], [79.23485321809545, 14.322429336556164], [79.23589947033102, 14.324159327246646], [79.23660863977568, 14.323820151910558], [79.23662478164572, 14.321753612032701]]], [[[79.25625702658391, 14.341187572039457], [79.25626235428209, 14.340498719185867], [79.25626501802502, 14.340154292743373], [79.25591174978521, 14.340151695442069], [79.25625702658391, 14.341187572039457]]], [[[79.2555611463663, 14.339804671292232], [79.25591174978521, 14.340151695442069], [79.25591441399634, 14.339807269054075], [79.2555611463663, 14.339804671292232]]], [[[79.2555611463663, 14.339804671292232], [79.25418273988436, 14.335316735218713], [79.25277503529465, 14.334617481982477], [79.25275368932351, 14.33737288936714], [79.2555611463663, 14.339804671292232]]], [[[79.18094923533559, 14.435685283382732], [79.17990302125828, 14.433955053893108], [79.17673643528826, 14.432208436009352], [79.17675045337835, 14.43048639188043], [79.17925501096758, 14.42671700071483], [79.18603075323185, 14.419191692933534], [79.19063302459087, 14.418193722865704], [79.1910114116159, 14.415096723811622], [79.19955874415518, 14.406895632057228], [79.20203780091703, 14.406225646038848], [79.20450030981853, 14.407622121331853], [79.20662324989108, 14.407293815064158], [79.20663150824048, 14.40626056932609], [79.20487847227177, 14.404525073082823], [79.20489500106416, 14.402458583011693], [79.20952709695543, 14.397671618036327], [79.21132402354007, 14.393896415897759], [79.21559151873022, 14.39048428885348], [79.2166788756464, 14.387048109982699], [79.21845920086473, 14.385339335361952], [79.2198752574515, 14.385005558777234], [79.22201977018223, 14.381921735839445], [79.22840410052446, 14.378869669685656], [79.23052675463228, 14.378541112555718], [79.23338852065822, 14.374084758717359], [79.2376364276575, 14.3730831009335], [79.2404979805891, 14.368626635119679], [79.24369927848345, 14.365894857500724], [79.2479845328041, 14.360071051348381], [79.25116956763394, 14.359405696352727], [79.25508787068472, 14.35530124425014], [79.26005524753486, 14.352582199403757], [79.26326139771548, 14.349161246223433], [79.26609827084094, 14.347804223035661], [79.26718459944047, 14.344367689130989], [79.27004253443779, 14.34025517758222], [79.27007688343427, 14.335777600073637], [79.2686770466904, 14.334045148673818], [79.26833964911776, 14.331975997717002], [79.26976852862447, 14.329919728870243], [79.27158755795537, 14.323044005039671], [79.26981869721779, 14.323375571796854], [79.26981077754591, 14.324408860006608], [79.26659188428569, 14.329552102745087], [79.26650982770683, 14.340229385877105], [79.26580063801443, 14.340568649421238], [79.2643583862425, 14.344347020134698], [79.26187482910689, 14.345706616519694], [79.25835003681901, 14.344647413515], [79.25726091262362, 14.348428317900499], [79.25193230423088, 14.352177982384001], [79.24839676671438, 14.352496324489008], [79.24413854438052, 14.354875921954036], [79.23954848484325, 14.354497424224022], [79.23884729591805, 14.353803328549557], [79.23886614500105, 14.351392368484653], [79.24248492449307, 14.340397032484567], [79.24427539164921, 14.337310295497115], [79.24466081918969, 14.333179816295042], [79.24787489033388, 14.328725785566593], [79.24999438437924, 14.328741421097023], [79.25139937477634, 14.329785111882417], [79.25282304713787, 14.328417812918406], [79.25284704444526, 14.325317977115319], [79.2507462625092, 14.322891389443114], [79.24802720974647, 14.309093530446214], [79.2406793406608, 14.300083696203023], [79.23824180253966, 14.295587875439718], [79.2312021498431, 14.292435644502536], [79.22980286768663, 14.290703022470263], [79.22698817672035, 14.289304295491291], [79.22454021256343, 14.286186063754819], [79.21783526921088, 14.285447071261316], [79.21502887732376, 14.28301495701077], [79.21010354734787, 14.280566896011862], [79.20870450423386, 14.27883417549144], [79.20377388173354, 14.27707483832857], [79.20062280527364, 14.273606664875414], [79.19780579720525, 14.272552054046576], [79.19395956347661, 14.267700798578083], [79.19149580722188, 14.26664880095075], [79.1883395601427, 14.263869333164488], [79.18659316231334, 14.261444996746405], [79.18590893882583, 14.258684298786484], [79.18380672142052, 14.25660167743541], [79.18062860961187, 14.256577450729225], [79.17777042167698, 14.260688848733459], [79.17774827931906, 14.263444160141741], [79.17668610994663, 14.263780472241285], [79.1752818913969, 14.26273642231114], [79.17140300181258, 14.26201782942266], [79.16789118475896, 14.259579830156113], [79.15729745749346, 14.259498186468896], [79.15307681262642, 14.257398941873914], [79.14883938985118, 14.257366082511986], [79.146746005049, 14.254249951847344], [79.14286176828693, 14.254219737073033], [79.13683624631119, 14.256928166486986], [79.13471755754857, 14.256911602485584], [79.1326073770472, 14.255861803799421], [79.11565520334656, 14.256072876631308], [79.11249441445925, 14.253981334776226], [79.10861600067207, 14.25326176169642], [79.10686485080159, 14.25152575281688], [79.10369846075577, 14.250122910968004], [79.10087368168976, 14.250100439511058], [79.09911685099213, 14.249053181400292], [79.08923311824157, 14.248629804290454], [79.08465454837886, 14.247215412886808], [79.08006148181518, 14.247522915911611], [79.08217128598018, 14.248573140763241], [79.08320147041324, 14.252025609646374], [79.08956011811, 14.251732204020172], [79.09413881842237, 14.253146515898425], [79.09978555077824, 14.253535993129727], [79.10294619484667, 14.25562768835414], [79.10503893833125, 14.258744131265242], [79.10858154397704, 14.257394568446362], [79.11033561764862, 14.258786170323805], [79.11245142789667, 14.259147354271589], [79.11384669601229, 14.261224941411886], [79.1173835887206, 14.26056405055269], [79.12196270334923, 14.261977870320276], [79.1459750296365, 14.262165844089436], [79.15232567898084, 14.262904015472927], [79.15760860520928, 14.264667065972189], [79.16326150480182, 14.264366264803147], [79.17522366955257, 14.269969102029975], [79.18193063654299, 14.270364811278771], [79.18721679774427, 14.271782836773863], [79.19002822906356, 14.273526397943929], [79.19458351934274, 14.278038655880758], [79.20267066744478, 14.282577535772132], [79.20511280759862, 14.286384790771079], [79.20722639957961, 14.287089599400407], [79.2128418650433, 14.29160955636065], [79.21600966191491, 14.293011092407895], [79.21775931697306, 14.295090851715774], [79.22376086080304, 14.29548018334204], [79.22797488701612, 14.298611596135165], [79.23184929666978, 14.300018205362875], [79.23500122100437, 14.3034860560153], [79.23851450633228, 14.305923220391534], [79.24026179226264, 14.30834727167011], [79.24303395154729, 14.31525667289782], [79.24260298659783, 14.325242371019488], [79.23973943960006, 14.330043369073458], [79.2382941683279, 14.334165965832224], [79.23544657011591, 14.336900349060173], [79.23395798920893, 14.346533658800178], [79.23179780434722, 14.351684185810816], [79.22788190377867, 14.355443791815897], [79.2267894982566, 14.359568909011307], [79.22537904112116, 14.359213906966108], [79.2257486166736, 14.357150031622028], [79.22752590634343, 14.355785570169152], [79.22754487928984, 14.353374625288707], [79.22615073028992, 14.350953108818564], [79.22088418024765, 14.346780356983794], [79.2201912363019, 14.345052956254824], [79.21843305892284, 14.344006433674272], [79.21599562317579, 14.339510396664663], [79.21176743907941, 14.338100803530798], [79.20820750716902, 14.34151832300443], [79.20537045249543, 14.342874623012975], [79.20393819125665, 14.345274841477266], [79.20003025983604, 14.348000700928857], [79.20070104240872, 14.352483469245962], [79.19924387499302, 14.357983382501533], [79.197460905911, 14.360036439312728], [79.19566133856375, 14.364155965158995], [79.19246232990803, 14.366542615144233], [79.19138305988538, 14.368945416529384], [79.18960269881255, 14.3706539807256], [79.18109837699339, 14.373688686003451], [79.17756252629755, 14.374005918863542], [79.17401269007838, 14.376045147353738], [79.16447619419839, 14.375626941039839], [79.15841640178151, 14.382124009058021], [79.15629086232259, 14.382796308729741], [79.1552196078689, 14.384165668956275], [79.15520829914412, 14.385543292994617], [79.15836559877086, 14.388323328165448], [79.16366829492972, 14.38802013837277], [79.16507034582598, 14.389408740718212], [79.1649859219969, 14.399740969722288], [79.16954850721126, 14.403565089050506], [79.17131245706052, 14.40392318070307], [79.17451503756085, 14.401192503732037], [79.17701644516234, 14.39776750324803], [79.17989623069413, 14.391245492441882], [79.18452019072618, 14.387492283365297], [79.18559964379132, 14.385089535900674], [79.18773348234805, 14.383383728069965], [79.18881287768268, 14.380980958799423], [79.1934503123048, 14.375505461879857], [79.19805440811749, 14.37416282079432], [79.2069228824233, 14.369752492412829], [79.20904271516669, 14.369768538289305], [79.20974384525371, 14.370462716504193], [79.20971369230445, 14.374251301664556], [79.2082867219079, 14.375962689671695], [79.20718008865067, 14.381809737154867], [79.20539696913286, 14.383862836311456], [79.20466830326758, 14.386612797801936], [79.2025262744322, 14.389352014472887], [79.20000877051169, 14.394843830101061], [79.1936014969838, 14.400650332018197], [79.18895235121165, 14.407503408140757], [79.18503751998476, 14.410917680777002], [79.18291174703519, 14.411590195695426], [79.17721030464637, 14.41740157716735], [79.17153666131158, 14.419768702306328], [79.16547569890913, 14.426265811551362], [79.16016643274256, 14.427257745568234], [79.16013248819587, 14.431390613681721], [79.15656170571239, 14.43584027828212], [79.1565531986904, 14.436873492600737], [79.16891946131273, 14.437314301612524], [79.1710483278325, 14.436297540270855], [79.17387555369729, 14.436319457486837], [79.17704497128165, 14.437721708755484], [79.18093244582448, 14.437751740240502], [79.18094923533559, 14.435685283382732]], [[79.18607811972461, 14.41333670503947], [79.19214092911972, 14.406494536094863], [79.1950093634948, 14.401349959944037], [79.20141938595927, 14.39519900365392], [79.20859338613667, 14.381820443753261], [79.20933844023061, 14.377003962183602], [79.21112694426262, 14.374261987637716], [79.21081198342802, 14.369437478254623], [79.20940698498548, 14.368393543295236], [79.20658055861185, 14.368372150929693], [79.20090293230236, 14.371429002215443], [79.19664945133277, 14.373118813918657], [79.19382021978012, 14.37344167616609], [79.19027051046166, 14.375481167120833], [79.18850395645362, 14.375467651594542], [79.18815619538834, 14.374776121608576], [79.18816174460976, 14.374087296266156], [79.19171975134627, 14.371014596088068], [79.1938699913156, 14.367242226400885], [79.19635688670337, 14.365539005501358], [79.19814267171702, 14.363141549275483], [79.1985125027534, 14.361077746782808], [79.20029547262926, 14.359024682066547], [79.20174987534315, 14.353869176452163], [79.20143509222247, 14.34904467338155], [79.20463374911967, 14.346657858726502], [79.20713402802512, 14.343232400186816], [79.20890582054278, 14.3425569123019], [79.21175378191104, 14.339822894454588], [79.21316681946868, 14.339833543252759], [79.21527547249723, 14.341227175898325], [79.21560965104749, 14.343640765580153], [79.2141856726043, 14.345007802521572], [79.21346275572043, 14.347068990145562], [79.21486765482507, 14.348112889587014], [79.22157169665725, 14.349196596164916], [79.22403376984269, 14.350592816276437], [79.22578388815242, 14.352672566988995], [79.22576489733021, 14.35508350970407], [79.22326200665111, 14.358853598971711], [79.22360171079346, 14.360578347321983], [79.22535732176942, 14.361969267902984], [79.22712380559535, 14.361982496264448], [79.22819182909606, 14.360957165107358], [79.22892822149461, 14.357173820140718], [79.23107230844569, 14.354089863548229], [79.23284143814256, 14.353758620521397], [79.2353090390097, 14.354465892445083], [79.23812186320096, 14.35620903530423], [79.24518767736551, 14.356261468567375], [79.25475859688287, 14.352198810544587], [79.25974452383268, 14.347068776692618], [79.26292138966278, 14.347436520582141], [79.26077777878945, 14.350520823860341], [79.25332408371494, 14.3549438048257], [79.25118026797989, 14.358027996467412], [79.24693000289419, 14.35937436193324], [79.23944613571054, 14.367585488369272], [79.2369378937633, 14.37204457275578], [79.23198066744338, 14.373385363814453], [79.22982824218175, 14.377502565651174], [79.2277055978012, 14.377831117544975], [79.22132129146229, 14.380883167391389], [79.21882345164869, 14.38396432384255], [79.21705133856828, 14.384639849445257], [79.21526827460981, 14.386693030429491], [79.2141808992732, 14.390129200617377], [79.21062831143593, 14.392513401834515], [79.20776034976092, 14.39765822602587], [79.20384595686514, 14.401072866544247], [79.2024021986922, 14.404850677693167], [79.19886307826557, 14.405512588509762], [79.18783105360147, 14.415072330789078], [79.18606419061453, 14.415058760619129], [79.18607811972461, 14.41333670503947]], [[79.26795201043232, 14.336450993806316], [79.26865589581733, 14.336800579551163], [79.26864796308055, 14.337833865957622], [79.26759345427921, 14.337137271805913], [79.26795201043232, 14.336450993806316]], [[79.24759116324837, 14.319768119979255], [79.24864819634249, 14.320120362219912], [79.24863751000265, 14.32149806462569], [79.24792836204334, 14.321837278867337], [79.24722456004639, 14.321487640120184], [79.24759116324837, 14.319768119979255]], [[79.24519076828186, 14.3104503845839], [79.24625042771741, 14.31045820692333], [79.24694885095039, 14.311496695913611], [79.24657691731628, 14.313905068032868], [79.24552259140033, 14.313208394839886], [79.24519076828186, 14.3104503845839]], [[79.24168805276682, 14.306635604716407], [79.2381881379972, 14.302476361382473], [79.23572644858749, 14.301080333049564], [79.23328093569151, 14.297617742227164], [79.22870016487795, 14.29620590047929], [79.22518443925706, 14.29411304070587], [79.22165795396987, 14.293397821662232], [79.22096782605307, 14.291326012787913], [79.22239139015072, 14.28995888534872], [79.22275809759267, 14.288239415021472], [79.22415730779332, 14.289972070854072], [79.22697198499279, 14.29137083020259], [79.22906953765592, 14.294141994181144], [79.23717148028479, 14.296957722121673], [79.23995684968241, 14.302145016361468], [79.24206001633567, 14.304227243436634], [79.24274769232281, 14.30664344062644], [79.24168805276682, 14.306635604716407]], [[79.20234484179528, 14.279130688390772], [79.19600987299766, 14.276327276722107], [79.19461645946788, 14.273905654880872], [79.19180498175211, 14.272162143224662], [79.19147107353903, 14.269748548367257], [79.19323680364802, 14.269761944710503], [79.19532825232719, 14.273222173274686], [79.19989734116712, 14.276012252943802], [79.20234484179528, 14.279130688390772]], [[79.18267282714382, 14.265892808891108], [79.18373500125645, 14.265556470271617], [79.18373224179479, 14.265900885239562], [79.18267282714382, 14.265892808891108]], [[79.1780958774229, 14.264135687505181], [79.18020915644159, 14.264840702882676], [79.18020362702349, 14.265529531495893], [79.17843794267226, 14.265516042510836], [79.1780958774229, 14.264135687505181]]]]}}, {"type": "Feature", "properties": {"depth_class": 3, "depth_lo_m": 2.0, "t_s": 39600.690908234435}, "geometry": {"type": "MultiPolygon", "coordinates": [[[[79.0164272670522, 14.215661296171254], [79.01678929857849, 14.214631076117234], [79.01609225821912, 14.213592070037937], [79.01361809590493, 14.213915935883495], [79.01430610767282, 14.21598809505003], [79.0164272670522, 14.215661296171254]]], [[[79.08083170393309, 14.239951900794148], [79.08333521287501, 14.236183403133879], [79.08334683488884, 14.234805818909052], [79.08087243988615, 14.235130363886936], [79.07873946040877, 14.236835303890329], [79.07871615581955, 14.239590464237615], [79.07941648349772, 14.240284936968603], [79.08083170393309, 14.239951900794148]]], [[[79.20234484179528, 14.279130688390772], [79.19989734116712, 14.276012252943802], [79.19532825232719, 14.273222173274686], [79.19323680364802, 14.269761944710503], [79.19147107353903, 14.269748548367257], [79.19180498175211, 14.272162143224662], [79.19461645946788, 14.273905654880872], [79.19600987299766, 14.276327276722107], [79.20234484179528, 14.279130688390772]]], [[[79.24274769232281, 14.30664344062644], [79.23717148028479, 14.296957722121673], [79.22906953765592, 14.294141994181144], [79.22697198499279, 14.29137083020259], [79.22415730779332, 14.289972070854072], [79.22275809759267, 14.288239415021472], [79.22239139015072, 14.28995888534872], [79.22096782605307, 14.291326012787913], [79.22165795396987, 14.293397821662232], [79.22518443925706, 14.29411304070587], [79.22870016487795, 14.29620590047929], [79.23328093569151, 14.297617742227164], [79.23572644858749, 14.301080333049564], [79.2381881379972, 14.302476361382473], [79.24168805276682, 14.306635604716407], [79.24274769232281, 14.30664344062644]]], [[[79.24693281553739, 14.313563249069816], [79.24660097495611, 14.310805238839276], [79.24519076828186, 14.3104503845839], [79.24587046672295, 14.31389985340655], [79.24693281553739, 14.313563249069816]]], [[[79.24863751000265, 14.32149806462569], [79.24864819634249, 14.320120362219912], [79.24759116324837, 14.319768119979255], [79.24722456004639, 14.321487640120184], [79.24863751000265, 14.32149806462569]]], [[[79.26830263049831, 14.336798001288468], [79.26759610007112, 14.336792843186853], [79.26794142927953, 14.337828708519757], [79.26864796308055, 14.337833865957622], [79.26830263049831, 14.336798001288468]]], [[[79.18818720913718, 14.414730631738015], [79.19886307826557, 14.405512588509762], [79.20311443335702, 14.404167225431465], [79.20384595686514, 14.401072866544247], [79.20776034976092, 14.39765822602587], [79.21062831143593, 14.392513401834515], [79.2141808992732, 14.390129200617377], [79.21526827460981, 14.386693030429491], [79.21705133856828, 14.384639849445257], [79.21882345164869, 14.38396432384255], [79.22132129146229, 14.380883167391389], [79.2277055978012, 14.377831117544975], [79.22982824218175, 14.377502565651174], [79.23198066744338, 14.373385363814453], [79.2369378937633, 14.37204457275578], [79.23944613571054, 14.367585488369272], [79.24693000289419, 14.35937436193324], [79.25118026797989, 14.358027996467412], [79.25332408371494, 14.3549438048257], [79.25864475668138, 14.352227394300415], [79.26292138966278, 14.347436520582141], [79.25974452383268, 14.347068776692618], [79.25475859688287, 14.352198810544587], [79.24518767736551, 14.356261468567375], [79.23812186320096, 14.35620903530423], [79.2353090390097, 14.354465892445083], [79.23284143814256, 14.353758620521397], [79.23107230844569, 14.354089863548229], [79.22892822149461, 14.357173820140718], [79.22819182909606, 14.360957165107358], [79.22712380559535, 14.361982496264448], [79.22535732176942, 14.361969267902984], [79.22360171079346, 14.360578347321983], [79.22326200665111, 14.358853598971711], [79.22576489733021, 14.35508350970407], [79.22578388815242, 14.352672566988995], [79.22403376984269, 14.350592816276437], [79.22157169665725, 14.349196596164916], [79.21486765482507, 14.348112889587014], [79.21346275572043, 14.347068990145562], [79.2141856726043, 14.345007802521572], [79.21560965104749, 14.343640765580153], [79.21527547249723, 14.341227175898325], [79.21316681946868, 14.339833543252759], [79.21175378191104, 14.339822894454588], [79.20890582054278, 14.3425569123019], [79.20713402802512, 14.343232400186816], [79.20463374911967, 14.346657858726502], [79.20143509222247, 14.34904467338155], [79.20174987534315, 14.353869176452163], [79.20029547262926, 14.359024682066547], [79.1985125027534, 14.361077746782808], [79.19814267171702, 14.363141549275483], [79.19635688670337, 14.365539005501358], [79.1938699913156, 14.367242226400885], [79.19171975134627, 14.371014596088068], [79.18816174460976, 14.374087296266156], [79.18815619538834, 14.374776121608576], [79.18850395645362, 14.375467651594542], [79.19027051046166, 14.375481167120833], [79.19382021978012, 14.37344167616609], [79.19664945133277, 14.373118813918657], [79.20090293230236, 14.371429002215443], [79.20658055861185, 14.368372150929693], [79.20940698498548, 14.368393543295236], [79.21081198342802, 14.369437478254623], [79.21112694426262, 14.374261987637716], [79.20933844023061, 14.377003962183602], [79.20859338613667, 14.381820443753261], [79.20141938595927, 14.39519900365392], [79.1950093634948, 14.401349959944037], [79.19214092911972, 14.406494536094863], [79.18571917755136, 14.414022811886896], [79.18606419061453, 14.415058760619129], [79.18818720913718, 14.414730631738015]], [[79.23165442670589, 14.369938514698344], [79.22921107216017, 14.366131401792819], [79.2314039564819, 14.356847871508663], [79.23281981866062, 14.356513993885198], [79.23704581520299, 14.358267686543435], [79.24163863047043, 14.358301817737816], [79.24375302259187, 14.359006387803898], [79.24338629112138, 14.360725886001239], [79.23947846763978, 14.363452417117799], [79.23662507124634, 14.366875611591789], [79.23518753329712, 14.369964878661637], [79.23165442670589, 14.369938514698344]]]]}}, {"type": "Feature", "properties": {"depth_class": 4, "depth_lo_m": 3.0, "t_s": 39600.690908234435}, "geometry": {"type": "Polygon", "coordinates": [[[79.23165442670589, 14.369938514698344], [79.22921107216017, 14.366131401792819], [79.2314039564819, 14.356847871508663], [79.23281981866062, 14.356513993885198], [79.23704581520299, 14.358267686543435], [79.24163863047043, 14.358301817737816], [79.24375302259187, 14.359006387803898], [79.24338629112138, 14.360725886001239], [79.23947846763978, 14.363452417117799], [79.23662507124634, 14.366875611591789], [79.23518753329712, 14.369964878661637], [79.23165442670589, 14.369938514698344]]]}}]}