{"type": "FeatureCollection", "features": [{"type": "Feature", "properties": {"depth_class": 1, "depth_lo_m": 0.3, "t_s": 21600.277355484028}, "geometry": {"type": "MultiPolygon", "coordinates": [[[[79.11821835883717, 14.245071512487145], [79.1200123397684, 14.241641396174037], [79.12003799761582, 14.238541766691025], [79.11829255398747, 14.236117036826895], [79.11688023898621, 14.236105902364683], [79.11473032600408, 14.239877610189755], [79.11471031215713, 14.242288425540687], [79.11680598822896, 14.245060370735448], [79.11821835883717, 14.245071512487145]]], [[[79.18069094018124, 14.42397262922311], [79.1863841321871, 14.419194408835168], [79.19027686617798, 14.418535425307361], [79.1913675629356, 14.414755019398697], [79.20026546869954, 14.406901018338571], [79.20309236980073, 14.406922542343578], [79.20484816266641, 14.408313637227861], [79.2062616250962, 14.408324377067611], [79.20698211868414, 14.406607667360259], [79.20523458625085, 14.404183343046759], [79.20524835735444, 14.40246126762673], [79.20952160376622, 14.398360450133973], [79.21203345364395, 14.393557345618545], [79.21558604699099, 14.391173123657676], [79.2166761421605, 14.387392527694674], [79.22058464803527, 14.384666457859588], [79.22237037374117, 14.382268810073878], [79.22804534788564, 14.379555864093883], [79.2305213333725, 14.379229953657346], [79.23194546623147, 14.377862835699231], [79.23302979172534, 14.374770963564883], [79.23798704597733, 14.373430153443396], [79.239769803139, 14.37137676313145], [79.24120998498982, 14.367943039572864], [79.24405527211387, 14.365553054125362], [79.24691391137846, 14.361440906749923], [79.2518734885675, 14.35975533646388], [79.25508520220846, 14.355645670036912], [79.26040321633127, 14.35327364640989], [79.26360937287366, 14.349852689223475], [79.26680218608612, 14.348153817628749], [79.26860564447016, 14.343344725202249], [79.2703878787378, 14.341291040921956], [79.27077548920651, 14.336816038093765], [79.26903559370747, 14.333358867942309], [79.26904880732364, 14.331636722877157], [79.2704829581566, 14.32889158999446], [79.2705040745634, 14.326136154615199], [79.26944696870687, 14.325784002849613], [79.26623863070132, 14.32954952268615], [79.2654818083164, 14.336088499777711], [79.26580593632413, 14.339879793027565], [79.2643796012376, 14.341591597297834], [79.2636518336472, 14.344341847628707], [79.26152952104847, 14.344670744784024], [79.2566502392639, 14.336023770613478], [79.25599696943424, 14.329130045835953], [79.25461593067237, 14.324986541450588], [79.251479416577, 14.319452331645904], [79.25151408152833, 14.31497479062078], [79.25046773546948, 14.313244858681056], [79.25083429366501, 14.311525328063729], [79.2536627376808, 14.311201684788566], [79.25577675604349, 14.311906104388367], [79.25754818929808, 14.311230206619008], [79.2603898874889, 14.309184341486468], [79.26005257743094, 14.307115187385818], [79.25900088497217, 14.306074144580384], [79.25264568035266, 14.305683067982555], [79.25122216688864, 14.307050384536645], [79.24945342238996, 14.307381810792354], [79.24806458620701, 14.304271567852787], [79.24525227056316, 14.302528600791396], [79.24139913824713, 14.298366796913168], [79.2400131387919, 14.294912098905849], [79.23685049743297, 14.29282201420777], [79.2365080448132, 14.291441699766038], [79.23263911728256, 14.289346332020248], [79.2326444967715, 14.288657484923148], [79.23476359777366, 14.288673213277393], [79.23687465133807, 14.289722195781243], [79.24217244569788, 14.289761390042035], [79.24465811250624, 14.28805751146018], [79.2446741388957, 14.285990956410481], [79.2397510306409, 14.2831990401737], [79.23586878120899, 14.282825858312952], [79.23305682374526, 14.281082785351217], [79.22917463445113, 14.28070949965198], [79.2263870354382, 14.275866551862894], [79.22143195521008, 14.277207368658921], [79.21648767638847, 14.2771703919805], [79.21366781296005, 14.276460375737889], [79.21085885153838, 14.274372648666299], [79.20520289447293, 14.275018976310173], [79.2045020405699, 14.274324815545771], [79.20454024827694, 14.269502953005821], [79.20384759992369, 14.267775536036346], [79.20139198256628, 14.265690380246404], [79.19750469241258, 14.266005449747752], [79.19576365595024, 14.262892332748018], [79.19224602858593, 14.261143493525303], [79.18945121464914, 14.257333475314066], [79.1852385032545, 14.254201522418041], [79.18349496000445, 14.25143275883265], [79.18103143320644, 14.250380678318583], [79.17822587786972, 14.247948221193903], [79.17610999077321, 14.247587620782241], [79.16907561601656, 14.244089404638748], [79.16484397074919, 14.243368035320374], [79.16309797607889, 14.240943571586575], [79.16099056014036, 14.239549613505563], [79.16068487290046, 14.233691900131875], [79.15789370699045, 14.229537196336121], [79.15329812002444, 14.230190576114532], [79.15293104767507, 14.231909896196278], [79.15362321438563, 14.233637406794779], [79.1560780208643, 14.235722966304039], [79.15605565587562, 14.23847824987855], [79.15392591898836, 14.2398395172259], [79.15249674132754, 14.241895048535588], [79.15072565880719, 14.242570195055457], [79.1499885984447, 14.246353221910898], [79.14714692369384, 14.24839775454757], [79.14571199775148, 14.251142045953038], [79.1379210340206, 14.253836784125342], [79.12379952533864, 14.253381686433853], [79.12239564832394, 14.252337361231103], [79.12170939300574, 14.249920977950877], [79.12030839881295, 14.248532240878085], [79.11853719680015, 14.249207129992302], [79.11850578684952, 14.25299555925682], [79.11568094779783, 14.25297325867941], [79.10970686971008, 14.249481750023461], [79.10442766713189, 14.247373324286823], [79.09420533409727, 14.245225365402689], [79.08749377244213, 14.245516088937682], [79.08363016672101, 14.243074157165422], [79.08435957443302, 14.240324657803155], [79.08721900759254, 14.236214548451978], [79.0869123300641, 14.23070137035244], [79.08586183995519, 14.229659694132899], [79.08374346808371, 14.229642709214344], [79.0816105637628, 14.231347684792755], [79.0787773197421, 14.232358166893043], [79.0762825407104, 14.235093429798283], [79.07311076760841, 14.234379020430401], [79.0713366634624, 14.235397949725838], [79.07025990643572, 14.237455752104811], [79.06637612933875, 14.237424328349139], [79.06495211342663, 14.238790454861675], [79.06421661412399, 14.242228650185265], [79.06244241279776, 14.243247499906717], [79.0588762964232, 14.247351498037503], [79.05355937018962, 14.249719077350719], [79.05144380867317, 14.24935739310643], [79.04863689145837, 14.247267972730622], [79.04511200938244, 14.246550293330625], [79.04588633798056, 14.238635149511962], [79.04483602825957, 14.237593312524453], [79.04377683078363, 14.23758463583087], [79.04021348907249, 14.241343937960142], [79.03810399139434, 14.240293374473723], [79.03457032775985, 14.240608714926983], [79.03242506167886, 14.243690731031874], [79.0288674264217, 14.24676105620212], [79.02849341036365, 14.249168830147685], [79.03095003525986, 14.250911167318103], [79.03163529051685, 14.253327690390467], [79.03161138596039, 14.25608276956821], [79.03089623361444, 14.257110093208464], [79.02877468211655, 14.257436972277128], [79.02561782756072, 14.254999993417067], [79.0227901171854, 14.25532097294888], [79.02172184109583, 14.256345336206566], [79.02170081494938, 14.258756015458795], [79.02309818092728, 14.260489645803197], [79.02202387010449, 14.262202772444324], [79.01954315208523, 14.263215395273821], [79.01354950854233, 14.262132299203005], [79.01247814100213, 14.26350099156455], [79.01246606411206, 14.264878514064266], [79.01105063728578, 14.265211110943248], [79.00788483040775, 14.263807048410294], [79.00754383753736, 14.262426578292764], [79.01148527855445, 14.255915783787067], [79.01150037202241, 14.254193880374325], [79.01257470972965, 14.252480805487576], [79.01225782599579, 14.24834529140339], [79.00663584325271, 14.245198737045765], [78.99745302311908, 14.245466252771728], [78.99606202969797, 14.243043752035117], [78.99928208549349, 14.23824911356733], [79.01347068565575, 14.230790656517529], [79.0156100272272, 14.228397589866413], [79.0181323838533, 14.22256359707371], [79.02132470169113, 14.220868008578503], [79.02172565819563, 14.215360789038128], [79.01963147923345, 14.212588184267691], [79.01752235037748, 14.211537483288634], [79.01363913874474, 14.211505259444257], [79.01222104809472, 14.2121822902303], [79.01114392998348, 14.214239775182309], [79.01144878729457, 14.219752819826976], [79.00964444858272, 14.224215083564895], [79.00395957186029, 14.228300523796342], [78.99758357643012, 14.230657988982585], [78.99188616877954, 14.236120598839655], [78.98973432975912, 14.239890915341032], [78.98967639681597, 14.246434067435272], [78.99211740835067, 14.249898646197746], [78.997742289312, 14.252701152863452], [79.0048038924297, 14.252760331301248], [79.00443566613988, 14.25447927354424], [79.00158672921033, 14.2572106486942], [78.99799505397604, 14.264068582625313], [78.9979707219501, 14.266823602924841], [78.99900874290672, 14.26924314437139], [79.00040293169435, 14.271321270174408], [79.00215936751864, 14.272369218278326], [79.01097809551425, 14.273476235032993], [79.01487443034875, 14.272131116168195], [79.01840556726567, 14.272160517103188], [79.02124251265622, 14.270806471222905], [79.02371430276628, 14.270826989448912], [79.0254648638932, 14.272563545282647], [79.02687433024057, 14.272919632893124], [79.02829579023926, 14.271898177963154], [79.02903197610179, 14.268460183369264], [79.0318807867255, 14.265728457865308], [79.03611509223872, 14.266107800475826], [79.0375334897003, 14.265430664810514], [79.03827546391578, 14.261303847067973], [79.04255132888875, 14.256861648537813], [79.04396074135333, 14.257217626380967], [79.04392509692434, 14.26135027418972], [79.04602293917367, 14.263778363469092], [79.04990712010088, 14.263810175684332], [79.05380904759541, 14.261775589214649], [79.05522147001574, 14.261787116898528], [79.05696929172875, 14.263867854139349], [79.06015317261502, 14.263204960218161], [79.06544393925167, 14.263936792466067], [79.06864247917657, 14.261551820777704], [79.0714761342577, 14.260541512982812], [79.07361818159828, 14.25780349576088], [79.07574556853476, 14.256787421829804], [79.0782172863973, 14.256807355587314], [79.07962386681918, 14.25750752417918], [79.07961803500889, 14.258196313497503], [79.07571050419973, 14.260920147912824], [79.07569589074575, 14.262642116667166], [79.07852078428965, 14.262664905753283], [79.08062487980594, 14.26440394912935], [79.08450624123063, 14.26477959444021], [79.08977687756972, 14.26792167530285], [79.09289991121786, 14.274490674498965], [79.0974819747321, 14.275560581690241], [79.09994237298642, 14.276957908503835], [79.10097291077246, 14.280410342558953], [79.10553497645269, 14.283890907517332], [79.10764812396393, 14.284596560933686], [79.10904634820213, 14.286329786179827], [79.11682437657716, 14.285358185088702], [79.12391033008848, 14.282658741483512], [79.1289056940792, 14.276498384120444], [79.12860660114575, 14.269951933004794], [79.13252796551915, 14.265505148392526], [79.1346495658274, 14.265177336178892], [79.13887578983973, 14.26658809038937], [79.14134770497438, 14.266607382938163], [79.1434777749253, 14.265246270402603], [79.14771533201149, 14.265279242826946], [79.15438275266874, 14.270497433808384], [79.16673154121082, 14.271970508177928], [79.16990149850767, 14.273028182147636], [79.17342186225693, 14.274432938472264], [79.17692287055436, 14.27824854112497], [79.17868311313588, 14.278950880370108], [79.18218428016851, 14.28276642308184], [79.18461776393478, 14.287607091555222], [79.18526057583985, 14.295534012541067], [79.18383400972073, 14.297245300746917], [79.18417060489539, 14.29931448213339], [79.1862897493153, 14.299330653780753], [79.18736036486241, 14.297961073685252], [79.18877312156764, 14.29797183693933], [79.19052253415333, 14.300051771070224], [79.19474435548956, 14.302150480279266], [79.19686353890829, 14.302166560851358], [79.19899369873269, 14.300804955164644], [79.19865422128277, 14.299080195648331], [79.19584791230861, 14.296647862007713], [79.19586164766689, 14.294925779921815], [79.19835315126464, 14.292533599229818], [79.19836686344169, 14.290811514165672], [79.19696786501716, 14.289078729142219], [79.18992637452116, 14.286269780860277], [79.18960074679703, 14.282822939238185], [79.19102166597042, 14.281800430407127], [79.19313515754216, 14.282505354311443], [79.19312966030114, 14.2831941868549], [79.19628621408, 14.285973625532115], [79.20227100076781, 14.288429974140698], [79.21105415865848, 14.294351640486916], [79.2121028342894, 14.295737284302096], [79.21278472095936, 14.298842368975047], [79.2149011757004, 14.299202705138304], [79.22021539170099, 14.297175888470496], [79.22233185107734, 14.297536158079891], [79.22196511679078, 14.29925562435347], [79.22089739458887, 14.300280962950714], [79.2162895092028, 14.302313087060021], [79.21557495110682, 14.303341046458318], [79.21449357903697, 14.306088448796979], [79.21482230130121, 14.309190878625726], [79.21692254891899, 14.311617727857465], [79.21904456178711, 14.311289200749405], [79.22011234949703, 14.310263878375983], [79.22293535998199, 14.310629446410266], [79.22538622943075, 14.313403295131947], [79.22429407650523, 14.317528432904664], [79.21932718159968, 14.320246775211258], [79.21929186516864, 14.324724236301199], [79.22065864917461, 14.330589972552339], [79.22279169342781, 14.328883750412496], [79.22176181301589, 14.325087188994424], [79.22390563178644, 14.322003265457216], [79.2274487884429, 14.320651972087338], [79.22923385719366, 14.318254193476845], [79.23239404720283, 14.320688830709349], [79.23201923664568, 14.323441581192625], [79.23341062255234, 14.326207478809714], [79.23329733267458, 14.34067321946918], [79.23255029587828, 14.345834285257817], [79.22966999545633, 14.352701626615941], [79.2278954531855, 14.353721687999737], [79.2275530094733, 14.352341363039715], [79.22510174541884, 14.349567493526635], [79.22299023303275, 14.348518353241147], [79.21804983688817, 14.347792390239439], [79.21594110718087, 14.346398773915807], [79.21737325798192, 14.343998469119875], [79.2173895998431, 14.341931954350114], [79.21564781472108, 14.338818901700526], [79.21424023670589, 14.338119431080337], [79.2107049368513, 14.338437230420183], [79.20892223828209, 14.340490406865557], [79.20537319443004, 14.342530206144856], [79.20215812324811, 14.346983536306205], [79.20003025983604, 14.348000700928857], [79.20033675867307, 14.353858449405706], [79.199265907459, 14.355228060067335], [79.19889334460626, 14.357636281841524], [79.19710761779805, 14.36003375081947], [79.19637620686119, 14.363128103787002], [79.1921090325636, 14.366539918004447], [79.19174466463069, 14.367914874604471], [79.18783340898048, 14.37098487736933], [79.17827192841258, 14.37366694798043], [79.1715283291019, 14.377403688992995], [79.1718508334936, 14.3811949222393], [79.174287680218, 14.385691348441872], [79.17814073588801, 14.3898542438046], [79.18061126668296, 14.390217699505293], [79.18487630173021, 14.387150584017832], [79.19095219502809, 14.378586287830522], [79.19415693574395, 14.375510854920389], [79.20372388773437, 14.372139298226061], [79.20692013743364, 14.370096908785174], [79.20868666723874, 14.370110281999258], [79.20938505560827, 14.371148878054472], [79.20936312157765, 14.373904212140848], [79.20756911022863, 14.377335003846122], [79.20718558242741, 14.38112090498126], [79.20540246919063, 14.383174004932425], [79.2043122196737, 14.386954530597611], [79.20253178547772, 14.38866318450139], [79.20001429147014, 14.394155001404851], [79.19289202205904, 14.40098934090546], [79.18895235121165, 14.407503408140757], [79.18646768948341, 14.408862073171601], [79.18504030669523, 14.410573269758356], [79.1825583807423, 14.411587475998964], [79.17577999300299, 14.41945711089903], [79.17646433258295, 14.422217845601683], [79.17856782974488, 14.424300678843895], [79.18069094018124, 14.42397262922311]], [[79.19711288134589, 14.403432628596105], [79.19784171672842, 14.400682711217227], [79.20176445606407, 14.39623493607938], [79.20428469222308, 14.390398683907334], [79.20642671309616, 14.387659450197937], [79.20715811063118, 14.384565065428411], [79.20894122202883, 14.38251195188437], [79.20968627289892, 14.377695468888058], [79.2114802574338, 14.374264657814072], [79.21151311870844, 14.370131651757879], [79.20976302891437, 14.368051798012557], [79.20693935083226, 14.367685993957956], [79.19701104199197, 14.372088262253195], [79.19312466968853, 14.372058628209295], [79.19313850143376, 14.370336559634612], [79.19421499812123, 14.36827816310904], [79.1992025515085, 14.363149610252552], [79.19957788183885, 14.360396974482708], [79.20100479884103, 14.358685633081478], [79.20138009333272, 14.355932990034031], [79.20245368546169, 14.354218952805786], [79.20284817956285, 14.349055390365482], [79.20533754359846, 14.347007624611576], [79.20676980423916, 14.344607397569497], [79.21139232591429, 14.340853485169912], [79.21351189195155, 14.340869459565775], [79.21456349305969, 14.341910695600912], [79.21454985346115, 14.343632788610234], [79.21240840724111, 14.346372165553765], [79.21274528734357, 14.348441337520518], [79.21556329036, 14.349495883240886], [79.21696548867854, 14.350884191726848], [79.22332449690573, 14.35093194142407], [79.2250773241238, 14.352667276582876], [79.22506375421588, 14.35438937791357], [79.22363975037706, 14.355756469284021], [79.22184068185767, 14.359876255037179], [79.22499859358216, 14.362655460648723], [79.22783039962968, 14.361987783924773], [79.22893634757693, 14.356140557445885], [79.2317896940157, 14.35271745049702], [79.23395529014884, 14.346878080925013], [79.23544657011591, 14.336900349060173], [79.23829685827162, 14.33382154253121], [79.24226047251705, 14.323862058798799], [79.24232749807514, 14.315251447257705], [79.23990052909092, 14.309377929208628], [79.23780539852406, 14.306262408674096], [79.23604740417817, 14.305216038737479], [79.23392545575594, 14.305544727331188], [79.2339093082559, 14.30761126700384], [79.23529795457337, 14.310721571926452], [79.23595059922637, 14.317615285703058], [79.23733932001915, 14.320725586479742], [79.23731242838235, 14.324169821027606], [79.23588601106401, 14.325881442814367], [79.23448920721675, 14.323804402185463], [79.23487475925356, 14.319673952262447], [79.23348069101242, 14.317252487240323], [79.23387700551868, 14.31174434521973], [79.23283889633835, 14.308981083301294], [79.23322980398007, 14.304161785301197], [79.23218364778576, 14.30243179306643], [79.22900480841156, 14.302408136760846], [79.22761359098493, 14.299642231142663], [79.22375545159173, 14.296169026721618], [79.21951984824105, 14.29579291803977], [79.2152733978331, 14.29679441586451], [79.21423557250645, 14.294031103601371], [79.21036412981732, 14.292279811941743], [79.20826411403638, 14.289852930098359], [79.19770712952925, 14.28495107579956], [79.19595499959792, 14.283215614797859], [79.195276115421, 14.279766093780891], [79.19211415474497, 14.277675484453678], [79.1882624727718, 14.273512974367291], [79.1819223468046, 14.27139805469688], [79.17909717689271, 14.271376477738391], [79.17731482481553, 14.273429456413881], [79.17625537877488, 14.273421347363714], [79.17345517957997, 14.270299984909688], [79.16430416745021, 14.26644089395879], [79.154422015567, 14.265675704584599], [79.1512550636538, 14.264273436235262], [79.14702314653168, 14.263551713177836], [79.14277998084653, 14.264207546519057], [79.13218902571536, 14.263780356156335], [79.12720260549914, 14.268907622230888], [79.12749881318325, 14.2757984742617], [79.12393030514414, 14.280247921488598], [79.12037880904091, 14.282630883934159], [79.11648554901548, 14.283633384204617], [79.11189744532496, 14.283252613213588], [79.11084374031812, 14.282555407226582], [79.11157014626143, 14.280150208351499], [79.11441825709426, 14.277417390922805], [79.11902341461573, 14.275731687359938], [79.12009141136195, 14.274706845366078], [79.1222445004561, 14.270590726361116], [79.12509236377309, 14.26785774858478], [79.12546258269573, 14.265794105399477], [79.12158961043099, 14.264385908440925], [79.1134649232151, 14.264666160358253], [79.1106514274584, 14.26326617930156], [79.10888583057711, 14.263252177374493], [79.10360921412416, 14.260799297636698], [79.10361497420006, 14.260110498801197], [79.1001098106339, 14.256982794846133], [79.09659318714685, 14.25523264328271], [79.09165842711884, 14.254159943728506], [79.07576017536014, 14.255065452181697], [79.06866594356572, 14.258796681877532], [79.06581174053854, 14.262217699879729], [79.05839942507087, 14.261813023632495], [79.05593949193987, 14.260415318672655], [79.05028984157772, 14.260369179149508], [79.04850951076382, 14.262076674156633], [79.04674398776207, 14.262062213264372], [79.04569357953199, 14.261020367622594], [79.04570248344031, 14.259987204688997], [79.0467766168864, 14.25827394665797], [79.04854507357324, 14.257944015251976], [79.04855396249621, 14.256910850288856], [79.0468062714155, 14.254830066819018], [79.04398449796459, 14.254462526999149], [79.04221309496832, 14.255136814352527], [79.03793726127044, 14.259579010731338], [79.03542678292928, 14.264035667051317], [79.0311835460874, 14.264689470860178], [79.02619809558718, 14.269469948779983], [79.02160765193541, 14.269431874505045], [79.01912383854678, 14.270788863790417], [79.01417725875635, 14.271092087406055], [79.0120495266079, 14.2721075577895], [79.00252158659445, 14.271339044683351], [79.00076819437845, 14.269946721999592], [78.99937704856634, 14.26752422101098], [78.99941352089829, 14.263391686984857], [79.00263992579787, 14.25790828194337], [79.00548886168195, 14.25517689383901], [79.00621621693746, 14.252772141937866], [79.00481903309814, 14.251038434459035], [78.99845756169984, 14.25167394604541], [78.99353274883075, 14.24956615254699], [78.99073560072557, 14.246442989478183], [78.99079045642914, 14.240244209864414], [78.99222704569935, 14.237501076582362], [78.9979275196211, 14.23169408415263], [79.00430354331165, 14.229336613307165], [79.0099854290189, 14.225595549010356], [79.01250487160272, 14.220106010992328], [79.012202997849, 14.21424858245104], [79.01363012086742, 14.21253840655277], [79.0164542866189, 14.212561850093463], [79.01996352372115, 14.215001793205838], [79.02065759050254, 14.216385174452778], [79.0202715927226, 14.22017047067595], [79.01743831970194, 14.2211802087057], [79.01634616931211, 14.224959629290536], [79.01277061110555, 14.230096019271565], [79.00248988644704, 14.234831929598679], [79.00070947074416, 14.236539050498955], [78.99822898425325, 14.237551477683486], [78.99500892009189, 14.242346100578919], [78.99533765742423, 14.245104087242675], [78.99744087099927, 14.246843764690611], [79.00592062898774, 14.246225976424677], [79.00838608521197, 14.246935379278781], [79.01119256376643, 14.249025225320313], [79.01151848152496, 14.252127595930862], [79.01006990886377, 14.256248382152929], [79.00577229740583, 14.263100572257263], [79.00681039474715, 14.265520089038484], [79.00892900374058, 14.265537799539805], [79.01032931967228, 14.26692711656215], [79.0124449264532, 14.2672891780323], [79.01458467441851, 14.26489617352833], [79.01917500668252, 14.264934371187357], [79.02555786661485, 14.261887664085272], [79.02592295888992, 14.260513054555341], [79.02311319130135, 14.258767730895348], [79.02312819967261, 14.257045815723822], [79.02419347432493, 14.256365829130923], [79.0263090236787, 14.256727757872786], [79.0284036261806, 14.259500357575973], [79.03301479503504, 14.257127579575796], [79.03375083299252, 14.253689551031679], [79.03270351176269, 14.252303274848112], [79.03202421900343, 14.249197983329474], [79.0309709511406, 14.248500472994273], [79.03098290131727, 14.247122933148882], [79.0352675261025, 14.241647686474783], [79.03738892526901, 14.241320729036003], [79.03914238148492, 14.242712785816925], [79.0405546728943, 14.242724385188632], [79.04233488414147, 14.241016935244177], [79.04375013437812, 14.240684126574674], [79.04444737855036, 14.241723076698015], [79.04442364967582, 14.24447817977854], [79.0437085938762, 14.245505554926513], [79.0440408995861, 14.247919163266337], [79.04897221121958, 14.249337192254018], [79.05283251171561, 14.252124040148752], [79.0584908053159, 14.251136921791241], [79.05883800308555, 14.251828576678491], [79.05741089715835, 14.253539029678347], [79.05740205074464, 14.254572200394481], [79.05810234502677, 14.255266732511561], [79.06092711731277, 14.25528971839832], [79.06305452102443, 14.25427376176693], [79.06448159423687, 14.25256327026742], [79.06378716233195, 14.25117997209503], [79.06238067986556, 14.250479720795967], [79.06273964932599, 14.249793805698005], [79.06626467101188, 14.25051123776435], [79.0687392374971, 14.250186868475925], [79.07584193755875, 14.24542241729647], [79.07585361288302, 14.244044840211812], [79.07444712504899, 14.24334466058173], [79.06775032087263, 14.241912868508454], [79.06706468517672, 14.239496402442624], [79.07059542487437, 14.239524965986472], [79.0730961627953, 14.236100990362662], [79.0741553718341, 14.236109536154427], [79.07625045874161, 14.238881770168415], [79.07840969245234, 14.234077302002023], [79.08443507785556, 14.231370355050153], [79.08583283163577, 14.23310366094603], [79.08580381556219, 14.23654762671003], [79.08222656308101, 14.242029625449035], [79.08080550848739, 14.243051459147885], [79.08114694819166, 14.244431879729094], [79.08467198300636, 14.245149036790023], [79.08712907718566, 14.246890844810615], [79.09313449865249, 14.246594494165052], [79.10406306666002, 14.248748118254655], [79.11566664608851, 14.25469526875757], [79.13085316582396, 14.254470351545836], [79.13790972708254, 14.255214409702308], [79.14853405262332, 14.251508396784287], [79.14994087311307, 14.252208173319229], [79.15806802129809, 14.251582207129754], [79.159825198073, 14.252629066189083], [79.16016434730173, 14.254353844057993], [79.15696672300872, 14.25674017679889], [79.15695552930528, 14.25811781694137], [79.16012803283435, 14.25883118288399], [79.16260826334627, 14.25781701159902], [79.16613948272003, 14.25784419662663], [79.17072452363111, 14.258568284443907], [79.17530129143009, 14.260325528046387], [79.17707800567685, 14.258961380000063], [79.17850987172358, 14.256561276090496], [79.1778202247004, 14.254489395618142], [79.16903116928428, 14.24960000760835], [79.16479942367634, 14.248878625519248], [79.16090965764087, 14.24953753778344], [79.15985591764324, 14.2488405475182], [79.16022019110841, 14.247465627027102], [79.16128508593427, 14.246784970478918], [79.16130740107589, 14.244029680684223], [79.16202196468605, 14.243001886313477], [79.16447973412798, 14.244742967476457], [79.16836107764723, 14.24511722347495], [79.18277769598794, 14.25280504047256], [79.18662345468732, 14.257656424081851], [79.18835331968614, 14.262147253515764], [79.19397877196316, 14.26528988025709], [79.19642608592467, 14.268408356013618], [79.2017232649372, 14.26844839202965], [79.20311673322969, 14.270869978309516], [79.2027362639272, 14.274311498497896], [79.20413250277942, 14.276388664670959], [79.21013076730532, 14.277122699891306], [79.21433340040629, 14.281631978587557], [79.21749565343546, 14.283722322463113], [79.22630610284318, 14.286199229917868], [79.23015874748052, 14.290361226714799], [79.23156879824745, 14.290716153659105], [79.23542699013562, 14.294189235899678], [79.23824448501654, 14.295243451032878], [79.23964654237584, 14.29663160878916], [79.24138306746819, 14.300433346173607], [79.24453783289763, 14.303556662351872], [79.24907885822164, 14.310134617436963], [79.24904682697128, 14.314267728573464], [79.25075159993082, 14.322202537562417], [79.25319762333916, 14.325665002655107], [79.25317096398533, 14.329109265152411], [79.25210054092236, 14.330479167656899], [79.25208186186111, 14.332890149122719], [79.25453866560106, 14.334974907962675], [79.25800474662393, 14.343611538567322], [79.25274835212163, 14.33806174110864], [79.25068753213316, 14.330468757369433], [79.24963579184416, 14.329427667580097], [79.24786954159883, 14.329414636006353], [79.24501675387538, 14.332838004528162], [79.2439114015596, 14.338685377767401], [79.24212360215131, 14.34142768606077], [79.23958885740718, 14.349331078945395], [79.23708625621745, 14.353101349886158], [79.23707547352143, 14.354479039892153], [79.23953502374869, 14.356219538792667], [79.24483170164086, 14.356603275766956], [79.25547050514066, 14.3515151604014], [79.25796215005882, 14.349122363910316], [79.25904594655317, 14.346030309161243], [79.26151358053804, 14.346737308303146], [79.26469575167592, 14.346416172675204], [79.26469044745579, 14.34710502828349], [79.260416515063, 14.35155151213658], [79.25332408371494, 14.3549438048257], [79.2511775929999, 14.358372421454462], [79.24586206301397, 14.36039978835535], [79.23944883043113, 14.367241065822695], [79.23800593115578, 14.371019198483348], [79.23658187913803, 14.372386362842796], [79.23198066744338, 14.373385363814453], [79.22983095356928, 14.37715814518496], [79.22061464059688, 14.380877853492956], [79.21882891061053, 14.383275487400867], [79.2163446775434, 14.384634521436249], [79.21456160781968, 14.386687696350606], [79.2138302990435, 14.389782114498548], [79.20956554113364, 14.392849792173438], [79.20741249993429, 14.396966714702053], [79.20207642977608, 14.401403843517812], [79.20099980474916, 14.403462260282016], [79.19711288134589, 14.403432628596105]], [[79.22537361171551, 14.359902747263309], [79.225036608996, 14.357833579787934], [79.22681390823533, 14.356469124869696], [79.22678678567678, 14.359913329419008], [79.22537361171551, 14.359902747263309]], [[79.2434400246326, 14.353837414467108], [79.24347493611909, 14.349359905721244], [79.2448907406332, 14.349025948324744], [79.24699970318912, 14.350419330033297], [79.24769555286733, 14.351802252502518], [79.24697826206842, 14.353174725218699], [79.2452037786638, 14.354194924767434], [79.2434400246326, 14.353837414467108]], [[79.24982061508858, 14.351129064396181], [79.24948071109128, 14.34940433103821], [79.24633870371567, 14.344558888884661], [79.24604973627127, 14.336290086869877], [79.24642174096402, 14.333881724738202], [79.24749221408852, 14.332511853989725], [79.24855197835122, 14.332519677846697], [79.24889988618035, 14.333211135349613], [79.25131659782583, 14.34046230823462], [79.25129789681753, 14.342873286663886], [79.24987144022974, 14.344584988623021], [79.24986074233122, 14.345962689100034], [79.25126850249205, 14.346661966016057], [79.25340952158753, 14.34392218418896], [79.254469342821, 14.343929987698745], [79.25692095198521, 14.34670358885477], [79.25619573770655, 14.34910937684589], [79.25477460566442, 14.350132255428331], [79.25193764940622, 14.351489131761616], [79.24982061508858, 14.351129064396181]], [[79.26758816248446, 14.337826129012655], [79.26759610007112, 14.336792843186853], [79.26830527514221, 14.336453572529901], [79.26864267423804, 14.33852272350963], [79.26758816248446, 14.337826129012655]], [[79.23551930528991, 14.327600932705721], [79.23588331899587, 14.326225865896511], [79.23623656163139, 14.326228490523324], [79.23622310290902, 14.327950606105537], [79.23551930528991, 14.327600932705721]], [[79.22612241596244, 14.309619932023896], [79.22189197417268, 14.308554994406126], [79.21694157410747, 14.309206787957233], [79.21697146367177, 14.30541816707776], [79.21839243373374, 14.304395498635547], [79.2198052547714, 14.30440608226711], [79.22508982176022, 14.306167804532093], [79.22613863701004, 14.307553401430116], [79.22612241596244, 14.309619932023896]], [[79.22032645191857, 14.283054619268423], [79.21892189180335, 14.282010790684769], [79.21928047937696, 14.28132459002872], [79.22280406591204, 14.2823842442509], [79.22350230195859, 14.283422782111357], [79.22032645191857, 14.283054619268423]], [[79.18645535760652, 14.278665765640948], [79.18644984159532, 14.279354595852801], [79.18574352209505, 14.27934921523604], [79.18574904025168, 14.2786603852944], [79.18645535760652, 14.278665765640948]], [[79.10664338511016, 14.278044546769186], [79.10348241466657, 14.275952861388738], [79.1017196124647, 14.275594395551947], [79.09681331321892, 14.271077768890828], [79.09222844312195, 14.270352256964605], [79.09083334443524, 14.268274562273907], [79.09190141277526, 14.267249857561229], [79.09472639058666, 14.267272461797495], [79.09577997166195, 14.267969725044704], [79.10037636102945, 14.26731756993843], [79.10567034782349, 14.267704136949618], [79.10812497841168, 14.269790175813894], [79.11130027404856, 14.270159791998516], [79.11302864034973, 14.274650995116506], [79.1126640249836, 14.276025800305312], [79.10911250395525, 14.27840858896448], [79.10664338511016, 14.278044546769186]], [[79.1857711099361, 14.27590506510929], [79.18366323132486, 14.274511256039128], [79.18119393609467, 14.27414797783193], [79.18119946598443, 14.273459149335261], [79.18649120451072, 14.274188368243774], [79.18789830240719, 14.274887950173024], [79.18859359263388, 14.276270985220158], [79.1857711099361, 14.27590506510929]], [[79.11767665769575, 14.267799283439068], [79.1176852380126, 14.266766077357387], [79.12192276094238, 14.266799511712565], [79.12014569948202, 14.268163199925478], [79.11767665769575, 14.267799283439068]], [[79.08806064488138, 14.262052779630414], [79.08524737557623, 14.260652521730051], [79.08420841018406, 14.258233242016825], [79.0845731498408, 14.25685849633887], [79.08810709874513, 14.256542438358403], [79.09057013454552, 14.257595434379116], [79.09234725417441, 14.256231977421791], [79.09552230955593, 14.256601777602617], [79.10044561238733, 14.259052001194599], [79.1021909929337, 14.261476855552749], [79.10182922873945, 14.262507241079286], [79.08806064488138, 14.262052779630414]], [[79.1735633872494, 14.256867875425293], [79.1703908456177, 14.256154686469563], [79.17075229758566, 14.255124157212508], [79.17358002458944, 14.254801395631095], [79.17534008062518, 14.255503737979653], [79.17497864781693, 14.256534276579574], [79.1735633872494, 14.256867875425293]], [[79.16759926324966, 14.252000049173613], [79.16900338043123, 14.253044133105368], [79.1675909193918, 14.253033285894443], [79.16759926324966, 14.252000049173613]], [[79.06876268122505, 14.2474317267995], [79.0694776408168, 14.246404263038876], [79.07053689563078, 14.246412830938093], [79.06876268122505, 14.2474317267995]], [[79.15635002648465, 14.245713594451153], [79.15600811439894, 14.244333225252744], [79.15707859431865, 14.24296376616652], [79.1588440820575, 14.242977392243136], [79.1595446944355, 14.243671660911], [79.15917484080083, 14.245735402650737], [79.15635002648465, 14.245713594451153]]], [[[79.22072635402398, 14.36675668055774], [79.221791707057, 14.366075803909675], [79.22073180035265, 14.366067842401774], [79.22072635402398, 14.36675668055774]]]]}}, {"type": "Feature", "properties": {"depth_class": 2, "depth_lo_m": 1.0, "t_s": 21600.277355484028}, "geometry": {"type": "MultiPolygon", "coordinates": [[[[79.18645535760652, 14.278665765640948], [79.18574904025168, 14.2786603852944], [79.18574352209505, 14.27934921523604], [79.18644984159532, 14.279354595852801], [79.18645535760652, 14.278665765640948]]], [[[79.22613863701004, 14.307553401430116], [79.22508982176022, 14.306167804532093], [79.2198052547714, 14.30440608226711], [79.21768330806884, 14.304734623971537], [79.21661282237945, 14.306104357685124], [79.21694157410747, 14.309206787957233], [79.22189197417268, 14.308554994406126], [79.22400312866922, 14.309604104086977], [79.22612241596244, 14.309619932023896], [79.22613863701004, 14.307553401430116]]], [[[79.19711288134589, 14.403432628596105], [79.20099980474916, 14.403462260282016], [79.20207642977608, 14.401403843517812], [79.20741249993429, 14.396966714702053], [79.20956554113364, 14.392849792173438], [79.2138302990435, 14.389782114498548], [79.21527648090583, 14.385659777996542], [79.21882891061053, 14.383275487400867], [79.22061464059688, 14.380877853492956], [79.22983095356928, 14.37715814518496], [79.23198066744338, 14.373385363814453], [79.23658187913803, 14.372386362842796], [79.23800593115578, 14.371019198483348], [79.23944883043113, 14.367241065822695], [79.24586206301397, 14.36039978835535], [79.2511775929999, 14.358372421454462], [79.25332408371494, 14.3549438048257], [79.260416515063, 14.35155151213658], [79.26469044745579, 14.34710502828349], [79.26469575167592, 14.346416172675204], [79.26151358053804, 14.346737308303146], [79.25904594655317, 14.346030309161243], [79.25796215005882, 14.349122363910316], [79.25547050514066, 14.3515151604014], [79.24483170164086, 14.356603275766956], [79.23953502374869, 14.356219538792667], [79.23707547352143, 14.354479039892153], [79.23708625621745, 14.353101349886158], [79.23958885740718, 14.349331078945395], [79.24212360215131, 14.34142768606077], [79.2439114015596, 14.338685377767401], [79.24501675387538, 14.332838004528162], [79.24786954159883, 14.329414636006353], [79.24963579184416, 14.329427667580097], [79.25068753213316, 14.330468757369433], [79.25274835212163, 14.33806174110864], [79.25800474662393, 14.343611538567322], [79.25453866560106, 14.334974907962675], [79.25208186186111, 14.332890149122719], [79.25210054092236, 14.330479167656899], [79.25317096398533, 14.329109265152411], [79.25319762333916, 14.325665002655107], [79.25075159993082, 14.322202537562417], [79.24904682697128, 14.314267728573464], [79.24907885822164, 14.310134617436963], [79.24453783289763, 14.303556662351872], [79.24138306746819, 14.300433346173607], [79.23964654237584, 14.29663160878916], [79.23824448501654, 14.295243451032878], [79.23542699013562, 14.294189235899678], [79.23156879824745, 14.290716153659105], [79.23015874748052, 14.290361226714799], [79.22630610284318, 14.286199229917868], [79.21749565343546, 14.283722322463113], [79.21433340040629, 14.281631978587557], [79.21013076730532, 14.277122699891306], [79.20413250277942, 14.276388664670959], [79.2027362639272, 14.274311498497896], [79.20311673322969, 14.270869978309516], [79.2017232649372, 14.26844839202965], [79.19642608592467, 14.268408356013618], [79.19397877196316, 14.26528988025709], [79.18835331968614, 14.262147253515764], [79.18662345468732, 14.257656424081851], [79.18277769598794, 14.25280504047256], [79.16836107764723, 14.24511722347495], [79.16447973412798, 14.244742967476457], [79.16202196468605, 14.243001886313477], [79.16130740107589, 14.244029680684223], [79.16128508593427, 14.246784970478918], [79.16022019110841, 14.247465627027102], [79.15985591764324, 14.2488405475182], [79.16090965764087, 14.24953753778344], [79.16444631561869, 14.248875909054613], [79.16903116928428, 14.24960000760835], [79.1778202247004, 14.254489395618142], [79.17850987172358, 14.256561276090496], [79.17707800567685, 14.258961380000063], [79.17530129143009, 14.260325528046387], [79.17072452363111, 14.258568284443907], [79.16613948272003, 14.25784419662663], [79.16260826334627, 14.25781701159902], [79.16012803283435, 14.25883118288399], [79.15695552930528, 14.25811781694137], [79.15696672300872, 14.25674017679889], [79.16016434730173, 14.254353844057993], [79.159825198073, 14.252629066189083], [79.15806802129809, 14.251582207129754], [79.15417820222875, 14.25224100149393], [79.14994087311307, 14.252208173319229], [79.14853405262332, 14.251508396784287], [79.13790972708254, 14.255214409702308], [79.13085316582396, 14.254470351545836], [79.11566664608851, 14.25469526875757], [79.10406306666002, 14.248748118254655], [79.09313449865249, 14.246594494165052], [79.08712907718566, 14.246890844810615], [79.08467198300636, 14.245149036790023], [79.08114694819166, 14.244431879729094], [79.08080550848739, 14.243051459147885], [79.08222656308101, 14.242029625449035], [79.08580381556219, 14.23654762671003], [79.08583283163577, 14.23310366094603], [79.08443507785556, 14.231370355050153], [79.07840969245234, 14.234077302002023], [79.07625045874161, 14.238881770168415], [79.0741553718341, 14.236109536154427], [79.0730961627953, 14.236100990362662], [79.07059542487437, 14.239524965986472], [79.06706468517672, 14.239496402442624], [79.06775032087263, 14.241912868508454], [79.07444712504899, 14.24334466058173], [79.07585361288302, 14.244044840211812], [79.07584193755875, 14.24542241729647], [79.0687392374971, 14.250186868475925], [79.06626467101188, 14.25051123776435], [79.06273964932599, 14.249793805698005], [79.06238067986556, 14.250479720795967], [79.06378716233195, 14.25117997209503], [79.06448159423687, 14.25256327026742], [79.06305452102443, 14.25427376176693], [79.06092711731277, 14.25528971839832], [79.05810234502677, 14.255266732511561], [79.05740205074464, 14.254572200394481], [79.05741089715835, 14.253539029678347], [79.05883800308555, 14.251828576678491], [79.0584908053159, 14.251136921791241], [79.05283251171561, 14.252124040148752], [79.04897221121958, 14.249337192254018], [79.0440408995861, 14.247919163266337], [79.0437085938762, 14.245505554926513], [79.04442364967582, 14.24447817977854], [79.04444737855036, 14.241723076698015], [79.04375013437812, 14.240684126574674], [79.04233488414147, 14.241016935244177], [79.0405546728943, 14.242724385188632], [79.03914238148492, 14.242712785816925], [79.03738892526901, 14.241320729036003], [79.0352675261025, 14.241647686474783], [79.03098290131727, 14.247122933148882], [79.0309709511406, 14.248500472994273], [79.03202421900343, 14.249197983329474], [79.03270351176269, 14.252303274848112], [79.03375083299252, 14.253689551031679], [79.03301479503504, 14.257127579575796], [79.0284036261806, 14.259500357575973], [79.0263090236787, 14.256727757872786], [79.02419347432493, 14.256365829130923], [79.02312819967261, 14.257045815723822], [79.02311319130135, 14.258767730895348], [79.02592295888992, 14.260513054555341], [79.02555786661485, 14.261887664085272], [79.01917500668252, 14.264934371187357], [79.01458467441851, 14.26489617352833], [79.0124449264532, 14.2672891780323], [79.01032931967228, 14.26692711656215], [79.00892900374058, 14.265537799539805], [79.00681039474715, 14.265520089038484], [79.00577229740583, 14.263100572257263], [79.01006990886377, 14.256248382152929], [79.01151848152496, 14.252127595930862], [79.01119256376643, 14.249025225320313], [79.00838608521197, 14.246935379278781], [79.00592062898774, 14.246225976424677], [78.99744087099927, 14.246843764690611], [78.99533765742423, 14.245104087242675], [78.99500892009189, 14.242346100578919], [78.99822898425325, 14.237551477683486], [79.00070947074416, 14.236539050498955], [79.00248988644704, 14.234831929598679], [79.01277061110555, 14.230096019271565], [79.01634616931211, 14.224959629290536], [79.01743831970194, 14.2211802087057], [79.0202715927226, 14.22017047067595], [79.02065759050254, 14.216385174452778], [79.01996352372115, 14.215001793205838], [79.0164542866189, 14.212561850093463], [79.01363012086742, 14.21253840655277], [79.012202997849, 14.21424858245104], [79.01250487160272, 14.220106010992328], [79.0099854290189, 14.225595549010356], [79.00430354331165, 14.229336613307165], [78.9979275196211, 14.23169408415263], [78.99222704569935, 14.237501076582362], [78.99079045642914, 14.240244209864414], [78.99073560072557, 14.246442989478183], [78.99353274883075, 14.24956615254699], [78.99845756169984, 14.25167394604541], [79.00481903309814, 14.251038434459035], [79.00621621693746, 14.252772141937866], [79.00548886168195, 14.25517689383901], [79.00263992579787, 14.25790828194337], [78.99941352089829, 14.263391686984857], [78.99937704856634, 14.26752422101098], [79.00076819437845, 14.269946721999592], [79.00252158659445, 14.271339044683351], [79.0120495266079, 14.2721075577895], [79.01417725875635, 14.271092087406055], [79.01912383854678, 14.270788863790417], [79.02160765193541, 14.269431874505045], [79.02619809558718, 14.269469948779983], [79.0311835460874, 14.264689470860178], [79.03542678292928, 14.264035667051317], [79.03793726127044, 14.259579010731338], [79.04221309496832, 14.255136814352527], [79.04398449796459, 14.254462526999149], [79.0468062714155, 14.254830066819018], [79.04855396249621, 14.256910850288856], [79.04854507357324, 14.257944015251976], [79.0467766168864, 14.25827394665797], [79.04570248344031, 14.259987204688997], [79.04569357953199, 14.261020367622594], [79.04674398776207, 14.262062213264372], [79.04850951076382, 14.262076674156633], [79.05028984157772, 14.260369179149508], [79.05593949193987, 14.260415318672655], [79.05839942507087, 14.261813023632495], [79.06581174053854, 14.262217699879729], [79.06866594356572, 14.258796681877532], [79.07576017536014, 14.255065452181697], [79.09165842711884, 14.254159943728506], [79.09659318714685, 14.25523264328271], [79.1001098106339, 14.256982794846133], [79.10361497420006, 14.260110498801197], [79.10360921412416, 14.260799297636698], [79.10888583057711, 14.263252177374493], [79.1106514274584, 14.26326617930156], [79.1134649232151, 14.264666160358253], [79.12158961043099, 14.264385908440925], [79.12546258269573, 14.265794105399477], [79.12509236377309, 14.26785774858478], [79.1222445004561, 14.270590726361116], [79.12009141136195, 14.274706845366078], [79.11902341461573, 14.275731687359938], [79.11441825709426, 14.277417390922805], [79.11157014626143, 14.280150208351499], [79.11084374031812, 14.282555407226582], [79.11189744532496, 14.283252613213588], [79.11648554901548, 14.283633384204617], [79.12037880904091, 14.282630883934159], [79.12393030514414, 14.280247921488598], [79.12749881318325, 14.2757984742617], [79.12720260549914, 14.268907622230888], [79.13218902571536, 14.263780356156335], [79.14277998084653, 14.264207546519057], [79.14702314653168, 14.263551713177836], [79.1512550636538, 14.264273436235262], [79.154422015567, 14.265675704584599], [79.16430416745021, 14.26644089395879], [79.17345517957997, 14.270299984909688], [79.17625537877488, 14.273421347363714], [79.17731482481553, 14.273429456413881], [79.17909717689271, 14.271376477738391], [79.18509515138146, 14.272111118890441], [79.1882624727718, 14.273512974367291], [79.19211415474497, 14.277675484453678], [79.195276115421, 14.279766093780891], [79.19595499959792, 14.283215614797859], [79.19770712952925, 14.28495107579956], [79.20826411403638, 14.289852930098359], [79.21036412981732, 14.292279811941743], [79.21423557250645, 14.294031103601371], [79.2152733978331, 14.29679441586451], [79.21951984824105, 14.29579291803977], [79.22375545159173, 14.296169026721618], [79.22761359098493, 14.299642231142663], [79.22900480841156, 14.302408136760846], [79.23218364778576, 14.30243179306643], [79.23322980398007, 14.304161785301197], [79.23283889633835, 14.308981083301294], [79.23387700551868, 14.31174434521973], [79.23348069101242, 14.317252487240323], [79.23487475925356, 14.319673952262447], [79.23448920721675, 14.323804402185463], [79.23588601106401, 14.325881442814367], [79.23731242838235, 14.324169821027606], [79.23733932001915, 14.320725586479742], [79.23595059922637, 14.317615285703058], [79.23529795457337, 14.310721571926452], [79.2339093082559, 14.30761126700384], [79.23392545575594, 14.305544727331188], [79.23604740417817, 14.305216038737479], [79.23780539852406, 14.306262408674096], [79.23990052909092, 14.309377929208628], [79.24232749807514, 14.315251447257705], [79.24226047251705, 14.323862058798799], [79.23829685827162, 14.33382154253121], [79.23544657011591, 14.336900349060173], [79.23395529014884, 14.346878080925013], [79.2317896940157, 14.35271745049702], [79.22893634757693, 14.356140557445885], [79.22783039962968, 14.361987783924773], [79.22499859358216, 14.362655460648723], [79.22184068185767, 14.359876255037179], [79.22363975037706, 14.355756469284021], [79.22506375421588, 14.35438937791357], [79.2250773241238, 14.352667276582876], [79.22332449690573, 14.35093194142407], [79.21696548867854, 14.350884191726848], [79.21556329036, 14.349495883240886], [79.21274528734357, 14.348441337520518], [79.21240840724111, 14.346372165553765], [79.21454985346115, 14.343632788610234], [79.21456349305969, 14.341910695600912], [79.21351189195155, 14.340869459565775], [79.21139232591429, 14.340853485169912], [79.20676980423916, 14.344607397569497], [79.20533754359846, 14.347007624611576], [79.20284817956285, 14.349055390365482], [79.20245368546169, 14.354218952805786], [79.20138009333272, 14.355932990034031], [79.20100479884103, 14.358685633081478], [79.19957788183885, 14.360396974482708], [79.1992025515085, 14.363149610252552], [79.19421499812123, 14.36827816310904], [79.19313850143376, 14.370336559634612], [79.19312466968853, 14.372058628209295], [79.19701104199197, 14.372088262253195], [79.20693935083226, 14.367685993957956], [79.20976302891437, 14.368051798012557], [79.21151311870844, 14.370131651757879], [79.2114802574338, 14.374264657814072], [79.20968627289892, 14.377695468888058], [79.20894122202883, 14.38251195188437], [79.20715811063118, 14.384565065428411], [79.20642671309616, 14.387659450197937], [79.20428469222308, 14.390398683907334], [79.20176445606407, 14.39623493607938], [79.19712394761133, 14.402054974363239], [79.19711288134589, 14.403432628596105]], [[79.22143023838886, 14.367106408216022], [79.22073180035265, 14.366067842401774], [79.221791707057, 14.366075803909675], [79.22143023838886, 14.367106408216022]], [[79.2454316049335, 14.324918847085797], [79.24617554973437, 14.320102115652817], [79.247248622085, 14.318387811821383], [79.24795508723459, 14.318393023948756], [79.24900677352389, 14.31943411537727], [79.24898540514955, 14.322189520710669], [79.24650470982432, 14.323204550532198], [79.2454316049335, 14.324918847085797]], [[79.24584906871016, 14.316655255378079], [79.24237840769241, 14.308707378115034], [79.23712314932412, 14.303157355361343], [79.23431094649924, 14.301414269897247], [79.23256377433442, 14.298990186991762], [79.22692879439772, 14.296881587593411], [79.22482314069799, 14.29514367120372], [79.2181206463125, 14.294060235667331], [79.2103968160646, 14.28814677993722], [79.20511826966519, 14.285695953855164], [79.20337700362846, 14.282582867372394], [79.19458626475573, 14.277694239188286], [79.18933018361683, 14.272487782595345], [79.18616562421558, 14.270741526838535], [79.18123263912958, 14.269326177476403], [79.17629141342636, 14.268943973459287], [79.1643236894404, 14.264030015289245], [79.15761140409502, 14.264322656013935], [79.15268161246264, 14.262562343454897], [79.14668409477653, 14.261826928262405], [79.12372545378629, 14.262336177573468], [79.11915202978972, 14.260233584467981], [79.11952799088373, 14.257481149040816], [79.1202399239993, 14.256797911998612], [79.12978247941263, 14.255839665824642], [79.13789559171204, 14.256936441437807], [79.14321206167628, 14.254566893919364], [79.14603696512143, 14.254588870941879], [79.14883657907309, 14.257710490960395], [79.15307400827345, 14.257743351148571], [79.15729186066706, 14.260187006530847], [79.16682624111131, 14.26026051070014], [79.16928144336549, 14.262345979061879], [79.173858269118, 14.264103257626553], [79.17594935907742, 14.26756361668664], [79.17912484965176, 14.267932338065846], [79.18054570653702, 14.266909885097096], [79.18443300159599, 14.266595097033841], [79.1837377606445, 14.265212055293215], [79.1809181920823, 14.264501680089746], [79.17810971501065, 14.262413617718758], [79.17812631767909, 14.26034713362995], [79.17920229411178, 14.258288741418284], [79.18098725629258, 14.255891315246584], [79.18204938324484, 14.255554978609753], [79.18520543970675, 14.258334508728113], [79.18728565951923, 14.263172446989403], [79.18938796615164, 14.265255047553705], [79.1946603632403, 14.268394984538912], [79.19850662333107, 14.273246231571862], [79.20167133082818, 14.27499233826154], [79.20271440309659, 14.277066844925056], [79.20834861620146, 14.27917593780929], [79.21395849592005, 14.284384691223023], [79.21747395717509, 14.286477689030551], [79.22418163047512, 14.286872273028171], [79.22592862741227, 14.28929639872088], [79.228039635967, 14.290345455546559], [79.23013988919672, 14.292772187778517], [79.23753004502677, 14.29627149111448], [79.2399675738446, 14.300767318153724], [79.24242125898562, 14.303196580120588], [79.24765796568524, 14.311157480785683], [79.24761788955513, 14.31632386508595], [79.24725931447544, 14.317010110083357], [79.24584906871016, 14.316655255378079]], [[79.12289940471129, 14.276795543824552], [79.12362851341909, 14.274045886056719], [79.12504962070456, 14.27302379961282], [79.12502681740898, 14.275779025862251], [79.12395883447289, 14.276803892031873], [79.12289940471129, 14.276795543824552]], [[79.01099925832766, 14.271065574468578], [79.00253372961544, 14.269961531295694], [79.00044547160032, 14.266499978828772], [79.00118203978792, 14.263062121381838], [79.00726033720493, 14.25450289361218], [79.00693447953215, 14.251400524890203], [79.00447806806768, 14.249657963500045], [78.99846971194383, 14.250296433823147], [78.99319490059935, 14.247841297530554], [78.99179785199455, 14.2461075300465], [78.99184658695738, 14.240597500133429], [78.99363926442349, 14.237512949218885], [78.99827146536832, 14.232730179153904], [79.00500358653962, 14.230031271750422], [79.0110445489949, 14.225604368295178], [79.01356697545589, 14.219770433660718], [79.01326206643897, 14.214257385035822], [79.0143301516362, 14.213233035542341], [79.01644528081957, 14.213594998880744], [79.01889545106874, 14.216026169960106], [79.01958051844005, 14.21844270409922], [79.01674126012112, 14.220141202059862], [79.01600514941148, 14.223579167957714], [79.01385081940984, 14.227694155446386], [79.01064931331257, 14.23042276708605], [79.00143678781185, 14.234134308471319], [79.00036551000758, 14.235502957110402], [78.9971758898313, 14.236853837959982], [78.99395581730715, 14.241648445282877], [78.99393147613861, 14.244403463910738], [78.99601946960537, 14.247865039870007], [79.00025329865794, 14.248244969292818], [79.00555848042914, 14.247256164463007], [79.00802394576507, 14.247965572315481], [79.01047735383317, 14.250052479175968], [79.0090166919265, 14.255550779682615], [79.00436900251697, 14.262055613719259], [79.00433868793056, 14.265499403018373], [79.00573594172675, 14.267233122474702], [79.01031420326035, 14.268649016911095], [79.01349216848573, 14.268675534591706], [79.0166852084335, 14.266980102942584], [79.02021927704682, 14.266665084506524], [79.03370904051026, 14.258510945155624], [79.03762885496893, 14.254410313348565], [79.0404922452466, 14.249956511839084], [79.04051305835272, 14.247545803471464], [79.03945976631245, 14.246848328183834], [79.0359289783863, 14.246819289693985], [79.0348518535964, 14.248876882575576], [79.0330924167534, 14.248173562985087], [79.03310733783029, 14.24645163590118], [79.03452859263213, 14.245430116704288], [79.03596473046264, 14.242686656719599], [79.03773009134663, 14.242701178100319], [79.0394805856475, 14.24443762068543], [79.0426701436465, 14.24308615612553], [79.0430083754765, 14.244810989445119], [79.04227549144653, 14.247904683361499], [79.04297571558959, 14.248599251760382], [79.04896036826271, 14.250714746734158], [79.05140832095178, 14.25349006213991], [79.05352096535407, 14.25419614092115], [79.0552687205483, 14.256276882468706], [79.057731556159, 14.257330198382256], [79.06090945353093, 14.25735606375618], [79.0648053115782, 14.256010052851947], [79.0697867921734, 14.251573013326423], [79.07191412959894, 14.250556967899842], [79.07332649737309, 14.250568379558013], [79.07472133442246, 14.252646145941913], [79.07435947019346, 14.253676476648707], [79.07045490215349, 14.256055834807542], [79.06515253532075, 14.256701701656795], [79.06300452490353, 14.260128413860862], [79.05841416893439, 14.260091072406706], [79.05665750435173, 14.25904351703113], [79.05277634624674, 14.258667435997365], [79.04752431320895, 14.253458296876707], [79.04364328455641, 14.253082081025521], [79.04116273806981, 14.254094954925382], [79.03367619260352, 14.262299181946647], [79.03119849968245, 14.262967548137395], [79.02586298304952, 14.2674007233188], [79.0205603525009, 14.268045546847103], [79.01772042853257, 14.269743970403649], [79.01348311213569, 14.269708676673085], [79.01099925832766, 14.271065574468578]], [[79.11562372950603, 14.259861297418668], [79.10998824503643, 14.258094569876329], [79.10859015918557, 14.256361366900537], [79.10469733856576, 14.257363725671262], [79.10224862576416, 14.254588871379205], [79.09837891551444, 14.252835938626127], [79.09343551162884, 14.252796474114836], [79.09202890515904, 14.252096385104148], [79.08249236738762, 14.252364328920793], [79.08145637072423, 14.249600648783598], [79.07794295062251, 14.247505858652088], [79.07936404640614, 14.246484047489599], [79.08183565734875, 14.246503929688572], [79.0853607270156, 14.247221080756464], [79.08782074930805, 14.24861848828381], [79.09629209277387, 14.24903065736465], [79.10087079963834, 14.250444838673149], [79.10510510079536, 14.25082293417945], [79.10896336334612, 14.253953362977583], [79.11319203287609, 14.255020127380629], [79.11634712249422, 14.257800466478328], [79.11562372950603, 14.259861297418668]], [[79.16586988042765, 14.247509123662903], [79.16588101137076, 14.246131475377023], [79.16834718362114, 14.246839286351703], [79.16833884631482, 14.247872523952326], [79.16586988042765, 14.247509123662903]], [[79.07940192016792, 14.242006912454634], [79.07764818238846, 14.24061512094487], [79.07803914431406, 14.236140830580439], [79.07981905260102, 14.234433057729573], [79.0840674948359, 14.23308950458502], [79.08475040425927, 14.235850339677373], [79.08331487136137, 14.238594175123254], [79.081173141624, 14.241332321110304], [79.07940192016792, 14.242006912454634]]], [[[79.23623656163139, 14.326228490523324], [79.23551930528991, 14.327600932705721], [79.23622310290902, 14.327950606105537], [79.23623656163139, 14.326228490523324]]], [[[79.26830263049831, 14.336798001288468], [79.26759610007112, 14.336792843186853], [79.26793613828136, 14.338517565813724], [79.26864267423804, 14.33852272350963], [79.26830263049831, 14.336798001288468]]]]}}, {"type": "Feature", "properties": {"depth_class": 3, "depth_lo_m": 2.0, "t_s": 21600.277355484028}, "geometry": {"type": "MultiPolygon", "coordinates": [[[[79.0783455947847, 14.241653991614076], [79.081173141624, 14.241332321110304], [79.08331487136137, 14.238594175123254], [79.08475040425927, 14.235850339677373], [79.0840674948359, 14.23308950458502], [79.07981905260102, 14.234433057729573], [79.07803914431406, 14.236140830580439], [79.07764818238846, 14.24061512094487], [79.0783455947847, 14.241653991614076]], [[79.07944851597605, 14.236496589975374], [79.08122550959813, 14.23513320132147], [79.0829937652451, 14.234802984673802], [79.08261744185769, 14.237555317056964], [79.08047862681572, 14.239949061837834], [79.07906631912404, 14.23993770079759], [79.07944851597605, 14.236496589975374]]], [[[79.01206161240799, 14.270730036472843], [79.01348311213569, 14.269708676673085], [79.01772042853257, 14.269743970403649], [79.0205603525009, 14.268045546847103], [79.02586298304952, 14.2674007233188], [79.03119849968245, 14.262967548137395], [79.03367619260352, 14.262299181946647], [79.04116273806981, 14.254094954925382], [79.04364328455641, 14.253082081025521], [79.04752431320895, 14.253458296876707], [79.05277634624674, 14.258667435997365], [79.05665750435173, 14.25904351703113], [79.05841416893439, 14.260091072406706], [79.06300452490353, 14.260128413860862], [79.06515253532075, 14.256701701656795], [79.07045490215349, 14.256055834807542], [79.07435947019346, 14.253676476648707], [79.07472133442246, 14.252646145941913], [79.07332649737309, 14.250568379558013], [79.07191412959894, 14.250556967899842], [79.0697867921734, 14.251573013326423], [79.0648053115782, 14.256010052851947], [79.06090945353093, 14.25735606375618], [79.057731556159, 14.257330198382256], [79.0552687205483, 14.256276882468706], [79.05352096535407, 14.25419614092115], [79.05140832095178, 14.25349006213991], [79.04896036826271, 14.250714746734158], [79.04297571558959, 14.248599251760382], [79.04227549144653, 14.247904683361499], [79.0430083754765, 14.244810989445119], [79.0426701436465, 14.24308615612553], [79.0394805856475, 14.24443762068543], [79.03773009134663, 14.242701178100319], [79.03596473046264, 14.242686656719599], [79.03452859263213, 14.245430116704288], [79.03310733783029, 14.24645163590118], [79.0330924167534, 14.248173562985087], [79.0348518535964, 14.248876882575576], [79.0359289783863, 14.246819289693985], [79.03945976631245, 14.246848328183834], [79.04051305835272, 14.247545803471464], [79.0404922452466, 14.249956511839084], [79.03762885496893, 14.254410313348565], [79.03370904051026, 14.258510945155624], [79.02021927704682, 14.266665084506524], [79.0166852084335, 14.266980102942584], [79.01349216848573, 14.268675534591706], [79.01031420326035, 14.268649016911095], [79.00573594172675, 14.267233122474702], [79.00433868793056, 14.265499403018373], [79.00436900251697, 14.262055613719259], [79.0090166919265, 14.255550779682615], [79.01047735383317, 14.250052479175968], [79.00802394576507, 14.247965572315481], [79.00555848042914, 14.247256164463007], [79.00025329865794, 14.248244969292818], [78.99601946960537, 14.247865039870007], [78.99393147613861, 14.244403463910738], [78.99395581730715, 14.241648445282877], [78.9971758898313, 14.236853837959982], [79.00036551000758, 14.235502957110402], [79.00143678781185, 14.234134308471319], [79.01064931331257, 14.23042276708605], [79.01385081940984, 14.227694155446386], [79.01600514941148, 14.223579167957714], [79.01674126012112, 14.220141202059862], [79.01958051844005, 14.21844270409922], [79.01889545106874, 14.216026169960106], [79.01644528081957, 14.213594998880744], [79.0143301516362, 14.213233035542341], [79.01326206643897, 14.214257385035822], [79.01356697545589, 14.219770433660718], [79.0110445489949, 14.225604368295178], [79.00500358653962, 14.230031271750422], [78.99827146536832, 14.232730179153904], [78.99363926442349, 14.237512949218885], [78.99184658695738, 14.240597500133429], [78.99179785199455, 14.2461075300465], [78.99319490059935, 14.247841297530554], [78.99846971194383, 14.250296433823147], [79.00447806806768, 14.249657963500045], [79.00728151018606, 14.252092234690805], [79.0065420640499, 14.255874510284782], [79.00440536934522, 14.25792306516635], [79.00082287014952, 14.263747916359687], [79.00044547160032, 14.266499978828772], [79.00148351946748, 14.26891951280354], [79.00429320088557, 14.270665084986437], [79.01206161240799, 14.270730036472843]], [[79.04225172548465, 14.250659781429441], [79.04366703783901, 14.250326981215444], [79.0440112180887, 14.251363039388977], [79.04294898672738, 14.25169873816176], [79.04225172548465, 14.250659781429441]], [[79.00641576991974, 14.230043062784292], [79.01138855176481, 14.226640451497031], [79.0149881190469, 14.218749018470897], [79.01396510657922, 14.21460763319327], [79.01467716385987, 14.213924732001205], [79.01608625288439, 14.21428083569582], [79.01640624733544, 14.218071975864788], [79.01530207944494, 14.223228922034531], [79.01350680398562, 14.22665807420983], [79.01136746171824, 14.22905112158638], [79.00888407677682, 14.230408057882784], [79.00605365939317, 14.231073256542517], [79.00641576991974, 14.230043062784292]]], [[[79.16833884631482, 14.247872523952326], [79.16729342811571, 14.246142327568236], [79.165525124211, 14.246473173043482], [79.1662202042559, 14.247856249880241], [79.16833884631482, 14.247872523952326]]], [[[79.11597970593172, 14.259519686313714], [79.11634712249422, 14.257800466478328], [79.11494612276526, 14.256411696805205], [79.11248868391198, 14.25467013751199], [79.10896336334612, 14.253953362977583], [79.10510510079536, 14.25082293417945], [79.10087079963834, 14.250444838673149], [79.09629209277387, 14.24903065736465], [79.08782074930805, 14.24861848828381], [79.0853607270156, 14.247221080756464], [79.08183565734875, 14.246503929688572], [79.07936404640614, 14.246484047489599], [79.07794295062251, 14.247505858652088], [79.08145637072423, 14.249600648783598], [79.08249236738762, 14.252364328920793], [79.09202890515904, 14.252096385104148], [79.09343551162884, 14.252796474114836], [79.09837891551444, 14.252835938626127], [79.10224862576416, 14.254588871379205], [79.10469733856576, 14.257363725671262], [79.10859015918557, 14.256361366900537], [79.11139495558136, 14.258794564034725], [79.11386388260482, 14.259158532588526], [79.11421126898551, 14.259850128985626], [79.11597970593172, 14.259519686313714]]], [[[79.12431482985725, 14.276462270648462], [79.1253856596422, 14.275092999134777], [79.12504962070456, 14.27302379961282], [79.12362851341909, 14.274045886056719], [79.12289940471129, 14.276795543824552], [79.12431482985725, 14.276462270648462]]], [[[79.24761788955513, 14.31632386508595], [79.24731008779324, 14.310466024543363], [79.24485894928243, 14.30769237418038], [79.24242125898562, 14.303196580120588], [79.2399675738446, 14.300767318153724], [79.23753004502677, 14.29627149111448], [79.23013988919672, 14.292772187778517], [79.228039635967, 14.290345455546559], [79.22592862741227, 14.28929639872088], [79.22418163047512, 14.286872273028171], [79.21747395717509, 14.286477689030551], [79.21395849592005, 14.284384691223023], [79.20834861620146, 14.27917593780929], [79.20271440309659, 14.277066844925056], [79.20167133082818, 14.27499233826154], [79.19850662333107, 14.273246231571862], [79.1946603632403, 14.268394984538912], [79.18938796615164, 14.265255047553705], [79.18728565951923, 14.263172446989403], [79.18520543970675, 14.258334508728113], [79.18204938324484, 14.255554978609753], [79.18098725629258, 14.255891315246584], [79.17920229411178, 14.258288741418284], [79.17812631767909, 14.26034713362995], [79.17810971501065, 14.262413617718758], [79.1809181920823, 14.264501680089746], [79.1837377606445, 14.265212055293215], [79.18443300159599, 14.266595097033841], [79.18054570653702, 14.266909885097096], [79.17912484965176, 14.267932338065846], [79.17594935907742, 14.26756361668664], [79.173858269118, 14.264103257626553], [79.16928144336549, 14.262345979061879], [79.16682624111131, 14.26026051070014], [79.15729186066706, 14.260187006530847], [79.15307400827345, 14.257743351148571], [79.14883657907309, 14.257710490960395], [79.14603696512143, 14.254588870941879], [79.14321206167628, 14.254566893919364], [79.13789559171204, 14.256936441437807], [79.12978247941263, 14.255839665824642], [79.1202399239993, 14.256797911998612], [79.11952799088373, 14.257481149040816], [79.11915202978972, 14.260233584467981], [79.12372545378629, 14.262336177573468], [79.14668409477653, 14.261826928262405], [79.15268161246264, 14.262562343454897], [79.15761140409502, 14.264322656013935], [79.1643236894404, 14.264030015289245], [79.17629141342636, 14.268943973459287], [79.18123263912958, 14.269326177476403], [79.18616562421558, 14.270741526838535], [79.18933018361683, 14.272487782595345], [79.19458626475573, 14.277694239188286], [79.20337700362846, 14.282582867372394], [79.20511826966519, 14.285695953855164], [79.2103968160646, 14.28814677993722], [79.2181206463125, 14.294060235667331], [79.22482314069799, 14.29514367120372], [79.22692879439772, 14.296881587593411], [79.23256377433442, 14.298990186991762], [79.23431094649924, 14.301414269897247], [79.23712314932412, 14.303157355361343], [79.24237840769241, 14.308707378115034], [79.24514796187663, 14.315961187439344], [79.24655285391461, 14.31700489637967], [79.24761788955513, 14.31632386508595]], [[79.22377708670814, 14.293413652952411], [79.22201655600799, 14.292711618634891], [79.222027382, 14.291333932739539], [79.22273916340761, 14.29065036681396], [79.22450508677916, 14.290663550363055], [79.22661070015165, 14.29240146508954], [79.22660260105911, 14.293434732011931], [79.22377708670814, 14.293413652952411]], [[79.20023681538338, 14.27773701090777], [79.19600987299766, 14.276327276722107], [79.19391289935992, 14.273555883796623], [79.19180223322147, 14.272506559546152], [79.19077028103952, 14.269054353754017], [79.19323954944838, 14.26941752803612], [79.19498058799022, 14.272530663693383], [79.19778387923856, 14.275307393385079], [79.19919376482747, 14.275662495798125], [79.2002450254409, 14.276703757545295], [79.20023681538338, 14.27773701090777]]], [[[79.2454316049335, 14.324918847085797], [79.24650470982432, 14.323204550532198], [79.24862949450166, 14.322531341320213], [79.24934665602235, 14.321158848013429], [79.24900677352389, 14.31943411537727], [79.24795508723459, 14.318393023948756], [79.247248622085, 14.318387811821383], [79.24617554973437, 14.320102115652817], [79.2454316049335, 14.324918847085797]]]]}}, {"type": "Feature", "properties": {"depth_class": 4, "depth_lo_m": 3.0, "t_s": 21600.277355484028}, "geometry": {"type": "MultiPolygon", "coordinates": [[[[79.00605365939317, 14.231073256542517], [79.01136746171824, 14.22905112158638], [79.01530207944494, 14.223228922034531], [79.01640624733544, 14.218071975864788], [79.01643627429735, 14.214628147573338], [79.01538320956519, 14.213930593477533], [79.01396510657922, 14.21460763319327], [79.0149881190469, 14.218749018470897], [79.01246574194381, 14.224582974806534], [79.01032038382755, 14.227664776829064], [79.00784002886014, 14.228677322869926], [79.0060597025142, 14.23038449606296], [79.00605365939317, 14.231073256542517]]], [[[79.07906631912404, 14.23993770079759], [79.08118769080991, 14.239610343732366], [79.08261744185769, 14.237555317056964], [79.0829937652451, 14.234802984673802], [79.0790954445152, 14.236493749648208], [79.07906631912404, 14.23993770079759]]], [[[79.04224578320093, 14.251348555841139], [79.0440112180887, 14.251363039388977], [79.04366703783901, 14.250326981215444], [79.04225172548465, 14.250659781429441], [79.04224578320093, 14.251348555841139]]], [[[79.19989186708773, 14.276701088436997], [79.19498058799022, 14.272530663693383], [79.19323954944838, 14.26941752803612], [79.19077028103952, 14.269054353754017], [79.19180223322147, 14.272506559546152], [79.19391289935992, 14.273555883796623], [79.19600987299766, 14.276327276722107], [79.20023681538338, 14.27773701090777], [79.19989186708773, 14.276701088436997]]], [[[79.22660260105911, 14.293434732011931], [79.22450508677916, 14.290663550363055], [79.22273916340761, 14.29065036681396], [79.222027382, 14.291333932739539], [79.22201655600799, 14.292711618634891], [79.22377708670814, 14.293413652952411], [79.22660260105911, 14.293434732011931]]]]}}]}