{"type": "FeatureCollection", "features": [{"type": "Feature", "properties": {"depth_class": 1, "depth_lo_m": 0.3, "t_s": 24300.348962449603}, "geometry": {"type": "MultiPolygon", "coordinates": [[[[79.11822121344981, 14.244727109708116], [79.1200094885156, 14.241985799397547], [79.12003799761582, 14.238541766691025], [79.11864563292839, 14.236119819138956], [79.11652716042659, 14.236103117445637], [79.11545649681679, 14.237472369417446], [79.11436008431725, 14.241941234138288], [79.1164557530546, 14.244713181564652], [79.11822121344981, 14.244727109708116]]], [[[79.0383737412215, 14.249939100454707], [79.03908883571052, 14.248911746546842], [79.03732938125526, 14.248208456507921], [79.03696140679426, 14.249927482428504], [79.0383737412215, 14.249939100454707]]], [[[79.09961234886525, 14.27419990523731], [79.09540079826485, 14.271066480375154], [79.09363515630943, 14.271052357969713], [79.09221394507698, 14.272074241066049], [79.09255257731385, 14.273799053090228], [79.0943095482832, 14.274846377631118], [79.0996007922117, 14.27557749803296], [79.09961234886525, 14.27419990523731]]], [[[79.17854263226404, 14.427400362853932], [79.18531563128502, 14.420219491980273], [79.18780043288805, 14.418860855851145], [79.19027408590375, 14.418879837096238], [79.19136478509634, 14.415099431505915], [79.19955321670186, 14.407584459839411], [79.2027390069074, 14.40691985369099], [79.20519877284995, 14.408660737905821], [79.20661499088588, 14.408327060707375], [79.20698487085272, 14.406263252036881], [79.20558519142392, 14.404530442587548], [79.20524560327955, 14.402805682731811], [79.21023379634248, 14.397676971146849], [79.21167462509588, 14.394243505915417], [79.21558331101267, 14.391517541043992], [79.21738827671955, 14.386709020012033], [79.2209379793797, 14.384669115801525], [79.22343307984528, 14.381932353890143], [79.23158401676557, 14.378893457710731], [79.23266835371098, 14.37580158862618], [79.23373642817197, 14.374776238200466], [79.2379843478085, 14.37377457553855], [79.24797649179786, 14.36110432432863], [79.25187081431211, 14.360099761528803], [79.25543582656783, 14.35599269715539], [79.25969131509672, 14.35395731234488], [79.26396265776455, 14.3498552767742], [79.26679953689506, 14.348498245773445], [79.2686029989597, 14.343689153816117], [79.27074115148456, 14.341293616869741], [79.27078605227327, 14.335438321191766], [79.26939942265784, 14.331983728220305], [79.2715532707212, 14.327521590925778], [79.27265256206694, 14.322362856431226], [79.27053574075231, 14.322003000292401], [79.26947073319938, 14.322684138894527], [79.26874311418705, 14.325434422869654], [79.26588802412527, 14.329202513575833], [79.26545266671751, 14.339877209980136], [79.26329855745527, 14.34433926058718], [79.26153217755324, 14.344326317494197], [79.2566502392639, 14.336023770613478], [79.25599963138049, 14.328785619113143], [79.25148208353734, 14.319107905475924], [79.25151941353371, 14.31428593799858], [79.25047040276654, 14.312900432518369], [79.25118751615602, 14.311527927839936], [79.25295362967488, 14.311540918854593], [79.25399998975247, 14.313270841343314], [79.26177627418845, 14.312638962084744], [79.26282271057877, 14.3143688537758], [79.26387975124386, 14.314721028179335], [79.2653085403301, 14.31266477561372], [79.26427796385198, 14.308868320621354], [79.25935940515333, 14.305387875232563], [79.25300155603088, 14.305341237181887], [79.25086895138764, 14.307047785607333], [79.24910287494723, 14.307034783097006], [79.24806725542122, 14.303927141874894], [79.24490173695325, 14.30218156835732], [79.24244803177614, 14.299752330015579], [79.2400131387919, 14.294912098905849], [79.237902021761, 14.293863137468543], [79.23615754132211, 14.29109465763642], [79.23439429087315, 14.290737136333572], [79.23263911728256, 14.289346332020248], [79.2326444967715, 14.288657484923148], [79.23405723048646, 14.288667972586776], [79.2375756581045, 14.290416277364164], [79.24499260024695, 14.29047109710427], [79.24960004064033, 14.288438357320144], [79.25280530554747, 14.285017442503756], [79.25492970548603, 14.284344131902719], [79.2563530398073, 14.282976771869222], [79.2563609969984, 14.281943487471153], [79.25285314336612, 14.278817747534926], [79.2521680624055, 14.276057143991638], [79.25005970197236, 14.274663875318359], [79.2472317212065, 14.274987528154211], [79.24651739385114, 14.276015608888605], [79.24720240388588, 14.278776220827789], [79.2468305685626, 14.281184606094339], [79.2446928331115, 14.283579975044303], [79.24150888652066, 14.284245366904068], [79.23940053284329, 14.282852003489213], [79.2355182905649, 14.282478816649204], [79.2323531693842, 14.280733118593327], [79.22917463445113, 14.28070949965198], [79.2263870354382, 14.275866551862894], [79.22462122563184, 14.275853395613238], [79.22178511852432, 14.277210005927135], [79.21648767638847, 14.2771703919805], [79.2133146523805, 14.276457726571975], [79.21226604357706, 14.275072095512707], [79.21050569475618, 14.274369995715867], [79.20625963785359, 14.27537137651441], [79.2048497377808, 14.275016314858716], [79.20454024827694, 14.269502953005821], [79.20279635716777, 14.266734292374446], [79.20103884114793, 14.265687714850912], [79.19715155126133, 14.266002778536329], [79.19435659791776, 14.26219280255298], [79.19153976355231, 14.261138136786453], [79.18943746827806, 14.259055556705981], [79.18874496257092, 14.257328111699865], [79.1848881382318, 14.253854419686759], [79.18419567978583, 14.252126966733698], [79.1806783196022, 14.250377985592687], [79.17857622347805, 14.248295331584123], [79.17575688248321, 14.247584921291585], [79.16977904286304, 14.244439234467293], [79.16554738740389, 14.243717876599996], [79.16344828628296, 14.241290700331467], [79.16133807661024, 14.240241156124016], [79.16103795660956, 14.233694619324542], [79.1593004357465, 14.230236905938202], [79.15862496960723, 14.226442940060034], [79.15721268218694, 14.226432051324803], [79.1557836315636, 14.228487618276892], [79.15224728976413, 14.229149154880286], [79.15291425045393, 14.233976355919092], [79.15502435718118, 14.235025963442975], [79.15606963455383, 14.23675619772288], [79.15605285991586, 14.238822660278322], [79.15390352115945, 14.24259479649918], [79.15142343826545, 14.243608893805154], [79.15034169969593, 14.246355959292412], [79.14714692369384, 14.24839775454757], [79.14606510559298, 14.251144790562973], [79.13862725502939, 14.253842296900295], [79.12450289233348, 14.253731644612216], [79.12168943856804, 14.25233180098369], [79.12065294211507, 14.249568232011299], [79.11923768747945, 14.249901504070607], [79.11921199737519, 14.25300112918076], [79.11638429798414, 14.253323239132914], [79.1054840736892, 14.247726137810778], [79.09279298222867, 14.245214081458842], [79.08784395882647, 14.24586331527629], [79.0850366884704, 14.243774285998125], [79.08327417691928, 14.243415717558927], [79.08400359044403, 14.240666220037259], [79.08686013417444, 14.236900513141618], [79.08655636640924, 14.231042939024666], [79.08550587676547, 14.230001261273168], [79.0840936267143, 14.229989937708911], [79.07806536424069, 14.233041275485501], [79.07592655540078, 14.235434979625323], [79.07275477941607, 14.234720565084903], [79.07097774682575, 14.236083884702825], [79.07025698065065, 14.237800145443389], [79.0663731976742, 14.237768720896586], [79.06494624511605, 14.23947923928585], [79.06492570355958, 14.241889984439446], [79.06065054478067, 14.246332681273374], [79.0574521710552, 14.248717565084352], [79.05355641644472, 14.250063466919272], [79.04510904351088, 14.246894681250781], [79.04518020256857, 14.238629368262545], [79.04306179823374, 14.238612012000525], [79.04056655990537, 14.241346836728885], [79.03915427705032, 14.241335238524863], [79.03775092272132, 14.240290472273603], [79.03492339625146, 14.240611621893414], [79.02886144523436, 14.247449825286743], [79.0288464908684, 14.249171747813923], [79.03130013123112, 14.251258466632903], [79.0316083975319, 14.256427154418], [79.029124783049, 14.257784275477144], [79.0263210093459, 14.255350222855887], [79.02314320604114, 14.255323900288664], [79.02171883760111, 14.256689718988524], [79.02170081494938, 14.258756015458795], [79.02310118316232, 14.260145262842725], [79.0223769695063, 14.262205702300948], [79.01883394205024, 14.26355390822061], [79.01742153956621, 14.263542163588728], [79.01601817912514, 14.262497266395885], [79.01354649136918, 14.262476680107946], [79.01246002518373, 14.26556727525078], [79.01104761563903, 14.265555491235098], [79.00964730205632, 14.264166178815719], [79.0075317316269, 14.263804096769789], [79.00754686381309, 14.26208219864711], [79.01112615225826, 14.256601600216054], [79.01257470972965, 14.252480805487576], [79.01260185482558, 14.249381376206824], [79.011907766878, 14.247997968394104], [79.00592970421076, 14.245192837081232], [78.99745302311908, 14.245466252771728], [78.99605291101776, 14.244076885316735], [78.99606810841219, 14.242354996461275], [78.99785771413056, 14.23961478680166], [79.00318993803124, 14.235526594550874], [79.00992210725065, 14.232827552172356], [79.01382674415217, 14.230449210825531], [79.01740529042887, 14.224968420005181], [79.01777634493008, 14.222905051844313], [79.02132470169113, 14.220868008578503], [79.02172266370303, 14.215705172999746], [79.0203315308683, 14.213282798073816], [79.01716933073648, 14.211534556449934], [79.01363913874474, 14.211505259444257], [79.01222104809472, 14.2121822902303], [79.01114392998348, 14.214239775182309], [79.01144878729457, 14.219752819826976], [79.00928538036423, 14.224900904731014], [79.00360350435626, 14.228641953332117], [78.99722749646489, 14.230999407205479], [78.9922422647716, 14.235779190831805], [78.98973128138981, 14.240235291862051], [78.98967639681597, 14.246434067435272], [78.99317053916886, 14.25059631344307], [78.99809536869809, 14.252704116743296], [79.00197924729565, 14.25273668497696], [79.00304455047431, 14.252056798300744], [79.0048038924297, 14.252760331301248], [79.00479177843975, 14.254137848585044], [79.00194285007281, 14.256869229185062], [78.99907865959518, 14.261322455746683], [78.9979889714564, 14.264757337763593], [78.99900874290672, 14.26924314437139], [79.00110611156944, 14.27167157512401], [79.00321566551273, 14.272722479152328], [79.01204046141176, 14.27314069866609], [79.01416820393048, 14.272125229709403], [79.01840556726567, 14.272160517103188], [79.02088940010405, 14.270803537957336], [79.02442052923317, 14.270832847095722], [79.02547086638964, 14.271874779059795], [79.02723644319586, 14.271889407294296], [79.02903497107246, 14.268115799401919], [79.03081548266964, 14.266408475640048], [79.03258998977273, 14.265389904488654], [79.03647118388977, 14.265766324665714], [79.03753945241552, 14.264741893160336], [79.03791938254085, 14.26164532694243], [79.04290739572974, 14.256520159757443], [79.04431383766641, 14.25722052276286], [79.04427225888477, 14.262041946078492], [79.04567280097379, 14.263431080765596], [79.04991008235655, 14.263465787262318], [79.0527497316083, 14.261766937967574], [79.0555745758179, 14.261789997513747], [79.05767846109926, 14.263529220476151], [79.06015611918215, 14.26286056967484], [79.06615309953946, 14.263598131996098], [79.06935456018208, 14.260868756696661], [79.07147906306193, 14.260197120050654], [79.07397420948575, 14.257461954836284], [79.0764546936991, 14.256448725747914], [79.08245452589443, 14.256841468218932], [79.08351965692928, 14.256161193654625], [79.0934094636962, 14.25589605204864], [79.09693184512348, 14.25695745239226], [79.10114895085407, 14.259402025871276], [79.10289434180547, 14.261826876275913], [79.10288281552447, 14.263204473129875], [79.09758894570766, 14.262817857633392], [79.09616780575145, 14.263839773630682], [79.09298975149211, 14.263814366711221], [79.08593615353658, 14.262724568043742], [79.08488263074268, 14.262027267776116], [79.08280180782819, 14.2575330981907], [79.08138938882439, 14.257521737185073], [79.07677567228443, 14.260239908658182], [79.07570758166491, 14.26126454168473], [79.07569881359252, 14.262297722937333], [79.07887681436014, 14.262323357664227], [79.08098091019694, 14.264062397887017], [79.0848680857416, 14.263749245665505], [79.08907643991358, 14.267227219881452], [79.09120096959474, 14.26655540779958], [79.09613888134623, 14.267283751374231], [79.1049698559245, 14.267009722303747], [79.10812785352022, 14.269445775757502], [79.11165627434919, 14.269818190428543], [79.11270419129025, 14.271204188400292], [79.11337604166316, 14.275342594493976], [79.10875073283127, 14.279438984176664], [79.1066318679665, 14.279422144753399], [79.10418292553796, 14.276647282775857], [79.10065442641948, 14.276274745904676], [79.10132605510378, 14.280413159017742], [79.1041425619066, 14.281468868659143], [79.10940238006373, 14.285988191971223], [79.1164712213623, 14.285355390663486], [79.12426633588296, 14.282317121466196], [79.12890853901125, 14.276153980129727], [79.1286094451726, 14.269607528884391], [79.1328839296712, 14.265163510144474], [79.13712145962117, 14.265196670680993], [79.14099739853096, 14.266260221771251], [79.14418685308111, 14.26490736371137], [79.1473650164127, 14.264932090056762], [79.15473869681901, 14.270155759985368], [79.16638118387769, 14.271623378821248], [79.17377501187975, 14.274435646399011], [79.17622210492976, 14.277554306320962], [79.17903627083905, 14.278953581334617], [79.18113862097493, 14.28103626049623], [79.18462052642549, 14.287262677043627], [79.1852633389497, 14.295189598135162], [79.18312486865545, 14.297584319708092], [79.18346422401106, 14.29930908739319], [79.18557784056239, 14.300014094012226], [79.18735484383748, 14.298649903129567], [79.18912079527435, 14.298663356562356], [79.19227473192802, 14.301787280213604], [79.19471685145531, 14.305594639973332], [79.19827358461644, 14.302521687440887], [79.20251744573413, 14.301864932648321], [79.2035743037554, 14.30221735821078], [79.20390013832682, 14.305664203647591], [79.20531022138762, 14.3060192922257], [79.20637530313648, 14.30533845365633], [79.20710083321877, 14.302932854394106], [79.20888593639802, 14.30053523413047], [79.20889684853866, 14.29915755903428], [79.20573175830944, 14.297411505757458], [79.20184939160634, 14.297037747188494], [79.19831200377405, 14.29769985285214], [79.19620110098619, 14.296650540766016], [79.19586164766689, 14.294925779921815], [79.1979972254011, 14.292875341333923], [79.19836686344169, 14.290811514165672], [79.19731829856691, 14.28942582173663], [79.19133080382338, 14.287313767726145], [79.1895759579523, 14.285922679197672], [79.18924482642542, 14.283164668750704], [79.19173074569377, 14.281461380233948], [79.1959357869958, 14.285626532135842], [79.2054359414009, 14.29017605693019], [79.20929367201994, 14.293649515752437], [79.21105415865848, 14.294351640486916], [79.21210555658288, 14.2953928647974], [79.21208377620479, 14.298148220542032], [79.21278472095936, 14.298842368975047], [79.21631667817728, 14.29886888554848], [79.22021539170099, 14.297175888470496], [79.22233185107734, 14.297536158079891], [79.22196511679078, 14.29925562435347], [79.22089739458887, 14.300280962950714], [79.21665086053554, 14.301282475957299], [79.21522718625101, 14.30264955548954], [79.214145814482, 14.305396956290338], [79.21481685944278, 14.30987971785212], [79.21621611683298, 14.311612425914163], [79.22222892866674, 14.310624162693575], [79.22363637603404, 14.31132357048863], [79.22503300893057, 14.31340065667745], [79.2246581328641, 14.316153388201451], [79.22216658293587, 14.318545842355872], [79.21933532981139, 14.319213514708354], [79.21862072160494, 14.320241477292491], [79.21854732937025, 14.329540813993548], [79.21531636208351, 14.336060892987302], [79.21424841882072, 14.337086175002257], [79.21070766975637, 14.338092812414342], [79.20430517714215, 14.343555434020363], [79.20180485468497, 14.346980857199206], [79.20003301095187, 14.347656285222536], [79.1996632307219, 14.349720096505093], [79.20034501390928, 14.352825202589823], [79.19889609938691, 14.35729186663061], [79.19675157115421, 14.360375476523982], [79.19602291410963, 14.363125413110302], [79.19211179950553, 14.366195504344219], [79.18960824194701, 14.36996515459075], [79.1839359534997, 14.372332742707043], [79.17827471796731, 14.37332253717811], [79.17436879480256, 14.375703463265616], [79.16977018826042, 14.376356804631763], [79.16799242357531, 14.377720770187025], [79.1683148674902, 14.381512001154746], [79.17039551371361, 14.386350131514346], [79.17564783959371, 14.392246041561531], [79.17776225925083, 14.392951212668883], [79.1845146249475, 14.388181106534702], [79.19202045166145, 14.37756114957592], [79.19451024757353, 14.37551355065045], [79.19769557767346, 14.374848959578866], [79.20656408608836, 14.370438648857546], [79.20798005509839, 14.37010493429346], [79.20903448970252, 14.370801788576562], [79.20900706676152, 14.37424595551734], [79.20757734632369, 14.37630175495929], [79.20682951192659, 14.381462643172885], [79.20469031506693, 14.38385747377683], [79.2039561349981, 14.387296262721708], [79.20217569539301, 14.389004913266946], [79.19930208401452, 14.394838447459577], [79.19325091786098, 14.40030321743414], [79.18788670479873, 14.408184100131624], [79.18220501452325, 14.411584755774339], [79.17685412966892, 14.417743257114008], [79.1740187179958, 14.418754629184066], [79.17188442071553, 14.42046025644447], [79.17151137488395, 14.422868375312037], [79.17360921146994, 14.425640064732498], [79.17606609750568, 14.427725656458527], [79.17854263226404, 14.427400362853932]], [[79.19284764950264, 14.406499944417625], [79.1957160688049, 14.40135535780171], [79.2014166274621, 14.395543418243852], [79.20357801804148, 14.390393315667012], [79.20571729629582, 14.38799850498048], [79.20645145367358, 14.384559707897889], [79.20859338613667, 14.381820443753261], [79.20897689312623, 14.378034537937625], [79.21113242294864, 14.37357315353343], [79.21115433478715, 14.37081781669575], [79.20940698498548, 14.368393543295236], [79.20658055861185, 14.368372150929693], [79.20303102726773, 14.370411856998729], [79.19558952609168, 14.373110736041887], [79.19099098420341, 14.373764503616014], [79.19100483399095, 14.37204243732513], [79.19386722685365, 14.36758664036616], [79.1984932083441, 14.363488651759273], [79.19886854829011, 14.36073601826672], [79.20029547262926, 14.359024682066547], [79.20210590381427, 14.353527440968968], [79.20214163574671, 14.349050032925119], [79.20498701772699, 14.346660533560824], [79.20677802444804, 14.343574146289173], [79.21246030054476, 14.3398282199046], [79.21457440343414, 14.34053302100462], [79.21562055640264, 14.342263090395775], [79.21310675381052, 14.34741074606125], [79.21767749338375, 14.350200667735306], [79.22191953650645, 14.34988808581046], [79.22368049138922, 14.350590169103544], [79.22543331932805, 14.352325501685183], [79.22577032363952, 14.354394668980795], [79.22291415192197, 14.358162109724386], [79.22289784146837, 14.360228627900266], [79.22535732176942, 14.361969267902984], [79.2274825263687, 14.361296299393635], [79.22858305948348, 14.35613791657966], [79.23179780434722, 14.351684185810816], [79.23396338711407, 14.345844814519065], [79.23475083499521, 14.3355174028016], [79.23759034851797, 14.333816296164212], [79.23796512464429, 14.33106353335031], [79.23974750018091, 14.329010097974887], [79.24190723243521, 14.323859443554904], [79.24158886527043, 14.319379312303347], [79.24232481790857, 14.315595871844863], [79.23885429892964, 14.307647958438617], [79.23604740417817, 14.305216038737479], [79.23463456560982, 14.305205551019696], [79.23392007354248, 14.30623357393056], [79.23803234916699, 14.322452946969154], [79.23694573757014, 14.325889314922826], [79.23726938688685, 14.329680594127105], [79.23655212294561, 14.331053038515511], [79.23549237242294, 14.331045161875304], [79.23479665074687, 14.329662217139825], [79.23483436582215, 14.324840297263677], [79.23378542506676, 14.323454725317193], [79.23452152713105, 14.319671326785162], [79.23346991440295, 14.318630178711505], [79.23278231987747, 14.316213964166343], [79.233515707074, 14.312774988802818], [79.23282812230701, 14.310358775250291], [79.23322711212077, 14.304506208516345], [79.23218364778576, 14.30243179306643], [79.22900480841156, 14.302408136760846], [79.22796409149984, 14.299989285647916], [79.22375545159173, 14.296169026721618], [79.21951984824105, 14.29579291803977], [79.21845484739792, 14.29647382587616], [79.21527611551001, 14.296449995792413], [79.21493651342394, 14.294725245201304], [79.21388510365877, 14.293684032199659], [79.21106777600555, 14.292629543648768], [79.20791366112206, 14.289505851601684], [79.19700627433721, 14.284256892597307], [79.19596048825449, 14.282526781178568], [79.19597695246865, 14.280460280069615], [79.18791207638172, 14.27316587253466], [79.1808656724624, 14.271045552999496], [79.17626369557264, 14.272388107388897], [79.17345795554228, 14.269955572044774], [79.16395382177392, 14.266093762347051], [79.15442481949867, 14.265331295275773], [79.1491419121587, 14.263568175374315], [79.13219186302035, 14.263435951150942], [79.12684662725945, 14.269249250121705], [79.12750166010821, 14.275454070528816], [79.12428630665158, 14.279906300908758], [79.1210879707402, 14.28229205736389], [79.11719471838514, 14.283294570366921], [79.1133100497922, 14.283263813298031], [79.11155003979364, 14.282561011172955], [79.11156440193915, 14.28083900921017], [79.11441538987356, 14.277761792003618], [79.11902055474711, 14.276076089404988], [79.12044455071371, 14.274709632388431], [79.12259763383257, 14.27059350940719], [79.12580147110302, 14.267518901048362], [79.12617168275672, 14.265455255847595], [79.1237083530511, 14.2644025975989], [79.11241129157594, 14.263968970337137], [79.10889732043877, 14.261874575724423], [79.1039623284471, 14.26080210640897], [79.10116625080182, 14.257335631954534], [79.09800271698954, 14.25558831092744], [79.09130822301478, 14.253812720892993], [79.07646929478206, 14.254726755330884], [79.07186144818697, 14.256756045662241], [79.07043732414733, 14.2581221917071], [79.06725059356171, 14.259129628286527], [79.06581467830178, 14.261873308150816], [79.05804926810426, 14.261465757043926], [79.0566456996545, 14.260421076712566], [79.05135506805004, 14.259689062848024], [79.04821271869947, 14.255530407104146], [79.04680923643309, 14.25448567877721], [79.04434055868045, 14.254121035255503], [79.04114786977121, 14.255816889255348], [79.03615685678157, 14.261286402427773], [79.03507666272205, 14.263688370803433], [79.03153964166007, 14.26434800305372], [79.02584798408881, 14.269122639850307], [79.02090143103715, 14.269426009085953], [79.01877072647615, 14.270785927389227], [79.01347103587506, 14.271086199300411], [79.01134330147816, 14.272101662968375], [79.00287469602794, 14.2713420052724], [79.00042116502767, 14.269255002708475], [78.99938008837329, 14.267179843233583], [78.99940744298709, 14.264080442761536], [79.00299604652987, 14.257566860814762], [79.00584497385087, 14.254835467260735], [79.00621924309269, 14.252427762293493], [79.00411590564043, 14.250688147500824], [78.99916371766747, 14.251679870748616], [78.99283269330817, 14.248871458212701], [78.99073864895658, 14.246098612922705], [78.99078436265336, 14.24093296332372], [78.99258314370114, 14.237159668319691], [78.99757143826315, 14.232035502715865], [79.00394747441611, 14.229678043183695], [79.01034148283206, 14.225254107999934], [79.0128759555895, 14.218042654409814], [79.012202997849, 14.21424858245104], [79.01363012086742, 14.21253840655277], [79.0164542866189, 14.212561850093463], [79.02031055616503, 14.2156934839632], [79.0202715927226, 14.22017047067595], [79.01708228232802, 14.221521662624522], [79.01491295909705, 14.227358576681466], [79.01206150399166, 14.230434525069708], [78.99894116377965, 14.236868640215672], [78.9950150016889, 14.24165734541063], [78.99498763194369, 14.244756743335497], [78.99708780086893, 14.246840801034622], [79.00697681885303, 14.24657920623979], [79.01118954590765, 14.249369606108157], [79.01152149949337, 14.251783215153356], [79.00971077791198, 14.256934195805988], [79.0086454657243, 14.257614111642418], [79.00577835555417, 14.262411813739837], [79.00610722154019, 14.265169802105191], [79.00892597879968, 14.265882179376515], [79.01067940133333, 14.267274444855746], [79.01315113706512, 14.267295067645701], [79.0152878633585, 14.265246437027539], [79.02094352919605, 14.264604656706245], [79.02591096628203, 14.26189058864557], [79.02662915418087, 14.260518901521197], [79.02346628558966, 14.258770658449116], [79.02312219656443, 14.257734581824073], [79.02383738333995, 14.256707286360145], [79.02595593196169, 14.256724834937197], [79.02804753512171, 14.25984182119631], [79.03088128412485, 14.258832016460866], [79.03337087479596, 14.256786106948006], [79.03445701038542, 14.253695372091642], [79.03305659803989, 14.252306186912008], [79.03133597917146, 14.24712584672275], [79.03562059635712, 14.241650592617704], [79.03773901955564, 14.241668018523457], [79.03878930883116, 14.24270988467011], [79.04055170094307, 14.243068772277253], [79.0423319152602, 14.241361322750027], [79.04374420097179, 14.241372902179782], [79.044432548598, 14.243445016202266], [79.04334067358037, 14.247224597810181], [79.04439101419361, 14.248266445414478], [79.04896925059894, 14.249681580889842], [79.05282955634844, 14.252468429498675], [79.05707254893395, 14.2518142023685], [79.05704600629348, 14.25491371405526], [79.05774630026075, 14.255608247195397], [79.06092417354557, 14.255634109317601], [79.06482881304699, 14.253254918940009], [79.0652024635114, 14.25084704042211], [79.07015452891709, 14.24985390567444], [79.07796919367578, 14.244406306675913], [79.076571447803, 14.242672955055175], [79.069515709238, 14.24192715410089], [79.06845940538064, 14.241574191457017], [79.06776497241947, 14.240190904857197], [79.0709455740893, 14.23987221289199], [79.0730932415985, 14.236445384317612], [79.07485275577575, 14.237148413651203], [79.07519123547085, 14.238873232041424], [79.07624170747712, 14.239914953685219], [79.07769481597857, 14.235104803516894], [79.0823108793156, 14.232042147399145], [79.08443217484779, 14.231714751441045], [79.08548266583584, 14.232756434153485], [79.08580961939725, 14.235858833641174], [79.08258545973601, 14.2413436707772], [79.08009643264292, 14.243390174604492], [79.0807909527405, 14.24477343564355], [79.08466907742914, 14.24549343283241], [79.08747926478719, 14.247238071842608], [79.09383778688559, 14.246944534555025], [79.10476638221009, 14.249098129272367], [79.10898058526337, 14.251886958739412], [79.11672310922393, 14.255048038636183], [79.13296899284505, 14.254831352508434], [79.13684756118278, 14.255550541951841], [79.14746910277964, 14.252188988834359], [79.15205673148705, 14.252569006028793], [79.15841833724303, 14.251929344020526], [79.15947208517129, 14.252626341663555], [79.15981123164912, 14.25435111971196], [79.15838479078947, 14.256062268996695], [79.15661360428032, 14.256737447273142], [79.15730585217294, 14.25846495629746], [79.16083427828362, 14.258836631790599], [79.16472699407784, 14.25783332888294], [79.17107487074564, 14.25891540615437], [79.17529852021865, 14.260669941544155], [79.17707523743884, 14.259305793879236], [79.17850710614442, 14.256905690314284], [79.17852093330197, 14.255183619090824], [79.17711952038147, 14.253795170557812], [79.17430289108574, 14.252740322222616], [79.1700904997873, 14.249608135489652], [79.16056213189694, 14.248845993495847], [79.16201638893408, 14.24369070916142], [79.1630756876937, 14.243698864871261], [79.16412663256469, 14.244740251310144], [79.16800797473168, 14.245114512980042], [79.18242457826874, 14.252802349883012], [79.18662070120261, 14.25800083983088], [79.18800293855676, 14.261800153564735], [79.18975485491725, 14.263535649339525], [79.19327249333996, 14.26528452712819], [79.19607294124152, 14.268405682764113], [79.20172053221914, 14.268792810346438], [79.2027690464298, 14.270178477602965], [79.2027335315784, 14.274655916837876], [79.20377934416068, 14.276386001383012], [79.21012804563613, 14.277467119550389], [79.2132793296635, 14.28093518938885], [79.21784611490541, 14.284069387670275], [79.22630610284318, 14.286199229917868], [79.23015874748052, 14.290361226714799], [79.23964654237584, 14.29663160878916], [79.24138306746819, 14.300433346173607], [79.2490815270308, 14.309790191440989], [79.24904682697128, 14.314267728573464], [79.25008782817787, 14.316686517930384], [79.25075426853516, 14.321858111606383], [79.25250446585675, 14.323937672544874], [79.25354020765052, 14.32704530681245], [79.25278837422209, 14.332895352026952], [79.25489192547455, 14.334977506390805], [79.25522919857039, 14.337046662563893], [79.25697687983458, 14.339470632593239], [79.2594045445683, 14.345344049106547], [79.26081233746486, 14.346043272273855], [79.2636385665937, 14.346063985914915], [79.26470370747782, 14.345382889184277], [79.26579004055039, 14.341946362083046], [79.26721636849064, 14.340234548422432], [79.26689751011206, 14.335754397450987], [79.26761197334613, 14.334726271252885], [79.26936771265062, 14.336116876585804], [79.26897478845284, 14.34128073187501], [79.26648069460468, 14.34401809683037], [79.26610622101664, 14.346770938894872], [79.26005790782071, 14.352237772613917], [79.25402799562816, 14.355293437457], [79.25117224282693, 14.359061271397115], [79.2472779370904, 14.360065824474004], [79.24406602077217, 14.364175360217974], [79.240508753419, 14.36724894420946], [79.23907126299116, 14.370338240591678], [79.23693249468468, 14.372733416625577], [79.23304061509072, 14.373393278928733], [79.23161922780382, 14.374415987092059], [79.23053488598303, 14.377507850824475], [79.22131856630841, 14.381227586155314], [79.2191795105264, 14.383622566005737], [79.21669527504073, 14.384981603489946], [79.21490946887027, 14.387379198423366], [79.2141808992732, 14.390129200617377], [79.21027222536652, 14.392855143416378], [79.20847529253037, 14.396630336788203], [79.20313649224106, 14.401411907844855], [79.20240771630961, 14.404161848669773], [79.19851248336533, 14.405165480041788], [79.19353773212531, 14.408571827057386], [79.19283377922413, 14.40822200746153], [79.19284764950264, 14.406499944417625]], [[79.22538989906789, 14.357836226245745], [79.22645519501887, 14.35715532164249], [79.22608291221144, 14.359563619118095], [79.22537904112116, 14.359213906966108], [79.22538989906789, 14.357836226245745]], [[79.22790087244466, 14.353032846399834], [79.22440061970687, 14.34887336167706], [79.2215798517549, 14.348163336911462], [79.21700909296864, 14.345373489254857], [79.21808795989192, 14.342970521612395], [79.218107016078, 14.340559586527853], [79.22420196051696, 14.329238746393793], [79.22318289951545, 14.324064505301351], [79.22993491570153, 14.318948303496914], [79.23168758080419, 14.320683571488928], [79.23130466587028, 14.324469586737502], [79.23302232108902, 14.330682342258449], [79.23294406798775, 14.340670587878344], [79.2325556978101, 14.345145441461307], [79.2300313967933, 14.35167100154677], [79.2289607219414, 14.353040768794818], [79.22790087244466, 14.353032846399834]], [[79.22681803446677, 14.311002891190034], [79.22153605138817, 14.308896772534661], [79.21693613870097, 14.309895627981069], [79.21623786821928, 14.308857067049153], [79.21662640906273, 14.304382257303487], [79.21733825073144, 14.3036987149171], [79.2198106792645, 14.30371724084663], [79.22579894375569, 14.305828656362452], [79.22753257398821, 14.30997489548857], [79.22681803446677, 14.311002891190034]], [[79.2568470572248, 14.31053617074844], [79.25615390319318, 14.308808851302125], [79.25722418537134, 14.307438913699848], [79.25934349031102, 14.307454443181225], [79.26074840976061, 14.308498070294341], [79.26109102799262, 14.309878367731162], [79.2600260585048, 14.310559467865705], [79.2568470572248, 14.31053617074844]], [[79.23726270890066, 14.285247294545101], [79.23866738504664, 14.28629102665441], [79.23725466264088, 14.286280568052163], [79.23726270890066, 14.285247294545101]], [[79.22244007798723, 14.283759294806025], [79.21926964457914, 14.28270227501569], [79.21857143129284, 14.281663727183876], [79.2217499612848, 14.28168748918413], [79.22350230195859, 14.283422782111357], [79.22244007798723, 14.283759294806025]], [[79.18859359263388, 14.276270985220158], [79.18083801986464, 14.274489695119318], [79.18084908178871, 14.273112038396947], [79.18719475227637, 14.274538160124493], [79.18859359263388, 14.276270985220158]], [[79.11943372598694, 14.268846431654417], [79.11556075410181, 14.267438135184497], [79.1152162184123, 14.266402137675554], [79.12192846791396, 14.266110705925284], [79.12262901583043, 14.2668050767891], [79.11943372598694, 14.268846431654417]], [[79.04674992104256, 14.261373437612558], [79.0467677189842, 14.259307110404295], [79.0485332205688, 14.259321568388703], [79.04887446899482, 14.260702011677836], [79.04674992104256, 14.261373437612558]], [[79.17109153324004, 14.25684892959511], [79.1696929409464, 14.255116029192559], [79.17040195615482, 14.254777035682174], [79.17428626283393, 14.254806803209174], [79.175693201151, 14.255506439554782], [79.175684892007, 14.25653968065971], [79.17462275436402, 14.256875987233014], [79.17109153324004, 14.25684892959511]], [[79.16793847266764, 14.253724823045053], [79.16688747174828, 14.25268344706305], [79.16689581859471, 14.251650210720328], [79.16936483170592, 14.252013605859], [79.17005994930238, 14.25339667572817], [79.16793847266764, 14.253724823045053]], [[79.06734153954552, 14.248453467936859], [79.06523182245127, 14.247403120629073], [79.06524062860453, 14.24636994448614], [79.06630574776808, 14.245689746587717], [79.0726641791219, 14.245396771882453], [79.06910990814042, 14.248123370172788], [79.06734153954552, 14.248453467936859]], [[79.15386431343951, 14.247416533616802], [79.15318332257917, 14.244311381681861], [79.15389512073942, 14.243628026054111], [79.15566061046516, 14.243641676294448], [79.1560193025713, 14.242955584260091], [79.15814068038543, 14.24262753269157], [79.15989500222905, 14.244018794652261], [79.15917204808663, 14.246079813448361], [79.15634443242234, 14.246402414938375], [79.1552767286076, 14.247427457876013], [79.15386431343951, 14.247416533616802]], [[79.15786579017086, 14.232981306012045], [79.1575071228735, 14.233667403937003], [79.15751270820178, 14.232978582264403], [79.15786579017086, 14.232981306012045]]], [[[79.24590230808315, 14.355233428074039], [79.24839141032322, 14.353185173744736], [79.2515736714304, 14.352864226947242], [79.25441064767608, 14.351507357331968], [79.25832874341599, 14.347402826789393], [79.2579967611468, 14.344644818523289], [79.25239241857774, 14.338403564732682], [79.25068219130446, 14.33115760874802], [79.24963312006265, 14.32977209311046], [79.24786686712467, 14.329759061210538], [79.245011394815, 14.33352685367158], [79.24462329124432, 14.338001758357624], [79.23885537452544, 14.35277006001322], [79.23918981199448, 14.355183645196782], [79.24590230808315, 14.355233428074039]], [[79.25161109123565, 14.34804227291571], [79.25340418384742, 14.344611035792957], [79.2548172832803, 14.344621439941669], [79.25656767336064, 14.346700991370625], [79.25620106866056, 14.348420524473912], [79.25335880160692, 14.350466272735645], [79.251945666637, 14.350455855749464], [79.25161109123565, 14.34804227291571]], [[79.2484610212245, 14.34423013015132], [79.24639228396272, 14.337670397038762], [79.24677767453198, 14.333539910169952], [79.24784546877166, 14.332514462467271], [79.24889721254011, 14.333555560634432], [79.25096600186706, 14.340115278044285], [79.25094729758241, 14.34252625609079], [79.24916756773351, 14.34423534786579], [79.2484610212245, 14.34423013015132]]]]}}, {"type": "Feature", "properties": {"depth_class": 2, "depth_lo_m": 1.0, "t_s": 24300.348962449603}, "geometry": {"type": "MultiPolygon", "coordinates": [[[[79.15786020591143, 14.233670127821846], [79.15751270820178, 14.232978582264403], [79.1575071228735, 14.233667403937003], [79.15786020591143, 14.233670127821846]]], [[[79.04851840253383, 14.261043509572655], [79.0485332205688, 14.259321568388703], [79.0467677189842, 14.259307110404295], [79.04674992104256, 14.261373437612558], [79.04851840253383, 14.261043509572655]]], [[[79.23866738504664, 14.28629102665441], [79.23726270890066, 14.285247294545101], [79.23725466264088, 14.286280568052163], [79.23866738504664, 14.28629102665441]]], [[[79.22682073736698, 14.310658469360291], [79.22753527559725, 14.309630473495373], [79.22579894375569, 14.305828656362452], [79.2198106792645, 14.30371724084663], [79.21733825073144, 14.3036987149171], [79.21662640906273, 14.304382257303487], [79.21623786821928, 14.308857067049153], [79.21693613870097, 14.309895627981069], [79.22153605138817, 14.308896772534661], [79.22682073736698, 14.310658469360291]]], [[[79.26073515514523, 14.310220211103935], [79.26074840976061, 14.308498070294341], [79.25934349031102, 14.307454443181225], [79.25722418537134, 14.307438913699848], [79.25615390319318, 14.308808851302125], [79.2568470572248, 14.31053617074844], [79.26073515514523, 14.310220211103935]]], [[[79.19460059500871, 14.40823552071131], [79.19851248336533, 14.405165480041788], [79.20240771630961, 14.404161848669773], [79.20313649224106, 14.401411907844855], [79.20847529253037, 14.396630336788203], [79.21027222536652, 14.392855143416378], [79.2141808992732, 14.390129200617377], [79.21490946887027, 14.387379198423366], [79.21669527504073, 14.384981603489946], [79.2191795105264, 14.383622566005737], [79.22131856630841, 14.381227586155314], [79.23053488598303, 14.377507850824475], [79.23161922780382, 14.374415987092059], [79.23304061509072, 14.373393278928733], [79.23693249468468, 14.372733416625577], [79.23907126299116, 14.370338240591678], [79.240508753419, 14.36724894420946], [79.24406602077217, 14.364175360217974], [79.2472779370904, 14.360065824474004], [79.25117224282693, 14.359061271397115], [79.25402799562816, 14.355293437457], [79.26005790782071, 14.352237772613917], [79.26610622101664, 14.346770938894872], [79.26648069460468, 14.34401809683037], [79.26897478845284, 14.34128073187501], [79.26936771265062, 14.336116876585804], [79.26761197334613, 14.334726271252885], [79.26689751011206, 14.335754397450987], [79.26721636849064, 14.340234548422432], [79.26579004055039, 14.341946362083046], [79.26470370747782, 14.345382889184277], [79.2636385665937, 14.346063985914915], [79.2594045445683, 14.345344049106547], [79.25697687983458, 14.339470632593239], [79.25522919857039, 14.337046662563893], [79.25489192547455, 14.334977506390805], [79.25278837422209, 14.332895352026952], [79.25354020765052, 14.32704530681245], [79.25250446585675, 14.323937672544874], [79.25075426853516, 14.321858111606383], [79.25008782817787, 14.316686517930384], [79.24904682697128, 14.314267728573464], [79.2490815270308, 14.309790191440989], [79.24138306746819, 14.300433346173607], [79.23964654237584, 14.29663160878916], [79.23015874748052, 14.290361226714799], [79.22630610284318, 14.286199229917868], [79.21784611490541, 14.284069387670275], [79.2132793296635, 14.28093518938885], [79.21012804563613, 14.277467119550389], [79.20377934416068, 14.276386001383012], [79.2027335315784, 14.274655916837876], [79.2027690464298, 14.270178477602965], [79.20172053221914, 14.268792810346438], [79.19607294124152, 14.268405682764113], [79.19327249333996, 14.26528452712819], [79.18975485491725, 14.263535649339525], [79.18800293855676, 14.261800153564735], [79.18662070120261, 14.25800083983088], [79.18242457826874, 14.252802349883012], [79.16800797473168, 14.245114512980042], [79.16412663256469, 14.244740251310144], [79.1630756876937, 14.243698864871261], [79.16201638893408, 14.24369070916142], [79.16056213189694, 14.248845993495847], [79.1700904997873, 14.249608135489652], [79.17430289108574, 14.252740322222616], [79.17711952038147, 14.253795170557812], [79.17852093330197, 14.255183619090824], [79.17850710614442, 14.256905690314284], [79.17707523743884, 14.259305793879236], [79.17529852021865, 14.260669941544155], [79.17107487074564, 14.25891540615437], [79.16472699407784, 14.25783332888294], [79.16083427828362, 14.258836631790599], [79.15730585217294, 14.25846495629746], [79.15661360428032, 14.256737447273142], [79.15838479078947, 14.256062268996695], [79.15981123164912, 14.25435111971196], [79.15947208517129, 14.252626341663555], [79.15841833724303, 14.251929344020526], [79.15205673148705, 14.252569006028793], [79.14746910277964, 14.252188988834359], [79.13684756118278, 14.255550541951841], [79.13296899284505, 14.254831352508434], [79.11672310922393, 14.255048038636183], [79.10898058526337, 14.251886958739412], [79.10476638221009, 14.249098129272367], [79.09383778688559, 14.246944534555025], [79.08747926478719, 14.247238071842608], [79.08466907742914, 14.24549343283241], [79.0807909527405, 14.24477343564355], [79.08009643264292, 14.243390174604492], [79.08258545973601, 14.2413436707772], [79.08580961939725, 14.235858833641174], [79.08548266583584, 14.232756434153485], [79.08443217484779, 14.231714751441045], [79.0823108793156, 14.232042147399145], [79.07769481597857, 14.235104803516894], [79.07624170747712, 14.239914953685219], [79.07519123547085, 14.238873232041424], [79.07485275577575, 14.237148413651203], [79.0730932415985, 14.236445384317612], [79.0709455740893, 14.23987221289199], [79.06776497241947, 14.240190904857197], [79.06845940538064, 14.241574191457017], [79.069515709238, 14.24192715410089], [79.076571447803, 14.242672955055175], [79.07796919367578, 14.244406306675913], [79.07015452891709, 14.24985390567444], [79.0652024635114, 14.25084704042211], [79.06482881304699, 14.253254918940009], [79.06092417354557, 14.255634109317601], [79.05774630026075, 14.255608247195397], [79.05704600629348, 14.25491371405526], [79.05707254893395, 14.2518142023685], [79.05282955634844, 14.252468429498675], [79.04896925059894, 14.249681580889842], [79.04439101419361, 14.248266445414478], [79.04334067358037, 14.247224597810181], [79.044432548598, 14.243445016202266], [79.04374420097179, 14.241372902179782], [79.0423319152602, 14.241361322750027], [79.04055170094307, 14.243068772277253], [79.03878930883116, 14.24270988467011], [79.03773901955564, 14.241668018523457], [79.03562059635712, 14.241650592617704], [79.03133597917146, 14.24712584672275], [79.03305659803989, 14.252306186912008], [79.03445701038542, 14.253695372091642], [79.03337087479596, 14.256786106948006], [79.02875372923046, 14.25984766160187], [79.02734733255376, 14.259147210963578], [79.0273563187859, 14.258114059276913], [79.02595593196169, 14.256724834937197], [79.02383738333995, 14.256707286360145], [79.02312219656443, 14.257734581824073], [79.02346628558966, 14.258770658449116], [79.02662915418087, 14.260518901521197], [79.02591096628203, 14.26189058864557], [79.02094352919605, 14.264604656706245], [79.0152878633585, 14.265246437027539], [79.01315113706512, 14.267295067645701], [79.01067940133333, 14.267274444855746], [79.00892597879968, 14.265882179376515], [79.00610722154019, 14.265169802105191], [79.00577835555417, 14.262411813739837], [79.0086454657243, 14.257614111642418], [79.00971077791198, 14.256934195805988], [79.01152149949337, 14.251783215153356], [79.01118954590765, 14.249369606108157], [79.00697681885303, 14.24657920623979], [78.99708780086893, 14.246840801034622], [78.99498763194369, 14.244756743335497], [78.9950150016889, 14.24165734541063], [78.99894116377965, 14.236868640215672], [79.01206150399166, 14.230434525069708], [79.01491295909705, 14.227358576681466], [79.01708228232802, 14.221521662624522], [79.0202715927226, 14.22017047067595], [79.02031055616503, 14.2156934839632], [79.0164542866189, 14.212561850093463], [79.01363012086742, 14.21253840655277], [79.012202997849, 14.21424858245104], [79.0128759555895, 14.218042654409814], [79.01034148283206, 14.225254107999934], [79.00394747441611, 14.229678043183695], [78.99757143826315, 14.232035502715865], [78.99258314370114, 14.237159668319691], [78.99078436265336, 14.24093296332372], [78.99073864895658, 14.246098612922705], [78.99283269330817, 14.248871458212701], [78.99916371766747, 14.251679870748616], [79.00411590564043, 14.250688147500824], [79.00621924309269, 14.252427762293493], [79.00584497385087, 14.254835467260735], [79.00299604652987, 14.257566860814762], [78.99940744298709, 14.264080442761536], [78.99938008837329, 14.267179843233583], [79.00042116502767, 14.269255002708475], [79.00287469602794, 14.2713420052724], [79.01134330147816, 14.272101662968375], [79.01347103587506, 14.271086199300411], [79.01877072647615, 14.270785927389227], [79.02090143103715, 14.269426009085953], [79.02584798408881, 14.269122639850307], [79.03153964166007, 14.26434800305372], [79.03507666272205, 14.263688370803433], [79.03615685678157, 14.261286402427773], [79.04114786977121, 14.255816889255348], [79.04434055868045, 14.254121035255503], [79.04680923643309, 14.25448567877721], [79.04821271869947, 14.255530407104146], [79.05135506805004, 14.259689062848024], [79.0566456996545, 14.260421076712566], [79.05804926810426, 14.261465757043926], [79.06581467830178, 14.261873308150816], [79.06725059356171, 14.259129628286527], [79.07043732414733, 14.2581221917071], [79.07186144818697, 14.256756045662241], [79.07646929478206, 14.254726755330884], [79.09130822301478, 14.253812720892993], [79.09800271698954, 14.25558831092744], [79.10116625080182, 14.257335631954534], [79.1039623284471, 14.26080210640897], [79.10889732043877, 14.261874575724423], [79.11241129157594, 14.263968970337137], [79.1237083530511, 14.2644025975989], [79.12617168275672, 14.265455255847595], [79.12580147110302, 14.267518901048362], [79.12259763383257, 14.27059350940719], [79.12044455071371, 14.274709632388431], [79.11902055474711, 14.276076089404988], [79.11441538987356, 14.277761792003618], [79.11156440193915, 14.28083900921017], [79.11155003979364, 14.282561011172955], [79.1133100497922, 14.283263813298031], [79.11719471838514, 14.283294570366921], [79.1210879707402, 14.28229205736389], [79.12428630665158, 14.279906300908758], [79.12750166010821, 14.275454070528816], [79.12684662725945, 14.269249250121705], [79.13219186302035, 14.263435951150942], [79.1491419121587, 14.263568175374315], [79.15442481949867, 14.265331295275773], [79.16395382177392, 14.266093762347051], [79.17345795554228, 14.269955572044774], [79.17626369557264, 14.272388107388897], [79.1808656724624, 14.271045552999496], [79.18791207638172, 14.27316587253466], [79.19597695246865, 14.280460280069615], [79.19596048825449, 14.282526781178568], [79.19700627433721, 14.284256892597307], [79.20791366112206, 14.289505851601684], [79.21106777600555, 14.292629543648768], [79.21388510365877, 14.293684032199659], [79.21493651342394, 14.294725245201304], [79.21527611551001, 14.296449995792413], [79.21845484739792, 14.29647382587616], [79.21951984824105, 14.29579291803977], [79.22375545159173, 14.296169026721618], [79.22796409149984, 14.299989285647916], [79.22900480841156, 14.302408136760846], [79.23218364778576, 14.30243179306643], [79.23322711212077, 14.304506208516345], [79.23282812230701, 14.310358775250291], [79.233515707074, 14.312774988802818], [79.23278231987747, 14.316213964166343], [79.23346991440295, 14.318630178711505], [79.23452152713105, 14.319671326785162], [79.23378542506676, 14.323454725317193], [79.23483436582215, 14.324840297263677], [79.23479665074687, 14.329662217139825], [79.23549237242294, 14.331045161875304], [79.23655212294561, 14.331053038515511], [79.23726938688685, 14.329680594127105], [79.23694573757014, 14.325889314922826], [79.23803234916699, 14.322452946969154], [79.23392007354248, 14.30623357393056], [79.23463456560982, 14.305205551019696], [79.23604740417817, 14.305216038737479], [79.23885429892964, 14.307647958438617], [79.24232481790857, 14.315595871844863], [79.24158886527043, 14.319379312303347], [79.24190723243521, 14.323859443554904], [79.23974750018091, 14.329010097974887], [79.23796512464429, 14.33106353335031], [79.23759034851797, 14.333816296164212], [79.23475083499521, 14.3355174028016], [79.23396338711407, 14.345844814519065], [79.23179780434722, 14.351684185810816], [79.22858305948348, 14.35613791657966], [79.2274825263687, 14.361296299393635], [79.22535732176942, 14.361969267902984], [79.22289784146837, 14.360228627900266], [79.22291415192197, 14.358162109724386], [79.22577032363952, 14.354394668980795], [79.22543331932805, 14.352325501685183], [79.22368049138922, 14.350590169103544], [79.22191953650645, 14.34988808581046], [79.21767749338375, 14.350200667735306], [79.21310675381052, 14.34741074606125], [79.21562055640264, 14.342263090395775], [79.21457440343414, 14.34053302100462], [79.21246030054476, 14.3398282199046], [79.20677802444804, 14.343574146289173], [79.20498701772699, 14.346660533560824], [79.20214163574671, 14.349050032925119], [79.20210590381427, 14.353527440968968], [79.20029547262926, 14.359024682066547], [79.19886854829011, 14.36073601826672], [79.1984932083441, 14.363488651759273], [79.19386722685365, 14.36758664036616], [79.19100483399095, 14.37204243732513], [79.19099098420341, 14.373764503616014], [79.19558952609168, 14.373110736041887], [79.20303102726773, 14.370411856998729], [79.20658055861185, 14.368372150929693], [79.20940698498548, 14.368393543295236], [79.21115433478715, 14.37081781669575], [79.21113242294864, 14.37357315353343], [79.20897689312623, 14.378034537937625], [79.20859338613667, 14.381820443753261], [79.20645145367358, 14.384559707897889], [79.20571729629582, 14.38799850498048], [79.20357801804148, 14.390393315667012], [79.2014166274621, 14.395543418243852], [79.1957160688049, 14.40135535780171], [79.19284764950264, 14.406499944417625], [79.19318436850003, 14.408569123812065], [79.19460059500871, 14.40823552071131]], [[79.23058366050655, 14.371308278451643], [79.22778700756876, 14.36749851118265], [79.22780870590178, 14.364743147889675], [79.22923816988036, 14.362687194511718], [79.22962938554598, 14.357867942698617], [79.23106419336948, 14.355123127618837], [79.23283333137486, 14.354791885611492], [79.2377604876337, 14.35723967574789], [79.24199730240666, 14.357615592943196], [79.24553023535775, 14.357641780624691], [79.24943521109302, 14.355259553306068], [79.25155495631105, 14.355275203192935], [79.25083232351277, 14.357336538545571], [79.24658475271107, 14.35833847495707], [79.2437315283712, 14.361761776186064], [79.23982099528463, 14.364832733899203], [79.23768229354793, 14.367227924647338], [79.23624206629218, 14.370661621314204], [79.23376347362635, 14.371332024978667], [79.23058366050655, 14.371308278451643]], [[79.2391925046815, 14.354839222338155], [79.23885537452544, 14.35277006001322], [79.24462329124432, 14.338001758357624], [79.245011394815, 14.33352685367158], [79.24786686712467, 14.329759061210538], [79.24963312006265, 14.32977209311046], [79.25068219130446, 14.33115760874802], [79.25239241857774, 14.338403564732682], [79.2579967611468, 14.344644818523289], [79.25832874341599, 14.347402826789393], [79.25441064767608, 14.351507357331968], [79.2515736714304, 14.352864226947242], [79.24839141032322, 14.353185173744736], [79.24590230808315, 14.355233428074039], [79.2430733039787, 14.355556913579093], [79.2391925046815, 14.354839222338155]], [[79.25830212029946, 14.35084709244004], [79.26008982574167, 14.348104650318946], [79.26079638878952, 14.3481098347644], [79.26078575492735, 14.349487542882045], [79.2590086912708, 14.350852283181744], [79.25830212029946, 14.35084709244004]], [[79.23789247196456, 14.340362959291527], [79.23967224309122, 14.338653957896842], [79.24037876878887, 14.338659199796426], [79.24000937533201, 14.34072311984638], [79.23822958822932, 14.342432121914277], [79.23752305153185, 14.342426872265198], [79.23789247196456, 14.340362959291527]], [[79.24148152567695, 14.333156277368579], [79.24256543635944, 14.33006431095678], [79.24398647764515, 14.329041495839235], [79.2432612093645, 14.331447238448174], [79.24218803484727, 14.333161511917812], [79.24148152567695, 14.333156277368579]], [[79.24473315508614, 14.323880350809278], [79.2461809000117, 14.31941326530115], [79.24760719988558, 14.317701567168749], [79.24900677352389, 14.31943411537727], [79.2493439854072, 14.321503273729636], [79.24862682252588, 14.322875766864138], [79.24685260006596, 14.323896009204757], [79.24576878559523, 14.326988006810115], [79.24434776516792, 14.328010835168186], [79.24473315508614, 14.323880350809278]], [[79.24655017984762, 14.31734932169926], [79.24479741007377, 14.31561415286349], [79.2441177263765, 14.312164682724147], [79.24237840769241, 14.308707378115034], [79.23712314932412, 14.303157355361343], [79.23431094649924, 14.301414269897247], [79.23256377433442, 14.298990186991762], [79.22903987522109, 14.29793064361092], [79.22411946091624, 14.294793976900651], [79.21777017076185, 14.293713169295554], [79.20899228019444, 14.287102894801743], [79.20547144305968, 14.285698616855608], [79.20337973658019, 14.282238449139026], [79.19528983822029, 14.278044009803176], [79.18862939102765, 14.27179358160617], [79.18546484722332, 14.27004731822412], [79.18017597550713, 14.268973673934395], [79.1798283650959, 14.268282148236334], [79.18054017730547, 14.267598713720329], [79.1844219667111, 14.267972757258393], [79.18548690648592, 14.267291996487444], [79.18549517749577, 14.266258750663644], [79.18409641542084, 14.264525916105454], [79.18127409063148, 14.2641599605346], [79.17846284683792, 14.262416316472981], [79.17848221261004, 14.260005417857906], [79.18098173285142, 14.256580144674475], [79.18310047383632, 14.256596297378696], [79.18520268393304, 14.25867892418603], [79.18728290592999, 14.263516862706243], [79.18938521533632, 14.26559946361262], [79.19395681911426, 14.268045215439273], [79.19640141647781, 14.271508111434265], [79.19815347070498, 14.273243560519347], [79.20026691571722, 14.273948414785359], [79.20306483017399, 14.277413928239234], [79.20799545241931, 14.279173280263908], [79.21676760337967, 14.28647239783162], [79.22418163047512, 14.286872273028171], [79.22522766360208, 14.28860228726285], [79.228039635967, 14.290345455546559], [79.23013988919672, 14.292772187778517], [79.23753004502677, 14.29627149111448], [79.2399675738446, 14.300767318153724], [79.2473127593621, 14.310121598884097], [79.24760987240961, 14.317357141663733], [79.24655017984762, 14.31734932169926]], [[79.12397880047774, 14.27439307078749], [79.12503536921488, 14.274745816097441], [79.12396739178843, 14.275770682990128], [79.12397880047774, 14.27439307078749]], [[79.01100228126424, 14.270721194345693], [79.00288683690577, 14.269964491587263], [79.00079857304786, 14.26650294151117], [79.00153210042099, 14.2634094606261], [79.00331274949359, 14.261702363911073], [79.00439930901588, 14.25861182336409], [79.00761342145157, 14.25450584377183], [79.00763156675289, 14.252439564282891], [79.0051842203686, 14.249663869568815], [78.99882582457057, 14.249955017981145], [78.99812271192675, 14.24960471496147], [78.99883797105305, 14.248577505249708], [79.00661467408823, 14.247609396405343], [79.01012427589647, 14.250049534155153], [79.01010615645494, 14.2521158172009], [79.00903784787434, 14.253140118387165], [79.00866058261543, 14.255892211457144], [79.00616778746637, 14.258282214812485], [79.00365977984153, 14.262394079041531], [79.00363855241721, 14.264804730547414], [79.00502973450384, 14.267227210918168], [79.007842457045, 14.268628362787823], [79.01242680531823, 14.269355461021668], [79.01242076429544, 14.270044221933642], [79.01100228126424, 14.270721194345693]], [[79.0145514916773, 14.268684364413328], [79.01597296810169, 14.267662986464819], [79.01986015392745, 14.267350914741257], [79.01949801898972, 14.268381126097392], [79.01772344096737, 14.269399588833735], [79.01489856636844, 14.269376068631853], [79.0145514916773, 14.268684364413328]], [[79.02127258222508, 14.267362647990934], [79.03015415213764, 14.261236873845608], [79.03122541112673, 14.259868086572094], [79.03441523288934, 14.258516768265151], [79.03940621300605, 14.253047287953464], [79.04156635720847, 14.248243274896787], [79.04895740732586, 14.251059135327884], [79.05105227058523, 14.253831565943761], [79.0535150557347, 14.254884919774122], [79.05596606037321, 14.257315810455292], [79.06408735726792, 14.2573818868367], [79.06265436223849, 14.259781153431454], [79.05877022076922, 14.259749557610698], [79.05701355662764, 14.25870200495926], [79.05313240293029, 14.258325930383249], [79.0475272768397, 14.253113908647357], [79.04399934327058, 14.252740589543242], [79.04081262124429, 14.253747667676304], [79.0397354964149, 14.255805282966447], [79.03332607775135, 14.26195188376633], [79.03013620033944, 14.263303180077763], [79.02835271655812, 14.26535488557344], [79.02409744266893, 14.267386089411493], [79.02127258222508, 14.267362647990934]], [[79.1741864373827, 14.267205681222961], [79.16749074096359, 14.265432119201579], [79.16362300561799, 14.263335752480113], [79.1572610727818, 14.263975516123068], [79.1526844183992, 14.26221793439561], [79.14774628227764, 14.261490754128438], [79.12655895898129, 14.26132518534397], [79.12268605041923, 14.259917014231007], [79.12234719021885, 14.258192217406783], [79.1251834918384, 14.256836831836095], [79.12942652762688, 14.256181300907238], [79.13683058842234, 14.257616978691695], [79.14320924293347, 14.25491130134696], [79.145681036932, 14.254930533552793], [79.14883095729184, 14.258399307825806], [79.15342152000078, 14.258434904758333], [79.15764218690985, 14.26053414578213], [79.16647033034133, 14.260602206909246], [79.1692758817685, 14.263034803607333], [79.17279609293111, 14.264439551306687], [79.17419475983341, 14.266172441906255], [79.1741864373827, 14.267205681222961]], [[79.11140642646643, 14.257416959868468], [79.11035570213679, 14.256375364399917], [79.11072028398125, 14.255000558435958], [79.1131834394638, 14.25605333179575], [79.1128188695485, 14.257428143046674], [79.11140642646643, 14.257416959868468]], [[79.10541793942821, 14.255647338691421], [79.10085638822686, 14.252166834326173], [79.09592166132146, 14.251094228568117], [79.09557434414414, 14.250402613599663], [79.09804890754887, 14.250077934651777], [79.10015883809692, 14.251128013458112], [79.10439602595822, 14.251161723187332], [79.10790692162264, 14.253600560788811], [79.10718634714652, 14.255316958707349], [79.10541793942821, 14.255647338691421]], [[79.06869819892174, 14.255008364790577], [79.070484192575, 14.252611905800352], [79.07154347698228, 14.252620472882391], [79.07011059170866, 14.255019798974873], [79.06869819892174, 14.255008364790577]], [[79.08355747552964, 14.251684051299494], [79.08217128598018, 14.248573140763241], [79.08288619442796, 14.24754562970412], [79.08923021884306, 14.248974201153834], [79.09169028781427, 14.250371573911572], [79.09097540519592, 14.251399115014909], [79.0867353423398, 14.25170956270674], [79.08355747552964, 14.251684051299494]], [[79.03697332187184, 14.248549937773994], [79.03838862417096, 14.248217168148981], [79.03908288459102, 14.249600519750699], [79.03731151184853, 14.250274773928176], [79.03697332187184, 14.248549937773994]], [[78.99355101571877, 14.247499890037641], [78.99180394500392, 14.24541877645515], [78.99219964624525, 14.24060047026862], [78.9932770820109, 14.238543113837999], [78.9979153826176, 14.23307159805755], [79.00358232867544, 14.231052611555338], [79.01068548194496, 14.226290191756778], [79.01393203539557, 14.218395838566499], [79.01326206643897, 14.214257385035822], [79.0143301516362, 14.213233035542341], [79.01644528081957, 14.213594998880744], [79.01924248119025, 14.2167178619947], [79.0192244886985, 14.218784162259048], [79.01674426312708, 14.219796819267373], [79.01385382845504, 14.2273497734766], [79.01100537482326, 14.230081326069985], [79.00533244994058, 14.232789260852108], [79.00214894687198, 14.233451458581195], [79.00001245686899, 14.235500000084786], [78.99611065031932, 14.237533706262639], [78.9935997131129, 14.241989854821432], [78.99392539003375, 14.245092218462155], [78.9956633570449, 14.248206451452234], [78.99355101571877, 14.247499890037641]], [[79.03345444797118, 14.247143317209911], [79.034166569858, 14.24646036522745], [79.03487272494142, 14.246466182169833], [79.03450473698014, 14.248185202507527], [79.03379857670744, 14.248179383789823], [79.03345444797118, 14.247143317209911]], [[79.04052197706443, 14.246512642584552], [79.03522878336997, 14.246124703970947], [79.03560569957148, 14.243372523000222], [79.03772711511797, 14.243045564604888], [79.03912453575356, 14.244779106439234], [79.04231113087069, 14.243772034996306], [79.04265529874132, 14.244808093598232], [79.04157527158259, 14.247210113416607], [79.04052197706443, 14.246512642584552]], [[79.16763263199815, 14.247867101349243], [79.16587822874646, 14.246475887464173], [79.16799407803074, 14.246836575515749], [79.16763263199815, 14.247867101349243]], [[79.07870158792157, 14.241312439113432], [79.07803331680725, 14.236829620486064], [79.07875111083534, 14.23545772346472], [79.08229925337459, 14.233419731103206], [79.0840645909058, 14.233433900852132], [79.08439442868519, 14.236191903567892], [79.08188802706147, 14.240304810163016], [79.0804669830344, 14.241326643147532], [79.07870158792157, 14.241312439113432]]]]}}, {"type": "Feature", "properties": {"depth_class": 3, "depth_lo_m": 2.0, "t_s": 24300.348962449603}, "geometry": {"type": "MultiPolygon", "coordinates": [[[[78.9956633570449, 14.248206451452234], [78.99392539003375, 14.245092218462155], [78.9935997131129, 14.241989854821432], [78.99611065031932, 14.237533706262639], [79.00001245686899, 14.235500000084786], [79.00214894687198, 14.233451458581195], [79.00533244994058, 14.232789260852108], [79.01100537482326, 14.230081326069985], [79.01385382845504, 14.2273497734766], [79.01674426312708, 14.219796819267373], [79.0192244886985, 14.218784162259048], [79.01924248119025, 14.2167178619947], [79.01644528081957, 14.213594998880744], [79.0143301516362, 14.213233035542341], [79.01326206643897, 14.214257385035822], [79.01393203539557, 14.218395838566499], [79.01068548194496, 14.226290191756778], [79.00358232867544, 14.231052611555338], [78.9979153826176, 14.23307159805755], [78.9932770820109, 14.238543113837999], [78.99219964624525, 14.24060047026862], [78.99180394500392, 14.24541877645515], [78.99354797144066, 14.247844267148926], [78.9956633570449, 14.248206451452234]], [[79.00748094666648, 14.229363139452412], [79.01138553914265, 14.226984832969967], [79.01426702525596, 14.220465065313595], [79.01497609683146, 14.220126548226707], [79.01494603566543, 14.223570371879429], [79.01243864421077, 14.227682410250866], [79.00959620326509, 14.229725181122197], [79.00711884225734, 14.230393335653254], [79.00748094666648, 14.229363139452412]], [[79.01430610767282, 14.21598809505003], [79.01396510657922, 14.21460763319327], [79.01467716385987, 14.213924732001205], [79.01643627429735, 14.214628147573338], [79.01606523168218, 14.21669151516702], [79.01430610767282, 14.21598809505003]]], [[[79.0804669830344, 14.241326643147532], [79.08439442868519, 14.236191903567892], [79.0840645909058, 14.233433900852132], [79.08229925337459, 14.233419731103206], [79.07910709249272, 14.235116168894505], [79.07803331680725, 14.236829620486064], [79.07800125995254, 14.240617964216305], [79.07870158792157, 14.241312439113432], [79.0804669830344, 14.241326643147532]], [[79.0794456043216, 14.23684098520907], [79.08227890498691, 14.2358305021813], [79.08119350994012, 14.238921552707701], [79.07942522056187, 14.239251751550986], [79.0794456043216, 14.23684098520907]]], [[[79.04157527158259, 14.247210113416607], [79.04265529874132, 14.244808093598232], [79.04231113087069, 14.243772034996306], [79.03912453575356, 14.244779106439234], [79.03772711511797, 14.243045564604888], [79.03596175156059, 14.243031042858707], [79.03524666630278, 14.2440583884246], [79.03522878336997, 14.246124703970947], [79.03981879325114, 14.246162455499089], [79.04157527158259, 14.247210113416607]]], [[[79.034166569858, 14.24646036522745], [79.03344848053045, 14.247832088179392], [79.03450473698014, 14.248185202507527], [79.03487272494142, 14.246466182169833], [79.034166569858, 14.24646036522745]]], [[[79.09168449565654, 14.251060368518246], [79.09098989074761, 14.24967712918266], [79.08923021884306, 14.248974201153834], [79.084651642336, 14.247559808866185], [79.08217710594337, 14.247884349856077], [79.08355747552964, 14.251684051299494], [79.09168449565654, 14.251060368518246]]], [[[79.10541793942821, 14.255647338691421], [79.1078983050423, 14.254633762163833], [79.10790692162264, 14.253600560788811], [79.10545244932695, 14.251514538924452], [79.10015883809692, 14.251128013458112], [79.09804890754887, 14.250077934651777], [79.09557434414414, 14.250402613599663], [79.09592166132146, 14.251094228568117], [79.09909665790497, 14.251463973058772], [79.10226302916504, 14.25286687467973], [79.10541793942821, 14.255647338691421]]], [[[79.07011059170866, 14.255019798974873], [79.07117867115258, 14.25399519001406], [79.07154347698228, 14.252620472882391], [79.070484192575, 14.252611905800352], [79.06869819892174, 14.255008364790577], [79.07011059170866, 14.255019798974873]]], [[[79.02409744266893, 14.267386089411493], [79.02835271655812, 14.26535488557344], [79.03120149016208, 14.262623163561205], [79.03332607775135, 14.26195188376633], [79.0397354964149, 14.255805282966447], [79.04045655658469, 14.254089153554533], [79.04258401559765, 14.253073389803893], [79.0475272768397, 14.253113908647357], [79.05313240293029, 14.258325930383249], [79.05701355662764, 14.25870200495926], [79.05877022076922, 14.259749557610698], [79.06265436223849, 14.259781153431454], [79.06408735726792, 14.2573818868367], [79.05596606037321, 14.257315810455292], [79.0535150557347, 14.254884919774122], [79.05105227058523, 14.253831565943761], [79.04895740732586, 14.251059135327884], [79.04156635720847, 14.248243274896787], [79.03940621300605, 14.253047287953464], [79.03441523288934, 14.258516768265151], [79.03122541112673, 14.259868086572094], [79.02127258222508, 14.267362647990934], [79.02409744266893, 14.267386089411493]]], [[[79.01242076429544, 14.270044221933642], [79.01207671784519, 14.26900813458938], [79.00608298611938, 14.267924835839489], [79.00432959197747, 14.266532539602142], [79.00363855241721, 14.264804730547414], [79.00402197023918, 14.261363899389185], [79.00866058261543, 14.255892211457144], [79.00903784787434, 14.253140118387165], [79.01010615645494, 14.2521158172009], [79.01012427589647, 14.250049534155153], [79.00661467408823, 14.247609396405343], [79.00343701725384, 14.247582825454867], [78.99812878730756, 14.248915958893836], [78.99882582457057, 14.249955017981145], [79.0051842203686, 14.249663869568815], [79.00763156675289, 14.252439564282891], [79.00689515027562, 14.255877461785223], [79.00511457630319, 14.257584595537606], [79.00331274949359, 14.261702363911073], [79.00117293107508, 14.264095256179555], [79.00079857304786, 14.26650294151117], [79.00183662490771, 14.268922474439536], [79.00394312577164, 14.270317747986837], [79.00783034746324, 14.270005880801168], [79.01100228126424, 14.270721194345693], [79.01242076429544, 14.270044221933642]]], [[[79.01914190053822, 14.268722572631784], [79.01986015392745, 14.267350914741257], [79.01597296810169, 14.267662986464819], [79.01454847458163, 14.26902874533953], [79.01772344096737, 14.269399588833735], [79.01914190053822, 14.268722572631784]]], [[[79.16763263199815, 14.247867101349243], [79.16764375253824, 14.246489451739913], [79.16587822874646, 14.246475887464173], [79.16692641797846, 14.247861676658548], [79.16763263199815, 14.247867101349243]]], [[[79.1131834394638, 14.25605333179575], [79.11177960447709, 14.255008948259201], [79.11036430862588, 14.255342161703707], [79.11035570213679, 14.256375364399917], [79.11140642646643, 14.257416959868468], [79.1128188695485, 14.257428143046674], [79.1131834394638, 14.25605333179575]]], [[[79.17384717200218, 14.265480910007005], [79.16822205388014, 14.262337840479693], [79.16647033034133, 14.260602206909246], [79.15764218690985, 14.26053414578213], [79.15342152000078, 14.258434904758333], [79.14883095729184, 14.258399307825806], [79.145681036932, 14.254930533552793], [79.14320924293347, 14.25491130134696], [79.13683058842234, 14.257616978691695], [79.12942652762688, 14.256181300907238], [79.1251834918384, 14.256836831836095], [79.12234719021885, 14.258192217406783], [79.12268605041923, 14.259917014231007], [79.12655895898129, 14.26132518534397], [79.14774628227764, 14.261490754128438], [79.1526844183992, 14.26221793439561], [79.1572610727818, 14.263975516123068], [79.16362300561799, 14.263335752480113], [79.17277388406386, 14.267194854183902], [79.1741864373827, 14.267205681222961], [79.17384717200218, 14.265480910007005]]], [[[79.12468222887372, 14.27474303587247], [79.12433479157686, 14.274051448841604], [79.12396739178843, 14.275770682990128], [79.12468222887372, 14.27474303587247]]], [[[79.24765796568524, 14.311157480785683], [79.24242125898562, 14.303196580120588], [79.2399675738446, 14.300767318153724], [79.23753004502677, 14.29627149111448], [79.23013988919672, 14.292772187778517], [79.228039635967, 14.290345455546559], [79.22522766360208, 14.28860228726285], [79.22418163047512, 14.286872273028171], [79.21676760337967, 14.28647239783162], [79.20799545241931, 14.279173280263908], [79.20306483017399, 14.277413928239234], [79.20026691571722, 14.273948414785359], [79.19815347070498, 14.273243560519347], [79.19640141647781, 14.271508111434265], [79.19395681911426, 14.268045215439273], [79.18938521533632, 14.26559946361262], [79.18728290592999, 14.263516862706243], [79.18520268393304, 14.25867892418603], [79.18310047383632, 14.256596297378696], [79.18169074023827, 14.256241116154055], [79.17955541973359, 14.258291437791513], [79.17848221261004, 14.260005417857906], [79.17846284683792, 14.262416316472981], [79.18127409063148, 14.2641599605346], [79.18409641542084, 14.264525916105454], [79.18549517749577, 14.266258750663644], [79.1851310079977, 14.267633722422747], [79.18054017730547, 14.267598713720329], [79.1798283650959, 14.268282148236334], [79.18017597550713, 14.268973673934395], [79.18546484722332, 14.27004731822412], [79.18862939102765, 14.27179358160617], [79.19528983822029, 14.278044009803176], [79.20337973658019, 14.282238449139026], [79.20547144305968, 14.285698616855608], [79.20899228019444, 14.287102894801743], [79.21777017076185, 14.293713169295554], [79.22411946091624, 14.294793976900651], [79.22903987522109, 14.29793064361092], [79.23256377433442, 14.298990186991762], [79.23431094649924, 14.301414269897247], [79.23712314932412, 14.303157355361343], [79.24237840769241, 14.308707378115034], [79.24514528587117, 14.31630561252894], [79.24760987240961, 14.317357141663733], [79.24765796568524, 14.311157480785683]], [[79.22272022569103, 14.293061318094312], [79.22238327324071, 14.290992150109986], [79.2241519019608, 14.290660914700434], [79.22626021230748, 14.292054409975925], [79.22660530082855, 14.29309030971492], [79.22448346486397, 14.29341892585952], [79.22272022569103, 14.293061318094312]], [[79.19567317558982, 14.274258099569243], [79.19672989551398, 14.274610539943858], [79.19742524224675, 14.275993555479843], [79.1956649461528, 14.275291350533957], [79.19567317558982, 14.274258099569243]], [[79.19356249321832, 14.273208789252461], [79.19182147139671, 14.27009564507612], [79.19288365747968, 14.269759266487386], [79.19463292557813, 14.27183915381627], [79.19462194846405, 14.273216821234497], [79.19356249321832, 14.273208789252461]]], [[[79.24434776516792, 14.328010835168186], [79.24576878559523, 14.326988006810115], [79.24685260006596, 14.323896009204757], [79.24862682252588, 14.322875766864138], [79.2493439854072, 14.321503273729636], [79.24900677352389, 14.31943411537727], [79.24760719988558, 14.317701567168749], [79.2461809000117, 14.31941326530115], [79.24473315508614, 14.323880350809278], [79.24434776516792, 14.328010835168186]]], [[[79.24218803484727, 14.333161511917812], [79.2432612093645, 14.331447238448174], [79.24398647764515, 14.329041495839235], [79.24256543635944, 14.33006431095678], [79.24148152567695, 14.333156277368579], [79.24218803484727, 14.333161511917812]]], [[[79.23752305153185, 14.342426872265198], [79.24036801751542, 14.340036893925237], [79.24037876878887, 14.338659199796426], [79.23789247196456, 14.340362959291527], [79.23752305153185, 14.342426872265198]]], [[[79.25830212029946, 14.35084709244004], [79.26078575492735, 14.349487542882045], [79.26079638878952, 14.3481098347644], [79.25866605368718, 14.349471981679741], [79.25830212029946, 14.35084709244004]]], [[[79.23624206629218, 14.370661621314204], [79.23768229354793, 14.367227924647338], [79.23982099528463, 14.364832733899203], [79.2437315283712, 14.361761776186064], [79.24658475271107, 14.35833847495707], [79.25083232351277, 14.357336538545571], [79.25155495631105, 14.355275203192935], [79.24943521109302, 14.355259553306068], [79.24553023535775, 14.357641780624691], [79.2377604876337, 14.35723967574789], [79.23283333137486, 14.354791885611492], [79.23106419336948, 14.355123127618837], [79.22962938554598, 14.357867942698617], [79.22960230328843, 14.361312152108804], [79.22780870590178, 14.364743147889675], [79.22778700756876, 14.36749851118265], [79.23058366050655, 14.371308278451643], [79.23624206629218, 14.370661621314204]]]]}}, {"type": "Feature", "properties": {"depth_class": 4, "depth_lo_m": 3.0, "t_s": 24300.348962449603}, "geometry": {"type": "MultiPolygon", "coordinates": [[[[79.01606823495209, 14.216347132416987], [79.01643627429735, 14.214628147573338], [79.01467716385987, 14.213924732001205], [79.01396510657922, 14.21460763319327], [79.01430610767282, 14.21598809505003], [79.01500614995845, 14.21668272352145], [79.01606823495209, 14.216347132416987]]], [[[79.00888709394327, 14.230063677033753], [79.01243864421077, 14.227682410250866], [79.01422792924822, 14.224942033798266], [79.0153171079619, 14.221507009917648], [79.01497609683146, 14.220126548226707], [79.01426702525596, 14.220465065313595], [79.01138553914265, 14.226984832969967], [79.00748094666648, 14.229363139452412], [79.00711884225734, 14.230393335653254], [79.00888709394327, 14.230063677033753]]], [[[79.08119350994012, 14.238921552707701], [79.082270183084, 14.23686368962877], [79.08227890498691, 14.2358305021813], [79.08086662139726, 14.235819154999644], [79.0794456043216, 14.23684098520907], [79.07942522056187, 14.239251751550986], [79.08119350994012, 14.238921552707701]]], [[[79.19463292557813, 14.27183915381627], [79.19288365747968, 14.269759266487386], [79.19182147139671, 14.27009564507612], [79.1928589371562, 14.272859015480737], [79.19462194846405, 14.273216821234497], [79.19463292557813, 14.27183915381627]]], [[[79.19742524224675, 14.275993555479843], [79.19672989551398, 14.274610539943858], [79.19567317558982, 14.274258099569243], [79.19601535872857, 14.275638442684448], [79.19742524224675, 14.275993555479843]]], [[[79.22660530082855, 14.29309030971492], [79.22626021230748, 14.292054409975925], [79.2241519019608, 14.290660914700434], [79.22273916340761, 14.29065036681396], [79.22202467561016, 14.291678354229056], [79.22272022569103, 14.293061318094312], [79.22660530082855, 14.29309030971492]]]]}}]}