{"type": "FeatureCollection", "features": [{"type": "Feature", "properties": {"depth_class": 1, "depth_lo_m": 0.3, "t_s": 71100.5410185169}, "geometry": {"type": "MultiPolygon", "coordinates": [[[[79.01353689374338, 14.223214254461691], [79.01602618186206, 14.221168489959858], [79.01990356688542, 14.221889463281796], [79.02168672354301, 14.21983777971867], [79.02171966913033, 14.216049556950844], [79.02102559621225, 14.214666178048029], [79.01646329169536, 14.211528701211513], [79.01293009436576, 14.211843776031177], [79.01150297172912, 14.213553947723556], [79.01148190310485, 14.215964620613429], [79.01217892634699, 14.21700363815606], [79.01145480907574, 14.21906405642834], [79.01178676525986, 14.221477665450031], [79.01353689374338, 14.223214254461691]], [[79.01815339219868, 14.220152915754356], [79.01641525626744, 14.217038827487833], [79.01324101536012, 14.216668060368143], [79.01254398765876, 14.215629045399083], [79.01291806577964, 14.213221304854397], [79.01610126561869, 14.2125589214722], [79.01819839683871, 14.214987168333762], [79.02030755945819, 14.21603786761961], [79.02027459039152, 14.219826087145787], [79.01815339219868, 14.220152915754356]]], [[[79.16062073082857, 14.241613360551185], [79.16141054658739, 14.231286456682], [79.16388767401897, 14.23061664514664], [79.16425466223365, 14.228897297796511], [79.16320934656169, 14.227167095131888], [79.16109368959671, 14.226806387010601], [79.15898919719153, 14.225068015579426], [79.15722384841197, 14.225054407334662], [79.15543614648841, 14.227796071131706], [79.15331770701934, 14.227779705115275], [79.15189701514774, 14.228802013680765], [79.15187180994066, 14.23190170211306], [79.15291145065518, 14.234320765836308], [79.15572493499282, 14.235720239400475], [79.15708977487797, 14.241586124182863], [79.15814347395816, 14.242283121995076], [79.15990895746806, 14.242296739560603], [79.16062073082857, 14.241613360551185]], [[79.15890271052439, 14.235744762761133], [79.156100381072, 14.232967682060588], [79.1561087649173, 14.231934450296858], [79.1582244551067, 14.232295207249601], [79.15890271052439, 14.235744762761133]]], [[[79.08115859049458, 14.243054298225754], [79.08615978992073, 14.236206060530675], [79.08618589922843, 14.233106490654498], [79.08443507785556, 14.231370355050153], [79.08231669182003, 14.231353355484158], [79.07770355755726, 14.234071618699938], [79.07591488787189, 14.236812557760208], [79.0723871015607, 14.236439684372865], [79.07131327157252, 14.238153098368386], [79.07129864910195, 14.23987506592863], [79.07305233664657, 14.24126689858418], [79.07588279573659, 14.240600896764864], [79.07868701807759, 14.243034413726718], [79.08115859049458, 14.243054298225754]], [[79.07800417460139, 14.24027356938424], [79.07768607369903, 14.236137988239372], [79.08301119914269, 14.23273660844995], [79.0844205620407, 14.23309233689971], [79.08475040425927, 14.235850339677373], [79.08259709068597, 14.239966087753174], [79.081173141624, 14.241332321110304], [79.07870158792157, 14.241312439113432], [79.07800417460139, 14.24027356938424]]], [[[79.11821835883717, 14.245071512487145], [79.12036827828598, 14.241299773694987], [79.1203882306469, 14.238888950273804], [79.11899871194554, 14.236122600929617], [79.11653001572947, 14.235758714744671], [79.1143801013723, 14.239530419205416], [79.11400413678402, 14.242282846396957], [79.11680598822896, 14.245060370735448], [79.11821835883717, 14.245071512487145]]], [[[79.16938705731988, 14.249258304748714], [79.17011271268609, 14.246852832703508], [79.16871418063701, 14.245119933448054], [79.16695422780072, 14.244417553686498], [79.16306732832118, 14.244732099680535], [79.1630478205135, 14.247142980536276], [79.16444353025945, 14.24922032078483], [79.16620350837614, 14.249922722342431], [79.16938705731988, 14.249258304748714]]], [[[79.03554013007644, 14.250949013555928], [79.0366291776813, 14.247513873873078], [79.0394686893612, 14.245815167890548], [79.03913643322558, 14.2434015593998], [79.03738594882373, 14.241665115509615], [79.03561761715916, 14.24199497871526], [79.03418744478843, 14.24404966533019], [79.03170398768316, 14.245406833998175], [79.03027674584823, 14.24711710443601], [79.03026180257916, 14.248839028483157], [79.0316681509471, 14.249539455419903], [79.03306256862246, 14.251617416362873], [79.03554013007644, 14.250949013555928]], [[79.03381349243577, 14.24645745597372], [79.03486676209809, 14.24715495376699], [79.03450175466527, 14.248529588185537], [79.0330924167534, 14.248173562985087], [79.03310435377429, 14.246796021339028], [79.03381349243577, 14.24645745597372]]], [[[79.15065551436388, 14.25118042298958], [79.15067796568138, 14.24842515076216], [79.14820623550241, 14.248405978891922], [79.14749159442616, 14.24943372182049], [79.1478306459271, 14.251158505782573], [79.14853124258536, 14.251852805341743], [79.15065551436388, 14.25118042298958]]], [[[79.15802887627488, 14.256403951975123], [79.15945532202726, 14.254692805448435], [79.15946649775496, 14.253315162967034], [79.15771211425199, 14.251923890545152], [79.15134489700958, 14.253252351628461], [79.15133086560505, 14.254974396804977], [79.15378865714396, 14.256715592266994], [79.15625768624203, 14.257079127139203], [79.15802887627488, 14.256403951975123]]], [[[79.1110762582661, 14.254658954494909], [79.1114236304979, 14.25535055330431], [79.11248295305874, 14.255358940205797], [79.11213557738573, 14.254667342540868], [79.1110762582661, 14.254658954494909]]], [[[79.13540396790943, 14.259327966497983], [79.1354096308371, 14.258639154953308], [79.13224575743192, 14.256892254056714], [79.12694905539202, 14.256850706973788], [79.1251777986139, 14.257525639447499], [79.12552237344312, 14.25856162720693], [79.13046599471484, 14.258600442262582], [79.13222023190659, 14.259991900520431], [79.13540396790943, 14.259327966497983]]], [[[79.02804154572235, 14.260530589186269], [79.0284185952044, 14.257778436996752], [79.02702119820533, 14.256044834396468], [79.02455556226504, 14.255335604427632], [79.02207192835726, 14.256692648188968], [79.0220509053966, 14.259103327882938], [79.02345127789235, 14.260492573724974], [79.0252107656334, 14.261195972272752], [79.02804154572235, 14.260530589186269]], [[79.02383138253299, 14.257396052775857], [79.02559984263743, 14.257066295060401], [79.02664413778716, 14.25879698293623], [79.02487266498778, 14.259471130173212], [79.02381937995807, 14.258773585480736], [79.02383138253299, 14.257396052775857]]], [[[79.04956882551404, 14.262085344424321], [79.04994562326007, 14.259333125376621], [79.04783887698481, 14.257938234206215], [79.04607338689839, 14.25792377245424], [79.04499925057591, 14.2596370268955], [79.04497846673935, 14.262047739314534], [79.04603184337627, 14.262745200570048], [79.04850358252169, 14.262765450493285], [79.04956882551404, 14.262085344424321]]], [[[79.08311707004823, 14.262013076241544], [79.08349346713261, 14.259260752706338], [79.08279307445079, 14.258566284081496], [79.07996530927423, 14.258887946705295], [79.07854121259146, 14.260254145413967], [79.0785324580722, 14.261287328479622], [79.07958303760977, 14.26232904852435], [79.08205190822744, 14.262693345098118], [79.08311707004823, 14.262013076241544]]], [[[79.12394171778831, 14.278870309831907], [79.12643083991121, 14.276823352878795], [79.12715136554822, 14.275106890150902], [79.12682669925177, 14.271660076377358], [79.1254227035828, 14.270615754957872], [79.12364847891735, 14.271635064713587], [79.12112797612751, 14.277470424543266], [79.12146397987681, 14.279539625294499], [79.12394171778831, 14.278870309831907]]], [[[79.10415986245036, 14.279402474961445], [79.10381825341616, 14.27802206717275], [79.1024056894136, 14.278010814823002], [79.10238837462667, 14.28007720665401], [79.10415986245036, 14.279402474961445]]], [[[79.16183402528017, 14.396272182838453], [79.16432991571462, 14.393536146779038], [79.16434961879118, 14.391125293821842], [79.16330089151991, 14.389739431609161], [79.16224090765948, 14.389731195144094], [79.16116964773569, 14.391100581962391], [79.16114709068017, 14.393855837514069], [79.16183402528017, 14.396272182838453]]], [[[79.18198864614028, 14.263132104716195], [79.18342325462783, 14.260387553986488], [79.18166589140584, 14.25934084937527], [79.18025338116492, 14.259330072471167], [79.17812078375164, 14.261035961701381], [79.17810971501065, 14.262413617718758], [79.17916357911443, 14.26311054076691], [79.18198864614028, 14.263132104716195]]], [[[79.18692426218375, 14.26420300807869], [79.18728290592999, 14.263516862706243], [79.18692977065416, 14.263514176811396], [79.18692426218375, 14.26420300807869]]], [[[79.28492945042214, 14.287317783551732], [79.28108358186383, 14.282123266407808], [79.27755700305482, 14.281408876636018], [79.27439412916311, 14.279319270937537], [79.26875647614506, 14.277556101219542], [79.26665588953048, 14.275129675822535], [79.26101048802026, 14.274399628541637], [79.25610857610862, 14.268852625927817], [79.25612447568083, 14.266786054863482], [79.25508092170622, 14.264711729485281], [79.25510212664308, 14.261956301875284], [79.2561774558757, 14.25989748194078], [79.25584814965526, 14.25679504013676], [79.25514717210466, 14.256101015991053], [79.2530256999806, 14.256429932029718], [79.25370545703129, 14.259879388468715], [79.25191850558176, 14.262621872313398], [79.2515494229662, 14.264685849050823], [79.25399759590643, 14.267803824351931], [79.25396575307562, 14.271936961051432], [79.25851714227876, 14.277136997020422], [79.26027770338955, 14.277838761169141], [79.26131606496638, 14.280601932089462], [79.26272612779684, 14.280956673259677], [79.26486366364603, 14.278561117281843], [79.2666189880955, 14.279951698084073], [79.26873804623636, 14.279967114804801], [79.27577274141896, 14.283807116590435], [79.27859559575238, 14.284171997000142], [79.28316610855492, 14.286960618334344], [79.28454492950429, 14.291448435127867], [79.2852617646106, 14.290075794296772], [79.28492945042214, 14.287317783551732]]], [[[79.25073411393275, 14.278802190714982], [79.25217071989503, 14.275712716441049], [79.25183084218067, 14.27398798690142], [79.25007300338076, 14.27294173920666], [79.24724770884812, 14.272920967982243], [79.24618022624361, 14.273946449689683], [79.2465040624329, 14.277737741269133], [79.24896825802188, 14.278789212311041], [79.25073411393275, 14.278802190714982]]], [[[79.19695414393004, 14.290800813125486], [79.1948405619527, 14.290095913102396], [79.19447089438155, 14.292159731264253], [79.19517176236126, 14.29285392346381], [79.19693767621268, 14.292867313560018], [79.19695414393004, 14.290800813125486]]], [[[79.27887019828835, 14.294507512505202], [79.27815593121728, 14.295535695929633], [79.2788623365868, 14.295540808165784], [79.27887019828835, 14.294507512505202]]], [[[79.18595313436131, 14.297261473103875], [79.1845431488585, 14.296906279409477], [79.18417337042638, 14.298970068045566], [79.18593932123972, 14.2989835453901], [79.18595313436131, 14.297261473103875]]], [[[79.20493513193222, 14.308771967754], [79.2081413253558, 14.305351771985597], [79.20851909468983, 14.302254666796411], [79.20959505810814, 14.300196134937295], [79.21137194010099, 14.298831747676497], [79.21067372517396, 14.297793176420267], [79.20748679872786, 14.29880249588417], [79.20253934854536, 14.299109592246833], [79.20358524958807, 14.300839687332529], [79.20215329237895, 14.303239931995751], [79.20176447246655, 14.307714685307179], [79.20246266829233, 14.308753280720026], [79.20493513193222, 14.308771967754]], [[79.20391655778577, 14.303597697494215], [79.2049816306551, 14.302916864198435], [79.20603849858513, 14.303269279794971], [79.20530748663334, 14.306363710138294], [79.203894664591, 14.306353038948272], [79.20391655778577, 14.303597697494215]]], [[[79.22507900271684, 14.307545491010753], [79.22297327582558, 14.305807549877478], [79.2197971174902, 14.305439344319355], [79.21731108775303, 14.307142916956282], [79.21730293744946, 14.308176177363963], [79.22083504917154, 14.30820264373953], [79.222943485995, 14.309596183040178], [79.22506277199183, 14.309612020414889], [79.22507900271684, 14.307545491010753]]], [[[79.26179217279817, 14.310572392354768], [79.26181071796782, 14.308161393861278], [79.25970201220284, 14.306768173522379], [79.25687362454231, 14.307091896106826], [79.25508892688053, 14.309489928243392], [79.25578207386516, 14.311217250016881], [79.26108042546358, 14.311256080491736], [79.26179217279817, 14.310572392354768]]], [[[79.26595417470595, 14.320591797022404], [79.26632063637089, 14.318872231509788], [79.26527944545741, 14.316453492923731], [79.26422768777542, 14.315412466407066], [79.26246153336433, 14.31539955574383], [79.26174977086426, 14.316083244132399], [79.26172591184292, 14.319183097082039], [79.2627723722026, 14.320912991470143], [79.26488916292132, 14.321272914336435], [79.26595417470595, 14.320591797022404]]], [[[79.23311398931166, 14.318971974108608], [79.23206777916437, 14.317241975630628], [79.23135592905307, 14.31792556164448], [79.23169836989608, 14.319305881585604], [79.23311398931166, 14.318971974108608]]], [[[79.23555969116595, 14.322434586988372], [79.23590485353678, 14.323470480946286], [79.23661133026621, 14.323475728623745], [79.23662209151291, 14.322098035371836], [79.23555969116595, 14.322434586988372]]], [[[79.20629733020643, 14.492022341577544], [79.21409360945691, 14.489670693548826], [79.21871106367472, 14.486950257649175], [79.2222706897504, 14.48387728298417], [79.2265563432326, 14.47839865863491], [79.22980320225408, 14.47015660943654], [79.22986323804587, 14.462579416195751], [79.2288328934064, 14.458782842401305], [79.22673405179266, 14.456011537137902], [79.22425993903643, 14.455992891097816], [79.21894456187604, 14.457674928430722], [79.21576355026136, 14.457650842270237], [79.21363187006962, 14.459012421257057], [79.21221808205702, 14.459001688733004], [79.20940706181207, 14.456913712566873], [79.19916279350477, 14.45614671208121], [79.1967192693943, 14.45233924447338], [79.1960401813088, 14.448889711383073], [79.19464036828099, 14.447156821828326], [79.19465982144033, 14.444745939018537], [79.1978517076016, 14.443392638994649], [79.19822453653106, 14.440984453299974], [79.19541109690378, 14.439240760447378], [79.19081674222846, 14.439205540360456], [79.1872965757583, 14.437456333890257], [79.18448886334676, 14.435023704715473], [79.18380160930319, 14.432607390117747], [79.1823991915495, 14.431218858400484], [79.18028160800289, 14.43085809643896], [79.18029559747943, 14.429136048704764], [79.18350965027874, 14.425027643618321], [79.1842331694779, 14.422966621731392], [79.18672636740071, 14.420574768515937], [79.191676490374, 14.420268320024492], [79.19238880852285, 14.419584910479994], [79.19241935333186, 14.41579637600594], [79.20061330687831, 14.407592538871826], [79.20273348920482, 14.407608682679687], [79.20483989487872, 14.409346881773345], [79.20767233716994, 14.40867952385199], [79.20804770959725, 14.405926881466991], [79.20629466368234, 14.40419139472762], [79.20595231716187, 14.402811050512067], [79.21058440121082, 14.398024063164781], [79.21202522773405, 14.39459059552828], [79.21664880331753, 14.390836704235753], [79.2173800795072, 14.387742273546543], [79.21845100938874, 14.386372589620276], [79.22093252632878, 14.38535795295498], [79.22343035771878, 14.382276773019914], [79.23193734115165, 14.378896098189767], [79.23302167344791, 14.375804226931718], [79.23408974650287, 14.374778874728028], [79.23762833152993, 14.374116367021996], [79.23940840211587, 14.372407402919347], [79.24120190828675, 14.368976308101544], [79.24440320425587, 14.366244520630293], [79.24797649179786, 14.36110432432863], [79.25258275815378, 14.35941612431922], [79.25543849457529, 14.355648271314097], [79.26040321633127, 14.35327364640989], [79.26325343311642, 14.350194528592846], [79.26715811749528, 14.347811971903818], [79.2682470767408, 14.344031002802204], [79.2700266770527, 14.342321751220808], [79.27110498886167, 14.339918475676082], [79.27113403561313, 14.336129754119687], [79.26938885377916, 14.333361444509425], [79.26939942265784, 14.331983728220305], [79.27155063275069, 14.327866020536176], [79.27192498218879, 14.325113154705374], [79.27441351518121, 14.323064558012739], [79.27936682633405, 14.322067151341288], [79.28364241527862, 14.317275778804426], [79.28436720414362, 14.314869856407505], [79.28442996748394, 14.306603477932107], [79.28586113567623, 14.304202640792225], [79.28589769219808, 14.299380579308561], [79.28449269073968, 14.298337093449653], [79.28342260901054, 14.299707178317385], [79.28305109179996, 14.302115655849818], [79.28198098151088, 14.303485730836849], [79.28191290451122, 14.312440964716005], [79.27906082994056, 14.315864829530787], [79.27764263938377, 14.316543452030727], [79.27619288997857, 14.321355233494726], [79.27477202436782, 14.322378264090709], [79.27230459006897, 14.321671426827889], [79.26982925579746, 14.321997854037585], [79.2658933177901, 14.328513656491953], [79.26517092590284, 14.33057506448696], [79.26545001705884, 14.340221638117594], [79.26438225279499, 14.341247169396139], [79.2636518336472, 14.344341847628707], [79.26258404040955, 14.345367367347825], [79.26011109870551, 14.34534923461802], [79.25940986425978, 14.344655195335953], [79.25767543010481, 14.340509103395581], [79.25556914019181, 14.33877139226038], [79.2545333347797, 14.335663760501253], [79.25207919314006, 14.33323457500455], [79.25139136708415, 14.33081838938829], [79.25068486175431, 14.330813183063958], [79.25030756774386, 14.333910409307352], [79.25240042610358, 14.337370287331415], [79.2548626083778, 14.338766195550157], [79.25659964242207, 14.34256787485148], [79.25727423068055, 14.346706185813138], [79.25513055667116, 14.349790430237048], [79.2505191596075, 14.352167555680259], [79.24733422887506, 14.352832913712424], [79.2452037786638, 14.354194924767434], [79.2391978898411, 14.354150376589457], [79.23849670307405, 14.353456280104373], [79.23924634341155, 14.34795076296398], [79.24391408381045, 14.33834095355417], [79.2446581390852, 14.333524240796134], [79.24643780478989, 14.331815175676745], [79.24788291290321, 14.327692509828477], [79.24964647825988, 14.328049965354014], [79.25069020244102, 14.330124331664445], [79.25246179592936, 14.329448490792574], [79.25317629642315, 14.328420412736632], [79.25320561976315, 14.324631723701968], [79.25110483910004, 14.322205139358275], [79.25112351407276, 14.319794156990374], [79.24939471494973, 14.314959183333668], [79.2487256383076, 14.310132014775126], [79.24418462412235, 14.303554054115777], [79.24137770997127, 14.301122195843504], [79.23963313859174, 14.298353731821809], [79.23929602642463, 14.296284569954725], [79.23754077937403, 14.294893794033054], [79.23577481050526, 14.29488070341067], [79.23366640705774, 14.29348728302225], [79.23013988919672, 14.292772187778517], [79.22874061416684, 14.291039560239906], [79.22557274386456, 14.289638187630743], [79.22524116743146, 14.286880176263287], [79.2238365595082, 14.285836371637945], [79.22207067443217, 14.285823187485851], [79.2202912508381, 14.287532096771377], [79.21887853478368, 14.287521528233919], [79.21782713418122, 14.28648033384487], [79.21536032759568, 14.285772968370573], [79.21256483842214, 14.2819631477574], [79.21045126992198, 14.281258389916994], [79.20729730382422, 14.278134706352962], [79.20236671041407, 14.276375343000913], [79.20061733436059, 14.274295500783063], [79.1985038847671, 14.273590649139061], [79.1936036754792, 14.268042538598014], [79.19078952533786, 14.266643439966625], [79.18867068144635, 14.266627344470784], [79.1854786348141, 14.268325242217127], [79.18160788758172, 14.266573556931588], [79.17701154757192, 14.26722731021394], [79.17525139830842, 14.26652496940594], [79.17420585539826, 14.264794789337506], [79.1706856276393, 14.26339006081065], [79.16647311494205, 14.260257795114313], [79.16224118854296, 14.259536345358615], [79.15728906214183, 14.26053141654612], [79.15447807998757, 14.258787516418398], [79.15270686319641, 14.259462661544333], [79.14882814628868, 14.258743716242805], [79.14603133612556, 14.255277686892017], [79.14179396991587, 14.25524470716833], [79.13965834426574, 14.257294629240409], [79.137180876029, 14.257964143825602], [79.13611303542372, 14.25898908289771], [79.14352853177787, 14.259046939515233], [79.14669816848522, 14.260104888613181], [79.1498594093043, 14.262196024621987], [79.15620728454064, 14.26327850380181], [79.1583176656391, 14.264328114427903], [79.16432926648223, 14.263341192718027], [79.16678168715254, 14.265771099255696], [79.17101097312876, 14.266836896142904], [79.17522366955257, 14.269969102029975], [79.18228378150573, 14.270367505842813], [79.18686364960712, 14.271780149258692], [79.19004198548588, 14.271804318073048], [79.19634657428085, 14.2783964537817], [79.19951954347644, 14.27910934223317], [79.20444197106183, 14.281902023969742], [79.21214638228442, 14.290226570971816], [79.21390685501848, 14.29092867270494], [79.21776474401202, 14.294402010526575], [79.21775660334517, 14.295435272294688], [79.22411675702773, 14.295138398682724], [79.2279829828987, 14.297578328890829], [79.23256377433442, 14.298990186991762], [79.23816934865458, 14.304887330474894], [79.24305270318645, 14.312845699578512], [79.24295622897556, 14.325244985475441], [79.23865280258924, 14.333479741549711], [79.23687037784217, 14.335533162783461], [79.23613692471379, 14.338972139632567], [79.23399037233891, 14.342400592484582], [79.23325144129078, 14.346528394957769], [79.23109394548936, 14.351334492231729], [79.22966999545633, 14.352701626615941], [79.2286074387039, 14.353038128522474], [79.2244060477378, 14.348184521105072], [79.22124288906339, 14.346094168128596], [79.21565326551574, 14.338130063835608], [79.21106639063944, 14.337406640468789], [79.2075064616355, 14.340824149643367], [79.2046694130209, 14.342180441861869], [79.20252512676612, 14.345264133748096], [79.1993292247393, 14.34730650432321], [79.19895668606306, 14.349714729332002], [79.19963570649807, 14.353164251794718], [79.19818401949087, 14.357975324544272], [79.19675984674684, 14.359342232320492], [79.19496027433216, 14.36346175221551], [79.19176127018301, 14.365848393141947], [79.18890441024277, 14.369615337063943], [79.18571914478859, 14.370279815672923], [79.18429759833803, 14.371302217084741], [79.17793257240787, 14.371942174579791], [79.1743827737739, 14.373981413201555], [79.16943650400962, 14.373943208480737], [79.16732509747746, 14.372893577349869], [79.16485198252765, 14.372874415588685], [79.16130488969576, 14.374569034471634], [79.15738186376306, 14.379016095993277], [79.15348414288727, 14.380363420545129], [79.14992268601695, 14.383779868770059], [79.14812772536345, 14.38721009047861], [79.14457460918712, 14.38959322205143], [79.14420990453645, 14.390968063958073], [79.14064528413546, 14.394728735366252], [79.13920056390741, 14.398506041139916], [79.13987013683021, 14.402988837954203], [79.13771577522758, 14.407104959271946], [79.13696617120198, 14.412265411624501], [79.13590037180987, 14.412945847198245], [79.13343259263054, 14.412237502235836], [79.12636258115, 14.412525924565854], [79.12387180053003, 14.414572676271698], [79.12279442373476, 14.416630641398728], [79.12067136489405, 14.416958168184593], [79.11605450786742, 14.419676725757943], [79.1135519636565, 14.423100933248259], [79.11035711129652, 14.424797463371826], [79.10892908836186, 14.426508115580901], [79.10959515033923, 14.43133532080772], [79.10885930201093, 14.434773608627488], [79.10565258785587, 14.437847627775326], [79.10141188708108, 14.437813508886402], [79.09749824391386, 14.440881703409858], [79.09713313607119, 14.442256421756646], [79.0978282215559, 14.443639699951461], [79.10273785984175, 14.448156709158313], [79.10306498122459, 14.451259099738062], [79.10092403337305, 14.453652764254624], [79.10017330307981, 14.458812958651402], [79.09625630693046, 14.462225472509056], [79.09625043902774, 14.462914256670292], [79.09446860602051, 14.464621913483185], [79.09199752352619, 14.46425747528406], [79.08773572227427, 14.466633781357595], [79.08803903936231, 14.472491287457807], [79.0904719081026, 14.477332854614282], [79.09607425793337, 14.483577761706835], [79.1009875625578, 14.487750503611542], [79.10416586978121, 14.488120585116487], [79.10951464278162, 14.482652999856766], [79.1162711650469, 14.477885380825088], [79.1180674863717, 14.474455572833602], [79.1212717437262, 14.471725833294967], [79.12199601772917, 14.469665096588324], [79.12413404760282, 14.467615632083241], [79.12700778742868, 14.46212778916969], [79.12983815117155, 14.46180587483703], [79.13334948931205, 14.464589127582137], [79.13511669065336, 14.464603139072008], [79.13582931839295, 14.463919940153435], [79.13619999288557, 14.461856339579473], [79.13550748616852, 14.460128741200542], [79.13093877484637, 14.456992710481957], [79.12958844039731, 14.449404705280859], [79.13670265613288, 14.443950317812027], [79.13849834464564, 14.440520273954746], [79.1431382975251, 14.435046083036683], [79.15130621380692, 14.43028830641349], [79.15626501351721, 14.428949418107106], [79.15731951296027, 14.429646513623618], [79.15730817985022, 14.43102413400552], [79.15337827426876, 14.436159790489127], [79.15406519492618, 14.438576155695698], [79.15547029442362, 14.439620435492547], [79.16394921288791, 14.440031066840357], [79.17385588862842, 14.43873031412698], [79.17596510816556, 14.440124366438603], [79.17984421988152, 14.441187648068128], [79.18265474106792, 14.443275924929086], [79.18404604612005, 14.446042102084714], [79.18471935145479, 14.450180467664522], [79.18717938843753, 14.451921572839362], [79.18820619472615, 14.45606265628207], [79.19206615839752, 14.459536650757741], [79.19240010411171, 14.461950241826695], [79.19096679712759, 14.464350254069531], [79.19447904658355, 14.467132688029368], [79.19516091423556, 14.470237812977192], [79.19475176519313, 14.477123321770325], [79.19648294932574, 14.48161422946159], [79.19467096574762, 14.487111234561825], [79.19499937036339, 14.490213645841077], [79.1964049866628, 14.491257737174159], [79.19958088196059, 14.491970962996765], [79.20629733020643, 14.492022341577544]], [[79.11811102023535, 14.469289630248094], [79.10404052385498, 14.461255058149701], [79.10334827920367, 14.459527395285797], [79.10338626361958, 14.455050277682735], [79.10553595566395, 14.451623406715624], [79.10555929196023, 14.448868252287435], [79.10065542184248, 14.443662506301353], [79.10031956246807, 14.441593296498896], [79.10174483484498, 14.440227112137366], [79.10598558214946, 14.440261230612542], [79.10990202262369, 14.436848483832563], [79.1117038331641, 14.432729892994075], [79.11104353228978, 14.427213896105204], [79.11531012809856, 14.42414824474157], [79.11745640136148, 14.421065595734914], [79.12136366014128, 14.418685786270025], [79.12348673545652, 14.41835825515644], [79.1270549130579, 14.414253530210646], [79.13623941976117, 14.41467064422993], [79.13872724697175, 14.412968150468943], [79.13912346387411, 14.407804904263973], [79.14163685885667, 14.403002742365082], [79.14096724998971, 14.398519946324246], [79.14205291134348, 14.395428655361185], [79.14561752343545, 14.391667961428247], [79.14633838879513, 14.389951482815302], [79.14989149573914, 14.38756832322825], [79.15061514735584, 14.385507420443252], [79.15382331151207, 14.382088207112847], [79.15843050942836, 14.380401975365954], [79.1627096645164, 14.375613232897496], [79.1648379317308, 14.374596456604806], [79.17118902396898, 14.375678911875754], [79.17507820622102, 14.375364503207628], [79.17756531700682, 14.373661508207519], [79.18463978363377, 14.37268257503035], [79.18995600212388, 14.370656682359867], [79.19209242937052, 14.36860639974489], [79.19245679688399, 14.367231442567821], [79.19672674042297, 14.363475208566726], [79.19817023872837, 14.359697399717486], [79.19959716030662, 14.357986067435009], [79.20104881826803, 14.353174982512702], [79.20073679954054, 14.348006064276587], [79.20286466059329, 14.346988892943026], [79.20536496840766, 14.343563456717716], [79.20927002684843, 14.341181909511247], [79.2110527288083, 14.339128730831202], [79.21352553673545, 14.33914736713478], [79.21598472229385, 14.340888072450575], [79.21666672438305, 14.34399315678881], [79.21559874453355, 14.345018440596677], [79.21558510976153, 14.346740534131245], [79.2191178216112, 14.346767095842933], [79.22052002945202, 14.348155384163313], [79.22439247711992, 14.349906622456361], [79.22649316407671, 14.352333434729243], [79.22682746681514, 14.354747022201504], [79.22432731307073, 14.35817270529126], [79.22431373200101, 14.35989480512099], [79.22571604758112, 14.361283074324469], [79.22748523815682, 14.360951878895818], [79.22822164214182, 14.357168537486212], [79.22965646061625, 14.354423732239114], [79.23107771813744, 14.353401020782039], [79.23319742489375, 14.353416832830053], [79.23777126830277, 14.355861985552165], [79.24519036109332, 14.355917044626924], [79.2551172192483, 14.35151255990421], [79.25903530360016, 14.347408016233652], [79.26327732501014, 14.347094681201968], [79.26576354196305, 14.345390643005146], [79.26575559101423, 14.346423927077721], [79.26220154691362, 14.349153479226484], [79.26006056803593, 14.351893345813593], [79.2543866261412, 14.354607188902584], [79.25117491794892, 14.358716846431033], [79.24834319000321, 14.359384815159707], [79.24585669579409, 14.361088636214616], [79.2426420495515, 14.365542570927166], [79.24015275204451, 14.367590741284813], [79.23764182471807, 14.372394256821998], [79.23232856955347, 14.374076844788336], [79.2312442392973, 14.377168713160183], [79.23017614213678, 14.378194049534084], [79.22805349123506, 14.378522603842649], [79.22237854477021, 14.381235553248922], [79.21988071360266, 14.384316722000577], [79.21846466148689, 14.384650499137145], [79.21632827533867, 14.386701027593409], [79.21488210297878, 14.3908233716405], [79.21132950942673, 14.39320758285955], [79.209173747371, 14.397668940689568], [79.20454439993182, 14.402111482886973], [79.20452511280509, 14.404522387538579], [79.20591927557442, 14.40694403255578], [79.20485642979766, 14.407280392587511], [79.20345124801081, 14.406236401169469], [79.20027099369355, 14.406212190245922], [79.19920538199273, 14.406892938124543], [79.19350167394362, 14.413049191350744], [79.19137034070134, 14.414410607280931], [79.19063580417587, 14.417849310988291], [79.18603075323185, 14.419191692933534], [79.18318139205562, 14.421925229731322], [79.18174271309569, 14.425014031930887], [79.17996458770693, 14.426378045470978], [79.177813440169, 14.430150176882297], [79.17780223265352, 14.43152781306395], [79.17885402169713, 14.432569230614286], [79.18167562013487, 14.43327986819635], [79.18271625589028, 14.435698910858513], [79.18692922105616, 14.439175668889831], [79.19044940938554, 14.440924883425279], [79.19468482736066, 14.441646231787706], [79.19255042476213, 14.443352035957584], [79.19252816855862, 14.446107327662006], [79.19426192221498, 14.450253818263109], [79.19459032935569, 14.453356232388709], [79.19598739608367, 14.455433537647725], [79.19596516280347, 14.458188831774759], [79.19455139374786, 14.458177993788718], [79.19034075888105, 14.45435691120703], [79.18860426977277, 14.450554808397754], [79.18614702625102, 14.448469308255426], [79.18477523985118, 14.44329226937451], [79.18126906412994, 14.439820924084314], [79.17668314964853, 14.438752201288391], [79.17457393672225, 14.43735815624587], [79.17033307838102, 14.437325277970167], [79.16820419905433, 14.43834203122994], [79.15583788596358, 14.437901178156848], [79.15550434520381, 14.435487581136554], [79.1579979683687, 14.43309608677258], [79.1590751402072, 14.431037934258566], [79.15909212314479, 14.428971501563227], [79.15768989687447, 14.427582843155074], [79.15450942110849, 14.427557980324076], [79.14954780243455, 14.42924123788068], [79.14208954175943, 14.433660122567957], [79.13923950416951, 14.43639303972116], [79.13565677812586, 14.442219928948996], [79.13245026605084, 14.445294342718393], [79.12818918892944, 14.44767148122775], [79.12747083292544, 14.449043458730717], [79.12744488246658, 14.452143046580895], [79.12848784649401, 14.454217867245235], [79.12880091364443, 14.459042258338961], [79.1248987377469, 14.460733312260029], [79.12167153132404, 14.466218304732571], [79.11811102023535, 14.469289630248094]], [[79.26613271702767, 14.34332665774534], [79.26689486345343, 14.336098825972321], [79.26831585301505, 14.335075857391068], [79.26936506969349, 14.336461305548292], [79.26934127991869, 14.339561165740141], [79.26862151605721, 14.341278153299324], [79.26613271702767, 14.34332665774534]], [[79.24864819634249, 14.320120362219912], [79.24899341882275, 14.321156243789078], [79.24757779742882, 14.321490247033761], [79.24758849022666, 14.320112545411071], [79.24864819634249, 14.320120362219912]]], [[[79.16619374574651, 14.424893679172298], [79.17082990752348, 14.419763225312105], [79.17685693032307, 14.417398847865515], [79.18255559001744, 14.411931886512225], [79.1861031874793, 14.410237004331142], [79.19216035200849, 14.40408364833334], [79.19359872540593, 14.400994744961967], [79.20036211386997, 14.394846520630482], [79.20789222886228, 14.38112625906744], [79.20827574491696, 14.377340355409318], [79.21006700518498, 14.374253973948004], [79.21009989239215, 14.370120971091488], [79.20939876201432, 14.36942679390879], [79.2065723226778, 14.369405399940932], [79.19805716748907, 14.373818406222398], [79.1941624668874, 14.374822027328765], [79.1920287593146, 14.376527909573918], [79.18737460412427, 14.384069845281337], [79.18595296899285, 14.385092246166431], [79.18522963002921, 14.387153295743634], [79.18024398406503, 14.391937033674811], [79.17735301215347, 14.399836688028767], [79.17413367091378, 14.404633864934295], [79.16985972267022, 14.408733950256412], [79.16589672812555, 14.418002791695004], [79.16199268635174, 14.420038990837842], [79.15984981442446, 14.422777714298885], [79.16018905645828, 14.424502499312878], [79.16194749307182, 14.425549490353507], [79.16619374574651, 14.424893679172298]], [[79.16232911990252, 14.422108180925699], [79.1676607794937, 14.418360922958373], [79.17126754526589, 14.40943371658414], [79.17447021325742, 14.406703050767831], [79.17733623303229, 14.40190314699944], [79.17840187339402, 14.401222502546407], [79.18165174780628, 14.392636730438365], [79.18556627035953, 14.389222477604363], [79.19308039577733, 14.37756924588024], [79.1959234956249, 14.375524328302644], [79.19839944165865, 14.375198754314995], [79.20691464723592, 14.370785741498326], [79.20832787525593, 14.370796441657038], [79.20865649726083, 14.373898865073542], [79.20722677646991, 14.375954662337863], [79.20684324816135, 14.379740562941365], [79.20397815661732, 14.384540939935482], [79.2032494706994, 14.387290894631404], [79.20182511743572, 14.388657811657106], [79.19859539780991, 14.394833062707901], [79.19183196758934, 14.400981230862387], [79.1911086112263, 14.403042296140518], [79.18825397226857, 14.406464752568935], [79.18469530289947, 14.409537320517458], [79.18150386678599, 14.410890493088843], [79.1772271037631, 14.415335121047002], [79.16942483807019, 14.418719041683719], [79.16478867212791, 14.423849467101745], [79.16231499952741, 14.423830212340333], [79.16232911990252, 14.422108180925699]]]]}}, {"type": "Feature", "properties": {"depth_class": 2, "depth_lo_m": 1.0, "t_s": 71100.5410185169}, "geometry": {"type": "MultiPolygon", "coordinates": [[[[79.02027459039152, 14.219826087145787], [79.02065159775512, 14.21707394186038], [79.01960750057071, 14.215343252802397], [79.01819839683871, 14.214987168333762], [79.01610126561869, 14.2125589214722], [79.01291806577964, 14.213221304854397], [79.01254398765876, 14.215629045399083], [79.01324101536012, 14.216668060368143], [79.01641525626744, 14.217038827487833], [79.01815339219868, 14.220152915754356], [79.02027459039152, 14.219826087145787]], [[79.01430610767282, 14.21598809505003], [79.013974124304, 14.213574486052321], [79.01644227872582, 14.213939381788796], [79.0164272670522, 14.215661296171254], [79.01430610767282, 14.21598809505003]]], [[[79.15890271052439, 14.235744762761133], [79.1582244551067, 14.232295207249601], [79.1561087649173, 14.231934450296858], [79.156100381072, 14.232967682060588], [79.15890271052439, 14.235744762761133]]], [[[79.08152913049344, 14.240990763783339], [79.08475040425927, 14.235850339677373], [79.08476782352267, 14.233783961502166], [79.08371733209553, 14.232742275542826], [79.07911000429254, 14.234771773679837], [79.07768607369903, 14.236137988239372], [79.07765109757193, 14.240270726184372], [79.07870158792157, 14.241312439113432], [79.08152913049344, 14.240990763783339]], [[79.0794456043216, 14.23684098520907], [79.08051064079866, 14.23616071237002], [79.0819229262152, 14.236172061922813], [79.0811964193886, 14.23857715717962], [79.08013137226935, 14.239257431785127], [79.07942813276097, 14.238907356390781], [79.0794456043216, 14.23684098520907]]], [[[79.03486676209809, 14.24715495376699], [79.034166569858, 14.24646036522745], [79.03310435377429, 14.246796021339028], [79.0330924167534, 14.248173562985087], [79.03450175466527, 14.248529588185537], [79.03486676209809, 14.24715495376699]]], [[[79.02593195250584, 14.259479903876935], [79.02630303036523, 14.257416525317973], [79.02383138253299, 14.257396052775857], [79.02416947409795, 14.259120895213629], [79.02593195250584, 14.259479903876935]]], [[[79.20566342654273, 14.306021958645927], [79.20603849858513, 14.303269279794971], [79.2049816306551, 14.302916864198435], [79.20391655778577, 14.303597697494215], [79.20354967136943, 14.305317117074308], [79.203894664591, 14.306353038948272], [79.20566342654273, 14.306021958645927]]], [[[79.24899341882275, 14.321156243789078], [79.2486508677498, 14.319775936592327], [79.24758849022666, 14.320112545411071], [79.24757779742882, 14.321490247033761], [79.24899341882275, 14.321156243789078]]], [[[79.26613271702767, 14.34332665774534], [79.26934127991869, 14.339561165740141], [79.26936506969349, 14.336461305548292], [79.26831585301505, 14.335075857391068], [79.26689486345343, 14.336098825972321], [79.2672137214566, 14.340578976872349], [79.26614331346154, 14.341948944992541], [79.26613271702767, 14.34332665774534]]], [[[79.22212868254474, 14.368144972624835], [79.22355278198657, 14.366777901775759], [79.22321307461806, 14.365053153179101], [79.220030644444, 14.365373694164713], [79.21966099487165, 14.367437551629838], [79.22036215516903, 14.368131701456928], [79.22212868254474, 14.368144972624835]]], [[[79.11811102023535, 14.469289630248094], [79.12167153132404, 14.466218304732571], [79.1248987377469, 14.460733312260029], [79.12880091364443, 14.459042258338961], [79.12848784649401, 14.454217867245235], [79.12744488246658, 14.452143046580895], [79.12747083292544, 14.449043458730717], [79.12818918892944, 14.44767148122775], [79.13245026605084, 14.445294342718393], [79.13565677812586, 14.442219928948996], [79.13923950416951, 14.43639303972116], [79.14208954175943, 14.433660122567957], [79.14954780243455, 14.42924123788068], [79.15450942110849, 14.427557980324076], [79.15768989687447, 14.427582843155074], [79.15909212314479, 14.428971501563227], [79.1590751402072, 14.431037934258566], [79.1579979683687, 14.43309608677258], [79.15550434520381, 14.435487581136554], [79.15583788596358, 14.437901178156848], [79.16820419905433, 14.43834203122994], [79.17033307838102, 14.437325277970167], [79.17457393672225, 14.43735815624587], [79.17668314964853, 14.438752201288391], [79.18126906412994, 14.439820924084314], [79.18477523985118, 14.44329226937451], [79.18614702625102, 14.448469308255426], [79.18860426977277, 14.450554808397754], [79.19034075888105, 14.45435691120703], [79.19455139374786, 14.458177993788718], [79.19596516280347, 14.458188831774759], [79.19598739608367, 14.455433537647725], [79.19459032935569, 14.453356232388709], [79.19426192221498, 14.450253818263109], [79.19252816855862, 14.446107327662006], [79.19255042476213, 14.443352035957584], [79.19468482736066, 14.441646231787706], [79.19044940938554, 14.440924883425279], [79.18692922105616, 14.439175668889831], [79.18271625589028, 14.435698910858513], [79.18167562013487, 14.43327986819635], [79.17885402169713, 14.432569230614286], [79.17780223265352, 14.43152781306395], [79.177813440169, 14.430150176882297], [79.17996458770693, 14.426378045470978], [79.18174271309569, 14.425014031930887], [79.18318139205562, 14.421925229731322], [79.18603075323185, 14.419191692933534], [79.19063580417587, 14.417849310988291], [79.19137034070134, 14.414410607280931], [79.19350167394362, 14.413049191350744], [79.19920538199273, 14.406892938124543], [79.20027099369355, 14.406212190245922], [79.20345124801081, 14.406236401169469], [79.20485642979766, 14.407280392587511], [79.20591927557442, 14.40694403255578], [79.20452511280509, 14.404522387538579], [79.20454439993182, 14.402111482886973], [79.209173747371, 14.397668940689568], [79.21132950942673, 14.39320758285955], [79.21488210297878, 14.3908233716405], [79.21632827533867, 14.386701027593409], [79.21846466148689, 14.384650499137145], [79.21988071360266, 14.384316722000577], [79.22237854477021, 14.381235553248922], [79.22805349123506, 14.378522603842649], [79.23017614213678, 14.378194049534084], [79.2312442392973, 14.377168713160183], [79.23232856955347, 14.374076844788336], [79.23764182471807, 14.372394256821998], [79.24015275204451, 14.367590741284813], [79.2426420495515, 14.365542570927166], [79.24585669579409, 14.361088636214616], [79.24834319000321, 14.359384815159707], [79.25117491794892, 14.358716846431033], [79.2543866261412, 14.354607188902584], [79.26006056803593, 14.351893345813593], [79.26220154691362, 14.349153479226484], [79.26575559101423, 14.346423927077721], [79.26576354196305, 14.345390643005146], [79.26327732501014, 14.347094681201968], [79.25903530360016, 14.347408016233652], [79.2551172192483, 14.35151255990421], [79.24519036109332, 14.355917044626924], [79.23777126830277, 14.355861985552165], [79.23319742489375, 14.353416832830053], [79.23107771813744, 14.353401020782039], [79.22965646061625, 14.354423732239114], [79.22822164214182, 14.357168537486212], [79.22748523815682, 14.360951878895818], [79.22571604758112, 14.361283074324469], [79.22431373200101, 14.35989480512099], [79.22432731307073, 14.35817270529126], [79.22682746681514, 14.354747022201504], [79.22649316407671, 14.352333434729243], [79.22439247711992, 14.349906622456361], [79.22052002945202, 14.348155384163313], [79.2191178216112, 14.346767095842933], [79.21558510976153, 14.346740534131245], [79.21559874453355, 14.345018440596677], [79.21666672438305, 14.34399315678881], [79.21598472229385, 14.340888072450575], [79.21352553673545, 14.33914736713478], [79.2110527288083, 14.339128730831202], [79.20927002684843, 14.341181909511247], [79.20536496840766, 14.343563456717716], [79.20286466059329, 14.346988892943026], [79.20073679954054, 14.348006064276587], [79.20104881826803, 14.353174982512702], [79.19959716030662, 14.357986067435009], [79.19817023872837, 14.359697399717486], [79.19672674042297, 14.363475208566726], [79.19245679688399, 14.367231442567821], [79.19209242937052, 14.36860639974489], [79.18995600212388, 14.370656682359867], [79.18463978363377, 14.37268257503035], [79.17756531700682, 14.373661508207519], [79.17507820622102, 14.375364503207628], [79.17118902396898, 14.375678911875754], [79.1648379317308, 14.374596456604806], [79.1627096645164, 14.375613232897496], [79.15843050942836, 14.380401975365954], [79.15382331151207, 14.382088207112847], [79.15061514735584, 14.385507420443252], [79.14989149573914, 14.38756832322825], [79.14633838879513, 14.389951482815302], [79.14561752343545, 14.391667961428247], [79.14205291134348, 14.395428655361185], [79.14096724998971, 14.398519946324246], [79.14163685885667, 14.403002742365082], [79.13912346387411, 14.407804904263973], [79.13872724697175, 14.412968150468943], [79.13623941976117, 14.41467064422993], [79.1270549130579, 14.414253530210646], [79.12348673545652, 14.41835825515644], [79.12136366014128, 14.418685786270025], [79.11745640136148, 14.421065595734914], [79.11531012809856, 14.42414824474157], [79.11104353228978, 14.427213896105204], [79.1117038331641, 14.432729892994075], [79.10990202262369, 14.436848483832563], [79.10598558214946, 14.440261230612542], [79.10174483484498, 14.440227112137366], [79.10031956246807, 14.441593296498896], [79.10065542184248, 14.443662506301353], [79.10555929196023, 14.448868252287435], [79.10553595566395, 14.451623406715624], [79.10338626361958, 14.455050277682735], [79.10334827920367, 14.459527395285797], [79.10404052385498, 14.461255058149701], [79.11213158170237, 14.465797536700896], [79.11564272201512, 14.468581033909214], [79.1170506873247, 14.469281145660185], [79.11811102023535, 14.469289630248094]], [[79.16053961151044, 14.424849660775175], [79.15984415860721, 14.42346652589484], [79.1605678797502, 14.421405601424306], [79.16589672812555, 14.418002791695004], [79.16985972267022, 14.408733950256412], [79.17413367091378, 14.404633864934295], [79.17735301215347, 14.399836688028767], [79.18024398406503, 14.391937033674811], [79.18522963002921, 14.387153295743634], [79.18595296899285, 14.385092246166431], [79.18737460412427, 14.384069845281337], [79.1920287593146, 14.376527909573918], [79.1941624668874, 14.374822027328765], [79.19805716748907, 14.373818406222398], [79.2065723226778, 14.369405399940932], [79.20939876201432, 14.36942679390879], [79.21009989239215, 14.370120971091488], [79.21006700518498, 14.374253973948004], [79.20863729360127, 14.376309780912896], [79.20789222886228, 14.38112625906744], [79.20538871849955, 14.384896083301076], [79.20501888332828, 14.386959895390548], [79.20252076309464, 14.39004084440227], [79.20036211386997, 14.394846520630482], [79.19359872540593, 14.400994744961967], [79.19073304333267, 14.405794888630659], [79.1861031874793, 14.410237004331142], [79.18255559001744, 14.411931886512225], [79.17792265134865, 14.416718215249698], [79.17082990752348, 14.419763225312105], [79.16619374574651, 14.424893679172298], [79.16477456886935, 14.425571500647132], [79.16053961151044, 14.424849660775175]], [[79.19176258658871, 14.409591542612029], [79.195351639604, 14.402730312109778], [79.2024766618803, 14.39555148232085], [79.2042791858577, 14.391087514442935], [79.20677729762969, 14.388006545653461], [79.2075086921799, 14.384912159456556], [79.20965061680222, 14.3821728847062], [79.21039565072776, 14.37735639745355], [79.21254840881922, 14.373239413210827], [79.21222246918953, 14.36979257155845], [79.20976850930606, 14.367362964063197], [79.20552614342196, 14.367675287778901], [79.20232992047517, 14.369717661312457], [79.19595112139349, 14.372080186561298], [79.19277136355542, 14.372055931045272], [79.19456829860599, 14.368280857426404], [79.19705520205882, 14.366577630053502], [79.1991970404677, 14.363838440440638], [79.20280421730921, 14.35456604831018], [79.20284268530246, 14.349744222755621], [79.2053320577625, 14.347696458064362], [79.20747907499482, 14.34426832238585], [79.20925087532025, 14.343592832803667], [79.21174285486997, 14.341200567004787], [79.21315590105074, 14.34121121686839], [79.2142075017239, 14.342252454448642], [79.21419931634766, 14.34328571005468], [79.21205787006464, 14.34602508379512], [79.21203874160993, 14.34843600979186], [79.21591383832158, 14.34984296096754], [79.21661221113052, 14.350881533969922], [79.22226466057624, 14.350923994973813], [79.22437076038338, 14.352661984072892], [79.22471318427736, 14.354042311411888], [79.22149555108061, 14.358840344642845], [79.22148194769974, 14.360562441719368], [79.22499044558441, 14.363688720565474], [79.22746354183678, 14.363707242584418], [79.22888487145975, 14.362684552918061], [79.22998267655333, 14.357870582316268], [79.23141207101642, 14.355814607397726], [79.23423567759836, 14.35618010730662], [79.23810838952637, 14.357931148298452], [79.2451688892761, 14.35867243585697], [79.2444488714209, 14.360389319609496], [79.24089436637578, 14.363118494760808], [79.23839699668012, 14.3661999155849], [79.23623936599456, 14.371006043164947], [79.23092613817822, 14.372688602368665], [79.22877641583027, 14.376461373102922], [79.22026676860735, 14.38018635859153], [79.21919315432316, 14.381900474438293], [79.21456981736077, 14.38565444431672], [79.21312362309683, 14.389776775003499], [79.20921494513463, 14.39250269961543], [79.20705915186919, 14.396964034322906], [79.20243254197298, 14.401062117542814], [79.20135040161018, 14.403809365241433], [79.19851801304418, 14.404476652514647], [79.19353495885942, 14.408916239758627], [79.19176258658871, 14.409591542612029]], [[79.16114709068017, 14.393855837514069], [79.16152861498942, 14.390414515703524], [79.16330089151991, 14.389739431609161], [79.16434961879118, 14.391125293821842], [79.16432991571462, 14.393536146779038], [79.16254070152384, 14.39627767799907], [79.16183402528017, 14.396272182838453], [79.16114709068017, 14.393855837514069]]]]}}, {"type": "Feature", "properties": {"depth_class": 3, "depth_lo_m": 2.0, "t_s": 71100.5410185169}, "geometry": {"type": "MultiPolygon", "coordinates": [[[[79.01360606965545, 14.215293465045868], [79.0164272670522, 14.215661296171254], [79.01644227872582, 14.213939381788796], [79.013974124304, 14.213574486052321], [79.01360606965545, 14.215293465045868]]], [[[79.07942813276097, 14.238907356390781], [79.0811964193886, 14.23857715717962], [79.0819229262152, 14.236172061922813], [79.0794456043216, 14.23684098520907], [79.07942813276097, 14.238907356390781]]], [[[79.19176258658871, 14.409591542612029], [79.19851801304418, 14.404476652514647], [79.20170651904591, 14.403467640998874], [79.20243254197298, 14.401062117542814], [79.20705915186919, 14.396964034322906], [79.20921494513463, 14.39250269961543], [79.21312362309683, 14.389776775003499], [79.21456981736077, 14.38565444431672], [79.21812498364164, 14.382925747090795], [79.22026676860735, 14.38018635859153], [79.22877641583027, 14.376461373102922], [79.23057011436305, 14.373030382229905], [79.2319914961444, 14.372007679800495], [79.236595378641, 14.370664253365534], [79.23768229354793, 14.367227924647338], [79.2405383728073, 14.36346029334071], [79.2444488714209, 14.360389319609496], [79.24481827887855, 14.358325394932606], [79.23810838952637, 14.357931148298452], [79.23423567759836, 14.35618010730662], [79.23141207101642, 14.355814607397726], [79.22998267655333, 14.357870582316268], [79.22888487145975, 14.362684552918061], [79.22746354183678, 14.363707242584418], [79.22499044558441, 14.363688720565474], [79.22148194769974, 14.360562441719368], [79.22149555108061, 14.358840344642845], [79.22471318427736, 14.354042311411888], [79.22437076038338, 14.352661984072892], [79.22226466057624, 14.350923994973813], [79.21661221113052, 14.350881533969922], [79.21591383832158, 14.34984296096754], [79.21203874160993, 14.34843600979186], [79.21205787006464, 14.34602508379512], [79.21419931634766, 14.34328571005468], [79.2142075017239, 14.342252454448642], [79.21315590105074, 14.34121121686839], [79.21174285486997, 14.341200567004787], [79.20676706402395, 14.344951814641945], [79.2053320577625, 14.347696458064362], [79.20284268530246, 14.349744222755621], [79.20280421730921, 14.35456604831018], [79.20173062567541, 14.356280087197968], [79.20135533430403, 14.359032731156516], [79.19992841718407, 14.360744074677058], [79.19955584491858, 14.363152296192233], [79.19705520205882, 14.366577630053502], [79.19456829860599, 14.368280857426404], [79.19277136355542, 14.372055931045272], [79.19807648104127, 14.3714075039244], [79.2065887938905, 14.367338901823837], [79.20976850930606, 14.367362964063197], [79.21222246918953, 14.36979257155845], [79.21254840881922, 14.373239413210827], [79.21039565072776, 14.37735639745355], [79.20965061680222, 14.3821728847062], [79.20714986767243, 14.385598313357354], [79.20641846492575, 14.388692697441822], [79.2042791858577, 14.391087514442935], [79.20176169788897, 14.39657935070472], [79.19463661870773, 14.403758151873996], [79.19426940593569, 14.405477515966696], [79.19177091473317, 14.408558305550118], [79.19176258658871, 14.409591542612029]], [[79.22001157448025, 14.367784626745589], [79.220030644444, 14.365373694164713], [79.22321307461806, 14.365053153179101], [79.22355278198657, 14.366777901775759], [79.22283801424929, 14.367805857977917], [79.22001157448025, 14.367784626745589]]]]}}]}