{"type": "FeatureCollection", "features": [{"type": "Feature", "properties": {"depth_class": 1, "depth_lo_m": 0.3, "t_s": 15300.431759226212}, "geometry": {"type": "MultiPolygon", "coordinates": [[[[79.0598796078211, 14.253903539690539], [79.06200111784646, 14.253576373654914], [79.06200994268178, 14.25254320002652], [79.05988549770204, 14.253214758169559], [79.0598796078211, 14.253903539690539]]], [[[79.22576649693613, 14.30996171700815], [79.22648914579459, 14.307900459045928], [79.2254457350124, 14.30582601988645], [79.22050895444359, 14.304755791765317], [79.21803108331166, 14.305426112474521], [79.21660738719977, 14.306793197764524], [79.21659107992458, 14.308859717751526], [79.21729206936566, 14.309553857761003], [79.22153605138817, 14.308896772534661], [79.22399771462543, 14.310292946741193], [79.22576649693613, 14.30996171700815]]], [[[79.18746932901064, 14.416102851843613], [79.18923898291317, 14.415772000789083], [79.19172649032153, 14.414068902116421], [79.20062159307328, 14.406559296579124], [79.20309512800078, 14.406578127766453], [79.20485091844975, 14.407969222358284], [79.2059110135375, 14.407977277829588], [79.20628089888015, 14.405913470887041], [79.20488122725283, 14.404180658097316], [79.20489500106416, 14.402458583011693], [79.20952435039719, 14.39801603409042], [79.21132128048777, 14.394240832401069], [79.21558878289684, 14.390828706260837], [79.2166788756464, 14.387048109982699], [79.22023131676312, 14.384663799390466], [79.22201704589301, 14.382266154704345], [79.22840138661522, 14.379214089835411], [79.23052404403832, 14.378885533111788], [79.23159214346701, 14.377860195417842], [79.23267647360967, 14.374768325456863], [79.23763372901989, 14.373427522973497], [79.24013389456083, 14.370001699735118], [79.24050336714693, 14.36793778968556], [79.24620462852505, 14.361780100164076], [79.24833515104315, 14.36041808839866], [79.25152019043323, 14.359752729143999], [79.25508787068472, 14.35530124425014], [79.25934068622642, 14.353610291087008], [79.26325608805327, 14.349850101146846], [79.26644890332868, 14.348151234608123], [79.26825236891028, 14.343342145713942], [79.27039052106116, 14.340946611912514], [79.27042750621753, 14.336124604682285], [79.26868233370604, 14.333356290849919], [79.26978701473917, 14.327508724071595], [79.26872990420041, 14.327156568553098], [79.26659188428569, 14.329552102745087], [79.26584036847487, 14.335402225448796], [79.26616450295137, 14.339193518984755], [79.26400510990962, 14.34434443414455], [79.26187748528415, 14.345362189196512], [79.2604696923364, 14.344662972425633], [79.2552505138019, 14.33429125145314], [79.25349755336214, 14.332556126677575], [79.25390411350742, 14.325670199675441], [79.25146341332508, 14.32151888844619], [79.24908419576894, 14.309445765434564], [79.24104058045785, 14.29905303460697], [79.23930406923554, 14.295251296175158], [79.2322644078415, 14.29209909610777], [79.23156879824745, 14.290716153659105], [79.22664578874006, 14.287923974005693], [79.22490149308774, 14.285155431444803], [79.21820470956773, 14.283383189505631], [79.21363793120403, 14.280248998968222], [79.21083980990126, 14.27678358757862], [79.20449112146177, 14.27570249018098], [79.20309215084986, 14.273969744536018], [79.203119464241, 14.270525559787655], [79.20242136155538, 14.269486976599548], [79.1999657425305, 14.267401805751039], [79.19573350467981, 14.266680922953059], [79.19363386533271, 14.264253953289964], [79.18976585383409, 14.262157984520625], [79.18836707739386, 14.26042517360574], [79.18768283319939, 14.257664478323408], [79.18384256284264, 14.252124278367834], [79.17294587881895, 14.245841239377944], [79.16484397074919, 14.243368035320374], [79.16274488069638, 14.240940854085608], [79.16097940490067, 14.240927258756274], [79.16026763489789, 14.2416106392618], [79.15988662819095, 14.245052027581787], [79.15881894550094, 14.246077089181199], [79.154937621119, 14.245702677827948], [79.15353922219415, 14.243969704202838], [79.15142343826545, 14.243608893805154], [79.14963268996074, 14.246694892928751], [79.14679100786984, 14.248739420362433], [79.14571199775148, 14.251142045953038], [79.14252839236447, 14.251806135751107], [79.13933630074479, 14.253503400889183], [79.12450573921843, 14.253387240836087], [79.12310185838419, 14.25234291939043], [79.12171794376593, 14.248887767922438], [79.11785955554691, 14.245757533218303], [79.11787954104565, 14.243346714182245], [79.11859428216769, 14.24231907353456], [79.11826687688308, 14.239216663818475], [79.11685454263765, 14.239205526833043], [79.1164957470588, 14.239891546464818], [79.11717907268518, 14.242652338754505], [79.11680884498107, 14.244715968236793], [79.11326361788463, 14.246410086916985], [79.11112786070682, 14.248459733424788], [79.10759689827525, 14.24843175200729], [79.09809219327963, 14.244911954453084], [79.0920925952171, 14.244519641250932], [79.08749667374065, 14.2451716923252], [79.08398615545325, 14.242732596097088], [79.08399487329795, 14.241699408114417], [79.08721030790477, 14.237247738862967], [79.0879657274543, 14.231398645965838], [79.08692682446623, 14.228979385641152], [79.08410523886465, 14.228612352157878], [79.08126040758917, 14.231000452906313], [79.07842716709534, 14.232010931226023], [79.07628837278251, 14.234404640503591], [79.07276062201976, 14.234031777202993], [79.07134251065355, 14.234709162460181], [79.06990976164076, 14.23710850472948], [79.06638199243284, 14.236735543222725], [79.06496384910706, 14.237412885887231], [79.06316032028639, 14.241875664945734], [79.06102127637699, 14.24426920342733], [79.05746396076353, 14.247340003393074], [79.05321219191677, 14.24902741711488], [79.05074651094067, 14.248318456983657], [79.04900477282915, 14.245548916565395], [79.04582409875569, 14.245867301764493], [79.0466072820816, 14.236918986251995], [79.04591003897808, 14.235880042671617], [79.04379165934631, 14.235862696160561], [79.04021943317093, 14.240655163813043], [79.03845408554382, 14.240640662876727], [79.03775389831401, 14.239946085684828], [79.03457330824318, 14.240264329006783], [79.03279603654967, 14.241627328872069], [79.03136285758895, 14.244026380794676], [79.02852033159857, 14.246069370069689], [79.02778126407873, 14.249851761746484], [79.03093808157276, 14.252288706699924], [79.03126427180372, 14.255391085025794], [79.03054613051731, 14.256762792377797], [79.02877767506646, 14.257092588045708], [79.02562082476791, 14.254655609772945], [79.02350229589334, 14.25463806071136], [79.02136875095508, 14.25634240655772], [79.02134772106176, 14.25875308529429], [79.02239499054328, 14.260139405579777], [79.02167678025754, 14.261511076828484], [79.01848987082089, 14.26251782709199], [79.01707747508404, 14.262506081256491], [79.015674122273, 14.261461182987325], [79.01284935008238, 14.26143765130825], [79.01105970174241, 14.264177970004347], [79.00894412723464, 14.263815900197871], [79.00789693417629, 14.262429529636542], [79.01112011291426, 14.257290361316992], [79.01292779197527, 14.252483747373708], [79.01261090174141, 14.248348232923389], [79.00769505242133, 14.24520758308048], [78.99745606094619, 14.245121874765621], [78.99641813256609, 14.242702338579214], [78.99820773773563, 14.239962126173069], [79.00318691102488, 14.235870974043516], [79.01275856545799, 14.231473545862919], [79.01596607870005, 14.228056140013734], [79.01848842170888, 14.222222141624254], [79.02133069406712, 14.220179241107651], [79.02137862153631, 14.214669099825917], [79.01963447620543, 14.212243800653521], [79.01787537009876, 14.211540409606993], [79.01257707523628, 14.211840842354107], [79.01114694015935, 14.213895393393887], [79.01145179822542, 14.219408438132922], [79.0092914109681, 14.224212142537102], [79.00573687219443, 14.226937746203129], [78.99687445100086, 14.230996446458176], [78.99188921296566, 14.235776221743196], [78.98937822320623, 14.240232318151795], [78.98967029690108, 14.24712282006559], [78.99316749362414, 14.250940690384619], [78.99738617039485, 14.253042566235589], [79.00162313382641, 14.25307810550557], [79.00304151958467, 14.25240117728704], [79.00444778259357, 14.253101756599833], [78.99800417714701, 14.263035449838647], [78.99830861589069, 14.26854845705513], [79.00039989252181, 14.271665648048407], [79.00321263030298, 14.273066857579279], [79.01239055434783, 14.273488025859821], [79.01451829919897, 14.272472554020721], [79.0176963261617, 14.272499022582847], [79.02088639217023, 14.271147920148788], [79.02300507190094, 14.271165512345044], [79.02509973960326, 14.273938149945653], [79.02792169059992, 14.274305940125245], [79.02934615182156, 14.272940095670462], [79.02937909763504, 14.269151872150884], [79.030097294917, 14.26778017561166], [79.03187779659898, 14.266072842493184], [79.03752752666692, 14.266119436418528], [79.03859877264452, 14.264750613755028], [79.0393407240085, 14.26062378970398], [79.04183621877098, 14.257889010990876], [79.04324860687835, 14.25790060649959], [79.0439132129113, 14.262727823122178], [79.04601700264264, 14.264467138682445], [79.05060741323679, 14.264504730035457], [79.0538001794483, 14.262808757000892], [79.05521260829468, 14.26282028555407], [79.05661027800191, 14.264553754746196], [79.05837288115914, 14.26491253517568], [79.06085349955812, 14.263899488223354], [79.06508788873042, 14.264278317565005], [79.06898972161869, 14.262243466236763], [79.07217063716193, 14.261924797261354], [79.07465995039544, 14.259878413727916], [79.07538369965782, 14.25781775350934], [79.07714921966728, 14.257831998203406], [79.07749648551271, 14.258523634014434], [79.07678443413424, 14.259206726571598], [79.07501305729771, 14.259881265185541], [79.07499259205724, 14.262292020585528], [79.07569296782098, 14.262986510386481], [79.07851494693112, 14.263353694327021], [79.08061904809628, 14.265092738456046], [79.08344106866508, 14.265459868255537], [79.08730792813282, 14.267557450288761], [79.0911400489172, 14.273787737211059], [79.099230315264, 14.27764106840316], [79.1016734250018, 14.281104771842623], [79.10485462025865, 14.280785693922391], [79.10592558029217, 14.279416527428015], [79.10593998189229, 14.277694530626682], [79.10454182859395, 14.27596129545781], [79.10032439340664, 14.273516742525224], [79.09787270024455, 14.27108622978917], [79.09788137288449, 14.270053035860279], [79.10036481482484, 14.268695164140823], [79.10495833788886, 14.268387320222075], [79.11093565929274, 14.271534594627328], [79.11127156621588, 14.273603798214964], [79.11372918063672, 14.275345391591316], [79.11440392022634, 14.279139396221831], [79.11649700976345, 14.282255778848391], [79.12037880904091, 14.282630883934159], [79.12392459836569, 14.28093672725394], [79.12748742472434, 14.27717608908826], [79.12789748885427, 14.270290788411788], [79.13217200029563, 14.265846785968474], [79.13429360397575, 14.26551897738711], [79.1406357928003, 14.267290686536935], [79.14312182458119, 14.265587926406898], [79.14736220184103, 14.2652764979989], [79.14876909789068, 14.265976290580364], [79.14981443675993, 14.267706559501626], [79.15543936856888, 14.270850047821625], [79.16567489639982, 14.271617941575068], [79.17237074898836, 14.273391573917545], [79.18395010261304, 14.282779900239735], [79.1885605369472, 14.280403971602375], [79.18928338357036, 14.27834285044164], [79.18752861488683, 14.276951755512005], [79.18083248846011, 14.27517852341772], [79.18014278394995, 14.27310664347973], [79.18261759029205, 14.272781101994244], [79.18579041704854, 14.273494159398032], [79.18790105734904, 14.274543534666272], [79.19104917849951, 14.278356270892676], [79.19491471709692, 14.280796666804594], [79.1955963419074, 14.28390177157954], [79.1973484734249, 14.285637235429078], [79.2072045730028, 14.289844949685211], [79.20965503526804, 14.292618916671534], [79.21176597984092, 14.293668112529392], [79.21634927139762, 14.294735842353818], [79.217753889645, 14.295779692863144], [79.22410323650492, 14.296860507436282], [79.22796409149984, 14.299989285647916], [79.23219441952143, 14.301054100682105], [79.23815592555168, 14.306609450941613], [79.24198231313166, 14.314215560023023], [79.24225510854686, 14.324550907439628], [79.2379489841094, 14.333130073108165], [79.23545195969675, 14.336211503666126], [79.23328113808194, 14.342739752340448], [79.23326224112787, 14.34515070688004], [79.23037926702897, 14.352362482058878], [79.22753674845882, 14.354407887443282], [79.22685186772391, 14.35164723673775], [79.22474846836721, 14.349564848129782], [79.21628074674507, 14.3481235258499], [79.2152291112638, 14.347082293677511], [79.21523729417916, 14.346049037819173], [79.2170227155098, 14.343651394181496], [79.21633798406106, 14.3408907293321], [79.21388152350127, 14.33880560877791], [79.21070220387361, 14.33878164841553], [79.20465569759318, 14.343902525481303], [79.20251139188423, 14.346986214887476], [79.20038352965176, 14.3480033828656], [79.20069554021597, 14.353172300622141], [79.19888783482563, 14.358325112231812], [79.19710210159617, 14.360722580391272], [79.19672949968596, 14.363130793937366], [79.19210626554826, 14.36688433165415], [79.18995877318768, 14.370312269230258], [79.18180498987748, 14.37369411524202], [79.18002173554925, 14.375747004823065], [79.18175207696218, 14.380237931367855], [79.18420582179697, 14.382667808098423], [79.18632297051587, 14.383028483673156], [79.19415970135235, 14.375166441129837], [79.19840771859135, 14.374165510460998], [79.2069228824233, 14.369752492412829], [79.20868940952758, 14.369765865293058], [79.20939053838882, 14.370460044427736], [79.20936037949663, 14.374248628854332], [79.20792517243375, 14.376993263539292], [79.20754165184698, 14.380779166118492], [79.20468206118905, 14.384890720365185], [79.20430946725685, 14.387298945975965], [79.20252902999145, 14.389007599492405], [79.20001153102747, 14.394499415758224], [79.19324537369579, 14.400992043197602], [79.18930293278359, 14.407850529444593], [79.18645933673827, 14.409895307165407], [79.18502915941086, 14.411950913769624], [79.18536023298905, 14.41470891789341], [79.18746932901064, 14.416102851843613]], [[79.20710864304795, 14.390764551581164], [79.20785927481018, 14.385259253080577], [79.20964238672715, 14.38320613425791], [79.21038742694948, 14.378389647847209], [79.21218414616312, 14.37461441382271], [79.21222520600408, 14.369448154175021], [79.20942068848328, 14.366671458729082], [79.2034200831662, 14.36593713372337], [79.20167285520891, 14.363512816345825], [79.20169761792268, 14.36041307585001], [79.20386405947191, 14.354574083739887], [79.20389426772593, 14.35078550448303], [79.20924540280093, 14.344281667935626], [79.21243845392497, 14.342583565902764], [79.21242752887387, 14.343961238650042], [79.21063932534322, 14.346703259412536], [79.2109761890093, 14.348772432013126], [79.21237835177786, 14.350160763934866], [79.21414200044804, 14.350518496652635], [79.21730513885566, 14.352608943261503], [79.22155266556942, 14.351607534055741], [79.22366148093592, 14.353001109481578], [79.22329189805495, 14.35506498083723], [79.22043840068332, 14.358487966483185], [79.2204247895674, 14.36021006261803], [79.22463986301918, 14.363341652561603], [79.22675965591921, 14.363357532918716], [79.22818098583049, 14.362334847563819], [79.22928692765969, 14.356487618760744], [79.23178158303818, 14.353750715088827], [79.23460246570639, 14.354460629783931], [79.23776587811132, 14.356550830671004], [79.24270657621693, 14.35727641124834], [79.24553291883082, 14.357297356660808], [79.25050043415182, 14.35457853070435], [79.25262284621357, 14.354249744977047], [79.25082697268638, 14.358025388420801], [79.24693268456436, 14.359029937760424], [79.2405276031208, 14.364837984712596], [79.23838621174576, 14.367577605046833], [79.23765531611706, 14.370672146359535], [79.236231264672, 14.372039308654188], [79.2323393966675, 14.372699160594934], [79.23091801146643, 14.37372186473885], [79.22912702353314, 14.376808437691125], [79.22026676860735, 14.38018635859153], [79.21421648569702, 14.385651776685991], [79.21277302517622, 14.3894296875583], [79.20922592844066, 14.391125034928903], [79.20710864304795, 14.390764551581164]], [[79.22501760305461, 14.360244520475511], [79.22468060353818, 14.358175352867544], [79.22539804177147, 14.356802965595275], [79.22752590634343, 14.355785570169152], [79.22678407302499, 14.360257749816213], [79.22501760305461, 14.360244520475511]], [[79.24025506015002, 14.354502672155816], [79.23992330217995, 14.351744664073262], [79.24283013747161, 14.341432921651618], [79.24461524772516, 14.339035031389749], [79.24607651825995, 14.332845839610819], [79.24892127274396, 14.330455732694313], [79.24994629369694, 14.334941080592795], [79.25168588911734, 14.338398358694299], [79.25728222066583, 14.345672906435075], [79.25726357637649, 14.348083891503972], [79.25370674617133, 14.351157727003558], [79.24768215667228, 14.353524375015342], [79.24661425075618, 14.354549808852079], [79.24025506015002, 14.354502672155816]], [[79.25510654803503, 14.352890263449396], [79.259741864067, 14.347413203574709], [79.26221482792532, 14.347431342705574], [79.26220420325704, 14.34880905194324], [79.26006588825446, 14.351204492181537], [79.2572289420713, 14.352561433842004], [79.25510654803503, 14.352890263449396]], [[79.24790697677201, 14.324592682049168], [79.24217998300746, 14.33419478401554], [79.2421558236358, 14.337294599743306], [79.24071590763982, 14.340728361481675], [79.23608033043645, 14.346205015179788], [79.23646324702221, 14.342418993849668], [79.24003625819064, 14.337278885075179], [79.24113632724452, 14.332120387703656], [79.24328266202035, 14.328691843737156], [79.24474922267865, 14.321813801887652], [79.24618625000437, 14.318724414907646], [79.24584639363832, 14.316999680577466], [79.24479205705813, 14.316303002922393], [79.24412040314105, 14.311820257705243], [79.24237840769241, 14.308707378115034], [79.2332701732704, 14.29899543581948], [79.22833617924901, 14.297580960113672], [79.22446994882687, 14.295141035205106], [79.21953069186675, 14.294415234376263], [79.21249140188479, 14.291262483523047], [79.20968501067006, 14.288830305639939], [79.20511007645617, 14.286729209213354], [79.20196159638188, 14.282916620033967], [79.19598243995489, 14.27977144628295], [79.18896877506826, 14.273518345366664], [79.18615459651883, 14.272119187912695], [79.18157196416337, 14.271050945012393], [79.17591332130269, 14.27204099025223], [79.1731048129623, 14.269952864479475], [79.16536078622384, 14.266793463643808], [79.15371575138131, 14.265670234125341], [79.14878597223796, 14.263909841240997], [79.14384218353356, 14.263871391909392], [79.14242403141448, 14.264549201578895], [79.13254215050118, 14.263783123175122], [79.12827622192707, 14.267193926285026], [79.1268637054477, 14.267182827207685], [79.12581570925487, 14.26579688276388], [79.12370265219765, 14.265091404190127], [79.11558079574021, 14.26502732371908], [79.11204096150776, 14.266032579301807], [79.1123797453759, 14.26775738151681], [79.10849247975715, 14.268070978888193], [79.10533161630913, 14.265979331496057], [79.10180616086183, 14.265262432755236], [79.10499288830891, 14.264254525962944], [79.10536039836089, 14.262535334944413], [79.1039536893634, 14.261835304795303], [79.10080737503624, 14.25802161758364], [79.0958840882446, 14.255571403560298], [79.08882781524042, 14.2548261167249], [79.0874096010746, 14.255503586131741], [79.07540123222978, 14.255751390519249], [79.0707816389828, 14.259158227595838], [79.06936628809318, 14.259491186671362], [79.06545275508871, 14.262903617621701], [79.05768436180979, 14.262840440411933], [79.05628669186575, 14.261106977586557], [79.05452412287238, 14.260748185785456], [79.0495599378518, 14.263118509567303], [79.0463819812782, 14.263092482699516], [79.04498143609655, 14.261703351857706], [79.04538499745681, 14.255851658004316], [79.04291630939491, 14.255486998160714], [79.03864345877165, 14.259584821747389], [79.03612404309689, 14.265074643925194], [79.03224286201565, 14.264698219663943], [79.02904395550522, 14.267082647436586], [79.02723344466702, 14.272233790778454], [79.02547086638964, 14.271874779059795], [79.02407342194223, 14.270141152793624], [79.02054230433069, 14.270111839901977], [79.01912082793386, 14.271133245613239], [79.01417424056154, 14.2714364681844], [79.01204650495642, 14.272451938092262], [79.00357484635641, 14.272036681959253], [79.00146529626399, 14.27098578167271], [78.99971799348172, 14.268904696785931], [78.99902394583616, 14.267521256015426], [78.99906042459484, 14.263388722883276], [79.00300211065581, 14.256878103148305], [79.00513880517592, 14.254829561051297], [79.00551610889174, 14.252077478661038], [79.00481600512613, 14.251382813848583], [78.99810144553892, 14.25201536086568], [78.99352970406487, 14.249910529594926], [78.99038558144004, 14.246095639504855], [78.99043739800129, 14.240241237718362], [78.99294532604434, 14.236129504765996], [78.99757447292656, 14.231691124298363], [79.00466263439156, 14.228650802749796], [79.00999145780962, 14.224906786562178], [79.01251089034285, 14.219417247170686], [79.012202997849, 14.21424858245104], [79.01363012086742, 14.21253840655277], [79.0164542866189, 14.212561850093463], [79.01996052664111, 14.21534617680958], [79.02027758798026, 14.219481703605101], [79.01779135436266, 14.221183137090387], [79.01490694413032, 14.22804734105404], [79.01170243017243, 14.23112034920703], [79.00355207082919, 14.234496408121178], [78.99857900575368, 14.2378988162242], [78.99536198278412, 14.242349066394526], [78.9953467800433, 14.24407095450377], [78.99709387816064, 14.246152045245417], [79.00768598521964, 14.246240723537072], [79.0111985992422, 14.248336463712977], [79.01187156299392, 14.252130539308649], [79.00970473412487, 14.257622956293185], [79.00648454810509, 14.26241772112781], [79.00646637911609, 14.264483997444255], [79.00893505338027, 14.264849039834708], [79.01068846884782, 14.266241304329096], [79.01245398593318, 14.266256036395063], [79.01389355586177, 14.263168384499192], [79.018827923045, 14.264242672151491], [79.02414546874648, 14.261875960621373], [79.02486366655353, 14.260504280189915], [79.02276009709315, 14.258764802819433], [79.02277811010998, 14.256698505023648], [79.02349029374028, 14.25601559345933], [79.02596192602569, 14.256036067596826], [79.02841260783457, 14.258467205260068], [79.03195252583332, 14.257463223633025], [79.03269455368581, 14.253336430373064], [79.03166217704123, 14.250228225509378], [79.02955265211747, 14.249177581581035], [79.02957059069843, 14.247111273636278], [79.03277216651819, 14.244382412673554], [79.03491743611508, 14.241300393848569], [79.03739190163478, 14.240976342551871], [79.04020457232936, 14.242377099101851], [79.04305883097668, 14.238956399725774], [79.04482713498138, 14.238626476855726], [79.04515055850517, 14.242073249410865], [79.04404980248988, 14.246886000224263], [79.04580630970693, 14.24793363012715], [79.04827788720128, 14.24795386181822], [79.05213815638778, 14.25074071717533], [79.0556719902725, 14.250425133660523], [79.06169803062657, 14.247718853587575], [79.06839200945919, 14.249495224419332], [79.07229354782389, 14.247460280792748], [79.07336157857351, 14.246435655712954], [79.07337034711716, 14.245402474515252], [79.06737672423776, 14.244320757992037], [79.06563185741773, 14.241895708586044], [79.06565532461487, 14.239140570073069], [79.06672333725412, 14.238115972889508], [79.07060420156405, 14.23849178588127], [79.07310200495472, 14.235412202421259], [79.07486443002995, 14.235770836418206], [79.0755588990438, 14.237154106583576], [79.0762650426237, 14.237159797430396], [79.07734466151652, 14.234757566012298], [79.07912456212452, 14.233049797449057], [79.08444378641333, 14.230337165814522], [79.08620040168589, 14.231384507022753], [79.08651866394267, 14.235520096984269], [79.08508025014085, 14.238608342403019], [79.0818705732883, 14.242371183716216], [79.0818560263402, 14.24409316138847], [79.08467779392802, 14.24446024467376], [79.08748506808163, 14.246549278712138], [79.09490284006324, 14.246264198527816], [79.10441903864262, 14.248406524112855], [79.1156695065831, 14.254350866762913], [79.1220311413384, 14.253712194579128], [79.1230847644572, 14.25440934040196], [79.13897189037411, 14.254878272326925], [79.142517115068, 14.253183765180536], [79.14640696036328, 14.252525167204208], [79.14853686258625, 14.251163988216373], [79.1502939834607, 14.252210911871732], [79.15842113229573, 14.251584933537838], [79.16052304768102, 14.253667746230082], [79.15909382180348, 14.255723311535132], [79.15696392469489, 14.257084586850207], [79.15836242051635, 14.258817551476994], [79.16472978076132, 14.257488917345858], [79.17600754754889, 14.260330932576611], [79.17886022947675, 14.256908387460845], [79.178876818632, 14.254841901554403], [79.17782575689266, 14.25380056728514], [79.1704436101033, 14.249610843739472], [79.1655056400147, 14.248884056882696], [79.16090965764087, 14.24953753778344], [79.15985591764324, 14.2488405475182], [79.16164376827423, 14.246098868707353], [79.16201638893408, 14.24369070916142], [79.1630756876937, 14.243698864871261], [79.16412663256469, 14.244740251310144], [79.16800797473168, 14.245114512980042], [79.17081614954844, 14.247202660612263], [79.17257891120143, 14.247560602390138], [79.17538439338638, 14.249993118251458], [79.18277217922653, 14.25349387076559], [79.18591995719552, 14.257306636351585], [79.18834781608906, 14.262836085406608], [79.19466859311189, 14.267361733551871], [79.1971214163305, 14.269791370662064], [79.19781401523727, 14.271518801622149], [79.20097595894678, 14.273609332334582], [79.20412704142485, 14.277077501750293], [79.20870722833881, 14.278489756140905], [79.21010626967016, 14.280222476446834], [79.21573250534537, 14.283364672660998], [79.2188893757719, 14.286143844097436], [79.22418433263526, 14.286527850995268], [79.22557544445344, 14.289293765416982], [79.22909110487747, 14.291386611983407], [79.23084088121354, 14.293466287756305], [79.23682902243294, 14.295577407654397], [79.23858426927158, 14.296968188861893], [79.23997025470669, 14.300422893575668], [79.24766330796074, 14.310468629367946], [79.24797646226959, 14.315637619261016], [79.2500584694992, 14.320475203163186], [79.2489693758849, 14.324256074271467], [79.24790697677201, 14.324592682049168]], [[79.24932261792873, 14.324258679082792], [79.25073558681429, 14.324269093079009], [79.25177930824248, 14.326343454377234], [79.25036365551908, 14.326677470871276], [79.2493119324847, 14.32563638150834], [79.24932261792873, 14.324258679082792]], [[79.12218455254077, 14.277823183637043], [79.12399876275614, 14.271982249028754], [79.12541700535091, 14.27130456186976], [79.12611473099061, 14.272343329017287], [79.1257302518544, 14.276128988535971], [79.12359713153427, 14.277834318556708], [79.12218455254077, 14.277823183637043]], [[79.08767848279487, 14.26549390828613], [79.08522120079124, 14.263752082761906], [79.08063654229176, 14.263026370349769], [79.07995364623885, 14.260265525417692], [79.08137773559987, 14.258899317209144], [79.08314327025629, 14.25891351858891], [79.08523574311448, 14.262030104515988], [79.09086235151501, 14.264830595494532], [79.0901474112739, 14.265858126787599], [79.08767848279487, 14.26549390828613]], [[79.09760628240518, 14.26075146859309], [79.09620828695552, 14.259018203024734], [79.09656717770798, 14.25833222630058], [79.09833272365393, 14.258346314691039], [79.10079007095246, 14.26008801095011], [79.10078141787147, 14.261121207491588], [79.09760628240518, 14.26075146859309]], [[79.17074118889346, 14.256501808230565], [79.17039640103457, 14.255465861096786], [79.17110819306608, 14.25478245265936], [79.17534562075555, 14.254814910659974], [79.17604632175077, 14.255509140607705], [79.175684892007, 14.25653968065971], [79.17426963191849, 14.256873283819361], [79.17074118889346, 14.256501808230565]], [[79.1675909193918, 14.253033285894443], [79.16724614978112, 14.251997336270351], [79.16971516761943, 14.252360728289787], [79.16970683317335, 14.253393966206753], [79.1675909193918, 14.253033285894443]], [[79.11533642497459, 14.251937262795819], [79.11463594224062, 14.251242878061639], [79.11500620761164, 14.249179256763744], [79.1174893251756, 14.247821163388407], [79.11782528599792, 14.249890364656656], [79.11710194040045, 14.251951206130041], [79.11533642497459, 14.251937262795819]]], [[[79.2225035437786, 14.320615010615047], [79.22179436888773, 14.320954142609045], [79.22250083233453, 14.320959431347683], [79.2225035437786, 14.320615010615047]]], [[[79.22248470902544, 14.367803205916765], [79.22319947823864, 14.366775250966262], [79.22286249324178, 14.364706082651377], [79.22038939221271, 14.364687511340078], [79.21896801637983, 14.36571014393038], [79.21930496526043, 14.367779313672129], [79.22248470902544, 14.367803205916765]]]]}}, {"type": "Feature", "properties": {"depth_class": 2, "depth_lo_m": 1.0, "t_s": 15300.431759226212}, "geometry": {"type": "MultiPolygon", "coordinates": [[[[79.03766459595057, 14.250277678768716], [79.03873872940582, 14.248564457541043], [79.03697332187184, 14.248549937773994], [79.03766459595057, 14.250277678768716]]], [[[79.09050343175026, 14.26551655984128], [79.09086235151501, 14.264830595494532], [79.09016191842935, 14.264136143872452], [79.08523574311448, 14.262030104515988], [79.08314327025629, 14.25891351858891], [79.08137773559987, 14.258899317209144], [79.07995364623885, 14.260265525417692], [79.07993906569381, 14.261987498571635], [79.0813398540281, 14.263376451125769], [79.08522120079124, 14.263752082761906], [79.08838181530461, 14.265843970516087], [79.09050343175026, 14.26551655984128]]], [[[79.1239531292156, 14.277492698007215], [79.12609194177672, 14.27509855710991], [79.12611473099061, 14.272343329017287], [79.12541700535091, 14.27130456186976], [79.12399876275614, 14.271982249028754], [79.12219597377948, 14.276445573084285], [79.12218455254077, 14.277823183637043], [79.1239531292156, 14.277492698007215]]], [[[79.24932796022455, 14.323569827807255], [79.2500584694992, 14.320475203163186], [79.24797646226959, 14.315637619261016], [79.24766330796074, 14.310468629367946], [79.24066862136833, 14.301461395018695], [79.23753272872081, 14.295927066859795], [79.23084088121354, 14.293466287756305], [79.22909110487747, 14.291386611983407], [79.22557544445344, 14.289293765416982], [79.22418433263526, 14.286527850995268], [79.2188893757719, 14.286143844097436], [79.21573250534537, 14.283364672660998], [79.21010626967016, 14.280222476446834], [79.20870722833881, 14.278489756140905], [79.20412704142485, 14.277077501750293], [79.20097595894678, 14.273609332334582], [79.19781401523727, 14.271518801622149], [79.1971214163305, 14.269791370662064], [79.19466859311189, 14.267361733551871], [79.18834781608906, 14.262836085406608], [79.18591995719552, 14.257306636351585], [79.18277217922653, 14.25349387076559], [79.17538439338638, 14.249993118251458], [79.17257891120143, 14.247560602390138], [79.17081614954844, 14.247202660612263], [79.16800797473168, 14.245114512980042], [79.16412663256469, 14.244740251310144], [79.1630756876937, 14.243698864871261], [79.16201638893408, 14.24369070916142], [79.16164376827423, 14.246098868707353], [79.15985591764324, 14.2488405475182], [79.16090965764087, 14.24953753778344], [79.16409320763545, 14.248873192068041], [79.1704436101033, 14.249610843739472], [79.17782575689266, 14.25380056728514], [79.178876818632, 14.254841901554403], [79.17886022947675, 14.256908387460845], [79.17600754754889, 14.260330932576611], [79.16472978076132, 14.257488917345858], [79.15836242051635, 14.258817551476994], [79.15696392469489, 14.257084586850207], [79.16052025539224, 14.254012157061217], [79.15842113229573, 14.251584933537838], [79.1502939834607, 14.252210911871732], [79.14853686258625, 14.251163988216373], [79.14640696036328, 14.252525167204208], [79.142517115068, 14.253183765180536], [79.13897189037411, 14.254878272326925], [79.1230847644572, 14.25440934040196], [79.1220311413384, 14.253712194579128], [79.1156695065831, 14.254350866762913], [79.10441903864262, 14.248406524112855], [79.09490284006324, 14.246264198527816], [79.08748506808163, 14.246549278712138], [79.08467779392802, 14.24446024467376], [79.0818560263402, 14.24409316138847], [79.0818705732883, 14.242371183716216], [79.08508025014085, 14.238608342403019], [79.08651866394267, 14.235520096984269], [79.08620040168589, 14.231384507022753], [79.08444378641333, 14.230337165814522], [79.07912456212452, 14.233049797449057], [79.07734466151652, 14.234757566012298], [79.0762650426237, 14.237159797430396], [79.0755588990438, 14.237154106583576], [79.07486443002995, 14.235770836418206], [79.07310200495472, 14.235412202421259], [79.07060420156405, 14.23849178588127], [79.06672333725412, 14.238115972889508], [79.06565532461487, 14.239140570073069], [79.06563185741773, 14.241895708586044], [79.06737672423776, 14.244320757992037], [79.07337034711716, 14.245402474515252], [79.07336157857351, 14.246435655712954], [79.07229354782389, 14.247460280792748], [79.06839200945919, 14.249495224419332], [79.06169803062657, 14.247718853587575], [79.0556719902725, 14.250425133660523], [79.05213815638778, 14.25074071717533], [79.04827788720128, 14.24795386181822], [79.04580630970693, 14.24793363012715], [79.04404980248988, 14.246886000224263], [79.04515055850517, 14.242073249410865], [79.04482713498138, 14.238626476855726], [79.04305883097668, 14.238956399725774], [79.04020457232936, 14.242377099101851], [79.03739190163478, 14.240976342551871], [79.03491743611508, 14.241300393848569], [79.03277216651819, 14.244382412673554], [79.02957059069843, 14.247111273636278], [79.02955265211747, 14.249177581581035], [79.03166217704123, 14.250228225509378], [79.03269455368581, 14.253336430373064], [79.03195252583332, 14.257463223633025], [79.02841260783457, 14.258467205260068], [79.02596192602569, 14.256036067596826], [79.02349029374028, 14.25601559345933], [79.02277811010998, 14.256698505023648], [79.02276009709315, 14.258764802819433], [79.02486366655353, 14.260504280189915], [79.02414546874648, 14.261875960621373], [79.018827923045, 14.264242672151491], [79.01389355586177, 14.263168384499192], [79.01245398593318, 14.266256036395063], [79.01068846884782, 14.266241304329096], [79.00893505338027, 14.264849039834708], [79.00646637911609, 14.264483997444255], [79.00648454810509, 14.26241772112781], [79.00970473412487, 14.257622956293185], [79.01187156299392, 14.252130539308649], [79.0111985992422, 14.248336463712977], [79.00768598521964, 14.246240723537072], [78.99709387816064, 14.246152045245417], [78.9953467800433, 14.24407095450377], [78.99536198278412, 14.242349066394526], [78.99857900575368, 14.2378988162242], [79.00355207082919, 14.234496408121178], [79.01170243017243, 14.23112034920703], [79.01490694413032, 14.22804734105404], [79.01779135436266, 14.221183137090387], [79.02027758798026, 14.219481703605101], [79.01996052664111, 14.21534617680958], [79.0164542866189, 14.212561850093463], [79.01363012086742, 14.21253840655277], [79.012202997849, 14.21424858245104], [79.01251089034285, 14.219417247170686], [79.00999145780962, 14.224906786562178], [79.00466263439156, 14.228650802749796], [78.99757447292656, 14.231691124298363], [78.99294532604434, 14.236129504765996], [78.99043739800129, 14.240241237718362], [78.99038558144004, 14.246095639504855], [78.99352970406487, 14.249910529594926], [78.99810144553892, 14.25201536086568], [79.00163223315846, 14.252044969470887], [79.00269753363047, 14.251365084020543], [79.00481600512613, 14.251382813848583], [79.00551610889174, 14.252077478661038], [79.00513880517592, 14.254829561051297], [79.00300211065581, 14.256878103148305], [78.99906042459484, 14.263388722883276], [78.99902394583616, 14.267521256015426], [78.99971799348172, 14.268904696785931], [79.00146529626399, 14.27098578167271], [79.00357484635641, 14.272036681959253], [79.01204650495642, 14.272451938092262], [79.01417424056154, 14.2714364681844], [79.01912082793386, 14.271133245613239], [79.02054230433069, 14.270111839901977], [79.02407342194223, 14.270141152793624], [79.02547086638964, 14.271874779059795], [79.02723344466702, 14.272233790778454], [79.02904395550522, 14.267082647436586], [79.03224286201565, 14.264698219663943], [79.03612404309689, 14.265074643925194], [79.03864345877165, 14.259584821747389], [79.04291630939491, 14.255486998160714], [79.04538499745681, 14.255851658004316], [79.04498143609655, 14.261703351857706], [79.0463819812782, 14.263092482699516], [79.0495599378518, 14.263118509567303], [79.05452412287238, 14.260748185785456], [79.05628669186575, 14.261106977586557], [79.05768436180979, 14.262840440411933], [79.06545275508871, 14.262903617621701], [79.06936628809318, 14.259491186671362], [79.0707816389828, 14.259158227595838], [79.07540123222978, 14.255751390519249], [79.0874096010746, 14.255503586131741], [79.08882781524042, 14.2548261167249], [79.0958840882446, 14.255571403560298], [79.10080737503624, 14.25802161758364], [79.1039536893634, 14.261835304795303], [79.10536039836089, 14.262535334944413], [79.10499288830891, 14.264254525962944], [79.10180616086183, 14.265262432755236], [79.10533161630913, 14.265979331496057], [79.10849247975715, 14.268070978888193], [79.1123797453759, 14.26775738151681], [79.11204096150776, 14.266032579301807], [79.11558079574021, 14.26502732371908], [79.12370265219765, 14.265091404190127], [79.12581570925487, 14.26579688276388], [79.1268637054477, 14.267182827207685], [79.12827622192707, 14.267193926285026], [79.13254215050118, 14.263783123175122], [79.13818650073432, 14.264516136759823], [79.14878597223796, 14.263909841240997], [79.15371575138131, 14.265670234125341], [79.16536078622384, 14.266793463643808], [79.1731048129623, 14.269952864479475], [79.17591332130269, 14.27204099025223], [79.17909994450078, 14.27103206381822], [79.18615459651883, 14.272119187912695], [79.18896877506826, 14.273518345366664], [79.19598243995489, 14.27977144628295], [79.20196159638188, 14.282916620033967], [79.20511007645617, 14.286729209213354], [79.20968501067006, 14.288830305639939], [79.21249140188479, 14.291262483523047], [79.21953069186675, 14.294415234376263], [79.22446994882687, 14.295141035205106], [79.22833617924901, 14.297580960113672], [79.2332701732704, 14.29899543581948], [79.24237840769241, 14.308707378115034], [79.24412040314105, 14.311820257705243], [79.24479205705813, 14.316303002922393], [79.24584639363832, 14.316999680577466], [79.24618625000437, 14.318724414907646], [79.24474922267865, 14.321813801887652], [79.24328266202035, 14.328691843737156], [79.24113632724452, 14.332120387703656], [79.24003625819064, 14.337278885075179], [79.23646324702221, 14.342418993849668], [79.23608033043645, 14.346205015179788], [79.24071590763982, 14.340728361481675], [79.2421558236358, 14.337294599743306], [79.24217998300746, 14.33419478401554], [79.24467957792658, 14.330768844494287], [79.24755373447414, 14.324590075072944], [79.24932796022455, 14.323569827807255]], [[79.2230788240424, 14.29237511301157], [79.22344012427192, 14.29134448534433], [79.22484746343561, 14.292043873598407], [79.22448887077478, 14.292730082048116], [79.2230788240424, 14.29237511301157]], [[79.20690596125613, 14.282953912868962], [79.20480059965571, 14.281215850227339], [79.20162757642811, 14.28050302689848], [79.2012798832768, 14.27981152334627], [79.19599890065822, 14.277704944671942], [79.18968883676122, 14.271801634740585], [79.18617113762276, 14.270052696238704], [79.18655735076896, 14.265922399173938], [79.18339842194014, 14.263487289124317], [79.17916634495108, 14.262766126595686], [79.17846838028481, 14.261727488349527], [79.17919399925859, 14.259321984308363], [79.18132933349953, 14.257271667619017], [79.18379844855659, 14.25763492312329], [79.18727739853105, 14.264205694108563], [79.1893797134855, 14.266288295699084], [79.19360093050773, 14.268386955381487], [79.1977948388064, 14.273929723799462], [79.20060912744393, 14.27532875456614], [79.2034097942416, 14.278449847881857], [79.2065800705487, 14.27950706378009], [79.20833226639225, 14.281242453230004], [79.20902225462558, 14.28331428339685], [79.20690596125613, 14.282953912868962]], [[79.01064010038516, 14.271751386039552], [79.00252765826687, 14.27065028801066], [79.00043028060023, 14.268221868832837], [78.99974230797642, 14.266149674013153], [79.00083805320487, 14.26202602529668], [79.00655416895388, 14.254496991726985], [79.00622832107364, 14.251394623297053], [79.00482508879962, 14.25034967564828], [78.99775748348071, 14.250979263462934], [78.99318881072958, 14.248530051572034], [78.99109781170284, 14.245412832526704], [78.9911343757562, 14.241280311886582], [78.99293315489881, 14.237507013943226], [78.99756536869303, 14.232724259519244], [79.00571874350388, 14.229004027702155], [79.01069452229017, 14.225257047687473], [79.01321093555154, 14.220111881376898], [79.01290302823655, 14.214943215646677], [79.0143301516362, 14.213233035542341], [79.01714832523456, 14.213945238060811], [79.01923948264216, 14.217062245398393], [79.01922748764765, 14.218439778907957], [79.01744732599933, 14.22014705994845], [79.01420386341077, 14.227697090442883], [79.01135540849101, 14.230428647119988], [79.00249594203068, 14.234143170837006], [78.9978789638216, 14.23720413875997], [78.99466194014705, 14.241654379222839], [78.99463456559015, 14.24475377647582], [78.99602859096485, 14.246831906936682], [78.99778786573364, 14.247535483870157], [79.00662072282475, 14.246920636641065], [79.0101363539116, 14.248672011913673], [79.01083345040534, 14.249711042982296], [79.01117445540511, 14.25109150988917], [79.00936373396986, 14.256242487878191], [79.00506913322187, 14.26275028337826], [79.00505095089603, 14.26481655784925], [79.00609813386346, 14.266202939834775], [79.00927303206402, 14.266573889162501], [79.01032327334943, 14.267615876733409], [79.01314811814869, 14.267639448318315], [79.0152848481387, 14.265590818207139], [79.01916898810609, 14.26562313518133], [79.02235894558402, 14.26427199864234], [79.02626106821268, 14.26223789625329], [79.02804454046199, 14.26018620519656], [79.0333619168216, 14.2578192625014], [79.03479816650751, 14.255075824105994], [79.03481308217575, 14.253353896245493], [79.03341565390926, 14.251620327758394], [79.03308047845739, 14.249551104462617], [79.03167711120774, 14.248506300206678], [79.03169204338047, 14.24678437464062], [79.03561761715916, 14.24199497871526], [79.03738297229893, 14.242009501972698], [79.03913643322558, 14.2434015593998], [79.04054872891244, 14.24341315935535], [79.04268201814324, 14.241708605957935], [79.04373826724843, 14.242061677742806], [79.04371452918473, 14.244816779573968], [79.04299946918613, 14.245844152021052], [79.04298462378298, 14.247566089437083], [79.0436848494716, 14.248260655915693], [79.04861616502956, 14.249678692893845], [79.05177028442976, 14.252459779425303], [79.05564543120352, 14.253524643120775], [79.05598672029849, 14.254905081252343], [79.05809350064368, 14.25629990350376], [79.0605651873588, 14.256320019499343], [79.0644639663359, 14.254629620458328], [79.06696205128974, 14.251550138182267], [79.0708577821966, 14.250204010582857], [79.07761319411176, 14.24474785725168], [79.07938152823805, 14.244417677694024], [79.08078512989742, 14.245462226168303], [79.08431308471188, 14.245834994432075], [79.08782655215253, 14.247929695094932], [79.09347891094343, 14.247630509001874], [79.10440753291492, 14.24978412373403], [79.1096753117609, 14.253270159861508], [79.11284751999149, 14.253984129084692], [79.11636142228626, 14.256078456170634], [79.13296048959222, 14.255864568696516], [79.13436727559807, 14.25656443435885], [79.13789841893707, 14.256592035111668], [79.14250583656717, 14.254561394442417], [79.14639289224027, 14.254247207660285], [79.14848908301235, 14.257018932447279], [79.15307681262642, 14.257398941873914], [79.15764498489953, 14.260189735698244], [79.16717936735486, 14.260263225763595], [79.16928144336549, 14.262345979061879], [79.17315477726811, 14.263753432346116], [79.1755962197309, 14.26756091325616], [79.17241796894172, 14.267536558862037], [79.16397055789969, 14.264027295294802], [79.15690514284965, 14.264317195509898], [79.15162223188321, 14.262554131001592], [79.14738753028286, 14.262176826142516], [79.12760978701273, 14.262366720904263], [79.12618876236222, 14.263388833078412], [79.11630707292323, 14.262622093944593], [79.11312326630797, 14.263285760057594], [79.11101889313257, 14.261546973919474], [79.11067725382293, 14.260166572185343], [79.10927053807801, 14.259466573088392], [79.10502742766887, 14.260121730191646], [79.10082467634919, 14.255955223839187], [79.09695495818265, 14.254202266626525], [79.0923675259995, 14.253821196222665], [79.09131401748017, 14.25312392659646], [79.07576893851964, 14.254032270266684], [79.07222333003388, 14.255725721045911], [79.0704431837955, 14.25743340611598], [79.06620009079411, 14.258087862592074], [79.06476123279626, 14.261175927122121], [79.05875842829226, 14.261127118943648], [79.05629849933476, 14.259729418278809], [79.0513580272158, 14.259344674009286], [79.04821864469048, 14.254841630470517], [79.04434352728576, 14.25377664770203], [79.04079775066673, 14.255469601694223], [79.03615983936626, 14.260942016773852], [79.03507964747047, 14.263343985442734], [79.03154562210679, 14.263659233828543], [79.02584798408881, 14.269122639850307], [79.02161366477769, 14.2687431097113], [79.01771440342193, 14.270432733511798], [79.01418329490448, 14.270403325817687], [79.01064010038516, 14.271751386039552]], [[79.18124093075697, 14.268292934276307], [79.18159130909044, 14.268640043957774], [79.1812381669549, 14.268637348686802], [79.18124093075697, 14.268292934276307]], [[79.04817419204615, 14.260007454196058], [79.0478151611446, 14.260693339148352], [79.04746205868607, 14.260690447260687], [79.04746798919163, 14.26000167123374], [79.04817419204615, 14.260007454196058]], [[79.02452556893513, 14.258779437977518], [79.02418447484033, 14.257398978991025], [79.02629703673182, 14.258105292720986], [79.02628804568184, 14.259138443746428], [79.02452556893513, 14.258779437977518]], [[79.0598796078211, 14.253903539690539], [79.06059757209195, 14.252531719834336], [79.06200994268178, 14.25254320002652], [79.06200111784646, 14.253576373654914], [79.0612919863445, 14.25391502521378], [79.0598796078211, 14.253903539690539]], [[79.16587266327491, 14.247164711607114], [79.16623133335624, 14.24647860136302], [79.16799407803074, 14.246836575515749], [79.16798851883074, 14.247525400456862], [79.16587266327491, 14.247164711607114]], [[79.07903427220504, 14.243726045849147], [79.07586820528427, 14.242322868619631], [79.07587404169905, 14.241634079909234], [79.07730385182289, 14.239579093053658], [79.07804497150944, 14.235452040632822], [79.08195200029587, 14.232728103901424], [79.08442927176242, 14.23205914782145], [79.08547105850973, 14.234134020341859], [79.08437990743823, 14.237913884682929], [79.08081133024183, 14.242362668476112], [79.07903427220504, 14.243726045849147]], [[79.06986878714578, 14.241930009654693], [79.06846233469898, 14.241229798593412], [79.06847112218446, 14.240196619939566], [79.07164879999883, 14.240222311996115], [79.07273140587836, 14.23747571619251], [79.07379354145864, 14.237139870342242], [79.07551512551434, 14.242320021860833], [79.06986878714578, 14.241930009654693]]], [[[79.24932528911216, 14.323914253450253], [79.2493119324847, 14.32563638150834], [79.25036365551908, 14.326677470871276], [79.25177930824248, 14.326343454377234], [79.25073558681429, 14.324269093079009], [79.24932528911216, 14.323914253450253]]], [[[79.2572289420713, 14.352561433842004], [79.2614896650091, 14.34983715287522], [79.26221482792532, 14.347431342705574], [79.259741864067, 14.347413203574709], [79.25510654803503, 14.352890263449396], [79.2572289420713, 14.352561433842004]]], [[[79.20745923302235, 14.391111646622138], [79.21277302517622, 14.3894296875583], [79.21421648569702, 14.385651776685991], [79.22026676860735, 14.38018635859153], [79.22912702353314, 14.376808437691125], [79.23091801146643, 14.37372186473885], [79.2323393966675, 14.372699160594934], [79.236231264672, 14.372039308654188], [79.23765531611706, 14.370672146359535], [79.23838621174576, 14.367577605046833], [79.2405276031208, 14.364837984712596], [79.24693268456436, 14.359029937760424], [79.25082697268638, 14.358025388420801], [79.25262284621357, 14.354249744977047], [79.25050043415182, 14.35457853070435], [79.24553291883082, 14.357297356660808], [79.24270657621693, 14.35727641124834], [79.23776587811132, 14.356550830671004], [79.23460246570639, 14.354460629783931], [79.23178158303818, 14.353750715088827], [79.22928692765969, 14.356487618760744], [79.22818098583049, 14.362334847563819], [79.22675965591921, 14.363357532918716], [79.22463986301918, 14.363341652561603], [79.2204247895674, 14.36021006261803], [79.22043840068332, 14.358487966483185], [79.22329189805495, 14.35506498083723], [79.22366148093592, 14.353001109481578], [79.22155266556942, 14.351607534055741], [79.21730513885566, 14.352608943261503], [79.21414200044804, 14.350518496652635], [79.21237835177786, 14.350160763934866], [79.21063112096337, 14.347736512611553], [79.21243845392497, 14.342583565902764], [79.20924540280093, 14.344281667935626], [79.20389426772593, 14.35078550448303], [79.20386405947191, 14.354574083739887], [79.20169761792268, 14.36041307585001], [79.20167285520891, 14.363512816345825], [79.2034200831662, 14.36593713372337], [79.20942068848328, 14.366671458729082], [79.21222520600408, 14.369448154175021], [79.21218414616312, 14.37461441382271], [79.21038742694948, 14.378389647847209], [79.20964238672715, 14.38320613425791], [79.20785927481018, 14.385259253080577], [79.20712238640998, 14.389042472436385], [79.20745923302235, 14.391111646622138]], [[79.22000884991061, 14.368129045643695], [79.21896801637983, 14.36571014393038], [79.21968006810965, 14.365026619439679], [79.22321307461806, 14.365053153179101], [79.22248470902544, 14.367803205916765], [79.22000884991061, 14.368129045643695]]]]}}, {"type": "Feature", "properties": {"depth_class": 3, "depth_lo_m": 2.0, "t_s": 15300.431759226212}, "geometry": {"type": "MultiPolygon", "coordinates": [[[[79.07939026810347, 14.243384492654442], [79.08223528848012, 14.24099643847395], [79.08509766992145, 14.236541964303713], [79.08547105850973, 14.234134020341859], [79.08442927176242, 14.23205914782145], [79.07946889537874, 14.234085823045593], [79.07768607369903, 14.236137988239372], [79.07730385182289, 14.239579093053658], [79.07586820528427, 14.242322868619631], [79.07797502460876, 14.243717517232326], [79.07939026810347, 14.243384492654442]], [[79.07838638856909, 14.236832462448886], [79.07946016181583, 14.235119008935623], [79.08300538815412, 14.233425400566542], [79.08440894799205, 14.234469922190506], [79.08332068361065, 14.237905383178768], [79.08011390385624, 14.241323803383816], [79.07835142340241, 14.240965201859341], [79.07838638856909, 14.236832462448886]]], [[[79.07551512551434, 14.242320021860833], [79.07379354145864, 14.237139870342242], [79.07273140587836, 14.23747571619251], [79.07164879999883, 14.240222311996115], [79.06847112218446, 14.240196619939566], [79.06846233469898, 14.241229798593412], [79.06986878714578, 14.241930009654693], [79.07551512551434, 14.242320021860833]]], [[[79.01205556966909, 14.271418797152295], [79.01418329490448, 14.270403325817687], [79.01771440342193, 14.270432733511798], [79.02161366477769, 14.2687431097113], [79.02655720503908, 14.268784107058625], [79.03154562210679, 14.263659233828543], [79.03507964747047, 14.263343985442734], [79.03615983936626, 14.260942016773852], [79.04079775066673, 14.255469601694223], [79.04434352728576, 14.25377664770203], [79.04821864469048, 14.254841630470517], [79.0513580272158, 14.259344674009286], [79.05629849933476, 14.259729418278809], [79.05875842829226, 14.261127118943648], [79.06476123279626, 14.261175927122121], [79.06620009079411, 14.258087862592074], [79.0704431837955, 14.25743340611598], [79.07222333003388, 14.255725721045911], [79.07576893851964, 14.254032270266684], [79.09131401748017, 14.25312392659646], [79.0923675259995, 14.253821196222665], [79.09695495818265, 14.254202266626525], [79.10082467634919, 14.255955223839187], [79.10502742766887, 14.260121730191646], [79.10927053807801, 14.259466573088392], [79.11067725382293, 14.260166572185343], [79.11101889313257, 14.261546973919474], [79.11312326630797, 14.263285760057594], [79.11630707292323, 14.262622093944593], [79.12618876236222, 14.263388833078412], [79.12760978701273, 14.262366720904263], [79.14738753028286, 14.262176826142516], [79.15162223188321, 14.262554131001592], [79.15690514284965, 14.264317195509898], [79.16397055789969, 14.264027295294802], [79.17241796894172, 14.267536558862037], [79.17382774919969, 14.26789180126999], [79.1755962197309, 14.26756091325616], [79.17315477726811, 14.263753432346116], [79.16928144336549, 14.262345979061879], [79.16717936735486, 14.260263225763595], [79.15764498489953, 14.260189735698244], [79.15307681262642, 14.257398941873914], [79.14848908301235, 14.257018932447279], [79.14639289224027, 14.254247207660285], [79.14250583656717, 14.254561394442417], [79.13789841893707, 14.256592035111668], [79.13436727559807, 14.25656443435885], [79.13296048959222, 14.255864568696516], [79.11636142228626, 14.256078456170634], [79.11284751999149, 14.253984129084692], [79.1096753117609, 14.253270159861508], [79.10440753291492, 14.24978412373403], [79.09347891094343, 14.247630509001874], [79.08782655215253, 14.247929695094932], [79.08431308471188, 14.245834994432075], [79.08078512989742, 14.245462226168303], [79.07938152823805, 14.244417677694024], [79.07761319411176, 14.24474785725168], [79.0708577821966, 14.250204010582857], [79.06696205128974, 14.251550138182267], [79.0644639663359, 14.254629620458328], [79.0605651873588, 14.256320019499343], [79.05809350064368, 14.25629990350376], [79.05598672029849, 14.254905081252343], [79.05564543120352, 14.253524643120775], [79.05177028442976, 14.252459779425303], [79.04861616502956, 14.249678692893845], [79.0436848494716, 14.248260655915693], [79.04298462378298, 14.247566089437083], [79.04371452918473, 14.244816779573968], [79.04338816206828, 14.241714395818537], [79.04054872891244, 14.24341315935535], [79.03913643322558, 14.2434015593998], [79.03738297229893, 14.242009501972698], [79.03561761715916, 14.24199497871526], [79.03169204338047, 14.24678437464062], [79.03167711120774, 14.248506300206678], [79.03308047845739, 14.249551104462617], [79.03341565390926, 14.251620327758394], [79.03481308217575, 14.253353896245493], [79.03479816650751, 14.255075824105994], [79.0333619168216, 14.2578192625014], [79.02804454046199, 14.26018620519656], [79.02626106821268, 14.26223789625329], [79.02235894558402, 14.26427199864234], [79.01916898810609, 14.26562313518133], [79.0152848481387, 14.265590818207139], [79.01314811814869, 14.267639448318315], [79.01032327334943, 14.267615876733409], [79.00927303206402, 14.266573889162501], [79.00609813386346, 14.266202939834775], [79.00505095089603, 14.26481655784925], [79.00506913322187, 14.26275028337826], [79.00936373396986, 14.256242487878191], [79.01117445540511, 14.25109150988917], [79.01083345040534, 14.249711042982296], [79.0101363539116, 14.248672011913673], [79.00662072282475, 14.246920636641065], [78.99884708006356, 14.247544370590306], [78.99602859096485, 14.246831906936682], [78.99463456559015, 14.24475377647582], [78.99466194014705, 14.241654379222839], [78.9978789638216, 14.23720413875997], [79.00249594203068, 14.234143170837006], [79.01135540849101, 14.230428647119988], [79.01420386341077, 14.227697090442883], [79.01744732599933, 14.22014705994845], [79.01922748764765, 14.218439778907957], [79.01923948264216, 14.217062245398393], [79.01749834803567, 14.21429254853517], [79.01609526076598, 14.21324768719321], [79.0143301516362, 14.213233035542341], [79.01290302823655, 14.214943215646677], [79.01321093555154, 14.220111881376898], [79.01069452229017, 14.225257047687473], [79.00571874350388, 14.229004027702155], [78.99756536869303, 14.232724259519244], [78.99293315489881, 14.237507013943226], [78.9911343757562, 14.241280311886582], [78.99109781170284, 14.245412832526704], [78.99318881072958, 14.248530051572034], [78.99775748348071, 14.250979263462934], [79.00482508879962, 14.25034967564828], [79.006575349426, 14.25208633384452], [79.00619503158883, 14.255182799152992], [79.00298694973401, 14.258599997235262], [79.00011971374836, 14.263397613621127], [78.99974230797642, 14.266149674013153], [79.00112737657449, 14.269260928741893], [79.00358394940697, 14.27100354632856], [79.01205556966909, 14.271418797152295]], [[79.01171152373053, 14.270382709338174], [79.00288987192286, 14.269620113139567], [79.00114560056204, 14.267194660002236], [79.00117293107508, 14.264095256179555], [79.00331274949359, 14.261702363911073], [79.0039825548411, 14.265840824580613], [79.00537980737393, 14.267574545999526], [79.01242680531823, 14.269355461021668], [79.01171152373053, 14.270382709338174]], [[79.01561684632878, 14.26800442720478], [79.01879782320114, 14.267686491172656], [79.0187918022688, 14.268375254850229], [79.01560780010463, 14.26903757068023], [79.01561684632878, 14.26800442720478]], [[79.021987812948, 14.266335363863542], [79.03122541112673, 14.259868086572094], [79.03476832919839, 14.258519679036686], [79.03940918886498, 14.252702901389114], [79.04084830253286, 14.249615024959041], [79.04051603133603, 14.24720141651969], [79.03910966212598, 14.246501040001654], [79.03593195816364, 14.246474903670698], [79.03485781723595, 14.248188111083739], [79.03344848053045, 14.247832088179392], [79.03345743157202, 14.246798931709368], [79.03596175156059, 14.243031042858707], [79.03807721229454, 14.243392853956518], [79.03912453575356, 14.244779106439234], [79.04231113087069, 14.243772034996306], [79.04156932874587, 14.247898887747255], [79.04332286016512, 14.24929092286235], [79.04930753463341, 14.251406411748434], [79.05174958341233, 14.254870503057107], [79.05315900564923, 14.255226426813007], [79.05525986261027, 14.25731005162957], [79.0552539569242, 14.257998831017522], [79.05243211762597, 14.257631384560954], [79.04999003338656, 14.254167295887072], [79.04788036752227, 14.253116798935759], [79.04258401559765, 14.253073389803893], [79.03974442405455, 14.254772123275606], [79.0336791791753, 14.261954796836532], [79.03084838822541, 14.262620246688403], [79.02693130183349, 14.266376346686508], [79.02515676665715, 14.267394871323319], [79.02233190429043, 14.267371442442217], [79.021987812948, 14.266335363863542]], [[79.06231008554582, 14.25874511041856], [79.06195404012084, 14.25908663140723], [79.05983542368989, 14.259069399756305], [79.05984131592949, 14.258380618551003], [79.06231008554582, 14.25874511041856]], [[79.00617384228137, 14.257593455850936], [79.00652995785343, 14.257252028673701], [79.00652693110237, 14.257596408244543], [79.00617384228137, 14.257593455850936]], [[79.00653601111323, 14.25656326950035], [79.00796650577895, 14.254508793409506], [79.0079816243898, 14.252786893490898], [79.00553729664031, 14.249666821820528], [79.00271571950779, 14.249298810200637], [79.00200350563408, 14.249981654660413], [78.9984727493021, 14.249952055741193], [78.99777571380596, 14.248912995833939], [79.00131555049187, 14.24790946676301], [79.00731779752047, 14.247959675337006], [79.00907410601671, 14.249007554963566], [79.01012427589647, 14.250049534155153], [79.01010917656343, 14.251771436719649], [79.00832261353554, 14.254167362488442], [79.00795138515012, 14.256230693064287], [79.00688304621998, 14.257254980471012], [79.00653601111323, 14.25656326950035]], [[79.03837076439318, 14.250283486884262], [79.03697332187184, 14.248549937773994], [79.03873872940582, 14.248564457541043], [79.03837076439318, 14.250283486884262]], [[79.08427238990589, 14.250656536777221], [79.0839396484815, 14.24824293040867], [79.08710876001177, 14.24930162001148], [79.08710005148889, 14.250334809225764], [79.08639095838079, 14.25067354153294], [79.08427238990589, 14.250656536777221]], [[78.99531332686641, 14.247859107415334], [78.99215396584725, 14.245766124512684], [78.99219660145478, 14.24094484729211], [78.99291793913754, 14.239228900177372], [78.99897756236795, 14.232736096704068], [79.00429144703368, 14.230714132865277], [79.01104153608044, 14.225948749725665], [79.01391699982221, 14.220117749678813], [79.01396811256791, 14.214263250823475], [79.01573623253837, 14.213933523435053], [79.01783036949503, 14.216706157498898], [79.01781536528037, 14.218428072936847], [79.01349777548937, 14.227691219928936], [79.01065232780843, 14.230078385866546], [79.00179589653422, 14.233448504608072], [79.0003685412076, 14.235158578202366], [78.99611065031932, 14.237533706262639], [78.99360275600908, 14.241645477530701], [78.99357841056354, 14.244400495561015], [78.99531332686641, 14.247859107415334]]], [[[79.16798851883074, 14.247525400456862], [79.16623133335624, 14.24647860136302], [79.16587266327491, 14.247164711607114], [79.16798851883074, 14.247525400456862]]], [[[79.02628804568184, 14.259138443746428], [79.02559684487018, 14.257410678630727], [79.02418447484033, 14.257398978991025], [79.02487566430578, 14.259126746813221], [79.02628804568184, 14.259138443746428]]], [[[79.04781812590153, 14.260348951067447], [79.04746798919163, 14.26000167123374], [79.04746205868607, 14.260690447260687], [79.04781812590153, 14.260348951067447]]], [[[79.18159407235657, 14.268295629479558], [79.1812381669549, 14.268637348686802], [79.18159130909044, 14.268640043957774], [79.18159407235657, 14.268295629479558]]], [[[79.20902225462558, 14.28331428339685], [79.2065800705487, 14.27950706378009], [79.2034097942416, 14.278449847881857], [79.20060912744393, 14.27532875456614], [79.1977948388064, 14.273929723799462], [79.19360093050773, 14.268386955381487], [79.1893797134855, 14.266288295699084], [79.18727739853105, 14.264205694108563], [79.18379844855659, 14.25763492312329], [79.18132933349953, 14.257271667619017], [79.17919399925859, 14.259321984308363], [79.17847667990142, 14.26069424608592], [79.17881597873902, 14.262419014704728], [79.18515582452576, 14.264533985371346], [79.18690498022241, 14.266613917184914], [79.18582902046217, 14.268672346437855], [79.18617113762276, 14.270052696238704], [79.18968883676122, 14.271801634740585], [79.19494491315541, 14.27700808279303], [79.20162757642811, 14.28050302689848], [79.20480059965571, 14.281215850227339], [79.20760957360068, 14.283303651058736], [79.20902225462558, 14.28331428339685]]], [[[79.22484746343561, 14.292043873598407], [79.22344012427192, 14.29134448534433], [79.2230788240424, 14.29237511301157], [79.22448887077478, 14.292730082048116], [79.22484746343561, 14.292043873598407]]]]}}, {"type": "Feature", "properties": {"depth_class": 4, "depth_lo_m": 3.0, "t_s": 15300.431759226212}, "geometry": {"type": "MultiPolygon", "coordinates": [[[[78.99531332686641, 14.247859107415334], [78.99357841056354, 14.244400495561015], [78.99360275600908, 14.241645477530701], [78.99611065031932, 14.237533706262639], [79.0003685412076, 14.235158578202366], [79.00179589653422, 14.233448504608072], [79.01065232780843, 14.230078385866546], [79.01349777548937, 14.227691219928936], [79.01781536528037, 14.218428072936847], [79.01783036949503, 14.216706157498898], [79.01573623253837, 14.213933523435053], [79.01396811256791, 14.214263250823475], [79.01391699982221, 14.220117749678813], [79.01104153608044, 14.225948749725665], [79.00429144703368, 14.230714132865277], [78.99897756236795, 14.232736096704068], [78.99291793913754, 14.239228900177372], [78.99219660145478, 14.24094484729211], [78.99215396584725, 14.245766124512684], [78.99355101571877, 14.247499890037641], [78.99531332686641, 14.247859107415334]]], [[[79.08082297281764, 14.240985087006559], [79.0840384520422, 14.236533466783918], [79.08440894799205, 14.234469922190506], [79.08371152324426, 14.233431067944856], [79.07874819834545, 14.235802118586868], [79.07835142340241, 14.240965201859341], [79.08082297281764, 14.240985087006559]]], [[[79.08710005148889, 14.250334809225764], [79.08710876001177, 14.24930162001148], [79.08640547793587, 14.248951560221526], [79.08499892090181, 14.248251435203082], [79.08358364994942, 14.248584490167417], [79.08427238990589, 14.250656536777221], [79.08710005148889, 14.250334809225764]]], [[[79.00617384228137, 14.257593455850936], [79.00652995785343, 14.257252028673701], [79.00617686956767, 14.257249076354324], [79.00617384228137, 14.257593455850936]]], [[[79.00652995785343, 14.257252028673701], [79.01010917656343, 14.251771436719649], [79.01012427589647, 14.250049534155153], [79.00907410601671, 14.249007554963566], [79.00731779752047, 14.247959675337006], [79.00131555049187, 14.24790946676301], [78.99777571380596, 14.248912995833939], [78.9984727493021, 14.249952055741193], [79.00200350563408, 14.249981654660413], [79.00271571950779, 14.249298810200637], [79.00553729664031, 14.249666821820528], [79.0079816243898, 14.252786893490898], [79.00796650577895, 14.254508793409506], [79.00652995785343, 14.257252028673701]]], [[[79.02586598260163, 14.267056339980844], [79.03084838822541, 14.262620246688403], [79.0336791791753, 14.261954796836532], [79.04152177462501, 14.253409080876242], [79.0468240603338, 14.252763738410213], [79.04999003338656, 14.254167295887072], [79.05243211762597, 14.257631384560954], [79.0552539569242, 14.257998831017522], [79.05525986261027, 14.25731005162957], [79.05315900564923, 14.255226426813007], [79.05174958341233, 14.254870503057107], [79.04930753463341, 14.251406411748434], [79.04332286016512, 14.24929092286235], [79.04156932874587, 14.247898887747255], [79.04231113087069, 14.243772034996306], [79.03912453575356, 14.244779106439234], [79.03807721229454, 14.243392853956518], [79.03596175156059, 14.243031042858707], [79.03345743157202, 14.246798931709368], [79.03344848053045, 14.247832088179392], [79.03485781723595, 14.248188111083739], [79.03593195816364, 14.246474903670698], [79.03910966212598, 14.246501040001654], [79.04086613889041, 14.247548703031784], [79.04048629793029, 14.250645285563635], [79.03476832919839, 14.258519679036686], [79.03122541112673, 14.259868086572094], [79.021987812948, 14.266335363863542], [79.02233190429043, 14.267371442442217], [79.02586598260163, 14.267056339980844]]], [[[79.05983542368989, 14.259069399756305], [79.06231302787882, 14.258400719305278], [79.05984131592949, 14.258380618551003], [79.05983542368989, 14.259069399756305]]], [[[79.01206765482458, 14.270041275751137], [79.01242680531823, 14.269355461021668], [79.01172361006215, 14.269005188106394], [79.00713927283208, 14.268278077525817], [79.00502973450384, 14.267227210918168], [79.00363855241721, 14.264804730547414], [79.00366584409176, 14.261705321373372], [79.00153210042099, 14.2634094606261], [79.00114560056204, 14.267194660002236], [79.00288987192286, 14.269620113139567], [79.00818042890472, 14.27035321280552], [79.01206765482458, 14.270041275751137]]], [[[79.01843568290646, 14.268716700192059], [79.01879782320114, 14.267686491172656], [79.01561684632878, 14.26800442720478], [79.01560780010463, 14.26903757068023], [79.01843568290646, 14.268716700192059]]]]}}]}