{"type": "FeatureCollection", "features": [{"type": "Feature", "properties": {"depth_class": 1, "depth_lo_m": 0.3, "t_s": 12600.640684437425}, "geometry": {"type": "MultiPolygon", "coordinates": [[[[79.06875389041396, 14.248464905007], [79.0715873738788, 14.247454574168298], [79.07266125528241, 14.245741165482029], [79.07089876050057, 14.245382506170733], [79.06983365395114, 14.24606272652297], [79.06488754476271, 14.246367081215507], [79.06487873700482, 14.247400257142306], [79.06592918993006, 14.248442022517773], [79.06875389041396, 14.248464905007]]], [[[79.18514755301182, 14.265567231149252], [79.18409641542084, 14.264525916105454], [79.18232797366775, 14.26485687160649], [79.18372672265059, 14.266589715144084], [79.18513928083578, 14.26660047683305], [79.18514755301182, 14.265567231149252]]], [[[79.22576649693613, 14.30996171700815], [79.2264864429322, 14.308244880893316], [79.2254457350124, 14.30582601988645], [79.21874021087808, 14.305086986310283], [79.21660738719977, 14.306793197764524], [79.21659107992458, 14.308859717751526], [79.21729206936566, 14.309553857761003], [79.22153605138817, 14.308896772534661], [79.22399771462543, 14.310292946741193], [79.22576649693613, 14.30996171700815]]], [[[79.19315662711996, 14.41201324967661], [79.19991486946604, 14.406553911487915], [79.20274452431786, 14.406231024660128], [79.20556040306228, 14.40763017818667], [79.20592753695531, 14.405910787187118], [79.20453062377746, 14.40383355769081], [79.20489775560765, 14.402114167962957], [79.20916825309912, 14.398357772653771], [79.21168011004552, 14.393554672764987], [79.21523270645466, 14.391170456544717], [79.2166788756464, 14.387048109982699], [79.22058737499313, 14.384322039333378], [79.22201704589301, 14.382266154704345], [79.22840138661522, 14.379214089835411], [79.23052404403832, 14.378885533111788], [79.23159214346701, 14.377860195417842], [79.23267647360967, 14.374768325456863], [79.23798974407462, 14.373085731337742], [79.24013389456083, 14.370001699735118], [79.24050336714693, 14.36793778968556], [79.24656061154022, 14.361438291735784], [79.25152019043323, 14.359752729143999], [79.25508787068472, 14.35530124425014], [79.25934068622642, 14.353610291087008], [79.26325608805327, 14.349850101146846], [79.26644890332868, 14.348151234608123], [79.26825236891028, 14.343342145713942], [79.27039052106116, 14.340946611912514], [79.27042750621753, 14.336124604682285], [79.26868233370604, 14.333356290849919], [79.26978701473917, 14.327508724071595], [79.26837401121722, 14.327498421137278], [79.26659188428569, 14.329552102745087], [79.2665601284684, 14.333685245794767], [79.26584036847487, 14.335402225448796], [79.26616185451144, 14.339537947272342], [79.2643742979115, 14.342280453069833], [79.26400510990962, 14.34434443414455], [79.26187748528415, 14.345362189196512], [79.2604696923364, 14.344662972425633], [79.2552505138019, 14.33429125145314], [79.25349755336214, 14.332556126677575], [79.25423604470423, 14.328428209040892], [79.25390411350742, 14.325670199675441], [79.25146341332508, 14.32151888844619], [79.24908419576894, 14.309445765434564], [79.24069005881158, 14.298705997220182], [79.23965190338973, 14.295942759502976], [79.2378966562333, 14.294551986224098], [79.23190852779545, 14.292440895018686], [79.22664039128671, 14.288612818902761], [79.22489879228895, 14.285499853651745], [79.21890021560456, 14.284766159793742], [79.21503973816404, 14.28163727525273], [79.211165767369, 14.280230438696712], [79.20906311468946, 14.278147993078894], [79.20308122345371, 14.275347418142735], [79.20168226651187, 14.273614665684152], [79.19886798967553, 14.2722156491359], [79.19572253838743, 14.268058591805024], [79.19291111754654, 14.26631509994606], [79.18835607137456, 14.26180283755466], [79.18697658078455, 14.257659109351335], [79.18417362928051, 14.254882289986796], [79.18030034924553, 14.253475024726493], [79.17643542710896, 14.251034460163988], [79.17363823429609, 14.24756871338771], [79.17011826516931, 14.24616400690245], [79.16907006121369, 14.244778230156273], [79.1641349871232, 14.24370701588545], [79.16273373496009, 14.24231850053795], [79.16096266980577, 14.242993726318748], [79.16058724974954, 14.245746294227056], [79.15987546176294, 14.246429671341431], [79.15491802561384, 14.248113547427224], [79.15242666750046, 14.250505285596278], [79.15066112764289, 14.250491604995517], [79.14961584454005, 14.248761346236174], [79.14785032105834, 14.248747646479444], [79.14571199775148, 14.251142045953038], [79.1379210340206, 14.253836784125342], [79.12379952533864, 14.253381686433853], [79.12204254340794, 14.252334581368407], [79.11638715710288, 14.252978836956004], [79.11393546378763, 14.250548491759249], [79.11572098242829, 14.248151629065847], [79.11538218251192, 14.246426829403406], [79.11290479793546, 14.24709609801409], [79.11183405411204, 14.248465323445972], [79.10971260652323, 14.24879294809837], [79.10160868157695, 14.24666206689476], [79.09809219327963, 14.244911954453084], [79.09173950866736, 14.244516818059342], [79.0878497604313, 14.245174521919418], [79.08468941484013, 14.243082660315228], [79.08399487329795, 14.241699408114417], [79.08721030790477, 14.237247738862967], [79.08796282978922, 14.231743043069272], [79.08622360158657, 14.228629332666493], [79.08410523886465, 14.228612352157878], [79.08126040758917, 14.231000452906313], [79.07842716709534, 14.232010931226023], [79.07628837278251, 14.234404640503591], [79.07240755578073, 14.23402892747227], [79.07098651956731, 14.23505070406704], [79.07026575777135, 14.236766965396152], [79.06602892332631, 14.236732683533328], [79.06461077924507, 14.237410023968291], [79.06280724386713, 14.24187279948233], [79.06102421755142, 14.243924812160964], [79.05640176093146, 14.247675767152879], [79.05321514596, 14.24868302758724], [79.05145267882703, 14.248324225611276], [79.04971093136774, 14.245554689248788], [79.04583299221116, 14.244834137441087], [79.04731637315022, 14.236580373941258], [79.04662208847567, 14.23519704356532], [79.04415361700377, 14.234832424402105], [79.04308849997976, 14.235512521999869], [79.04021943317093, 14.240655163813043], [79.0349293560694, 14.239922849896148], [79.03315507188847, 14.240941467463418], [79.03136285758895, 14.244026380794676], [79.02781118845783, 14.24640791884176], [79.0274281827438, 14.249848842368], [79.03093509295151, 14.252633091519035], [79.03090520235064, 14.256076939130535], [79.03019303784147, 14.25675987570715], [79.0284275756599, 14.256745284522701], [79.02667709468375, 14.25500876112141], [79.02385838364185, 14.254296603573005], [79.02173085109895, 14.255312187797417], [79.02101265632935, 14.256683859021434], [79.02099763230066, 14.258405772036307], [79.0216978108935, 14.259100398166925], [79.02132668723945, 14.26116376351402], [79.01813978197842, 14.262170509551181], [79.01532403972215, 14.26111386204903], [79.01285236808484, 14.2610932705196], [79.01070962355978, 14.263830642730678], [79.00859405320386, 14.263468570298413], [79.00825608122496, 14.261743720859492], [79.01147924060322, 14.256604545078304], [79.01292477598591, 14.252828128426154], [79.01295794744064, 14.249039936269126], [79.01226385794011, 14.247656529309708], [79.00804812230565, 14.245210530715495], [78.9978091284839, 14.245124837527193], [78.99675904231692, 14.244082814043477], [78.996774234365, 14.242360924442064], [78.99891689156928, 14.239623668379702], [79.00389604584632, 14.235532498698614], [79.01346767527191, 14.231135038308036], [79.01632212910482, 14.227714689481832], [79.01884445849689, 14.221880685495984], [79.02133668612258, 14.219490473594716], [79.02137562667045, 14.215013483734918], [79.01998749747482, 14.212246723997245], [79.0185814097821, 14.21154626068268], [79.01257707523628, 14.211840842354107], [79.01114694015935, 14.213895393393887], [79.01145781984555, 14.218719674713233], [79.0092944261491, 14.223867761424348], [79.00644899454817, 14.22625487846095], [79.00361862741673, 14.226920054285099], [79.00006398533496, 14.22964555847988], [78.99723053141908, 14.230655028830897], [78.9911770190069, 14.236459035885545], [78.98938127211002, 14.239887941705625], [78.98932332900898, 14.246431092377692], [78.99211436136382, 14.2502430229362], [78.99632693136178, 14.253033669675325], [79.00409470121451, 14.253098802039728], [79.00337035390153, 14.255159165369315], [78.99872860600375, 14.260975113751297], [78.99764195692609, 14.264065616285457], [78.99761762061564, 14.266820635988584], [78.99934968665498, 14.270623620531982], [79.00215633078224, 14.27271359649273], [79.01132818705612, 14.273823563636178], [79.02229884500335, 14.271159650370103], [79.02509373507448, 14.274626915894782], [79.02862193573556, 14.275000554095195], [79.03004639823553, 14.273634705542957], [79.02973220942921, 14.269154792506914], [79.03080949880379, 14.267097244403244], [79.03187480639268, 14.266417227110514], [79.03787765437251, 14.266466729959346], [79.03894890037105, 14.265097905697683], [79.03897571008912, 14.261998430215291], [79.04040895391533, 14.259599340149018], [79.04218634291061, 14.258236297641199], [79.04323969315365, 14.258933768093707], [79.04391024170987, 14.263072210328952], [79.04601403425833, 14.26481152627331], [79.05025134229791, 14.264846229990322], [79.05344411569153, 14.263150262725294], [79.05520965423, 14.26316467508486], [79.05696043662282, 14.264901023691095], [79.05978532695457, 14.26492403830145], [79.06191283061735, 14.263908104730643], [79.065794112313, 14.264284050032206], [79.06969594049774, 14.26224918634819], [79.07429222057773, 14.261597529226554], [79.07533693240494, 14.263328052965571], [79.07851494693112, 14.263353694327021], [79.08061904809628, 14.265092738456046], [79.08344106866508, 14.265459868255537], [79.08730792813282, 14.267557450288761], [79.08939471960548, 14.271362807132721], [79.09114585235659, 14.273098944133542], [79.09325884197615, 14.273804707892984], [79.09467426862636, 14.273471613981144], [79.09574524390678, 14.272102495846747], [79.09540369297333, 14.27072208290551], [79.09364674539792, 14.269674769447185], [79.09401145719974, 14.268300005715112], [79.09788715425893, 14.269364239855141], [79.1017888567223, 14.267328826071054], [79.10532298019615, 14.267012530256771], [79.10883123698616, 14.26979578291821], [79.11130314441075, 14.26981539131911], [79.11374638603682, 14.273278985350471], [79.11691888611125, 14.273992935292114], [79.11939942726228, 14.272979258862302], [79.12118224527418, 14.270926776709155], [79.12084053539004, 14.269546381228906], [79.11838005478327, 14.268149263624174], [79.11838577308013, 14.26746045932088], [79.12086623431244, 14.266446757499939], [79.12368839873315, 14.266813420484599], [79.12472783552825, 14.269232583315382], [79.12648780070573, 14.269935281041885], [79.13038931721243, 14.267899368296883], [79.1318188723713, 14.265844018009853], [79.13323705675114, 14.265166276396409], [79.14064426818246, 14.266257466807257], [79.1431246456569, 14.265243519304065], [79.14771814604742, 14.264934834815824], [79.14983130371384, 14.26564010923603], [79.15158291840827, 14.267375853841815], [79.15758901091796, 14.267077935386771], [79.15899315920609, 14.268122082734294], [79.16746568131623, 14.26853182540947], [79.1730964832453, 14.270986102838743], [79.17660298355196, 14.274112877636695], [79.17801835281224, 14.273779273476311], [79.17908887362563, 14.272409719436133], [79.18262035283453, 14.27243668743846], [79.18825971858651, 14.273857389972905], [79.19246731309816, 14.277678165270686], [79.20196159638188, 14.282916620033967], [79.20545779003089, 14.287420709401173], [79.20932638107945, 14.289516486650173], [79.21107594554323, 14.291596285420361], [79.21740884063746, 14.294743784718877], [79.22305177084698, 14.29581932910877], [79.22832268843811, 14.29930307246526], [79.23149609584094, 14.300015578917685], [79.23429480738123, 14.303480810717287], [79.23850645365442, 14.3069564928057], [79.24198231313166, 14.314215560023023], [79.24225510854686, 14.324550907439628], [79.2379489841094, 14.333130073108165], [79.23545195969675, 14.336211503666126], [79.23328113808194, 14.342739752340448], [79.23326224112787, 14.34515070688004], [79.23073795959942, 14.35167627683019], [79.22752861698021, 14.355441149503426], [79.22714007934711, 14.359915973642323], [79.22642806562331, 14.360599525321227], [79.22466702516711, 14.359897453028003], [79.22504203861644, 14.357144739497022], [79.2275340380379, 14.354752308140489], [79.22684915679973, 14.351991657386801], [79.22298751682405, 14.348862773257201], [79.21768566692919, 14.349167410765007], [79.21592747365644, 14.348120867572849], [79.21487584001017, 14.347079634022604], [79.21488402454314, 14.346046378363747], [79.21666672438305, 14.34399315678881], [79.21633525919852, 14.341235148318809], [79.21352826547472, 14.338802948617117], [79.21105546131973, 14.3387843127797], [79.20572371531819, 14.34287729606054], [79.20286466059329, 14.346988892943026], [79.20038077900213, 14.348347798628469], [79.20069003773105, 14.353861131956295], [79.19961918845581, 14.355230744464182], [79.19924387499302, 14.357983382501533], [79.1974581483864, 14.360380854171042], [79.19672674042297, 14.363475208566726], [79.19281839318776, 14.366200897962651], [79.18995600212388, 14.370656682359867], [79.18641186572215, 14.37200729203284], [79.18391926825952, 14.374399214057993], [79.1846036420148, 14.377159930766888], [79.18670685290768, 14.379242658325945], [79.18847343480134, 14.37925619073593], [79.19380639013647, 14.375163744940263], [79.20337333023537, 14.371792201221805], [79.2065695772208, 14.369749816256984], [79.20868940952758, 14.369765865293058], [79.20973562259447, 14.371495967128642], [79.20754165184698, 14.380779166118492], [79.20504089138448, 14.384204570914571], [79.2039506288638, 14.387985093312995], [79.20217018311955, 14.389693743083429], [79.19965266609644, 14.395185553309316], [79.19359872540593, 14.400994744961967], [79.19001799149204, 14.406822710545738], [79.18893566957998, 14.409569879122856], [79.18927235291889, 14.41163905991448], [79.18997352961472, 14.412333302563129], [79.19315662711996, 14.41201324967661]], [[79.21068591536863, 14.385280654748941], [79.21073252364978, 14.379425570376151], [79.21289351084468, 14.374275333251735], [79.21259766371834, 14.367039899394165], [79.21758481435846, 14.361910906796027], [79.22006060437513, 14.361585084783517], [79.22428384730355, 14.363683423822573], [79.22711295498794, 14.363360177802587], [79.22890112987996, 14.360618028441408], [79.2296456314506, 14.355801416548815], [79.23178158303818, 14.353750715088827], [79.23460246570639, 14.354460629783931], [79.23776587811132, 14.356550830671004], [79.2423532837111, 14.357273790704049], [79.24553291883082, 14.357297356660808], [79.24979117828451, 14.35491773811511], [79.2522668839919, 14.354591565049125], [79.25225619296111, 14.35596926613525], [79.25082697268638, 14.358025388420801], [79.24693268456436, 14.359029937760424], [79.24124228537492, 14.363809964513788], [79.23874491119257, 14.366891388506303], [79.23658727915405, 14.371697519083385], [79.23163005952779, 14.37303830346764], [79.2302059590823, 14.374405423333664], [79.22948305595729, 14.376466661041865], [79.21956012033803, 14.380181041796167], [79.21315649114098, 14.385643770630518], [79.21138709369062, 14.385974833416437], [79.21068591536863, 14.385280654748941]], [[79.24448914887226, 14.355222963250775], [79.23990446392587, 14.354155625442182], [79.23992330217995, 14.351744664073262], [79.24174615689084, 14.344524880635793], [79.24390603684408, 14.339374226162445], [79.24461524772516, 14.339035031389749], [79.24571790648822, 14.333532077846701], [79.24785884327555, 14.330792336760295], [79.24892127274396, 14.330455732694313], [79.24994629369694, 14.334941080592795], [79.25168588911734, 14.338398358694299], [79.25728222066583, 14.345672906435075], [79.25726357637649, 14.348083891503972], [79.25370674617133, 14.351157727003558], [79.24661425075618, 14.354549808852079], [79.24448914887226, 14.355222963250775]], [[79.25581579103698, 14.352551038437188], [79.259741864067, 14.347413203574709], [79.26221217186406, 14.347775770030696], [79.26113372243867, 14.350178988700751], [79.25900070619387, 14.35188556306197], [79.25581579103698, 14.352551038437188]], [[79.23646324702221, 14.342418993849668], [79.23967762045501, 14.337965111031844], [79.24149763389417, 14.331089733676373], [79.24328266202035, 14.328691843737156], [79.24619694913589, 14.317346713995152], [79.24479473360157, 14.315958577898169], [79.24377521301375, 14.310784372452035], [79.24203054976645, 14.308015916280146], [79.23957414073607, 14.305931070062115], [79.23853060975883, 14.303856675280976], [79.23502004220136, 14.301075090768125], [79.2336260630214, 14.29865363599925], [79.2283415750704, 14.296892115099862], [79.22377167836125, 14.294102496457437], [79.22130205753601, 14.293739602575249], [79.21813963440738, 14.291649290637956], [79.22133184043005, 14.289950967762671], [79.22241573698822, 14.286859090500574], [79.22347527286422, 14.28686700158749], [79.22486367535456, 14.289977341391207], [79.22767835800023, 14.291376092890715], [79.2294281200129, 14.293455777554211], [79.23717953319274, 14.295924449585913], [79.2399675738446, 14.300767318153724], [79.24347017818151, 14.304582111456655], [79.2480085162927, 14.311504510974869], [79.24797646226959, 14.315637619261016], [79.2500584694992, 14.320475203163186], [79.24932796022455, 14.323569827807255], [79.24755373447414, 14.324590075072944], [79.24467957792658, 14.330768844494287], [79.24217998300746, 14.33419478401554], [79.2421558236358, 14.337294599743306], [79.24035726509933, 14.341414587886446], [79.23608033043645, 14.346205015179788], [79.23646324702221, 14.342418993849668]], [[79.25036365551908, 14.326677470871276], [79.24896670409213, 14.324600499828323], [79.24932528911216, 14.323914253450253], [79.25073558681429, 14.324269093079009], [79.25178464385333, 14.325654602314865], [79.25142339402132, 14.326685278799868], [79.25036365551908, 14.326677470871276]], [[79.21778916210963, 14.29130222465759], [79.21743869088567, 14.290955158275908], [79.2177918748702, 14.290957803953201], [79.21778916210963, 14.29130222465759]], [[79.21673232313348, 14.290949865350518], [79.21251044606078, 14.288851545352705], [79.21076088525267, 14.286771757617233], [79.20654187835335, 14.284328927690146], [79.20479513840836, 14.281904687281436], [79.19599890065822, 14.277704944671942], [79.19038688225889, 14.272840249038762], [79.18757270077165, 14.271441108232796], [79.17557126700976, 14.270660632993891], [79.17346350724475, 14.26926674628355], [79.16466009135881, 14.266099202633729], [79.15936307673329, 14.2660583495309], [79.14808252900741, 14.263559946627232], [79.14207372590037, 14.264202042124326], [79.13183590100527, 14.263777588615076], [79.1272310615105, 14.265463583028676], [79.12299925374666, 14.264741439797268], [79.11310893439537, 14.26500776610446], [79.10395656913481, 14.261490905343694], [79.10186093903184, 14.258718851427426], [79.0958840882446, 14.255571403560298], [79.08776560682743, 14.255162021483018], [79.08210724586881, 14.25614983796858], [79.07646053436613, 14.25575993761264], [79.07291490095848, 14.257453395702852], [79.06615897454353, 14.262909348467906], [79.05732830307707, 14.263181952678604], [79.05628373980157, 14.261451367387178], [79.054168063715, 14.261089693197336], [79.04991008235655, 14.263465787262318], [79.04637901374619, 14.26343687040528], [79.04497549730291, 14.26239212676083], [79.04431977622428, 14.256531747834952], [79.04255727264061, 14.256172874317345], [79.03828142258048, 14.260615074872582], [79.03718336397813, 14.265083371007929], [79.03188676673923, 14.265039688577922], [79.02939706400522, 14.267085567874867], [79.02793068417023, 14.273272789390399], [79.02581197842144, 14.273255238449558], [79.0230140858172, 14.27013236441323], [79.01133725595118, 14.272790423267189], [79.00463114593843, 14.27238993664645], [79.00041204872572, 14.270288136489], [78.99867692486241, 14.266829535230084], [78.99870428838649, 14.263730136004016], [79.00157459174697, 14.258588162752545], [79.00514183342125, 14.25448518169301], [79.00551005452195, 14.252766237663353], [79.00410984763738, 14.251376905993277], [79.0023383916545, 14.25205088492955], [78.99704221083415, 14.252006468107808], [78.9928266018808, 14.249560212041382], [78.99107647725936, 14.24782346886473], [78.99004166141788, 14.24505953628452], [78.99044349252047, 14.23955248436645], [78.99187703573311, 14.237153730065724], [78.99793055366925, 14.23134970565004], [79.00608387176773, 14.227629453723235], [79.00999447208409, 14.22456240532229], [79.01215183974902, 14.220103075019047], [79.01220600642452, 14.213904200440556], [79.01363012086742, 14.21253840655277], [79.01680730769944, 14.21256477819435], [79.01961049818424, 14.214998869272375], [79.02028358291722, 14.218792936492168], [79.0177883526367, 14.221527520062223], [79.01454788307808, 14.228733171208177], [79.01134636772481, 14.23146179115958], [79.0031959918013, 14.234837835533959], [78.9982198790894, 14.238584612813739], [78.99571808532747, 14.24200765396051], [78.9956968052328, 14.24441829783585], [78.99744694722143, 14.246155008752277], [79.00662979532382, 14.245887496915529], [79.00944530361274, 14.246944218601259], [79.01189871699447, 14.24903111126513], [79.01186552788546, 14.252819300980061], [79.01006084515168, 14.257281523153509], [79.00684067184835, 14.262076294541147], [79.00647546397416, 14.263450859333554], [79.00717257841605, 14.264489903633729], [79.01175079959404, 14.265905764717111], [79.01354649136918, 14.262476680107946], [79.0153119822212, 14.262491387210734], [79.01741852796168, 14.263886545264267], [79.02202086578235, 14.26254715512062], [79.02415147056479, 14.261187194332722], [79.02240700296508, 14.258761874221367], [79.02242501919356, 14.256695576867342], [79.02349329439869, 14.255671210288153], [79.02631501667227, 14.25603899038542], [79.02841560155943, 14.258122821133679], [79.03195551396584, 14.257118838741567], [79.03200032638377, 14.25195306410504], [79.03095601162471, 14.25022239756397], [79.0288464908684, 14.249171747813923], [79.0288584545209, 14.24779420981325], [79.03527348532889, 14.24095891439437], [79.03809804103966, 14.240982147765802], [79.03844516125794, 14.241673822986591], [79.04020754465647, 14.24203271206514], [79.04270873112198, 14.23860911746527], [79.04483899252722, 14.23724892439299], [79.04553919702833, 14.2379434826465], [79.04550659574547, 14.241731752883767], [79.04440584969223, 14.24654450664693], [79.0451060775601, 14.24723906916042], [79.04828380971252, 14.247265084721427], [79.05073467963136, 14.249696013042305], [79.0539065503658, 14.250410737312514], [79.05851142910093, 14.248726187718], [79.06135376946973, 14.246682811079241], [79.06135965177018, 14.245994028538828], [79.0649168988594, 14.242923160776204], [79.06530225192351, 14.239137708836765], [79.06637026593133, 14.23811311343353], [79.07060420156405, 14.23849178588127], [79.07274893650008, 14.235409352924808], [79.07451427955374, 14.235423595193856], [79.0762650426237, 14.237159797430396], [79.07734466151652, 14.234757566012298], [79.07912456212452, 14.233049797449057], [79.08514991250735, 14.230342827739264], [79.08620040168589, 14.231384507022753], [79.08652156459749, 14.235175700281097], [79.08508025014085, 14.238608342403019], [79.0818705732883, 14.242371183716216], [79.08220911018488, 14.244095999115713], [79.08467779392802, 14.24446024467376], [79.08783815691174, 14.24655210859117], [79.09314028452074, 14.245905698717205], [79.10441903864262, 14.248406524112855], [79.11531639990422, 14.254348076560875], [79.13191249612699, 14.254478651668158], [79.13790972708254, 14.255214409702308], [79.14711599303217, 14.252186246105476], [79.15170362022957, 14.25256627001772], [79.15841833724303, 14.251929344020526], [79.15947208517129, 14.252626341663555], [79.15981123164912, 14.25435111971196], [79.1566108054311, 14.257081857255828], [79.15800929827662, 14.258814823628665], [79.16648982098586, 14.25819132412501], [79.17107209340381, 14.259259818877636], [79.17458671853737, 14.261353361480772], [79.17705862645921, 14.261372276934713], [79.18026443439551, 14.257952414450074], [79.18203558248891, 14.257277053169105], [79.18379844855659, 14.25763492312329], [79.18555305603091, 14.259026027262465], [79.18658765365352, 14.262133828004094], [79.1883340558113, 14.264558164950815], [79.19395407467871, 14.268389632290013], [79.1977975785157, 14.27358530637692], [79.20061186315576, 14.274984336648899], [79.20306483017399, 14.277413928239234], [79.20693868836825, 14.278820885482546], [79.21219807142239, 14.283682595415113], [79.21288538194052, 14.286098838892126], [79.21605039142085, 14.287844786509217], [79.21638999827529, 14.28956953624278], [79.21744140411087, 14.290610737627453], [79.21673232313348, 14.290949865350518]], [[79.08838181530461, 14.265843970516087], [79.0848680857416, 14.263749245665505], [79.08098674036866, 14.263373608354298], [79.07993614935134, 14.262331893170884], [79.07995656211442, 14.259921130755362], [79.08138064902263, 14.258554922218892], [79.08314618100209, 14.258569123241617], [79.08558885556388, 14.262032940733516], [79.09051213443654, 14.264483369878867], [79.0901474112739, 14.265858126787599], [79.08838181530461, 14.265843970516087]], [[79.0979593954196, 14.260754286244778], [79.09585228545555, 14.259359781013773], [79.09586385118645, 14.257982189359542], [79.09973939071153, 14.259046373388786], [79.10114318358917, 14.260090823759525], [79.10148476299156, 14.261471231979938], [79.0979593954196, 14.260754286244778]], [[79.17249847121616, 14.257548585023512], [79.16792178526775, 14.255791296488235], [79.16758257486559, 14.254066522521164], [79.1661812430417, 14.252678018373137], [79.16655105359335, 14.250614260609177], [79.17114705561707, 14.249960671678787], [79.17219806740967, 14.2510020299356], [79.17288488100317, 14.253418333103282], [79.17676640223668, 14.25379247141094], [79.17817057846582, 14.254836507552957], [79.17815951504122, 14.256214164323103], [79.17673872226015, 14.257236610621588], [79.17249847121616, 14.257548585023512]], [[79.1655112072996, 14.248195232980912], [79.16410713599115, 14.247151133601886], [79.16411549211188, 14.246117898396726], [79.16623967940127, 14.245445364865342], [79.16870028928575, 14.246841996665797], [79.16833606706429, 14.248216936464964], [79.1655112072996, 14.248195232980912]]], [[[79.22248198823651, 14.368147625278757], [79.22355278198657, 14.366777901775759], [79.22322123158, 14.364019894380782], [79.21968824127022, 14.3639933626292], [79.21826686752945, 14.365015991203803], [79.21789993068501, 14.366735425643812], [79.21894893456907, 14.36812107504469], [79.22248198823651, 14.368147625278757]]]]}}, {"type": "Feature", "properties": {"depth_class": 2, "depth_lo_m": 1.0, "t_s": 12600.640684437425}, "geometry": {"type": "MultiPolygon", "coordinates": [[[[79.16833884631482, 14.247872523952326], [79.16870028928575, 14.246841996665797], [79.1676493123628, 14.245800626872528], [79.16623967940127, 14.245445364865342], [79.16411549211188, 14.246117898396726], [79.16410713599115, 14.247151133601886], [79.1655112072996, 14.248195232980912], [79.16833884631482, 14.247872523952326]]], [[[79.21778916210963, 14.29130222465759], [79.21743869088567, 14.290955158275908], [79.2174359775882, 14.291299578913915], [79.21778916210963, 14.29130222465759]]], [[[79.21743869088567, 14.290955158275908], [79.21605039142085, 14.287844786509217], [79.21288538194052, 14.286098838892126], [79.21219807142239, 14.283682595415113], [79.20868815807901, 14.280900691375185], [79.20834316655564, 14.279864776324672], [79.20306483017399, 14.277413928239234], [79.20061186315576, 14.274984336648899], [79.1977975785157, 14.27358530637692], [79.19395407467871, 14.268389632290013], [79.18973560398784, 14.265946562370202], [79.18658765365352, 14.262133828004094], [79.18555305603091, 14.259026027262465], [79.18379844855659, 14.25763492312329], [79.18203558248891, 14.257277053169105], [79.18026443439551, 14.257952414450074], [79.17705862645921, 14.261372276934713], [79.17458671853737, 14.261353361480772], [79.17107209340381, 14.259259818877636], [79.16648982098586, 14.25819132412501], [79.15800929827662, 14.258814823628665], [79.1566108054311, 14.257081857255828], [79.15981123164912, 14.25435111971196], [79.15947208517129, 14.252626341663555], [79.15841833724303, 14.251929344020526], [79.15170362022957, 14.25256627001772], [79.14711599303217, 14.252186246105476], [79.13790972708254, 14.255214409702308], [79.13191249612699, 14.254478651668158], [79.11531639990422, 14.254348076560875], [79.10441903864262, 14.248406524112855], [79.09314028452074, 14.245905698717205], [79.08783815691174, 14.24655210859117], [79.08467779392802, 14.24446024467376], [79.08220911018488, 14.244095999115713], [79.0818705732883, 14.242371183716216], [79.08508025014085, 14.238608342403019], [79.08652156459749, 14.235175700281097], [79.08620040168589, 14.231384507022753], [79.08514991250735, 14.230342827739264], [79.07912456212452, 14.233049797449057], [79.07734466151652, 14.234757566012298], [79.0762650426237, 14.237159797430396], [79.07451427955374, 14.235423595193856], [79.07274893650008, 14.235409352924808], [79.07060420156405, 14.23849178588127], [79.06637026593133, 14.23811311343353], [79.06530225192351, 14.239137708836765], [79.0649168988594, 14.242923160776204], [79.06135965177018, 14.245994028538828], [79.06135376946973, 14.246682811079241], [79.05851142910093, 14.248726187718], [79.0539065503658, 14.250410737312514], [79.05073467963136, 14.249696013042305], [79.04828380971252, 14.247265084721427], [79.0451060775601, 14.24723906916042], [79.04440584969223, 14.24654450664693], [79.04550659574547, 14.241731752883767], [79.04553919702833, 14.2379434826465], [79.04483899252722, 14.23724892439299], [79.04270873112198, 14.23860911746527], [79.04020754465647, 14.24203271206514], [79.03844516125794, 14.241673822986591], [79.03809804103966, 14.240982147765802], [79.03527348532889, 14.24095891439437], [79.0288584545209, 14.24779420981325], [79.0288464908684, 14.249171747813923], [79.03095601162471, 14.25022239756397], [79.03200032638377, 14.25195306410504], [79.03195551396584, 14.257118838741567], [79.02841560155943, 14.258122821133679], [79.02631501667227, 14.25603899038542], [79.02349329439869, 14.255671210288153], [79.02242501919356, 14.256695576867342], [79.02240700296508, 14.258761874221367], [79.02415147056479, 14.261187194332722], [79.02202086578235, 14.26254715512062], [79.01847783131076, 14.263895354743068], [79.01636223854682, 14.263533349630412], [79.0153119822212, 14.262491387210734], [79.01354649136918, 14.262476680107946], [79.01175079959404, 14.265905764717111], [79.00717257841605, 14.264489903633729], [79.00647546397416, 14.263450859333554], [79.00684067184835, 14.262076294541147], [79.01006084515168, 14.257281523153509], [79.01186552788546, 14.252819300980061], [79.01189871699447, 14.24903111126513], [79.00944530361274, 14.246944218601259], [79.00662979532382, 14.245887496915529], [78.99744694722143, 14.246155008752277], [78.9956968052328, 14.24441829783585], [78.99571808532747, 14.24200765396051], [78.9982198790894, 14.238584612813739], [79.0031959918013, 14.234837835533959], [79.01134636772481, 14.23146179115958], [79.01454788307808, 14.228733171208177], [79.0177883526367, 14.221527520062223], [79.02028358291722, 14.218792936492168], [79.01961049818424, 14.214998869272375], [79.01680730769944, 14.21256477819435], [79.01363012086742, 14.21253840655277], [79.01220600642452, 14.213904200440556], [79.01215183974902, 14.220103075019047], [79.00999447208409, 14.22456240532229], [79.00608387176773, 14.227629453723235], [78.99793055366925, 14.23134970565004], [78.99187703573311, 14.237153730065724], [78.99044349252047, 14.23955248436645], [78.99004166141788, 14.24505953628452], [78.99107647725936, 14.24782346886473], [78.9928266018808, 14.249560212041382], [78.99704221083415, 14.252006468107808], [79.0023383916545, 14.25205088492955], [79.00410984763738, 14.251376905993277], [79.00551005452195, 14.252766237663353], [79.00514183342125, 14.25448518169301], [79.00157459174697, 14.258588162752545], [78.99870428838649, 14.263730136004016], [78.99867692486241, 14.266829535230084], [79.00041204872572, 14.270288136489], [79.00463114593843, 14.27238993664645], [79.01133725595118, 14.272790423267189], [79.0230140858172, 14.27013236441323], [79.02581197842144, 14.273255238449558], [79.02793068417023, 14.273272789390399], [79.02939706400522, 14.267085567874867], [79.03188676673923, 14.265039688577922], [79.03718336397813, 14.265083371007929], [79.03828142258048, 14.260615074872582], [79.04255727264061, 14.256172874317345], [79.04431977622428, 14.256531747834952], [79.04497549730291, 14.26239212676083], [79.04637901374619, 14.26343687040528], [79.04991008235655, 14.263465787262318], [79.054168063715, 14.261089693197336], [79.05628373980157, 14.261451367387178], [79.05732830307707, 14.263181952678604], [79.06615897454353, 14.262909348467906], [79.07291490095848, 14.257453395702852], [79.07646053436613, 14.25575993761264], [79.08210724586881, 14.25614983796858], [79.08776560682743, 14.255162021483018], [79.0958840882446, 14.255571403560298], [79.10186093903184, 14.258718851427426], [79.10395656913481, 14.261490905343694], [79.11310893439537, 14.26500776610446], [79.12299925374666, 14.264741439797268], [79.1272310615105, 14.265463583028676], [79.13183590100527, 14.263777588615076], [79.14207372590037, 14.264202042124326], [79.14808252900741, 14.263559946627232], [79.15936307673329, 14.2660583495309], [79.16466009135881, 14.266099202633729], [79.17346350724475, 14.26926674628355], [79.17557126700976, 14.270660632993891], [79.18757270077165, 14.271441108232796], [79.19038688225889, 14.272840249038762], [79.19599890065822, 14.277704944671942], [79.20479513840836, 14.281904687281436], [79.20654187835335, 14.284328927690146], [79.21076088525267, 14.286771757617233], [79.21251044606078, 14.288851545352705], [79.21743869088567, 14.290955158275908]], [[79.01205254817879, 14.27176317747618], [79.00217454998597, 14.270647327047772], [79.00077427076056, 14.269257965986446], [78.99973319064894, 14.267182807632196], [78.99976661728279, 14.26339465056414], [79.00263386011582, 14.258597039397754], [79.00620108494952, 14.25449404000144], [79.00622226916711, 14.252083382638567], [79.0048220609893, 14.250694055058938], [78.99810752205529, 14.251326604945831], [78.99283573889988, 14.248527081282521], [78.99109171655452, 14.246101585818929], [78.9911435149384, 14.24024718148906], [78.99293619780715, 14.237162636664749], [78.9982775328017, 14.232041422052383], [79.00643087323476, 14.228321160977178], [79.0106975355774, 14.224912666309974], [79.01285489457979, 14.220453328413956], [79.0129060359061, 14.214598833509266], [79.01397713005143, 14.21323010365096], [79.01679830350034, 14.213597927203132], [79.01923948264216, 14.217062245398393], [79.01922748764765, 14.218439778907957], [79.01744432398047, 14.220491442878057], [79.01420085481915, 14.228041472476074], [79.01170845620108, 14.230431586355374], [79.00284899359879, 14.234146123916531], [78.99894116377965, 14.236868640215672], [78.99573328295915, 14.240285765161557], [78.99465281602595, 14.242687511735483], [78.99498763194369, 14.244756743335497], [78.99673473081974, 14.24683783685697], [79.00591760375181, 14.24657035618473], [79.00838306355816, 14.247279759537118], [79.01083948727327, 14.249022281565258], [79.01080326122977, 14.253154849434548], [79.00541920018068, 14.263097617631356], [79.00540708077213, 14.264475134242447], [79.0064542648409, 14.265861514777338], [79.00892597879968, 14.265882179376515], [79.00997621550641, 14.266924167911093], [79.0124449264532, 14.2672891780323], [79.0135102790119, 14.266609250143855], [79.0142345891651, 14.264548850611295], [79.01811268717684, 14.26526994595955], [79.02555486772741, 14.262232047507952], [79.02662316017856, 14.26120766888137], [79.02663215106207, 14.260174517825291], [79.02381937995807, 14.258773585480736], [79.02347829030573, 14.257393126038586], [79.0241904745768, 14.256710212428167], [79.0259529348097, 14.257069218591568], [79.02769743330238, 14.259494516272872], [79.02946291609713, 14.259509115614252], [79.03229964454485, 14.258154907737635], [79.03372695348638, 14.256444633641141], [79.03375680207229, 14.253000780273938], [79.03272441115203, 14.249892578254453], [79.0306268355835, 14.247464403957132], [79.03597366669133, 14.241653498239108], [79.04055170094307, 14.243068772277253], [79.04375013437812, 14.240684126574674], [79.04368781779962, 14.247916268328888], [79.04932233624737, 14.249684468364002], [79.05282955634844, 14.252468429498675], [79.05636046787053, 14.252497229150093], [79.05774630026075, 14.255608247195397], [79.05950883864584, 14.25596701088165], [79.06233950534211, 14.255301198812225], [79.0644698426166, 14.253940837103432], [79.06555261859583, 14.251194296100946], [79.07015160031727, 14.250198298634727], [79.07761319411176, 14.24474785725168], [79.07692161154333, 14.243020194864632], [79.06915970300297, 14.242268691011922], [79.06740603620126, 14.240876831881902], [79.06741482826351, 14.23984365384395], [79.07058957335707, 14.240213752670751], [79.07308739897071, 14.237134172196004], [79.07414661281966, 14.237142718633281], [79.07517372261759, 14.240939597690874], [79.07623003803333, 14.24129253156059], [79.07730385182289, 14.239579093053658], [79.07804497150944, 14.235452040632822], [79.08372314063627, 14.232053483098829], [79.08512959893261, 14.232753603473817], [79.08546235220078, 14.235167209872976], [79.08223528848012, 14.24099643847395], [79.07939026810347, 14.243384492654442], [79.07938152823805, 14.244417677694024], [79.08113821564815, 14.245465065746332], [79.08466617177429, 14.245837828864287], [79.08853273432452, 14.24793535385719], [79.09418509452075, 14.247636150924007], [79.10440753291492, 14.24978412373403], [79.10897197464959, 14.25292016090571], [79.11179106985361, 14.253631343350037], [79.11565520334656, 14.256072876631308], [79.13225426457785, 14.255859038380157], [79.13471755754857, 14.256911602485584], [79.13754247650294, 14.256933683643082], [79.14214990377683, 14.25490305114086], [79.14568385192767, 14.254586125641532], [79.14918688744316, 14.258057640688701], [79.15307120384564, 14.258087760412756], [79.15799531175254, 14.260536874495767], [79.16541095067281, 14.260594056812623], [79.17032415747968, 14.26442058767954], [79.16996546379586, 14.265106701192332], [79.1681997928544, 14.265093136773737], [79.16468239702597, 14.26334391205325], [79.1572610727818, 14.263975516123068], [79.15197816567596, 14.262212460086795], [79.14809659388126, 14.26183790586013], [79.12761263097764, 14.26202231676223], [79.12583848634767, 14.263041652963247], [79.11631279520664, 14.26193329014675], [79.11383237174965, 14.26294694847611], [79.11207537692245, 14.261899767256528], [79.11032987853417, 14.259474971921902], [79.1082140711197, 14.259113769183003], [79.10538054122813, 14.26012453673351], [79.1018782316317, 14.256652456536388], [79.09801137922237, 14.254555115580466], [79.09060781801779, 14.253118274050802], [79.08813612233747, 14.253098473697571], [79.08565571295034, 14.254111835778431], [79.07576601754445, 14.25437666424887], [79.07114938830844, 14.257439120037295], [79.06690042490177, 14.258782373443793], [79.06546450844047, 14.261526051015212], [79.05840237400095, 14.261468633408397], [79.05664865094695, 14.260076686808], [79.05276451830768, 14.260044992533862], [79.05099604676798, 14.260374953901346], [79.04957178791003, 14.261740956022262], [79.04709709220415, 14.262065106487434], [79.04604668213017, 14.261023262194271], [79.04605855170789, 14.259645711304033], [79.04713268071279, 14.257932451071861], [79.0488981719861, 14.257946904991636], [79.04891002158408, 14.256569351395799], [79.04680923643309, 14.25448567877721], [79.04469365025582, 14.25412393045998], [79.04221606702248, 14.254792427267786], [79.040079662886, 14.256841345136728], [79.03650995777171, 14.26128931117346], [79.03542678292928, 14.264035667051317], [79.03189573616162, 14.264006534567747], [79.02976513968565, 14.265366566903728], [79.02762552847676, 14.267759727858854], [79.02654220983581, 14.270506024114056], [79.02161065839664, 14.269087492113453], [79.01877373754458, 14.27044154562961], [79.01418027687066, 14.270747706617154], [79.01205254817879, 14.27176317747618]], [[79.18302596528716, 14.26589550152987], [79.18232797366775, 14.26485687160649], [79.18409641542084, 14.264525916105454], [79.18514755301182, 14.265567231149252], [79.18513928083578, 14.26660047683305], [79.18302596528716, 14.26589550152987]], [[79.06663243094454, 14.248792138554059], [79.06487873700482, 14.247400257142306], [79.06524356383217, 14.24602555241747], [79.07266125528241, 14.245741165482029], [79.0715873738788, 14.247454574168298], [79.0687509599871, 14.248809297721811], [79.06663243094454, 14.248792138554059]]], [[[79.09050343175026, 14.26551655984128], [79.09016191842935, 14.264136143872452], [79.08558885556388, 14.262032940733516], [79.08314618100209, 14.258569123241617], [79.08138064902263, 14.258554922218892], [79.07995656211442, 14.259921130755362], [79.07993614935134, 14.262331893170884], [79.08098674036866, 14.263373608354298], [79.0848680857416, 14.263749245665505], [79.08838181530461, 14.265843970516087], [79.09050343175026, 14.26551655984128]]], [[[79.23608033043645, 14.346205015179788], [79.23750958676983, 14.344148986699631], [79.24035726509933, 14.341414587886446], [79.2421558236358, 14.337294599743306], [79.24217998300746, 14.33419478401554], [79.24467957792658, 14.330768844494287], [79.24755373447414, 14.324590075072944], [79.24932796022455, 14.323569827807255], [79.25005046109585, 14.321508480734371], [79.24797646226959, 14.315637619261016], [79.2480085162927, 14.311504510974869], [79.24347017818151, 14.304582111456655], [79.2399675738446, 14.300767318153724], [79.23717953319274, 14.295924449585913], [79.2294281200129, 14.293455777554211], [79.22767835800023, 14.291376092890715], [79.22486367535456, 14.289977341391207], [79.22347527286422, 14.28686700158749], [79.22241573698822, 14.286859090500574], [79.22133184043005, 14.289950967762671], [79.21813963440738, 14.291649290637956], [79.22130205753601, 14.293739602575249], [79.22377167836125, 14.294102496457437], [79.2283415750704, 14.296892115099862], [79.2336260630214, 14.29865363599925], [79.23502004220136, 14.301075090768125], [79.23853060975883, 14.303856675280976], [79.23957414073607, 14.305931070062115], [79.24203054976645, 14.308015916280146], [79.24377521301375, 14.310784372452035], [79.24479473360157, 14.315958577898169], [79.24619694913589, 14.317346713995152], [79.24328266202035, 14.328691843737156], [79.24149763389417, 14.331089733676373], [79.23967762045501, 14.337965111031844], [79.23753920688566, 14.34036033459809], [79.23610189388395, 14.343449634563875], [79.23608033043645, 14.346205015179788]]], [[[79.25177930824248, 14.326343454377234], [79.25073558681429, 14.324269093079009], [79.2489693758849, 14.324256074271467], [79.25036365551908, 14.326677470871276], [79.25177930824248, 14.326343454377234]]], [[[79.25829146907323, 14.352224798407075], [79.26220420325704, 14.34880905194324], [79.2618615471624, 14.347428752978576], [79.259741864067, 14.347413203574709], [79.25582112448568, 14.35186218640463], [79.25581579103698, 14.352551038437188], [79.25829146907323, 14.352224798407075]]], [[[79.21315649114098, 14.385643770630518], [79.21956012033803, 14.380181041796167], [79.22948305595729, 14.376466661041865], [79.2302059590823, 14.374405423333664], [79.23163005952779, 14.37303830346764], [79.23658727915405, 14.371697519083385], [79.23874491119257, 14.366891388506303], [79.24124228537492, 14.363809964513788], [79.24693268456436, 14.359029937760424], [79.25082697268638, 14.358025388420801], [79.25225619296111, 14.35596926613525], [79.2522668839919, 14.354591565049125], [79.24979117828451, 14.35491773811511], [79.24553291883082, 14.357297356660808], [79.2423532837111, 14.357273790704049], [79.23776587811132, 14.356550830671004], [79.23460246570639, 14.354460629783931], [79.23178158303818, 14.353750715088827], [79.2296456314506, 14.355801416548815], [79.22890112987996, 14.360618028441408], [79.22711295498794, 14.363360177802587], [79.22428384730355, 14.363683423822573], [79.22006060437513, 14.361585084783517], [79.21758481435846, 14.361910906796027], [79.21259766371834, 14.367039899394165], [79.21289351084468, 14.374275333251735], [79.21073252364978, 14.379425570376151], [79.21033258504431, 14.385277981385572], [79.21138709369062, 14.385974833416437], [79.21315649114098, 14.385643770630518]], [[79.21965281954246, 14.36847080812519], [79.21789993068501, 14.366735425643812], [79.21897891868075, 14.364332468776814], [79.22357181263274, 14.364366964336899], [79.22355278198657, 14.366777901775759], [79.22248198823651, 14.368147625278757], [79.21965281954246, 14.36847080812519]]]]}}, {"type": "Feature", "properties": {"depth_class": 3, "depth_lo_m": 2.0, "t_s": 12600.640684437425}, "geometry": {"type": "Polygon", "coordinates": [[[79.00746209756798, 14.271724824733429], [79.00217454998597, 14.270647327047772], [78.99973319064894, 14.267182807632196], [78.99976661728279, 14.26339465056414], [79.00263386011582, 14.258597039397754], [79.00620108494952, 14.25449404000144], [79.00587524196554, 14.251391671717705], [79.0048220609893, 14.250694055058938], [78.99810752205529, 14.251326604945831], [78.99283573889988, 14.248527081282521], [78.99109171655452, 14.246101585818929], [78.9911435149384, 14.24024718148906], [78.99293619780715, 14.237162636664749], [78.9982775328017, 14.232041422052383], [79.00643087323476, 14.228321160977178], [79.0106975355774, 14.224912666309974], [79.01285489457979, 14.220453328413956], [79.0129060359061, 14.214598833509266], [79.01397713005143, 14.21323010365096], [79.01679830350034, 14.213597927203132], [79.01923948264216, 14.217062245398393], [79.01922748764765, 14.218439778907957], [79.01744432398047, 14.220491442878057], [79.01420085481915, 14.228041472476074], [79.01170845620108, 14.230431586355374], [79.00284899359879, 14.234146123916531], [78.99894116377965, 14.236868640215672], [78.99573328295915, 14.240285765161557], [78.99465281602595, 14.242687511735483], [78.99498763194369, 14.244756743335497], [78.99673473081974, 14.24683783685697], [79.00591760375181, 14.24657035618473], [79.00838306355816, 14.247279759537118], [79.01083948727327, 14.249022281565258], [79.01080326122977, 14.253154849434548], [79.00541920018068, 14.263097617631356], [79.00540708077213, 14.264475134242447], [79.0064542648409, 14.265861514777338], [79.00892597879968, 14.265882179376515], [79.00997621550641, 14.266924167911093], [79.0124449264532, 14.2672891780323], [79.0135102790119, 14.266609250143855], [79.0142345891651, 14.264548850611295], [79.01811268717684, 14.26526994595955], [79.02555486772741, 14.262232047507952], [79.02662316017856, 14.26120766888137], [79.02663215106207, 14.260174517825291], [79.02381937995807, 14.258773585480736], [79.02347829030573, 14.257393126038586], [79.0241904745768, 14.256710212428167], [79.0259529348097, 14.257069218591568], [79.02769743330238, 14.259494516272872], [79.02946291609713, 14.259509115614252], [79.03229964454485, 14.258154907737635], [79.03372695348638, 14.256444633641141], [79.03375680207229, 14.253000780273938], [79.03272441115203, 14.249892578254453], [79.0306268355835, 14.247464403957132], [79.03597366669133, 14.241653498239108], [79.04055170094307, 14.243068772277253], [79.04375013437812, 14.240684126574674], [79.04368781779962, 14.247916268328888], [79.04932233624737, 14.249684468364002], [79.05282955634844, 14.252468429498675], [79.05636046787053, 14.252497229150093], [79.05774630026075, 14.255608247195397], [79.05950883864584, 14.25596701088165], [79.06233950534211, 14.255301198812225], [79.0644698426166, 14.253940837103432], [79.06555261859583, 14.251194296100946], [79.07015160031727, 14.250198298634727], [79.07761319411176, 14.24474785725168], [79.07692161154333, 14.243020194864632], [79.06915970300297, 14.242268691011922], [79.06740603620126, 14.240876831881902], [79.06741482826351, 14.23984365384395], [79.07058957335707, 14.240213752670751], [79.07308739897071, 14.237134172196004], [79.07414661281966, 14.237142718633281], [79.07517372261759, 14.240939597690874], [79.07623003803333, 14.24129253156059], [79.07730385182289, 14.239579093053658], [79.07804497150944, 14.235452040632822], [79.08372314063627, 14.232053483098829], [79.08512959893261, 14.232753603473817], [79.08546235220078, 14.235167209872976], [79.08223528848012, 14.24099643847395], [79.07939026810347, 14.243384492654442], [79.07938152823805, 14.244417677694024], [79.08113821564815, 14.245465065746332], [79.08466617177429, 14.245837828864287], [79.08853273432452, 14.24793535385719], [79.09418509452075, 14.247636150924007], [79.10440753291492, 14.24978412373403], [79.10897197464959, 14.25292016090571], [79.11179106985361, 14.253631343350037], [79.11565520334656, 14.256072876631308], [79.13225426457785, 14.255859038380157], [79.13471755754857, 14.256911602485584], [79.13754247650294, 14.256933683643082], [79.14214990377683, 14.25490305114086], [79.14568385192767, 14.254586125641532], [79.14918688744316, 14.258057640688701], [79.15307120384564, 14.258087760412756], [79.15799531175254, 14.260536874495767], [79.16541095067281, 14.260594056812623], [79.17032415747968, 14.26442058767954], [79.16996546379586, 14.265106701192332], [79.1681997928544, 14.265093136773737], [79.16468239702597, 14.26334391205325], [79.1572610727818, 14.263975516123068], [79.15197816567596, 14.262212460086795], [79.14809659388126, 14.26183790586013], [79.12761263097764, 14.26202231676223], [79.12583848634767, 14.263041652963247], [79.11631279520664, 14.26193329014675], [79.11383237174965, 14.26294694847611], [79.11207537692245, 14.261899767256528], [79.11032987853417, 14.259474971921902], [79.1082140711197, 14.259113769183003], [79.10538054122813, 14.26012453673351], [79.1018782316317, 14.256652456536388], [79.09801137922237, 14.254555115580466], [79.09060781801779, 14.253118274050802], [79.08813612233747, 14.253098473697571], [79.08565571295034, 14.254111835778431], [79.07576601754445, 14.25437666424887], [79.07114938830844, 14.257439120037295], [79.06690042490177, 14.258782373443793], [79.06546450844047, 14.261526051015212], [79.05840237400095, 14.261468633408397], [79.05664865094695, 14.260076686808], [79.05276451830768, 14.260044992533862], [79.05099604676798, 14.260374953901346], [79.04957178791003, 14.261740956022262], [79.04709709220415, 14.262065106487434], [79.04604668213017, 14.261023262194271], [79.04605855170789, 14.259645711304033], [79.04713268071279, 14.257932451071861], [79.0488981719861, 14.257946904991636], [79.04891002158408, 14.256569351395799], [79.04680923643309, 14.25448567877721], [79.04469365025582, 14.25412393045998], [79.04221606702248, 14.254792427267786], [79.040079662886, 14.256841345136728], [79.03650995777171, 14.26128931117346], [79.03542678292928, 14.264035667051317], [79.03189573616162, 14.264006534567747], [79.02976513968565, 14.265366566903728], [79.02762552847676, 14.267759727858854], [79.02654220983581, 14.270506024114056], [79.02161065839664, 14.269087492113453], [79.01735827899677, 14.270774176558442], [79.01418027687066, 14.270747706617154], [79.01205254817879, 14.27176317747618], [79.00746209756798, 14.271724824733429]], [[79.00253372961544, 14.269961531295694], [79.01135236916411, 14.271068522440936], [79.01418933073066, 14.269714564187083], [79.01807353875489, 14.269746908151232], [79.02020423603173, 14.268386995254513], [79.02621009309289, 14.26809241532408], [79.03048631147722, 14.26365048255031], [79.03437941118091, 14.26264939191258], [79.04080667325144, 14.254436441315068], [79.04470255422864, 14.253090767549537], [79.04646800526677, 14.253105234650382], [79.04928088674855, 14.254505909177263], [79.05242324589426, 14.25866455185635], [79.05630735410942, 14.258696248687457], [79.0594734806712, 14.260099697499033], [79.0622983154286, 14.260122674766471], [79.06408147834783, 14.258070669837053], [79.06409029661029, 14.257037495320748], [79.05702535760845, 14.257324444777877], [79.05387110474979, 14.254543412057723], [79.05140832095178, 14.25349006213991], [79.04861024248116, 14.250367469988616], [79.04297571558959, 14.248599251760382], [79.0422784618348, 14.247560296055628], [79.04302321770804, 14.243089051608068], [79.03913048464845, 14.244090332940575], [79.03773009134663, 14.242701178100319], [79.03561165852449, 14.242683750878799], [79.03238924256269, 14.247823354844101], [79.03519300890684, 14.25025733392628], [79.03627609809728, 14.247510968051891], [79.03910073699606, 14.247534200012767], [79.03980094917122, 14.248228776365684], [79.03978310223208, 14.25029509685322], [79.03764672689104, 14.252343996248241], [79.03370904051026, 14.258510945155624], [79.03016611840648, 14.259859336146619], [79.02696427219232, 14.262588126615581], [79.0234212564901, 14.263936403485598], [79.02128761400203, 14.26564073597917], [79.01527580199668, 14.266623961682606], [79.01314208007423, 14.268328209631864], [79.00573897181121, 14.266888743348002], [79.0043477831557, 14.264466266339536], [79.00472512837163, 14.261714190626847], [79.0090166919265, 14.255550779682615], [79.00902878152361, 14.25417325900567], [79.01045923760154, 14.252118762666214], [79.01047735383317, 14.250052479175968], [79.00872707297148, 14.24831584750792], [79.0059115530376, 14.247259115673184], [78.9967256126691, 14.247870970237882], [78.99497242368663, 14.246478630702137], [78.99394973250263, 14.242337200003165], [78.99717285341681, 14.23719821614474], [79.00000942505363, 14.235844378907828], [79.00214591874818, 14.23379583791402], [79.01064931331257, 14.23042276708605], [79.0134947658297, 14.228035601814238], [79.01816839575181, 14.218431000210533], [79.017836370619, 14.216017391250071], [79.01573623253837, 14.213933523435053], [79.01361208294107, 14.214604700485722], [79.01356095975699, 14.22045919790513], [79.01068849547393, 14.225945810410877], [79.00216711391528, 14.231385182362898], [78.9979153826176, 14.23307159805755], [78.99184963220104, 14.240253123174147], [78.99179785199455, 14.2461075300465], [78.99319490059935, 14.247841297530554], [78.99881975084286, 14.250643774283532], [79.00129128748097, 14.25066449639571], [79.00412499203848, 14.249655009682991], [79.0065844255596, 14.251053194593744], [79.00726336215875, 14.254158513797927], [79.00154424241961, 14.262031947159178], [79.00046673559675, 14.264089332379319], [79.00044243356237, 14.266844356850719], [79.00253372961544, 14.269961531295694]], [[79.06833923594436, 14.255694289815068], [79.07046076086331, 14.255367049090223], [79.07224381487049, 14.253314968264228], [79.07225259291442, 14.252281788342946], [79.07119623710729, 14.251928831495412], [79.06906888362914, 14.252944868377252], [79.06764183859438, 14.254655391360954], [79.06833923594436, 14.255694289815068]], [[79.08391347957584, 14.251342492277438], [79.0870942454194, 14.251023601982771], [79.08816513818243, 14.249654507986376], [79.08500182656493, 14.2479070391734], [79.08253019574924, 14.247887187847066], [79.08251855765191, 14.249264769904988], [79.08391347957584, 14.251342492277438]], [[79.07870158792157, 14.241312439113432], [79.08082297281764, 14.240985087006559], [79.08332068361065, 14.237905383178768], [79.08440023664073, 14.235503111048418], [79.08371152324426, 14.233431067944856], [79.07910418061506, 14.235460564098677], [79.07838638856909, 14.236832462448886], [79.07870158792157, 14.241312439113432]]]}}, {"type": "Feature", "properties": {"depth_class": 4, "depth_lo_m": 3.0, "t_s": 12600.640684437425}, "geometry": {"type": "MultiPolygon", "coordinates": [[[[79.08011681545288, 14.240979408143621], [79.08189093575167, 14.23996041453407], [79.0840384520422, 14.236533466783918], [79.08440894799205, 14.234469922190506], [79.08371152324426, 14.233431067944856], [79.07946016181583, 14.235119008935623], [79.07838638856909, 14.236832462448886], [79.07835142340241, 14.240965201859341], [79.08011681545288, 14.240979408143621]]], [[[79.01135539156489, 14.270724142244001], [79.01418933073066, 14.269714564187083], [79.01807353875489, 14.269746908151232], [79.02020423603173, 14.268386995254513], [79.02621009309289, 14.26809241532408], [79.03048631147722, 14.26365048255031], [79.03437941118091, 14.26264939191258], [79.04045060736273, 14.254777927026325], [79.04328722477203, 14.253423571829625], [79.04646800526677, 14.253105234650382], [79.04928088674855, 14.254505909177263], [79.05242324589426, 14.25866455185635], [79.05630735410942, 14.258696248687457], [79.0594734806712, 14.260099697499033], [79.0622983154286, 14.260122674766471], [79.06408147834783, 14.258070669837053], [79.06409029661029, 14.257037495320748], [79.05702535760845, 14.257324444777877], [79.05387110474979, 14.254543412057723], [79.05140832095178, 14.25349006213991], [79.04861024248116, 14.250367469988616], [79.04297571558959, 14.248599251760382], [79.0422784618348, 14.247560296055628], [79.04302321770804, 14.243089051608068], [79.03913048464845, 14.244090332940575], [79.03773009134663, 14.242701178100319], [79.03561165852449, 14.242683750878799], [79.03238924256269, 14.247823354844101], [79.03519300890684, 14.25025733392628], [79.03627609809728, 14.247510968051891], [79.03910073699606, 14.247534200012767], [79.03980094917122, 14.248228776365684], [79.03978310223208, 14.25029509685322], [79.03764672689104, 14.252343996248241], [79.03370904051026, 14.258510945155624], [79.03016611840648, 14.259859336146619], [79.02696427219232, 14.262588126615581], [79.0234212564901, 14.263936403485598], [79.02128761400203, 14.26564073597917], [79.01527580199668, 14.266623961682606], [79.01314208007423, 14.268328209631864], [79.00573897181121, 14.266888743348002], [79.0043477831557, 14.264466266339536], [79.00472512837163, 14.261714190626847], [79.0090166919265, 14.255550779682615], [79.00902878152361, 14.25417325900567], [79.01045923760154, 14.252118762666214], [79.01047735383317, 14.250052479175968], [79.00872707297148, 14.24831584750792], [79.0059115530376, 14.247259115673184], [78.9967256126691, 14.247870970237882], [78.99497242368663, 14.246478630702137], [78.99394973250263, 14.242337200003165], [78.99717285341681, 14.23719821614474], [79.00000942505363, 14.235844378907828], [79.00214591874818, 14.23379583791402], [79.01064931331257, 14.23042276708605], [79.0134947658297, 14.228035601814238], [79.01816839575181, 14.218431000210533], [79.017836370619, 14.216017391250071], [79.01573623253837, 14.213933523435053], [79.01361208294107, 14.214604700485722], [79.01356095975699, 14.22045919790513], [79.01068849547393, 14.225945810410877], [79.00216711391528, 14.231385182362898], [78.9979153826176, 14.23307159805755], [78.99184963220104, 14.240253123174147], [78.99179785199455, 14.2461075300465], [78.99319490059935, 14.247841297530554], [78.99881975084286, 14.250643774283532], [79.00129128748097, 14.25066449639571], [79.00412499203848, 14.249655009682991], [79.00588432082431, 14.250358532849013], [79.00727848571671, 14.252436614568376], [79.00618595094181, 14.256215937801157], [79.00404924981446, 14.25826448859578], [79.00046673559675, 14.264089332379319], [79.00044243356237, 14.266844356850719], [79.00148351946748, 14.26891951280354], [79.00429320088557, 14.270665084986437], [79.01135539156489, 14.270724142244001]]], [[[79.08391347957584, 14.251342492277438], [79.08780333891507, 14.250684867598432], [79.08816513818243, 14.249654507986376], [79.08500182656493, 14.2479070391734], [79.08253019574924, 14.247887187847066], [79.08321310671622, 14.25064802735353], [79.08391347957584, 14.251342492277438]]], [[[79.06833923594436, 14.255694289815068], [79.0715288407763, 14.254342438594803], [79.07225259291442, 14.252281788342946], [79.07013402707614, 14.252264656175697], [79.06764183859438, 14.254655391360954], [79.06833923594436, 14.255694289815068]]]]}}]}