{"type": "FeatureCollection", "features": [{"type": "Feature", "properties": {"depth_class": 1, "depth_lo_m": 0.3, "t_s": 17100.004285617688}, "geometry": {"type": "MultiPolygon", "coordinates": [[[[79.05916752669492, 14.25458657498675], [79.0630633415145, 14.253240587552385], [79.0623689172863, 14.251857286153841], [79.06095655066302, 14.251845808626868], [79.05882621784582, 14.253206138979596], [79.05916752669492, 14.25458657498675]]], [[[79.18462281611977, 14.418492002636516], [79.18886891656115, 14.417835759252455], [79.18993739047583, 14.416810656588249], [79.18994573138039, 14.415777421202298], [79.1999121063908, 14.406898325461901], [79.20274176564914, 14.406575439180829], [79.20449755356637, 14.407966536145073], [79.20626437871255, 14.407979961930579], [79.20663150824048, 14.40626056932609], [79.20488398216096, 14.403836243101267], [79.20489500106416, 14.402458583011693], [79.20988044661259, 14.397674294855424], [79.21167736760702, 14.393899089345467], [79.2148738917974, 14.391856623400445], [79.21703494285349, 14.386706356399747], [79.22023131676312, 14.384663799390466], [79.22272642486939, 14.381927045918953], [79.23123340196418, 14.378546396016828], [79.23195900659512, 14.37614073133824], [79.23338581532138, 14.374429179936971], [79.2369243955298, 14.373766682351532], [79.23905778275501, 14.37206035241931], [79.2408593686643, 14.367595992094147], [79.24762587323237, 14.360757286707756], [79.25152019043323, 14.359752729143999], [79.25508787068472, 14.35530124425014], [79.25934068622642, 14.353610291087008], [79.26325608805327, 14.349850101146846], [79.26644890332868, 14.348151234608123], [79.26825236891028, 14.343342145713942], [79.27039052106116, 14.340946611912514], [79.27042750621753, 14.336124604682285], [79.26868233370604, 14.333356290849919], [79.2686955500156, 14.331634146107211], [79.26976588747009, 14.330264158085383], [79.26978965533185, 14.32716429477284], [79.26872990420041, 14.327156568553098], [79.26659188428569, 14.329552102745087], [79.26584036847487, 14.335402225448796], [79.26616450295137, 14.339193518984755], [79.26400510990962, 14.34434443414455], [79.26187748528415, 14.345362189196512], [79.2604696923364, 14.344662972425633], [79.25838728938783, 14.339825438672731], [79.25384814329531, 14.332903152443992], [79.2542493664815, 14.326706076842626], [79.25146874802616, 14.320830036221256], [79.24943741467858, 14.30944836744161], [79.24314908502485, 14.300446400131252], [79.24174430493548, 14.299402683233424], [79.24000777928056, 14.295600948385827], [79.23438085288657, 14.29245925532943], [79.23263373750693, 14.29003517907557], [79.2301695220637, 14.288983534448537], [79.22666467756156, 14.285513016536857], [79.21821013061925, 14.282694347472875], [79.21716688838738, 14.28061989006625], [79.21894085468594, 14.279599842165895], [79.21859581567006, 14.278563936640037], [79.21365966425931, 14.277493636744268], [79.21120656936048, 14.275064140968492], [79.20519743691821, 14.275707813874297], [79.20414888509572, 14.274322153182101], [79.20453206211211, 14.270536209436791], [79.20314404006506, 14.267425792620724], [79.2006829660601, 14.266029467132197], [79.19714881208756, 14.266347196054557], [79.19435385526238, 14.262537219648628], [79.19012723436481, 14.261127417039527], [79.18384531935992, 14.251779862981802], [79.17329898384216, 14.245843942703667], [79.16907561601656, 14.244089404638748], [79.16554738740389, 14.243717876599996], [79.16274766694436, 14.24059644244639], [79.15992570129453, 14.240230273105622], [79.15887758806667, 14.23884446167502], [79.15781831445027, 14.238836290062865], [79.1532057319572, 14.241556103926946], [79.15073126833948, 14.241881376538261], [79.14999140514246, 14.246008812910349], [79.14679100786984, 14.248739420362433], [79.14606791922691, 14.250800382467505], [79.14500296697935, 14.251480963045006], [79.14146624729428, 14.252142291445686], [79.13898319058707, 14.253500645876242], [79.12450573921843, 14.253387240836087], [79.12310185838419, 14.25234291939043], [79.12171794376593, 14.248887767922438], [79.11785670017062, 14.246101935895817], [79.11966210368017, 14.241294211663524], [79.11933183171688, 14.23853620473656], [79.11828399563878, 14.237150245918366], [79.11687167422332, 14.237139110615088], [79.11580386370218, 14.238163961187452], [79.11543077847551, 14.240571990983506], [79.11645003840438, 14.245401986411226], [79.11432576065616, 14.246074058542673], [79.1114780917545, 14.248806930026353], [79.10830021971687, 14.248781753162284], [79.10548694817062, 14.24738173764659], [79.09562057612119, 14.244892242741717], [79.08679340288253, 14.244821635091109], [79.08398615545325, 14.242732596097088], [79.08399777909095, 14.241355012099195], [79.08757497951129, 14.235872979820485], [79.08761845831198, 14.230707025123632], [79.08657376312952, 14.22897655782999], [79.0848113594617, 14.228618014411714], [79.08161347096699, 14.231003288962347], [79.07771521190531, 14.232694038797042], [79.07593238869757, 14.234746190494889], [79.07311368833686, 14.234034626412447], [79.07098359539829, 14.235395097622805], [79.07026283214263, 14.237111358755731], [79.06708813088086, 14.236741261037439], [79.06531691904743, 14.237415747284789], [79.06424596950495, 14.238784729925936], [79.06351339678415, 14.241878529887586], [79.06101833512402, 14.244613594683175], [79.0588821865261, 14.246662716550349], [79.05427144873147, 14.249036058750905], [79.05144676547009, 14.249013003951902], [79.04900181307806, 14.245893305316978], [79.04547101978223, 14.245864409872453], [79.04657470105082, 14.240707259237112], [79.04555104966491, 14.236565929517374], [79.04307663332986, 14.236890073216466], [79.04021646116142, 14.240999550891852], [79.0370477622756, 14.239940279866342], [79.03492637620023, 14.240267235900044], [79.0277992196651, 14.247785456130087], [79.02778425687623, 14.249507377503427], [79.03024386802254, 14.250905336992066], [79.03128519119909, 14.252980391147688], [79.03125829411562, 14.256079854610402], [79.03019004711244, 14.257104260242588], [79.02842458225463, 14.257089668691258], [79.02632400556277, 14.255005839075302], [79.02420847186464, 14.254643912486529], [79.02243702840978, 14.255318045087074], [79.02136574692516, 14.256686789266011], [79.02135072557277, 14.258408702649277], [79.02239799376895, 14.259795022755998], [79.02167377556027, 14.261855459452228], [79.01742756253425, 14.262853400205993], [79.01602420589467, 14.261808503540601], [79.01355554264713, 14.261443537361458], [79.01213410013656, 14.262464905024693], [79.01140978099608, 14.264525296893229], [79.00859102821163, 14.263812950124334], [79.00788785647099, 14.263462668732695], [79.00789995991659, 14.262085149916711], [79.01148225961911, 14.256260164437963], [79.01293080788412, 14.252139366310717], [79.01226084200822, 14.248000910361824], [79.00734198261772, 14.245204634923857], [78.99745606094619, 14.245121874765621], [78.99640597662675, 14.244079849940885], [78.99642117134802, 14.242357960712415], [78.99892296010825, 14.238934911401982], [79.00318691102488, 14.235870974043516], [79.01275856545799, 14.231473545862919], [79.01632513441194, 14.227370306994771], [79.01848842170888, 14.222222141624254], [79.02132769791919, 14.220523624848338], [79.02172266370303, 14.215705172999746], [79.02103158677058, 14.213977410345805], [79.01787537009876, 14.211540409606993], [79.01257707523628, 14.211840842354107], [79.01114392998348, 14.214239775182309], [79.01144878729457, 14.219752819826976], [79.00893234176247, 14.224897963034172], [79.00538080941566, 14.227279179054337], [78.99651836951438, 14.23133786340471], [78.99117397358937, 14.236803412811353], [78.98937212515428, 14.240921071012462], [78.98967334689925, 14.246778443755712], [78.99281746412977, 14.250593342705212], [78.99668305164056, 14.252692258092589], [79.00445081150484, 14.252757377337346], [79.00407955276978, 14.254820697822314], [79.0012306072774, 14.257552067521894], [78.99800417714701, 14.263035449838647], [78.99796463813222, 14.267512357894052], [78.9993527271917, 14.270279242849698], [79.00250944227811, 14.27271655790192], [79.01203743951855, 14.27348507893716], [79.0141651854942, 14.272469610456062], [79.01911179561338, 14.272166391018358], [79.02053327916246, 14.271144986286913], [79.02335818546995, 14.27116844254858], [79.02510274174759, 14.273593766955257], [79.02757156964002, 14.2739586325606], [79.02899603022233, 14.272592790154462], [79.02901700005008, 14.270182103047741], [79.03010028812083, 14.267435791403113], [79.03187779659898, 14.266072842493184], [79.03646521748348, 14.266455095814083], [79.03788361649367, 14.265777958226286], [79.03898464523125, 14.260965271531447], [79.0421922883677, 14.257547523650787], [79.04360170410345, 14.257903504071415], [79.04391618403348, 14.26238343590487], [79.04566686353004, 14.264119855854487], [79.04954808652882, 14.264496062943808], [79.05273494293598, 14.263488883138022], [79.05380313557622, 14.262464367749343], [79.05521556228051, 14.262475896012756], [79.05661323023949, 14.264209364967972], [79.0590820524666, 14.264573897509498], [79.06120955495028, 14.263557970175945], [79.06615016191986, 14.263942523744403], [79.06899265456232, 14.261899073860194], [79.07217356520779, 14.261580404227676], [79.07503351871551, 14.25747050927027], [79.07715505881659, 14.257143209865792], [79.07785834675957, 14.257493298119064], [79.07784667212044, 14.258870875282877], [79.07571927133627, 14.259886966534022], [79.07534277940357, 14.262639265680777], [79.07816475314806, 14.263006453166357], [79.08026884834369, 14.264745499695795], [79.08414730357724, 14.265465546818756], [79.08766104961794, 14.267560284511632], [79.09009226643342, 14.272401659468372], [79.092193644566, 14.274485018366477], [79.09852981880519, 14.27694663399255], [79.10028106799524, 14.278682717079667], [79.10131739161392, 14.2814463541236], [79.10553497645269, 14.283890907517332], [79.11647695265268, 14.28466658811146], [79.12214171204717, 14.282989221713466], [79.1274817300394, 14.27786489643856], [79.1285582410826, 14.275806801446207], [79.12825062291073, 14.270293563024598], [79.13252512829565, 14.26584955340455], [79.13429360397575, 14.26551897738711], [79.1409889247562, 14.267293441708627], [79.14347495438531, 14.265590677574583], [79.14665594172541, 14.265271006775176], [79.1547330878581, 14.270844578436696], [79.1607280967594, 14.271924232652974], [79.16637839682434, 14.271967790270773], [79.17377223549101, 14.27478005919587], [79.17692287055436, 14.27824854112497], [79.17938665984644, 14.279300695523295], [79.18183941293626, 14.281730483698444], [79.1846232888426, 14.28691826252156], [79.18707617729622, 14.289348011660904], [79.18954840781763, 14.289366833713833], [79.19061344367898, 14.288686061231363], [79.1892200320906, 14.286264408009115], [79.18889441524517, 14.282817566688992], [79.19174449714407, 14.279739299881623], [79.192803981858, 14.279747343544457], [79.19385522623669, 14.280788631953222], [79.1948872584501, 14.284240832989473], [79.1962889584934, 14.285629208744213], [79.20614230236374, 14.290181383098295], [79.20894593878877, 14.29295801902952], [79.21211372302828, 14.294359606220555], [79.2138579079401, 14.29712823062675], [79.21561843865935, 14.297830326166224], [79.21986490831083, 14.296828824340478], [79.22339414235672, 14.297199653745668], [79.22654588928727, 14.300667597834565], [79.22652427645922, 14.303422974077982], [79.22474472776251, 14.305131902171132], [79.21944933651132, 14.304747857773625], [79.21767787669273, 14.305423464533087], [79.21624874217586, 14.307479387365417], [79.2169388564404, 14.309551207974383], [79.22118283867138, 14.308894129172316], [79.22329128395312, 14.310287666302987], [79.22646752088113, 14.3106558335321], [79.22720097359415, 14.307216885130867], [79.22968694219968, 14.30551320048795], [79.23145298825958, 14.305526345845674], [79.23285505523481, 14.306914545064044], [79.23639255207449, 14.3062519306517], [79.23849571575029, 14.308334189211559], [79.24162372605934, 14.31490179505271], [79.24189918475801, 14.324892716303996], [79.23939425252283, 14.32900747807317], [79.2379489841094, 14.333130073108165], [79.23545195969675, 14.336211503666126], [79.23328113808194, 14.342739752340448], [79.23326224112787, 14.34515070688004], [79.23037926702897, 14.352362482058878], [79.22789003363859, 14.35441052955768], [79.2275502994841, 14.35268578379987], [79.22474846836721, 14.349564848129782], [79.22193040824584, 14.348510406603822], [79.21839494043012, 14.34882830278993], [79.21628347305553, 14.347779107073022], [79.21559329084202, 14.34570727804198], [79.2170199911463, 14.343995813217154], [79.2166885215771, 14.341237804741262], [79.21493857143207, 14.339158004891509], [79.21141145073842, 14.338442558489826], [79.20785424599282, 14.341515653902887], [79.2060824598541, 14.342191134568443], [79.20357943452564, 14.34596099822236], [79.20038352965176, 14.3480033828656], [79.20069829134887, 14.352827884939304], [79.1992631536566, 14.35557247540839], [79.19924938354814, 14.35729455195604], [79.19710485973371, 14.36037816561063], [79.19637344705832, 14.363472518349171], [79.19246509630996, 14.366198201416655], [79.19138582842135, 14.368601003077536], [79.18924939557473, 14.370651278564722], [79.17897296294404, 14.374361207490958], [79.17718967934584, 14.376414071940982], [79.17996876286801, 14.382290813309462], [79.18242250580242, 14.384720708518563], [79.1845396686289, 14.385081401940448], [79.18809513452808, 14.382353197595528], [79.19024279089506, 14.378925297038561], [79.19451301264155, 14.375169136792625], [79.20407994588376, 14.37179756328867], [79.2072761876986, 14.369755168042067], [79.20833610396119, 14.36976319177021], [79.20938779703489, 14.37080446124636], [79.20936037949663, 14.374248628854332], [79.20792791725832, 14.376648847176915], [79.20718283557545, 14.381465321073328], [79.20504364206343, 14.383860155307708], [79.20430946725685, 14.387298945975965], [79.20181409072494, 14.390035471022108], [79.20037039357446, 14.393813277369189], [79.19288924932489, 14.401333753704053], [79.18930571232985, 14.407506117520395], [79.18397184635683, 14.411598351615794], [79.18182931184076, 14.414337317748265], [79.18286430388301, 14.41744517413622], [79.18462281611977, 14.418492002636516]], [[79.20495558417483, 14.394881449505887], [79.20498586249519, 14.391092880841303], [79.20677179985842, 14.388695377272493], [79.20786476788005, 14.384570420850277], [79.20965061680222, 14.3821728847062], [79.21039565072776, 14.37735639745355], [79.21218962175234, 14.373925579339682], [79.21221699534262, 14.370481406293775], [79.2115240701427, 14.36875398273609], [79.2090646465381, 14.36701320372742], [79.20517558893182, 14.36732819380608], [79.20233542427961, 14.369028830275319], [79.20021285122202, 14.369357140292982], [79.19844909337878, 14.368999289770708], [79.19775628204981, 14.367271838506518], [79.19990087497024, 14.36418822727439], [79.20027895360883, 14.361091174468775], [79.20315749795715, 14.354568727312763], [79.20355197765566, 14.349405162036827], [79.20532657163517, 14.348385291475156], [79.20676158337521, 14.345640648755346], [79.20889761069178, 14.343590164878398], [79.21174012292826, 14.341544985116105], [79.21350370421118, 14.341902714898483], [79.21348732677266, 14.343969225280627], [79.21170460108124, 14.346022419608394], [79.21168546885197, 14.348433345138849], [79.21273709158157, 14.349474591761242], [79.21555510688928, 14.35052913898383], [79.21695731081145, 14.35191744814125], [79.22226194278383, 14.351268414783997], [79.22402019400508, 14.352314916929762], [79.22435718508046, 14.354384084742223], [79.22114498118233, 14.358493272817942], [79.22112865410342, 14.360559788943672], [79.22499316165573, 14.363344300603721], [79.22782497662944, 14.362676624978985], [79.22928692765969, 14.356487618760744], [79.23178158303818, 14.353750715088827], [79.23565962775766, 14.354812945199054], [79.23776587811132, 14.356550830671004], [79.24270657621693, 14.35727641124834], [79.24517962575464, 14.357294740325818], [79.25050043415182, 14.35457853070435], [79.25262284621357, 14.354249744977047], [79.25082697268638, 14.358025388420801], [79.24693268456436, 14.359029937760424], [79.2405276031208, 14.364837984712596], [79.23838621174576, 14.367577605046833], [79.23765531611706, 14.370672146359535], [79.236231264672, 14.372039308654188], [79.2323393966675, 14.372699160594934], [79.2305592761549, 14.374408065063465], [79.22948034417308, 14.376811081463131], [79.2202640419761, 14.380530777177613], [79.21456981736077, 14.38565444431672], [79.21348243868505, 14.38909061092463], [79.21205812745174, 14.39045759532091], [79.20993260711728, 14.3911303865597], [79.20636621128666, 14.395236594452733], [79.20495558417483, 14.394881449505887]], [[79.22501760305461, 14.360244520475511], [79.22468060353818, 14.358175352867544], [79.22717261907734, 14.355782927264572], [79.22714279138717, 14.359571553168568], [79.22642806562331, 14.360599525321227], [79.22501760305461, 14.360244520475511]], [[79.24025506015002, 14.354502672155816], [79.23992330217995, 14.351744664073262], [79.24246881441653, 14.342463575659101], [79.24497387341542, 14.338348796502963], [79.24643245046592, 14.332504025405767], [79.24891859967221, 14.330800158062853], [79.24959838043937, 14.33424962405294], [79.25168588911734, 14.338398358694299], [79.25728222066583, 14.345672906435075], [79.25726357637649, 14.348083891503972], [79.25370674617133, 14.351157727003558], [79.24555170114807, 14.354886388620082], [79.24025506015002, 14.354502672155816]], [[79.25510654803503, 14.352890263449396], [79.259741864067, 14.347413203574709], [79.26221482792532, 14.347431342705574], [79.26220420325704, 14.34880905194324], [79.25970994136863, 14.351546325343062], [79.25616641239834, 14.352898064142927], [79.25510654803503, 14.352890263449396]], [[79.23572705655087, 14.346202386741625], [79.2361045889927, 14.343105211939728], [79.23968299753302, 14.337276264124943], [79.24078307445372, 14.332117769312523], [79.24401863600819, 14.324908401072197], [79.24374040530455, 14.315261896439713], [79.24096554247623, 14.308696925517788], [79.23781613901355, 14.304884712542334], [79.23359915804227, 14.302097870010906], [79.23255300646863, 14.300367879890317], [79.228325386744, 14.29895865001585], [79.22411134903467, 14.295827242215513], [79.21775931697306, 14.295090851715774], [79.21459691497091, 14.293000494489823], [79.21142640672845, 14.29194336014221], [79.20721548687278, 14.288467274626484], [79.19841621215633, 14.284612005768619], [79.19703095847639, 14.281157139449887], [79.19422761399122, 14.278380394749693], [79.19246731309816, 14.277678165270686], [79.18896602195525, 14.273862761107193], [79.18650498847312, 14.27246629185101], [79.17909717689271, 14.271376477738391], [79.17731205401012, 14.273773869921582], [79.17660575550353, 14.273768464275243], [79.17310203646402, 14.270297277276363], [79.16500765017379, 14.266790744670303], [79.15477234430136, 14.266022848397455], [79.14843284398519, 14.263907098256361], [79.14419531080962, 14.263874141686399], [79.14065556763686, 14.26487984035428], [79.13254215050118, 14.263783123175122], [79.13076800853194, 14.264802496974784], [79.12933561008326, 14.267202245105786], [79.12649634220475, 14.268902069904314], [79.12679252829656, 14.275792920190746], [79.12571885236791, 14.277506601925255], [79.12251485533375, 14.280581189312322], [79.11932507569796, 14.281933712625849], [79.11614385945322, 14.282252984531246], [79.11509301017666, 14.281211395155411], [79.11546335575895, 14.279147783555707], [79.11900625426028, 14.277798099472719], [79.12043026247466, 14.276431644066589], [79.12258621991397, 14.271971120953474], [79.12579577531052, 14.26820770828872], [79.12546258269573, 14.265794105399477], [79.12370265219765, 14.265091404190127], [79.11204669817542, 14.26534377739923], [79.11063994708319, 14.264643782191408], [79.11061698265705, 14.26739898746717], [79.10849535394645, 14.267726578708844], [79.10533449485989, 14.265634931888147], [79.10606375641865, 14.262885347292258], [79.10045714996902, 14.257674405815852], [79.0951807710503, 14.255221365722837], [79.08776850976065, 14.254817625093386], [79.0859971908813, 14.25549225398909], [79.07575725415101, 14.255409846132343], [79.06936921987536, 14.25914679413874], [79.06616191192799, 14.262564956688028], [79.05804041947148, 14.262498927467748], [79.05593653949781, 14.260759708421947], [79.05346481123111, 14.260739538324328], [79.04956290048491, 14.262774121196841], [79.04638494873102, 14.262748094983214], [79.04533453960721, 14.261706247619488], [79.04609415283944, 14.255513057622181], [79.04327237332186, 14.255145508451792], [79.04149798994612, 14.256164176429747], [79.03793130201197, 14.260267782843856], [79.03648311574739, 14.264388782242472], [79.03118055512901, 14.265033855373103], [79.02833174706018, 14.267765572686436], [79.02688932556411, 14.271197715839653], [79.02582998269546, 14.271188939339897], [79.02407642481337, 14.269796769907792], [79.02125153436899, 14.26977332436414], [79.01876771532741, 14.271130309138279], [79.01382112854483, 14.27143352431893], [79.0116933918154, 14.272448990868993], [79.00428106793318, 14.272042599776423], [79.00146529626399, 14.27098578167271], [79.00006805937583, 14.26925203890798], [78.99902698617873, 14.267176878312533], [78.99905738514431, 14.263733100702403], [79.00264295851748, 14.257563903200346], [79.00513577684976, 14.255173940399034], [79.00586616237956, 14.252424810491426], [79.00411287667934, 14.251032526752326], [79.00092607498631, 14.252039051924758], [78.99739832835668, 14.251665055076744], [78.99317967531512, 14.249563182555066], [78.99038863012439, 14.245751263013632], [78.99079654987936, 14.239555456362885], [78.99223008967647, 14.237156699453354], [78.99721839111555, 14.232032542265955], [79.00501567789833, 14.228653751513727], [79.00998844345456, 14.225251167791535], [79.01250788101302, 14.21976162908677], [79.012202997849, 14.21424858245104], [79.01363012086742, 14.21253840655277], [79.0164542866189, 14.212561850093463], [79.01996052664111, 14.21534617680958], [79.02063661448385, 14.2187958601953], [79.0195625267439, 14.220509004490317], [79.0174353174422, 14.221524591603732], [79.01670221373452, 14.224618177404471], [79.01455089129651, 14.228388789122123], [79.01205849155176, 14.23077890657482], [79.00284293908372, 14.234834882826926], [78.99929118560435, 14.237215977734873], [78.99536502308864, 14.242004688741018], [78.9953437392515, 14.244415332093961], [78.99744390915092, 14.246499386726718], [79.00733291381177, 14.246237775157898], [79.01154564034016, 14.249028168553604], [79.01187458042732, 14.251786158457117], [79.01042601697259, 14.255906948078524], [79.0061253947118, 14.263103526360881], [79.00681645081362, 14.2648313302235], [79.00928512984662, 14.265196369540268], [79.01068544642362, 14.266585684515203], [79.01245096618707, 14.266600416951368], [79.01424363867899, 14.263515707611095], [79.01847181107387, 14.26458411850529], [79.02414246771721, 14.262220343749878], [79.02521676391896, 14.260507205500609], [79.02276309946294, 14.258420419879833], [79.02277510814082, 14.257042888015974], [79.024196473993, 14.25602144582313], [79.02631202021547, 14.256383374134375], [79.02840961402981, 14.258811589375915], [79.0294689007343, 14.258820346973847], [79.03266468824785, 14.256780281437958], [79.03304465591832, 14.253683727883843], [79.03201525986913, 14.250231138699325], [79.02990872228995, 14.248836112977422], [79.02992366823341, 14.247114189297], [79.0327691824056, 14.24472679810135], [79.03456138583206, 14.241641872624413], [79.03809506574311, 14.241326534396057], [79.03914535549544, 14.242368399009699], [79.04055764476615, 14.24237999808948], [79.04340893190042, 14.239303681600061], [79.04446813715616, 14.239312360950148], [79.04478265789709, 14.24379229709181], [79.04404683493453, 14.24723038791548], [79.04792184255558, 14.248295361601865], [79.05213520026616, 14.25108510642232], [79.05495991046944, 14.251108156351005], [79.06098303396033, 14.24874628893318], [79.06451390472216, 14.248774960600747], [79.06521420802811, 14.249469472631073], [79.06803598836639, 14.249836757736347], [79.07264663491361, 14.247463133322308], [79.07407651542466, 14.24540817506125], [79.07302603252599, 14.244366442382656], [79.0694952124999, 14.244337905288184], [79.06703537099868, 14.24294032825347], [79.06598786760364, 14.241554177527652], [79.06600839738459, 14.239143430787916], [79.06672040596743, 14.238460365487933], [79.07060127607897, 14.238836179260174], [79.07274601492497, 14.235753746829014], [79.07451136065073, 14.235767989456676], [79.07555598135427, 14.237498501008904], [79.07626212600316, 14.237504191999003], [79.0787685841403, 14.233391352511397], [79.0840878201735, 14.230678730421483], [79.0851470108008, 14.23068722430424], [79.08619460093547, 14.23207330050692], [79.08615688849888, 14.236550457131123], [79.08151458242617, 14.24271274130847], [79.08150294257324, 14.244090323139568], [79.0850279740415, 14.244807474433697], [79.08713197932904, 14.246546448311346], [79.09384357076875, 14.246255738844225], [79.10406594351173, 14.248403718404212], [79.11531639990422, 14.254348076560875], [79.12167803435769, 14.253709413914674], [79.12484746041754, 14.254767632575053], [79.13861877815071, 14.254875516514682], [79.14357926425271, 14.252847605233907], [79.14640696036328, 14.252525167204208], [79.14818375421916, 14.251161247260475], [79.15100020438082, 14.252216387410591], [79.15771770642351, 14.251235069843663], [79.16052583989526, 14.253323335388489], [79.16051746302891, 14.254356567881889], [79.15696392469489, 14.257084586850207], [79.15765897372788, 14.258467685121799], [79.15977491022156, 14.258828457647214], [79.1629641743095, 14.257475321256825], [79.16543602386281, 14.257494352125606], [79.17601031761524, 14.259986518932514], [79.17850710614442, 14.256905690314284], [79.17852093330197, 14.255183619090824], [79.1774698720056, 14.254142283286413], [79.17394977513828, 14.252737619102612], [79.17044083369241, 14.249955256608834], [79.15950001777779, 14.249182234518514], [79.15950839610538, 14.248149002171035], [79.16128787558773, 14.246440559291177], [79.16166886631814, 14.242999166836945], [79.16483283576565, 14.244745683120986], [79.16836107764723, 14.24511722347495], [79.18207421996397, 14.252455243744539], [79.18662070120261, 14.25800083983088], [79.18870095058729, 14.262838769076447], [79.19432368122277, 14.2663258070111], [79.19747730274538, 14.26944962513109], [79.20100877186486, 14.269476315206695], [79.202062749149, 14.27017314872983], [79.2023831088172, 14.274308833519465], [79.20412977213854, 14.27673308321585], [79.21011988019316, 14.278500378464937], [79.21186937989079, 14.280580164145533], [79.21889750575471, 14.285110580885345], [79.22489339047544, 14.286188698034286], [79.22664039128671, 14.288612818902761], [79.23015605365528, 14.29070564975525], [79.23190583622447, 14.29278531832587], [79.2385923157338, 14.295934915538556], [79.24032881822542, 14.299736658192575], [79.24732344492652, 14.30874389614252], [79.24836707848225, 14.310818263288589], [79.24868024854065, 14.315987253998738], [79.25006647726354, 14.319441925497891], [79.25003444237211, 14.323575035594377], [79.2517899791804, 14.324965750210659], [79.25177397234792, 14.32703230639776], [79.25071156234849, 14.327368925647896], [79.2493092609461, 14.325980807088579], [79.24718444384762, 14.326654018735477], [79.24503015028003, 14.33111588148643], [79.24289186150503, 14.333511168540065], [79.2421504541018, 14.33798344756762], [79.24035726509933, 14.341414587886446], [79.2371509283491, 14.344835206327472], [79.23678687842242, 14.346210270478917], [79.23572705655087, 14.346202386741625]], [[79.10840621842436, 14.278402979384197], [79.09962101554653, 14.273166710530209], [79.09786980921037, 14.271430627744449], [79.09752824540652, 14.270050216296054], [79.10072082690662, 14.268353580635186], [79.10566459079529, 14.268392936169993], [79.10776897351838, 14.270131771453164], [79.11058827023189, 14.270842993116865], [79.11161896063675, 14.274295399355891], [79.11337604166316, 14.275342594493976], [79.1133645677225, 14.276720198163469], [79.11087534631116, 14.27876700410912], [79.10840621842436, 14.278402979384197]], [[79.18859083839723, 14.27661540080955], [79.1811911710392, 14.274492392064566], [79.18084631641831, 14.273456452593235], [79.18508411607503, 14.273488778986412], [79.18894950173531, 14.275929255330702], [79.18859083839723, 14.27661540080955]], [[79.09364964247685, 14.269330372290272], [79.09365833325003, 14.268297180756473], [79.09541816535769, 14.26900009539962], [79.09505925023356, 14.269686067281546], [79.09364964247685, 14.269330372290272]], [[79.08099257022927, 14.262684818779523], [79.08029217697765, 14.261990342624326], [79.08030675484527, 14.260268369112941], [79.08137482209936, 14.259243712188884], [79.08278725181069, 14.259255074622809], [79.08452660906799, 14.262368826041477], [79.0838145625053, 14.263051940545592], [79.08099257022927, 14.262684818779523]], [[79.09760339314836, 14.261095866792731], [79.09408962840443, 14.25900127573846], [79.0933949899183, 14.257618039422068], [79.09692606608746, 14.257646248728689], [79.10114318358917, 14.260090823759525], [79.1007785333572, 14.261465606317744], [79.09760339314836, 14.261095866792731]], [[79.17074396617771, 14.256157395491737], [79.1711054166137, 14.255126865508128], [79.17216754898881, 14.254790574208855], [79.17534008062518, 14.255503737979653], [79.17497864781693, 14.256534276579574], [79.17074396617771, 14.256157395491737]], [[79.11533356447939, 14.252281664793717], [79.1135852261664, 14.250201298020073], [79.1153678853816, 14.248148840126861], [79.11749218146818, 14.247476760833388], [79.1174521864303, 14.252298395649603], [79.11533356447939, 14.252281664793717]], [[79.15670592439702, 14.245371911974496], [79.15671990519746, 14.243649860177914], [79.15743169171714, 14.242966492425253], [79.15919717982912, 14.242980115893342], [79.15917484080083, 14.245735402650737], [79.15670592439702, 14.245371911974496]]], [[[79.22250083233453, 14.320959431347683], [79.2217970814081, 14.320609722008857], [79.22179436888773, 14.320954142609045], [79.22250083233453, 14.320959431347683]]], [[[79.22142479378702, 14.367795246574062], [79.22320219765881, 14.366430831429836], [79.22285977364234, 14.365050502174112], [79.22038666883351, 14.365031930399027], [79.21931859242501, 14.366057219687304], [79.2196582698342, 14.367781970472127], [79.22142479378702, 14.367795246574062]]]]}}, {"type": "Feature", "properties": {"depth_class": 2, "depth_lo_m": 1.0, "t_s": 17100.004285617688}, "geometry": {"type": "MultiPolygon", "coordinates": [[[[79.03624033907114, 14.25164360013454], [79.03943001765317, 14.250292195143748], [79.03944786780198, 14.248225875094155], [79.03839457679437, 14.247528395152978], [79.03627013905526, 14.248199740170985], [79.03624033907114, 14.25164360013454]]], [[[79.07896723457827, 14.251647126850061], [79.0789818114781, 14.24992515319219], [79.07615415625025, 14.250246783653834], [79.07649557182071, 14.251627207918013], [79.07896723457827, 14.251647126850061]]], [[[79.08417058632219, 14.262710383631317], [79.08418513551425, 14.2609884062975], [79.08278725181069, 14.259255074622809], [79.08137482209936, 14.259243712188884], [79.08030675484527, 14.260268369112941], [79.08029217697765, 14.261990342624326], [79.08134276846171, 14.263032056272184], [79.08417058632219, 14.262710383631317]]], [[[79.23643360439364, 14.34620764309222], [79.24035726509933, 14.341414587886446], [79.2421504541018, 14.33798344756762], [79.24289186150503, 14.333511168540065], [79.24503015028003, 14.33111588148643], [79.24718444384762, 14.326654018735477], [79.2493092609461, 14.325980807088579], [79.25071156234849, 14.327368925647896], [79.25177397234792, 14.32703230639776], [79.2517899791804, 14.324965750210659], [79.25003444237211, 14.323575035594377], [79.25006647726354, 14.319441925497891], [79.24868024854065, 14.315987253998738], [79.24836707848225, 14.310818263288589], [79.24732344492652, 14.30874389614252], [79.24032881822542, 14.299736658192575], [79.2385923157338, 14.295934915538556], [79.23190583622447, 14.29278531832587], [79.23015605365528, 14.29070564975525], [79.22664039128671, 14.288612818902761], [79.22489339047544, 14.286188698034286], [79.21889750575471, 14.285110580885345], [79.21186937989079, 14.280580164145533], [79.21011988019316, 14.278500378464937], [79.20412977213854, 14.27673308321585], [79.2023831088172, 14.274308833519465], [79.202062749149, 14.27017314872983], [79.20100877186486, 14.269476315206695], [79.19747730274538, 14.26944962513109], [79.19432368122277, 14.2663258070111], [79.18870095058729, 14.262838769076447], [79.18662070120261, 14.25800083983088], [79.18207421996397, 14.252455243744539], [79.16836107764723, 14.24511722347495], [79.16483283576565, 14.244745683120986], [79.16166886631814, 14.242999166836945], [79.16128787558773, 14.246440559291177], [79.15950839610538, 14.248149002171035], [79.15950001777779, 14.249182234518514], [79.17044083369241, 14.249955256608834], [79.17394977513828, 14.252737619102612], [79.1774698720056, 14.254142283286413], [79.17852093330197, 14.255183619090824], [79.17850710614442, 14.256905690314284], [79.17601031761524, 14.259986518932514], [79.16543602386281, 14.257494352125606], [79.1629641743095, 14.257475321256825], [79.15977491022156, 14.258828457647214], [79.15765897372788, 14.258467685121799], [79.15696392469489, 14.257084586850207], [79.16051746302891, 14.254356567881889], [79.16017831104926, 14.252631790192538], [79.15771770642351, 14.251235069843663], [79.15170642560068, 14.252221860861253], [79.14818375421916, 14.251161247260475], [79.14640696036328, 14.252525167204208], [79.14357926425271, 14.252847605233907], [79.13861877815071, 14.254875516514682], [79.12484746041754, 14.254767632575053], [79.12167803435769, 14.253709413914674], [79.11531639990422, 14.254348076560875], [79.10406594351173, 14.248403718404212], [79.09384357076875, 14.246255738844225], [79.08713197932904, 14.246546448311346], [79.0850279740415, 14.244807474433697], [79.08150294257324, 14.244090323139568], [79.08151458242617, 14.24271274130847], [79.08615688849888, 14.236550457131123], [79.08619460093547, 14.23207330050692], [79.0851470108008, 14.23068722430424], [79.0840878201735, 14.230678730421483], [79.0787685841403, 14.233391352511397], [79.07626212600316, 14.237504191999003], [79.07555598135427, 14.237498501008904], [79.07451136065073, 14.235767989456676], [79.07274601492497, 14.235753746829014], [79.07060127607897, 14.238836179260174], [79.06672040596743, 14.238460365487933], [79.06600839738459, 14.239143430787916], [79.06598786760364, 14.241554177527652], [79.06703537099868, 14.24294032825347], [79.0694952124999, 14.244337905288184], [79.07302603252599, 14.244366442382656], [79.07407651542466, 14.24540817506125], [79.07264663491361, 14.247463133322308], [79.06803598836639, 14.249836757736347], [79.06521420802811, 14.249469472631073], [79.06451390472216, 14.248774960600747], [79.06098303396033, 14.24874628893318], [79.05495991046944, 14.251108156351005], [79.05213520026616, 14.25108510642232], [79.04792184255558, 14.248295361601865], [79.04404683493453, 14.24723038791548], [79.04478265789709, 14.24379229709181], [79.04446813715616, 14.239312360950148], [79.04340893190042, 14.239303681600061], [79.04055764476615, 14.24237999808948], [79.03914535549544, 14.242368399009699], [79.03809506574311, 14.241326534396057], [79.03456138583206, 14.241641872624413], [79.0327691824056, 14.24472679810135], [79.02992366823341, 14.247114189297], [79.02990872228995, 14.248836112977422], [79.03201525986913, 14.250231138699325], [79.03304465591832, 14.253683727883843], [79.03266468824785, 14.256780281437958], [79.0294689007343, 14.258820346973847], [79.02840961402981, 14.258811589375915], [79.02631202021547, 14.256383374134375], [79.024196473993, 14.25602144582313], [79.02277510814082, 14.257042888015974], [79.02311018938677, 14.259112113898015], [79.02521676391896, 14.260507205500609], [79.02414246771721, 14.262220343749878], [79.01847181107387, 14.26458411850529], [79.01424363867899, 14.263515707611095], [79.01245096618707, 14.266600416951368], [79.01068544642362, 14.266585684515203], [79.00928512984662, 14.265196369540268], [79.00681645081362, 14.2648313302235], [79.0061253947118, 14.263103526360881], [79.01042601697259, 14.255906948078524], [79.01187458042732, 14.251786158457117], [79.01154564034016, 14.249028168553604], [79.00733291381177, 14.246237775157898], [78.99744390915092, 14.246499386726718], [78.9953437392515, 14.244415332093961], [78.99536502308864, 14.242004688741018], [78.99929118560435, 14.237215977734873], [79.00284293908372, 14.234834882826926], [79.01205849155176, 14.23077890657482], [79.01455089129651, 14.228388789122123], [79.01670221373452, 14.224618177404471], [79.0174353174422, 14.221524591603732], [79.0195625267439, 14.220509004490317], [79.02063661448385, 14.2187958601953], [79.01996052664111, 14.21534617680958], [79.0164542866189, 14.212561850093463], [79.01363012086742, 14.21253840655277], [79.012202997849, 14.21424858245104], [79.01250788101302, 14.21976162908677], [79.00998844345456, 14.225251167791535], [79.00501567789833, 14.228653751513727], [78.99721839111555, 14.232032542265955], [78.99223008967647, 14.237156699453354], [78.99079654987936, 14.239555456362885], [78.99038863012439, 14.245751263013632], [78.99317967531512, 14.249563182555066], [78.99739832835668, 14.251665055076744], [79.00092607498631, 14.252039051924758], [79.00411287667934, 14.251032526752326], [79.00586616237956, 14.252424810491426], [79.00513577684976, 14.255173940399034], [79.00264295851748, 14.257563903200346], [78.99905738514431, 14.263733100702403], [78.99902698617873, 14.267176878312533], [79.00006805937583, 14.26925203890798], [79.00146529626399, 14.27098578167271], [79.00428106793318, 14.272042599776423], [79.0116933918154, 14.272448990868993], [79.01382112854483, 14.27143352431893], [79.01876771532741, 14.271130309138279], [79.02125153436899, 14.26977332436414], [79.02407642481337, 14.269796769907792], [79.02582998269546, 14.271188939339897], [79.02688932556411, 14.271197715839653], [79.02833174706018, 14.267765572686436], [79.03118055512901, 14.265033855373103], [79.03648311574739, 14.264388782242472], [79.03793130201197, 14.260267782843856], [79.04149798994612, 14.256164176429747], [79.04327237332186, 14.255145508451792], [79.04609415283944, 14.255513057622181], [79.04533453960721, 14.261706247619488], [79.04638494873102, 14.262748094983214], [79.04956290048491, 14.262774121196841], [79.05346481123111, 14.260739538324328], [79.05593653949781, 14.260759708421947], [79.05804041947148, 14.262498927467748], [79.06616191192799, 14.262564956688028], [79.06936921987536, 14.25914679413874], [79.07575725415101, 14.255409846132343], [79.0859971908813, 14.25549225398909], [79.08776850976065, 14.254817625093386], [79.0951807710503, 14.255221365722837], [79.10045714996902, 14.257674405815852], [79.10606375641865, 14.262885347292258], [79.10533449485989, 14.265634931888147], [79.10849535394645, 14.267726578708844], [79.11061698265705, 14.26739898746717], [79.11063994708319, 14.264643782191408], [79.11204669817542, 14.26534377739923], [79.12370265219765, 14.265091404190127], [79.12546258269573, 14.265794105399477], [79.12579577531052, 14.26820770828872], [79.12258621991397, 14.271971120953474], [79.12043026247466, 14.276431644066589], [79.11900625426028, 14.277798099472719], [79.11546335575895, 14.279147783555707], [79.11509301017666, 14.281211395155411], [79.11614385945322, 14.282252984531246], [79.11932507569796, 14.281933712625849], [79.12251485533375, 14.280581189312322], [79.12571885236791, 14.277506601925255], [79.12679252829656, 14.275792920190746], [79.12649634220475, 14.268902069904314], [79.12933561008326, 14.267202245105786], [79.13076800853194, 14.264802496974784], [79.13254215050118, 14.263783123175122], [79.13994931145191, 14.26487432941259], [79.14419531080962, 14.263874141686399], [79.14843284398519, 14.263907098256361], [79.15477234430136, 14.266022848397455], [79.16500765017379, 14.266790744670303], [79.17310203646402, 14.270297277276363], [79.17660575550353, 14.273768464275243], [79.17731205401012, 14.273773869921582], [79.17909717689271, 14.271376477738391], [79.18650498847312, 14.27246629185101], [79.18896602195525, 14.273862761107193], [79.19246731309816, 14.277678165270686], [79.19422761399122, 14.278380394749693], [79.19703095847639, 14.281157139449887], [79.19841621215633, 14.284612005768619], [79.20721548687278, 14.288467274626484], [79.21142640672845, 14.29194336014221], [79.21459691497091, 14.293000494489823], [79.21775931697306, 14.295090851715774], [79.22411134903467, 14.295827242215513], [79.228325386744, 14.29895865001585], [79.23255300646863, 14.300367879890317], [79.23359915804227, 14.302097870010906], [79.23781613901355, 14.304884712542334], [79.24096554247623, 14.308696925517788], [79.24374040530455, 14.315261896439713], [79.24401863600819, 14.324908401072197], [79.24078307445372, 14.332117769312523], [79.23968299753302, 14.337276264124943], [79.2361045889927, 14.343105211939728], [79.23572705655087, 14.346202386741625], [79.23643360439364, 14.34620764309222]], [[79.23924775606267, 14.302484210657553], [79.2360796518879, 14.30108295340427], [79.23503617186404, 14.299008548720055], [79.23328093569151, 14.297617742227164], [79.22869746768403, 14.296550323078309], [79.22412486847718, 14.294105133305141], [79.2202452002532, 14.293387256994768], [79.21849553136929, 14.291307514574099], [79.22097865733407, 14.289948327520182], [79.2217039680472, 14.287542656933242], [79.22382304602385, 14.287558481471722], [79.22451589600873, 14.289285862363998], [79.22767835800023, 14.291376092890715], [79.22977592011719, 14.29414725164082], [79.23751930953587, 14.297649188028748], [79.23925848480933, 14.301106513016158], [79.23924775606267, 14.302484210657553]], [[79.21356726675995, 14.289203921576638], [79.20935363064153, 14.286072294581176], [79.20618324862251, 14.285015103927615], [79.20443923979245, 14.282246442414237], [79.19669699224386, 14.27874354553093], [79.18968333334026, 14.272490466585493], [79.18475855711809, 14.270041938118464], [79.17558513037217, 14.268938566577564], [79.1632642950415, 14.264021853738372], [79.1590211307389, 14.264677980984365], [79.15443603447724, 14.26395365793573], [79.15091597853817, 14.262548653420495], [79.12760978701273, 14.262366720904263], [79.12583563947693, 14.263386056725036], [79.11595681495695, 14.262274901279662], [79.11524485124404, 14.262958121525859], [79.11312613246105, 14.26294135881673], [79.1096265221532, 14.259124972568799], [79.10503030544967, 14.259777330475792], [79.09977401260973, 14.254913588446458], [79.09061071620478, 14.25277387702895], [79.08778592573263, 14.25275124653497], [79.08672082235871, 14.253431543954257], [79.07683407136693, 14.253352026293669], [79.07222625667346, 14.255381327822926], [79.07044611350229, 14.257089013304647], [79.06584992534633, 14.25774060658317], [79.06405795952925, 14.260825801417573], [79.05876137652952, 14.260782728626197], [79.05594834879338, 14.259382149361612], [79.05241733101184, 14.259353330000634], [79.04822160756734, 14.254497242137909], [79.04469958631694, 14.253435155196884], [79.04080072494102, 14.255125214911702], [79.03508561672841, 14.262655214689707], [79.03119251848379, 14.263656317258144], [79.02585398391315, 14.268433873269359], [79.02055433676507, 14.268734311240948], [79.01842363761396, 14.2700942270832], [79.0134770741664, 14.270397438007869], [79.01170245813562, 14.271415850151113], [79.00393705854744, 14.271006505275468], [79.00182751527767, 14.269955609144901], [79.00043331896232, 14.267877490853161], [79.00011363797914, 14.264086369695715], [79.00298391730686, 14.258944376020976], [79.00619200478728, 14.255527178712933], [79.00692540476128, 14.252433664331965], [79.00412196332, 14.249999388966154], [79.00128825424017, 14.251008875052305], [78.99881671385735, 14.250988152418886], [78.99389191064576, 14.248880367740206], [78.99144478423383, 14.24610455819353], [78.99149352775086, 14.240594529476814], [78.99293011190917, 14.23785139121116], [78.99827449912554, 14.232385800608418], [79.0050066095005, 14.229686891707056], [79.01069150892233, 14.225601429054441], [79.01320792712816, 14.220456263419882], [79.01326507341415, 14.213913002803396], [79.01609526076598, 14.21324768719321], [79.01924248119025, 14.2167178619947], [79.0192244886985, 14.218784162259048], [79.0170912904675, 14.220488514120285], [79.01599913941672, 14.224267933005224], [79.01384781028419, 14.228038537405638], [79.0099371870864, 14.23110564707899], [79.00214289054347, 14.234140217236293], [79.00000639315726, 14.236188757720322], [78.99859114302367, 14.236521302313639], [78.99609849711231, 14.238911217958968], [78.99430583685944, 14.24199578995369], [78.9946315235665, 14.245098153895599], [78.99672865213381, 14.247526592454799], [79.00591457843511, 14.246914735934233], [79.00943322293135, 14.248321740460895], [79.01083043185048, 14.25005542367499], [79.01081231882875, 14.252121707609644], [79.0097409920085, 14.253490392736827], [79.00936675611631, 14.255898107671765], [79.00507519335035, 14.262061525136776], [79.00504488947395, 14.265505315921752], [79.00609510447627, 14.266547319056839], [79.00821372214145, 14.26656503716246], [79.01067335592053, 14.267963205154043], [79.01314509915171, 14.267983828980366], [79.0152788174578, 14.266279580534675], [79.01916597869746, 14.265967517162494], [79.02306515105407, 14.264277857672228], [79.02625807031616, 14.262582279812428], [79.0276854523621, 14.260872051959065], [79.03335893067076, 14.258163647664784], [79.03622245526127, 14.253709915607075], [79.03623437811949, 14.252332372000861], [79.03377172337743, 14.251278853195217], [79.03308644776479, 14.24886233374492], [79.03203317742012, 14.248164827864807], [79.03204512085934, 14.246787287097776], [79.03561463788162, 14.242339364802293], [79.03773306749581, 14.242356791585225], [79.03913345897674, 14.243745946175451], [79.04054575680246, 14.243757546422922], [79.04303212209552, 14.242055888779552], [79.0437204641762, 14.244128004179322], [79.04263154276924, 14.24756319300723], [79.04368188106436, 14.248605043491969], [79.04931641583893, 14.250373245749348], [79.05211746187894, 14.253151441683249], [79.0549362929011, 14.25386327458642], [79.05633096337604, 14.255941129314047], [79.05809055235859, 14.25664429381345], [79.06268672028517, 14.255992850160268], [79.06552619295734, 14.254293823569256], [79.0673122103547, 14.251897391734484], [79.07014574288301, 14.250887084523766], [79.0747593168163, 14.248169025465543], [79.07725135978282, 14.245778196225354], [79.07937570127201, 14.245106467667895], [79.08536653672891, 14.246532288480996], [79.08747346118275, 14.247926864931083], [79.09735715063776, 14.248350310788977], [79.10122966024325, 14.249758851026584], [79.10475775417378, 14.250131329152765], [79.109322207988, 14.253267360995189], [79.11249441445925, 14.253981334776226], [79.11565520334656, 14.256072876631308], [79.13296048959222, 14.255864568696516], [79.13436727559807, 14.25656443435885], [79.13754530426336, 14.256589277386283], [79.14250583656717, 14.254561394442417], [79.146746005049, 14.254249951847344], [79.14813877724434, 14.25667178198777], [79.15272649846332, 14.257051797249769], [79.15799810920667, 14.260192464343282], [79.16294743702841, 14.259541788271132], [79.1675324936727, 14.260265940304672], [79.16928422405267, 14.262001566773456], [79.1738610432119, 14.263758844505288], [79.17525417077718, 14.266180556085994], [79.17771228790538, 14.267921539752537], [79.18089884584566, 14.266912581074742], [79.18478338310413, 14.266942202334192], [79.1844440353034, 14.265217436641976], [79.18127132771406, 14.264504375070594], [79.17810971501065, 14.262413617718758], [79.17884363766446, 14.25897487299096], [79.18134037853501, 14.255894008534126], [79.18239974570453, 14.25590208526339], [79.18485506914185, 14.257987405311198], [79.1869352788306, 14.262825345502284], [79.18938521533632, 14.26559946361262], [79.19430721892292, 14.268392308675821], [79.19709949446285, 14.272546709595538], [79.19885429990151, 14.273937737359585], [79.19991376165382, 14.273945746213316], [79.20271167016487, 14.277411263181408], [79.2079927270963, 14.279517699460095], [79.21185034038025, 14.282991103140033], [79.21288266267796, 14.286443258812323], [79.21534403391016, 14.287839490591214], [79.21603681672744, 14.289566888736822], [79.21356726675995, 14.289203921576638]], [[79.02452856862836, 14.258435054669985], [79.02453456777465, 14.257746288023272], [79.02594394287374, 14.258102369491423], [79.02558485300109, 14.25878821280656], [79.02452856862836, 14.258435054669985]], [[79.05881737809008, 14.25423931059495], [79.05882621784582, 14.253206138979596], [79.06095655066302, 14.251845808626868], [79.06306922144879, 14.252551804690096], [79.062351271062, 14.253923633875107], [79.06093300461143, 14.254600936528192], [79.05881737809008, 14.25423931059495]], [[79.16551677428717, 14.247506409037303], [79.16517201974989, 14.246470458100939], [79.16588101137076, 14.246131475377023], [79.16729342811571, 14.246142327568236], [79.16869751079287, 14.247186409277989], [79.16833884631482, 14.247872523952326], [79.16551677428717, 14.247506409037303]], [[79.0772805251433, 14.242334250438969], [79.07694494374668, 14.240265038220109], [79.07840095407995, 14.235110487248326], [79.08301410452049, 14.23239221237592], [79.08442636859944, 14.232403544191364], [79.08512379435601, 14.23344239644641], [79.08510057294669, 14.236197567917097], [79.082594183065, 14.240310483524928], [79.07974917545268, 14.242698543668377], [79.0772805251433, 14.242334250438969]], [[79.07234618164124, 14.241261196630225], [79.07236664351426, 14.238850440758872], [79.0737877006566, 14.237828658465554], [79.07446756774506, 14.240933902138792], [79.07375557066572, 14.241616992392839], [79.07234618164124, 14.241261196630225]]], [[[79.25510654803503, 14.352890263449396], [79.25970994136863, 14.351546325343062], [79.2614896650091, 14.34983715287522], [79.26221482792532, 14.347431342705574], [79.259741864067, 14.347413203574709], [79.25510654803503, 14.352890263449396]]], [[[79.20672230680589, 14.39489485994883], [79.20993260711728, 14.3911303865597], [79.21205812745174, 14.39045759532091], [79.21348243868505, 14.38909061092463], [79.21456981736077, 14.38565444431672], [79.2202640419761, 14.380530777177613], [79.22948034417308, 14.376811081463131], [79.2305592761549, 14.374408065063465], [79.2323393966675, 14.372699160594934], [79.236231264672, 14.372039308654188], [79.23765531611706, 14.370672146359535], [79.23838621174576, 14.367577605046833], [79.2405276031208, 14.364837984712596], [79.24693268456436, 14.359029937760424], [79.25082697268638, 14.358025388420801], [79.25262284621357, 14.354249744977047], [79.25050043415182, 14.35457853070435], [79.24517962575464, 14.357294740325818], [79.24270657621693, 14.35727641124834], [79.23776587811132, 14.356550830671004], [79.23565962775766, 14.354812945199054], [79.23178158303818, 14.353750715088827], [79.22928692765969, 14.356487618760744], [79.22782497662944, 14.362676624978985], [79.22499316165573, 14.363344300603721], [79.22112865410342, 14.360559788943672], [79.22114498118233, 14.358493272817942], [79.22435718508046, 14.354384084742223], [79.22402019400508, 14.352314916929762], [79.22226194278383, 14.351268414783997], [79.21695731081145, 14.35191744814125], [79.21555510688928, 14.35052913898383], [79.21273709158157, 14.349474591761242], [79.21168546885197, 14.348433345138849], [79.21170460108124, 14.346022419608394], [79.21348732677266, 14.343969225280627], [79.21350370421118, 14.341902714898483], [79.21174012292826, 14.341544985116105], [79.20889761069178, 14.343590164878398], [79.20676158337521, 14.345640648755346], [79.20532657163517, 14.348385291475156], [79.20355197765566, 14.349405162036827], [79.20315749795715, 14.354568727312763], [79.20027895360883, 14.361091174468775], [79.19990087497024, 14.36418822727439], [79.19775628204981, 14.367271838506518], [79.19844909337878, 14.368999289770708], [79.20021285122202, 14.369357140292982], [79.20233542427961, 14.369028830275319], [79.20517558893182, 14.36732819380608], [79.2090646465381, 14.36701320372742], [79.2115240701427, 14.36875398273609], [79.21221699534262, 14.370481406293775], [79.21218962175234, 14.373925579339682], [79.21039565072776, 14.37735639745355], [79.20965061680222, 14.3821728847062], [79.20714711987387, 14.385942729312621], [79.20677179985842, 14.388695377272493], [79.2046215126982, 14.392467859118272], [79.20460499334767, 14.394534350621031], [79.20530617608439, 14.39522854798642], [79.20672230680589, 14.39489485994883]], [[79.2196582698342, 14.367781970472127], [79.21967734357821, 14.365371038355503], [79.22285977364234, 14.365050502174112], [79.22320219765881, 14.366430831429836], [79.22213140387377, 14.367800553329072], [79.2207154604997, 14.368134356743615], [79.2196582698342, 14.367781970472127]]]]}}, {"type": "Feature", "properties": {"depth_class": 3, "depth_lo_m": 2.0, "t_s": 17100.004285617688}, "geometry": {"type": "MultiPolygon", "coordinates": [[[[79.07975208789517, 14.24235414854167], [79.082594183065, 14.240310483524928], [79.08510057294669, 14.236197567917097], [79.08512379435601, 14.23344239644641], [79.08442636859944, 14.232403544191364], [79.08301410452049, 14.23239221237592], [79.07911291601458, 14.234427378454674], [79.07768315945009, 14.236482383125871], [79.07693327826831, 14.24164261662639], [79.07798377042418, 14.242684332988171], [79.07975208789517, 14.24235414854167]], [[79.07870741531428, 14.240623649194605], [79.07874528577771, 14.23614651369852], [79.08052227991415, 14.234783130430444], [79.0837086187022, 14.23377546413013], [79.08404426122186, 14.235844674428089], [79.08189384436416, 14.239616018894623], [79.08046989409638, 14.240982247835861], [79.07870741531428, 14.240623649194605]]], [[[79.07411156974005, 14.241275447603545], [79.07448216733049, 14.239211931507299], [79.07413785310305, 14.238175901017629], [79.07308155603067, 14.237822960032398], [79.07199602814937, 14.240913951278323], [79.07411156974005, 14.241275447603545]]], [[[79.1686947322258, 14.247530821879728], [79.16729342811571, 14.246142327568236], [79.16517201974989, 14.246470458100939], [79.1662202042559, 14.247856249880241], [79.1686947322258, 14.247530821879728]]], [[[79.2160395318108, 14.28922246831221], [79.21534403391016, 14.287839490591214], [79.21288266267796, 14.286443258812323], [79.21185034038025, 14.282991103140033], [79.2079927270963, 14.279517699460095], [79.20271167016487, 14.277411263181408], [79.19991376165382, 14.273945746213316], [79.19885429990151, 14.273937737359585], [79.19709949446285, 14.272546709595538], [79.19430721892292, 14.268392308675821], [79.18938521533632, 14.26559946361262], [79.1869352788306, 14.262825345502284], [79.18485506914185, 14.257987405311198], [79.18239974570453, 14.25590208526339], [79.18134037853501, 14.255894008534126], [79.17884363766446, 14.25897487299096], [79.17810971501065, 14.262413617718758], [79.18127132771406, 14.264504375070594], [79.1844440353034, 14.265217436641976], [79.18478338310413, 14.266942202334192], [79.18089884584566, 14.266912581074742], [79.17771228790538, 14.267921539752537], [79.17525417077718, 14.266180556085994], [79.1738610432119, 14.263758844505288], [79.16928422405267, 14.262001566773456], [79.1675324936727, 14.260265940304672], [79.16400681031493, 14.259549948722341], [79.15799810920667, 14.260192464343282], [79.15272649846332, 14.257051797249769], [79.14813877724434, 14.25667178198777], [79.146746005049, 14.254249951847344], [79.14250583656717, 14.254561394442417], [79.13754530426336, 14.256589277386283], [79.13436727559807, 14.25656443435885], [79.13296048959222, 14.255864568696516], [79.11565520334656, 14.256072876631308], [79.11249441445925, 14.253981334776226], [79.109322207988, 14.253267360995189], [79.10475775417378, 14.250131329152765], [79.10122966024325, 14.249758851026584], [79.09735715063776, 14.248350310788977], [79.08747346118275, 14.247926864931083], [79.08536653672891, 14.246532288480996], [79.07937570127201, 14.245106467667895], [79.07725135978282, 14.245778196225354], [79.0747593168163, 14.248169025465543], [79.07014574288301, 14.250887084523766], [79.0673122103547, 14.251897391734484], [79.06552619295734, 14.254293823569256], [79.06268672028517, 14.255992850160268], [79.05809055235859, 14.25664429381345], [79.05633096337604, 14.255941129314047], [79.0549362929011, 14.25386327458642], [79.05211746187894, 14.253151441683249], [79.04931641583893, 14.250373245749348], [79.04368188106436, 14.248605043491969], [79.04263154276924, 14.24756319300723], [79.0437204641762, 14.244128004179322], [79.04303212209552, 14.242055888779552], [79.04054575680246, 14.243757546422922], [79.03913345897674, 14.243745946175451], [79.03773306749581, 14.242356791585225], [79.03561463788162, 14.242339364802293], [79.03204512085934, 14.246787287097776], [79.03203317742012, 14.248164827864807], [79.03308644776479, 14.24886233374492], [79.03377172337743, 14.251278853195217], [79.03623437811949, 14.252332372000861], [79.03622245526127, 14.253709915607075], [79.03335893067076, 14.258163647664784], [79.0276854523621, 14.260872051959065], [79.02625807031616, 14.262582279812428], [79.02306515105407, 14.264277857672228], [79.01916597869746, 14.265967517162494], [79.0152788174578, 14.266279580534675], [79.01314509915171, 14.267983828980366], [79.01067335592053, 14.267963205154043], [79.00821372214145, 14.26656503716246], [79.00609510447627, 14.266547319056839], [79.00504488947395, 14.265505315921752], [79.00507519335035, 14.262061525136776], [79.00936675611631, 14.255898107671765], [79.0097409920085, 14.253490392736827], [79.01081231882875, 14.252121707609644], [79.01083043185048, 14.25005542367499], [79.00943322293135, 14.248321740460895], [79.00591457843511, 14.246914735934233], [78.99672865213381, 14.247526592454799], [78.9946315235665, 14.245098153895599], [78.99430583685944, 14.24199578995369], [78.99609849711231, 14.238911217958968], [78.99859114302367, 14.236521302313639], [79.00000639315726, 14.236188757720322], [79.00214289054347, 14.234140217236293], [79.0099371870864, 14.23110564707899], [79.01384781028419, 14.228038537405638], [79.01599913941672, 14.224267933005224], [79.0170912904675, 14.220488514120285], [79.0192244886985, 14.218784162259048], [79.01924248119025, 14.2167178619947], [79.01609526076598, 14.21324768719321], [79.01326507341415, 14.213913002803396], [79.01320792712816, 14.220456263419882], [79.01069150892233, 14.225601429054441], [79.0050066095005, 14.229686891707056], [78.99827449912554, 14.232385800608418], [78.99293011190917, 14.23785139121116], [78.99149352775086, 14.240594529476814], [78.99144478423383, 14.24610455819353], [78.99389191064576, 14.248880367740206], [78.99881671385735, 14.250988152418886], [79.00128825424017, 14.251008875052305], [79.00412196332, 14.249999388966154], [79.00692540476128, 14.252433664331965], [79.00619200478728, 14.255527178712933], [79.00298391730686, 14.258944376020976], [79.00011363797914, 14.264086369695715], [79.00043331896232, 14.267877490853161], [79.00182751527767, 14.269955609144901], [79.00393705854744, 14.271006505275468], [79.01170245813562, 14.271415850151113], [79.0134770741664, 14.270397438007869], [79.01842363761396, 14.2700942270832], [79.02055433676507, 14.268734311240948], [79.02585398391315, 14.268433873269359], [79.03119251848379, 14.263656317258144], [79.03508561672841, 14.262655214689707], [79.04080072494102, 14.255125214911702], [79.04469958631694, 14.253435155196884], [79.04822160756734, 14.254497242137909], [79.05241733101184, 14.259353330000634], [79.05594834879338, 14.259382149361612], [79.05876137652952, 14.260782728626197], [79.06405795952925, 14.260825801417573], [79.06584992534633, 14.25774060658317], [79.07044611350229, 14.257089013304647], [79.07222625667346, 14.255381327822926], [79.07683407136693, 14.253352026293669], [79.08672082235871, 14.253431543954257], [79.08778592573263, 14.25275124653497], [79.09061071620478, 14.25277387702895], [79.09977401260973, 14.254913588446458], [79.10503030544967, 14.259777330475792], [79.1096265221532, 14.259124972568799], [79.11312613246105, 14.26294135881673], [79.11524485124404, 14.262958121525859], [79.11595681495695, 14.262274901279662], [79.12336378140765, 14.26336660762289], [79.12583563947693, 14.263386056725036], [79.12760978701273, 14.262366720904263], [79.15091597853817, 14.262548653420495], [79.15443603447724, 14.26395365793573], [79.1590211307389, 14.264677980984365], [79.1632642950415, 14.264021853738372], [79.17558513037217, 14.268938566577564], [79.18475855711809, 14.270041938118464], [79.18968333334026, 14.272490466585493], [79.19669699224386, 14.27874354553093], [79.20443923979245, 14.282246442414237], [79.20618324862251, 14.285015103927615], [79.20935363064153, 14.286072294581176], [79.21427091007358, 14.289553643353841], [79.2160395318108, 14.28922246831221]], [[79.19251128122691, 14.272167503227276], [79.19217461788122, 14.27009832493487], [79.19323405777443, 14.270106361374433], [79.19427428641791, 14.272525310876325], [79.19251128122691, 14.272167503227276]], [[79.002892906859, 14.269275734681296], [79.00150477618604, 14.266508865308712], [79.00187609154881, 14.264445556284093], [79.00293538746617, 14.264454435156187], [79.00362338754404, 14.266526624163303], [79.0067831384493, 14.268619503183102], [79.00606783635494, 14.269646731580117], [79.002892906859, 14.269275734681296]], [[79.02516876867068, 14.266017338496356], [79.02802058030719, 14.262941276818951], [79.02943598127693, 14.262608573974157], [79.0265841913659, 14.265684655694134], [79.02516876867068, 14.266017338496356]], [[79.03050126923033, 14.261928560402566], [79.03192861790197, 14.260218302385196], [79.03440627853762, 14.259549924319309], [79.03333205172673, 14.261263113660924], [79.03050126923033, 14.261928560402566]], [[79.00868778793584, 14.252792790458798], [79.00764063831369, 14.251406424395967], [79.00378403229494, 14.248274538403258], [79.00625857575912, 14.24795082595641], [79.00907108494854, 14.24935193530689], [79.00977119804038, 14.250046588612529], [79.00975609603249, 14.251768490806553], [79.00868778793584, 14.252792790458798]], [[79.04011239080398, 14.25305309201834], [79.04120435874918, 14.249273537400754], [79.04261966287983, 14.248940742459084], [79.04789814443492, 14.25105046890243], [79.04930161343454, 14.252095189028521], [79.0492927310434, 14.253128354869718], [79.04718011433063, 14.25242224149212], [79.04011239080398, 14.25305309201834]], [[79.03624033907114, 14.25164360013454], [79.03627013905526, 14.248199740170985], [79.03698225734487, 14.247516779172535], [79.03909776179385, 14.247878586662083], [79.03943001765317, 14.250292195143748], [79.03729661848928, 14.25199670482209], [79.03624033907114, 14.25164360013454]], [[79.07649557182071, 14.251627207918013], [79.07651016744747, 14.249905236765242], [79.0793319891047, 14.250272391132636], [79.07861122351639, 14.251988677482684], [79.07649557182071, 14.251627207918013]], [[79.00024723001994, 14.248933726296602], [79.00095641152883, 14.248595265944735], [79.00307485492044, 14.248613007857337], [79.00024116105784, 14.249622483258172], [79.00024723001994, 14.248933726296602]], [[78.99391017334929, 14.246814104655986], [78.99250703323592, 14.245769095247649], [78.99253443885891, 14.24266970231348], [78.99392234685942, 14.245436595722035], [78.99391017334929, 14.246814104655986]], [[79.0401778178123, 14.24547658195861], [79.04159309818841, 14.245143790172008], [79.04158715630386, 14.245832564628984], [79.04017187149064, 14.246165355810984], [79.0401778178123, 14.24547658195861]], [[79.03558782080233, 14.2454388391118], [79.03631184566606, 14.24337833445277], [79.03737106540459, 14.243387047719759], [79.03877145989149, 14.24477620485433], [79.03876253434896, 14.245809364804327], [79.03558782080233, 14.2454388391118]], [[78.99290576506499, 14.24060640897475], [78.99361796927082, 14.239923590918773], [78.99289358969148, 14.241983917603283], [78.99290576506499, 14.24060640897475]], [[78.99682890893928, 14.23616211969298], [78.99826539761062, 14.233418936213248], [79.00251410683971, 14.232076894298972], [79.01103852308543, 14.226293131145622], [79.01427604548148, 14.219431918487565], [79.01396811256791, 14.214263250823475], [79.01573623253837, 14.213933523435053], [79.01713331889579, 14.215667153181561], [79.01746233488919, 14.218425145142554], [79.0160321904105, 14.22047972472288], [79.01529306137019, 14.224262069178334], [79.01350078506859, 14.227346838033098], [79.01100838870444, 14.229736944765895], [79.00498242355079, 14.232441931758908], [79.0017989251113, 14.233104125339095], [78.99859721117222, 14.235832545295079], [78.99682890893928, 14.23616211969298]]], [[[79.02594094540176, 14.258446753103618], [79.02559384702292, 14.257755062190501], [79.02453456777465, 14.257746288023272], [79.02487866354375, 14.258782363442682], [79.02594094540176, 14.258446753103618]]], [[[79.23924775606267, 14.302484210657553], [79.23681828321679, 14.296955104126987], [79.22977592011719, 14.29414725164082], [79.22311939032447, 14.287208786905948], [79.2217039680472, 14.287542656933242], [79.22097865733407, 14.289948327520182], [79.21849553136929, 14.291307514574099], [79.2202452002532, 14.293387256994768], [79.22412486847718, 14.294105133305141], [79.22869746768403, 14.296550323078309], [79.23328093569151, 14.297617742227164], [79.23503617186404, 14.299008548720055], [79.2360796518879, 14.30108295340427], [79.23924775606267, 14.302484210657553]]]]}}, {"type": "Feature", "properties": {"depth_class": 4, "depth_lo_m": 3.0, "t_s": 17100.004285617688}, "geometry": {"type": "MultiPolygon", "coordinates": [[[[78.99859721117222, 14.235832545295079], [79.0017989251113, 14.233104125339095], [79.00498242355079, 14.232441931758908], [79.01100838870444, 14.229736944765895], [79.01350078506859, 14.227346838033098], [79.01529306137019, 14.224262069178334], [79.0160321904105, 14.22047972472288], [79.01746233488919, 14.218425145142554], [79.01713331889579, 14.215667153181561], [79.01573623253837, 14.213933523435053], [79.01396811256791, 14.214263250823475], [79.01427604548148, 14.219431918487565], [79.01103852308543, 14.226293131145622], [79.00251410683971, 14.232076894298972], [78.99826539761062, 14.233418936213248], [78.99683801881216, 14.23512898523585], [78.99682890893928, 14.23616211969298], [78.99859721117222, 14.235832545295079]]], [[[78.99361796927082, 14.239923590918773], [78.99290576506499, 14.24060640897475], [78.99289358969148, 14.241983917603283], [78.99324665136155, 14.241986886473097], [78.99361796927082, 14.239923590918773]]], [[[78.99391017334929, 14.246814104655986], [78.99253443885891, 14.24266970231348], [78.99250703323592, 14.245769095247649], [78.99320403479418, 14.246808166389153], [78.99391017334929, 14.246814104655986]]], [[[79.00024116105784, 14.249622483258172], [79.00307485492044, 14.248613007857337], [79.00095641152883, 14.248595265944735], [79.00024116105784, 14.249622483258172]]], [[[79.00939697314448, 14.252454305027138], [79.00977119804038, 14.250046588612529], [79.00872103000735, 14.249004608077948], [79.00625857575912, 14.24795082595641], [79.00378403229494, 14.248274538403258], [79.00659047591147, 14.250364435040465], [79.00833470612247, 14.2527898422358], [79.00939697314448, 14.252454305027138]]], [[[79.02516876867068, 14.266017338496356], [79.02942999488288, 14.26329734238259], [79.02943598127693, 14.262608573974157], [79.02588997613805, 14.2643012728974], [79.02516876867068, 14.266017338496356]]], [[[79.00677708060557, 14.269308261765715], [79.0067831384493, 14.268619503183102], [79.00362338754404, 14.266526624163303], [79.00293538746617, 14.264454435156187], [79.00187609154881, 14.264445556284093], [79.00150477618604, 14.266508865308712], [79.002892906859, 14.269275734681296], [79.00677708060557, 14.269308261765715]]], [[[79.08046989409638, 14.240982247835861], [79.08368247433025, 14.2368750293254], [79.0837086187022, 14.23377546413013], [79.08052227991415, 14.234783130430444], [79.07874528577771, 14.23614651369852], [79.0783572517087, 14.240276412062595], [79.07905757998914, 14.240970885937665], [79.08046989409638, 14.240982247835861]]], [[[79.03876253434896, 14.245809364804327], [79.03737106540459, 14.243387047719759], [79.03631184566606, 14.24337833445277], [79.03558782080233, 14.2454388391118], [79.03876253434896, 14.245809364804327]]], [[[79.04159309818841, 14.245143790172008], [79.0401778178123, 14.24547658195861], [79.04017187149064, 14.246165355810984], [79.04123110668553, 14.246174053616539], [79.04159309818841, 14.245143790172008]]], [[[79.04011239080398, 14.25305309201834], [79.04718011433063, 14.25242224149212], [79.0492927310434, 14.253128354869718], [79.04930161343454, 14.252095189028521], [79.04789814443492, 14.25105046890243], [79.04156041389562, 14.248932049164264], [79.04011239080398, 14.25305309201834]]], [[[79.03050126923033, 14.261928560402566], [79.03333205172673, 14.261263113660924], [79.03440627853762, 14.259549924319309], [79.03192861790197, 14.260218302385196], [79.03050126923033, 14.261928560402566]]], [[[79.19393486157995, 14.270800549952492], [79.19217461788122, 14.27009832493487], [79.19216087937414, 14.271820407088114], [79.19427428641791, 14.272525310876325], [79.19393486157995, 14.270800549952492]]]]}}]}