{"type": "FeatureCollection", "features": [{"type": "Feature", "properties": {"depth_class": 1, "depth_lo_m": 0.3, "t_s": 84600.65281410964}, "geometry": {"type": "MultiPolygon", "coordinates": [[[[79.01424296778274, 14.223220123053174], [79.01602618186206, 14.221168489959858], [79.01813838663901, 14.221874831035088], [79.02096866992005, 14.221209469120577], [79.02168672354301, 14.21983777971867], [79.02171966913033, 14.216049556950844], [79.02067556682104, 14.2143188719775], [79.01926646668736, 14.213962794386443], [79.0178693710617, 14.212229176129327], [79.0139921575822, 14.211508191486345], [79.01150297172912, 14.213553947723556], [79.01148190310485, 14.215964620613429], [79.01217892634699, 14.21700363815606], [79.01144276519125, 14.220441583183506], [79.01283382962676, 14.222864001902288], [79.01424296778274, 14.223220123053174]], [[79.01815339219868, 14.220152915754356], [79.01641525626744, 14.217038827487833], [79.01324101536012, 14.216668060368143], [79.01254398765876, 14.215629045399083], [79.01291806577964, 14.213221304854397], [79.01610126561869, 14.2125589214722], [79.01819839683871, 14.214987168333762], [79.02030755945819, 14.21603786761961], [79.02063361758911, 14.21914024383072], [79.01991855910141, 14.220167546157368], [79.01815339219868, 14.220152915754356]]], [[[79.16062073082857, 14.241613360551185], [79.16141333288863, 14.230942045023951], [79.16388767401897, 14.23061664514664], [79.16425188065335, 14.229241710064466], [79.16320934656169, 14.227167095131888], [79.16109368959671, 14.226806387010601], [79.15898919719153, 14.225068015579426], [79.15722384841197, 14.225054407334662], [79.15543614648841, 14.227796071131706], [79.15331770701934, 14.227779705115275], [79.15189701514774, 14.228802013680765], [79.15187180994066, 14.23190170211306], [79.15291425045393, 14.233976355919092], [79.15572493499282, 14.235720239400475], [79.15708977487797, 14.241586124182863], [79.15814347395816, 14.242283121995076], [79.15990895746806, 14.242296739560603], [79.16062073082857, 14.241613360551185]], [[79.15890271052439, 14.235744762761133], [79.156100381072, 14.232967682060588], [79.1561087649173, 14.231934450296858], [79.1582244551067, 14.232295207249601], [79.15890271052439, 14.235744762761133]]], [[[79.08222365445923, 14.242374021086396], [79.08616269126503, 14.23586166391974], [79.08618589922843, 14.233106490654498], [79.08513830521576, 14.231720413936236], [79.08160765648091, 14.231692080612673], [79.07699159319492, 14.234754722914893], [79.07591197079478, 14.23715695226768], [79.07450552261072, 14.236456777950805], [79.07203110878068, 14.236781227347615], [79.07130157375234, 14.239530672437589], [79.07234910500024, 14.240916802965831], [79.07411156974005, 14.241275447603545], [79.07588571359318, 14.240256502362405], [79.07693036170394, 14.241987011201704], [79.07868701807759, 14.243034413726718], [79.08115859049458, 14.243054298225754], [79.08222365445923, 14.242374021086396]], [[79.07800708917237, 14.239929174541674], [79.07804205795068, 14.23579643561188], [79.08230215997636, 14.233075335192929], [79.0840674948359, 14.23308950458502], [79.08476782352267, 14.233783961502166], [79.0847533076638, 14.235505943341071], [79.08224110502438, 14.240307647104727], [79.08082006229033, 14.241329482389697], [79.07870158792157, 14.241312439113432], [79.07800708917237, 14.239929174541674]]], [[[79.11821835883717, 14.245071512487145], [79.12036827828598, 14.241299773694987], [79.1203882306469, 14.238888950273804], [79.11899871194554, 14.236122600929617], [79.11653001572947, 14.235758714744671], [79.1143801013723, 14.239530419205416], [79.11400413678402, 14.242282846396957], [79.11680598822896, 14.245060370735448], [79.11821835883717, 14.245071512487145]]], [[[79.16938705731988, 14.249258304748714], [79.17010993633328, 14.247197245588358], [79.16906450611407, 14.245467055631995], [79.166601126252, 14.244414841240927], [79.16306732832118, 14.244732099680535], [79.16305060756646, 14.246798569016825], [79.16514696315588, 14.24957016518527], [79.16796905929223, 14.249936287421468], [79.16938705731988, 14.249258304748714]]], [[[79.03554013007644, 14.250949013555928], [79.03698821392922, 14.246828006718907], [79.03875658358997, 14.24649813805168], [79.03947166355192, 14.245470781105054], [79.03878930883116, 14.24270988467011], [79.03738594882373, 14.241665115509615], [79.03561761715916, 14.24199497871526], [79.03418744478843, 14.24404966533019], [79.03170398768316, 14.245406833998175], [79.03027674584823, 14.24711710443601], [79.03026180257916, 14.248839028483157], [79.03341565390926, 14.251620327758394], [79.03554013007644, 14.250949013555928]], [[79.03381349243577, 14.24645745597372], [79.03486676209809, 14.24715495376699], [79.03450175466527, 14.248529588185537], [79.0330924167534, 14.248173562985087], [79.03310435377429, 14.246796021339028], [79.03381349243577, 14.24645745597372]]], [[[79.14888435209784, 14.251855545913502], [79.15101704145654, 14.250149933078053], [79.15067796568138, 14.24842515076216], [79.14820623550241, 14.248405978891922], [79.14749159442616, 14.24943372182049], [79.1478306459271, 14.251158505782573], [79.14888435209784, 14.251855545913502]]], [[[79.15838479078947, 14.256062268996695], [79.15911338385736, 14.253312437782343], [79.15806243004766, 14.252271027947508], [79.15523753619165, 14.252249196791407], [79.15169520366683, 14.25359949742433], [79.15168398053454, 14.254977133819937], [79.1534383426815, 14.256368448666375], [79.15696672300872, 14.25674017679889], [79.15838479078947, 14.256062268996695]]], [[[79.14706535962434, 14.258385593195094], [79.14672631026917, 14.25666080852921], [79.14567259149406, 14.255963757223753], [79.14178268532561, 14.256622335625408], [79.14212733827675, 14.257658308524725], [79.14459070861554, 14.258710778365167], [79.14635349150497, 14.25906891954465], [79.14706535962434, 14.258385593195094]]], [[[79.02804154572235, 14.260530589186269], [79.0284185952044, 14.257778436996752], [79.02702119820533, 14.256044834396468], [79.02455556226504, 14.255335604427632], [79.02207192835726, 14.256692648188968], [79.0220509053966, 14.259103327882938], [79.02345127789235, 14.260492573724974], [79.0252107656334, 14.261195972272752], [79.02804154572235, 14.260530589186269]], [[79.02383138253299, 14.257396052775857], [79.02559984263743, 14.257066295060401], [79.02664413778716, 14.25879698293623], [79.02487266498778, 14.259471130173212], [79.02381937995807, 14.258773585480736], [79.02383138253299, 14.257396052775857]]], [[[79.15517031510254, 14.26051503016021], [79.15375781857158, 14.2605040954555], [79.15409972846332, 14.261884467399216], [79.15551503536479, 14.261550991483684], [79.15517031510254, 14.26051503016021]]], [[[79.04956882551404, 14.262085344424321], [79.04994266195278, 14.259677513925018], [79.04924534627528, 14.258638571089168], [79.04783887698481, 14.257938234206215], [79.04571732170355, 14.258265266255668], [79.04499925057591, 14.2596370268955], [79.04532860188453, 14.262395022668189], [79.04850358252169, 14.262765450493285], [79.04956882551404, 14.262085344424321]]], [[[79.08311707004823, 14.262013076241544], [79.08349346713261, 14.259260752706338], [79.08279307445079, 14.258566284081496], [79.07996530927423, 14.258887946705295], [79.07854121259146, 14.260254145413967], [79.0785324580722, 14.261287328479622], [79.08063945771873, 14.262681975628587], [79.08311707004823, 14.262013076241544]]], [[[79.16150701750679, 14.262975008472639], [79.16152097986257, 14.26125295454551], [79.15975534730913, 14.261239331187477], [79.15868757862737, 14.262264381647123], [79.15867918791109, 14.263297612296226], [79.15938265070551, 14.263647477496272], [79.16150701750679, 14.262975008472639]]], [[[79.12430056920495, 14.278184285909846], [79.12679252829656, 14.275792920190746], [79.1268210048519, 14.272348883784531], [79.12612327569242, 14.271310118309394], [79.12435760040856, 14.271296223289696], [79.1236456269315, 14.271979467794093], [79.12183711982674, 14.277131593484134], [79.12217598581242, 14.278856391441359], [79.12430056920495, 14.278184285909846]]], [[[79.10415986245036, 14.279402474961445], [79.10381825341616, 14.27802206717275], [79.1024056894136, 14.278010814823002], [79.10238837462667, 14.28007720665401], [79.10415986245036, 14.279402474961445]]], [[[79.16325019523511, 14.395938763805482], [79.16469732128584, 14.391816852267345], [79.16435524757058, 14.390436478596232], [79.16224372503379, 14.389386787904952], [79.16117528625266, 14.390411767968924], [79.16113581035978, 14.395233465036565], [79.16182838638849, 14.396960996747023], [79.16325019523511, 14.395938763805482]]], [[[79.18165208391959, 14.261062923021193], [79.17988919723614, 14.260705034521987], [79.17952777299566, 14.26173558107049], [79.18164379854345, 14.26209616708329], [79.18165208391959, 14.261062923021193]]], [[[79.25403738511234, 14.262637401367703], [79.25261948988177, 14.263315906768009], [79.25260621715833, 14.265038046618047], [79.25436401293896, 14.266084270614549], [79.25403738511234, 14.262637401367703]]], [[[79.1682081412959, 14.264059900741954], [79.16784944231263, 14.264746010390423], [79.16855570924658, 14.26475143863424], [79.1682081412959, 14.264059900741954]]], [[[79.18300387836952, 14.268650819814555], [79.18053741257908, 14.26794312801625], [79.17982283313066, 14.268970976504804], [79.18299835590358, 14.269339649281136], [79.18300387836952, 14.268650819814555]]], [[[79.25076337225542, 14.275013490867938], [79.24865503090635, 14.27362021173241], [79.2468865522415, 14.273951649162978], [79.24616689427684, 14.27566858205652], [79.24650939521348, 14.27704888834821], [79.24791407424306, 14.278092565610024], [79.25073943426607, 14.278113336291186], [79.25076337225542, 14.275013490867938]]], [[[79.28212744890516, 14.284197510851772], [79.28037721753341, 14.282118165452715], [79.2786113079278, 14.282105403906657], [79.27439150476228, 14.279663702458864], [79.2680474969544, 14.277895395722918], [79.26594691596534, 14.275468964637811], [79.26065467728176, 14.274741479072274], [79.25715480349359, 14.270582520741176], [79.25539961125939, 14.269191883943249], [79.2546906444782, 14.26953113959711], [79.2550225847878, 14.27228915197494], [79.25712831110091, 14.274026806441691], [79.25782139800924, 14.275754116597865], [79.26028034889656, 14.277494332176964], [79.26131606496638, 14.280601932089462], [79.26308194666336, 14.280614820554575], [79.26379358117734, 14.279931113155232], [79.2638067833007, 14.278208965166383], [79.26522211353584, 14.277874830636366], [79.26627108553447, 14.279260266730368], [79.26944703149341, 14.27962781891595], [79.27542218121347, 14.283460126614406], [79.27930196582497, 14.284177103957763], [79.28035367247766, 14.285218057835943], [79.28211960797627, 14.28523080917934], [79.28212744890516, 14.284197510851772]]], [[[79.1965844932961, 14.29286463658808], [79.19730457979843, 14.291147906003298], [79.19590009693927, 14.290103948688941], [79.1944818876002, 14.290782066147592], [79.19482132783448, 14.292506827563852], [79.1965844932961, 14.29286463658808]]], [[[79.18594208401116, 14.298639130953813], [79.18489633572469, 14.296908974996596], [79.18418443181397, 14.297592411589477], [79.18452656044182, 14.298972764562219], [79.18594208401116, 14.298639130953813]]], [[[79.20564702015032, 14.308088466365437], [79.2077853899202, 14.305693527769156], [79.20852455270658, 14.301565829507346], [79.20995370784686, 14.299509955985721], [79.20960869236679, 14.298474040321588], [79.20535943451718, 14.299819768008575], [79.2025119693023, 14.30255376764399], [79.20211767958072, 14.307717357303872], [79.20352229512936, 14.308761292594468], [79.20564702015032, 14.308088466365437]], [[79.20390834838412, 14.304630950618026], [79.20462296006193, 14.303603033067423], [79.20568256402228, 14.303611032496708], [79.20566889475792, 14.305333122655647], [79.20495701630533, 14.306016625281313], [79.20390834838412, 14.304630950618026]]], [[[79.22437258021466, 14.307540214776626], [79.2229678601415, 14.30649639236486], [79.22014218822407, 14.306475251272829], [79.22083776063567, 14.307858222950758], [79.22294619452185, 14.309251761895885], [79.22471496908393, 14.308920539202616], [79.22437258021466, 14.307540214776626]]], [[[79.26072720152935, 14.311253495464369], [79.26214804485217, 14.310230547289763], [79.26215864008213, 14.30885283362684], [79.25970201220284, 14.306768173522379], [79.2575827132906, 14.306752647965006], [79.25544746490188, 14.308803666948748], [79.25508360761555, 14.310178782459415], [79.25613529681029, 14.311219842386146], [79.26072720152935, 14.311253495464369]]], [[[79.27936682633405, 14.322067151341288], [79.28328394142262, 14.317962090326239], [79.28436982008319, 14.314525424091007], [79.28443519595284, 14.30591461278796], [79.28586635887082, 14.303513774991094], [79.28588985980487, 14.300413878369925], [79.28519388395554, 14.299031053707871], [79.28377581915312, 14.299709727606846], [79.28197312887683, 14.304519027413525], [79.28191028522419, 14.312785396647444], [79.28012577901757, 14.315183640681555], [79.27764263938377, 14.316543452030727], [79.27692302986877, 14.318260483263598], [79.27689411796324, 14.322049222113243], [79.27936682633405, 14.322067151341288]]], [[[79.2656009352598, 14.32058921759288], [79.26562474354697, 14.317489358616273], [79.26422504096193, 14.315756895028189], [79.26245888386103, 14.315743984041505], [79.26174446935318, 14.316772100416568], [79.26242443390309, 14.320221550960511], [79.26382944219844, 14.321265169362539], [79.2656009352598, 14.32058921759288]]], [[[79.23171185464673, 14.317583768970971], [79.23134783658851, 14.31895882901564], [79.23275806314423, 14.319313768838931], [79.23312476835999, 14.317594282942515], [79.23171185464673, 14.317583768970971]]], [[[79.09274287509906, 14.50111588740989], [79.09561199130998, 14.49631737121281], [79.09809518587507, 14.495304248666374], [79.10021314150838, 14.495665805917056], [79.10199228290544, 14.494302526972632], [79.1030820232775, 14.490867168156472], [79.10593030315161, 14.488479231586608], [79.10915242380028, 14.483683338906893], [79.11021573709763, 14.483347473106296], [79.11235983465797, 14.480609357402063], [79.11555552733894, 14.478912902586513], [79.11806458350178, 14.474799968920896], [79.12126884636734, 14.472070230098037], [79.12736122236892, 14.462130601581709], [79.12948471624249, 14.461803066204965], [79.13370005271464, 14.464936330409149], [79.1358264450948, 14.46426434006052], [79.13585804720489, 14.460475940498586], [79.1309416541643, 14.456648311325818], [79.1306199006251, 14.452857114676906], [79.12957404015873, 14.45112670067633], [79.1299447350317, 14.449063112223088], [79.13385241397876, 14.446683143936193], [79.13705893151344, 14.443608711491358], [79.13849834464564, 14.440520273954746], [79.1431382975251, 14.435046083036683], [79.14988696681843, 14.430966028558991], [79.15520484864294, 14.428941128085839], [79.15732234605055, 14.429302108501687], [79.1569462857565, 14.432054587337548], [79.15373735331566, 14.435473749969713], [79.15372031298904, 14.437540175275261], [79.1551197279014, 14.439273265089684], [79.16889974147334, 14.439725151352329], [79.17067522566006, 14.438705650587046], [79.17385588862842, 14.43873031412698], [79.18054824502016, 14.441537515256059], [79.18300536091247, 14.44362306000335], [79.18404884144195, 14.445697692279094], [79.18437151519468, 14.449488924057343], [79.18717938843753, 14.451921572839362], [79.18855963229363, 14.456065375707631], [79.19137041766903, 14.458153577317473], [79.1924140316941, 14.460228187023688], [79.19239731837472, 14.462294652755553], [79.19132861154779, 14.463319738852764], [79.19131746045376, 14.46469738152662], [79.19448183008463, 14.466788276844724], [79.19516369730891, 14.469893401753263], [79.19475455027933, 14.47677891082548], [79.19613782115674, 14.48057828398856], [79.19611833361111, 14.482989161447524], [79.1943258409247, 14.48607528687547], [79.19359097829637, 14.489513957889754], [79.19002531895603, 14.49327525976604], [79.18718614638932, 14.494631088409514], [79.18540183584517, 14.496683891860496], [79.18468080961541, 14.498400470135193], [79.1850202905567, 14.500125244820051], [79.19880432258647, 14.50057582251586], [79.2002100189583, 14.501619899791999], [79.20162406754335, 14.50163073553384], [79.20304644869836, 14.500608327327088], [79.22320218280754, 14.50007284851636], [79.22709632060982, 14.49941340980037], [79.22887483707981, 14.49804908181732], [79.22998459102361, 14.491857570922184], [79.234675513604, 14.479837513585032], [79.23614115393104, 14.473304169987507], [79.2362091449782, 14.46469369546727], [79.23552941892264, 14.46124420566351], [79.23205207344617, 14.45398489378978], [79.23065192822774, 14.452252183400658], [79.22888745795241, 14.451894482109312], [79.22674497775166, 14.454633866664683], [79.22248724134221, 14.456668390185635], [79.21576355026136, 14.457650842270237], [79.21363187006962, 14.459012421257057], [79.21221808205702, 14.459001688733004], [79.20905361883575, 14.4569110242712], [79.19986690019768, 14.456496530070373], [79.19671649223838, 14.452683656505906], [79.19638527795965, 14.449925653921039], [79.19464036828099, 14.447156821828326], [79.19466260016951, 14.444401527146283], [79.19714209422966, 14.443731644513134], [79.19821344583521, 14.442362103836881], [79.19752325240412, 14.440290223379682], [79.19435086010793, 14.439232640673543], [79.19081674222846, 14.439205540360456], [79.18835122585486, 14.438153306135527], [79.18413825276417, 14.434676572915262], [79.1827497943598, 14.431565991935932], [79.17992821186039, 14.430855369247846], [79.17993660739613, 14.429822140842488], [79.18387699400755, 14.423308312350244], [79.18708253419435, 14.420233072502272], [79.19132310868808, 14.42026561184767], [79.19239158569096, 14.419240498307849], [79.19242212969196, 14.415451963717706], [79.1999038167262, 14.407931567320608], [79.20202952144164, 14.407258889167432], [79.2044892843722, 14.408999780521484], [79.20731897061992, 14.408676841729644], [79.20769434730816, 14.405924200406961], [79.20594130446563, 14.40418871136191], [79.2059550701537, 14.402466635273264], [79.20987220834371, 14.398707543186212], [79.21238405595884, 14.393904434658308], [79.21593665216254, 14.391520207696006], [79.21845373995309, 14.38602817154469], [79.22129131079639, 14.384671773216287], [79.22307702965408, 14.38227411923166], [79.23158401676557, 14.378893457710731], [79.23302708570463, 14.375115384697665], [79.2369216956683, 14.374111104239184], [79.23941109783732, 14.372062980519711], [79.24120729282689, 14.368287462426254], [79.2436965905293, 14.366239280875424], [79.24691391137846, 14.361440906749923], [79.2518734885675, 14.35975533646388], [79.25544116251191, 14.355303845462329], [79.26004992675128, 14.353271052952037], [79.26290014782712, 14.35019193992561], [79.26716076600633, 14.347467543673625], [79.26789115344359, 14.34437285112312], [79.27002932012576, 14.341977322307196], [79.27111555229908, 14.338540758892883], [79.27078077088025, 14.336127179663677], [79.26903559370747, 14.333358867942309], [79.26904880732364, 14.331636722877157], [79.27048031828993, 14.329236019369839], [79.27194080236329, 14.32304657599841], [79.26982133696801, 14.323031142372711], [79.26909636180187, 14.32543699847885], [79.2658853771873, 14.329546942102095], [79.26580593632413, 14.339879793027565], [79.26437694960977, 14.341936025189062], [79.26400510990962, 14.34434443414455], [79.26293731807804, 14.345369955634887], [79.25869532968359, 14.345683288232062], [79.25548383986644, 14.349793030409248], [79.24626364353631, 14.354202770429298], [79.23778204782718, 14.354484295188646], [79.23637968651418, 14.35309609301099], [79.23639586488476, 14.351029558475695], [79.24320755776348, 14.338335722294442], [79.24395430902119, 14.333174589099185], [79.24573665441224, 14.331121104746474], [79.2471871187587, 14.326309593567684], [79.24824952695253, 14.325972990101377], [79.25105146287538, 14.329093657585664], [79.25246713066304, 14.328759638658054], [79.25318429454826, 14.327387134034513], [79.25320295435935, 14.324976150030139], [79.25075159993082, 14.322202537562417], [79.25077294677833, 14.31944712962135], [79.24868825999152, 14.314953976708203], [79.24870962073439, 14.31219857014015], [79.2476686499519, 14.309779777908409], [79.24347820678545, 14.303548836071245], [79.24101914674225, 14.30180843284607], [79.2389240571838, 14.298692926561927], [79.2389374666969, 14.296970804237313], [79.23788860740576, 14.295585259279088], [79.22977861519718, 14.293802828770788], [79.22767835800023, 14.291376092890715], [79.22486367535456, 14.289977341391207], [79.22488798837402, 14.286877542375036], [79.2241870347234, 14.286183428951924], [79.22206796919589, 14.286167609142584], [79.22135620176093, 14.286851174702592], [79.22168502359817, 14.289953607481591], [79.22061734934707, 14.290978950521808], [79.21779458755853, 14.290613383238364], [79.21605039142085, 14.287844786509217], [79.21288538194052, 14.286098838892126], [79.21149989065522, 14.282644030335083], [79.20973948889608, 14.281941918704442], [79.20693868836825, 14.278820885482546], [79.20411611784202, 14.278455175783526], [79.20025597116278, 14.27532608624896], [79.19814251386629, 14.274621230457036], [79.1928918962689, 14.268726016634751], [79.18971910032947, 14.26801305884595], [79.18723057377336, 14.270060759339797], [79.1904061359569, 14.270429336528137], [79.19600438697422, 14.277016110717941], [79.19917733571607, 14.277729001410345], [79.20480333017021, 14.280871431684607], [79.20725094891733, 14.283989829529965], [79.21111133932865, 14.287118832009629], [79.21215454546717, 14.289193311924324], [79.21461865658107, 14.290245133763639], [79.21847383527418, 14.29406288089464], [79.22447535545771, 14.294452191498232], [79.22763788346751, 14.296542430003731], [79.23186814670176, 14.2976072435293], [79.23397926213129, 14.29865625903751], [79.23572376113451, 14.301424756819113], [79.23783224760345, 14.302818168031102], [79.23992198826681, 14.306622534381818], [79.24342734813035, 14.310092911923647], [79.24446827229447, 14.312511717668961], [79.24478938044349, 14.316647427936157], [79.24584104328113, 14.317688530944878], [79.24368147251866, 14.322839240700432], [79.24366271394491, 14.325250212812534], [79.24258153103023, 14.327997765520548], [79.23828340783805, 14.335543658931549], [79.2382699556171, 14.337265775070055], [79.236835370329, 14.340010660784849], [79.23469421048271, 14.342750275027555], [79.23216189668625, 14.350309134427254], [79.22966728863204, 14.353046047761557], [79.22860473018929, 14.353382549459681], [79.22440333375836, 14.348528941396314], [79.22158800620288, 14.347130077563591], [79.21984068753804, 14.344705884823073], [79.21843305892284, 14.344006433674272], [79.21600107318234, 14.33882155870877], [79.2131859239081, 14.337422614021554], [79.21106365841842, 14.337751058562247], [79.20785972166102, 14.340826819136899], [79.20537867808076, 14.341841372377132], [79.20181035101335, 14.34629202504285], [79.19968249333044, 14.347309187177329], [79.19930720572309, 14.350061828690619], [79.1999944886815, 14.352478104155141], [79.19891813499981, 14.354536544564994], [79.19854005997851, 14.357633595922874], [79.1971158915519, 14.359000506382923], [79.19567238224069, 14.362778307469004], [79.19211733316916, 14.365506676992203], [79.19103806598868, 14.367909477153567], [79.1892577117866, 14.36961803954903], [79.18323490736975, 14.371638496733313], [79.17828587544649, 14.37194489386351], [79.1743827737739, 14.373981413201555], [79.1690831995835, 14.373940475621724], [79.1652052844399, 14.372877154563152], [79.16094876957632, 14.374910696780026], [79.15702573052458, 14.379357750723596], [79.15490304231808, 14.379685634569974], [79.1527718601626, 14.381046715592044], [79.14956369866307, 14.384465914802108], [79.1484838844029, 14.386868452470658], [79.1449307771952, 14.38925159056368], [79.14456607547524, 14.390626433385519], [79.14064528413546, 14.394728735366252], [79.13919770933335, 14.39885044361531], [79.13986728235636, 14.403333240430777], [79.13771577522758, 14.407104959271946], [79.13732238970736, 14.411923797942558], [79.13590037180987, 14.412945847198245], [79.13307923519028, 14.41223470839221], [79.12636258115, 14.412525924565854], [79.12387180053003, 14.414572676271698], [79.12279442373476, 14.416630641398728], [79.12067136489405, 14.416958168184593], [79.11605450786742, 14.419676725757943], [79.1135519636565, 14.423100933248259], [79.11035711129652, 14.424797463371826], [79.10892908836186, 14.426508115580901], [79.10958352239201, 14.432712903376029], [79.10850300478045, 14.435115169033198], [79.10565258785587, 14.437847627775326], [79.10105849585115, 14.437810662206656], [79.0975011713216, 14.440537310441284], [79.09747774989432, 14.44329245389234], [79.10203688811859, 14.44746222791707], [79.10308250626878, 14.449192736883964], [79.10306790225809, 14.450914705955624], [79.100564766246, 14.454338700184103], [79.0998198789405, 14.458810106065599], [79.09483084767128, 14.463591599977658], [79.08917891252307, 14.463201361292102], [79.08956178192764, 14.459760323077825], [79.08886671349532, 14.458377022380029], [79.081495124711, 14.4524620340095], [79.0761939793064, 14.452418787679632], [79.07051864203743, 14.45478323688618], [79.068006071196, 14.459239976508522], [79.06903657093102, 14.46269254238115], [79.0689859691608, 14.468547112497296], [79.0664493199984, 14.47575889345031], [79.06749772737597, 14.477145153255542], [79.07066981826274, 14.47820443576463], [79.07136778863762, 14.479243395224254], [79.07099945512735, 14.480962427713182], [79.06815096228178, 14.483349907950515], [79.0681211412631, 14.48679376525878], [79.07191989544923, 14.497157287415957], [79.07224060835493, 14.500948437153987], [79.09274287509906, 14.50111588740989]], [[79.10530232152963, 14.479174913568121], [79.10145237131177, 14.474666442416384], [79.09761723950623, 14.468435964729887], [79.09764656654771, 14.464992042363816], [79.09943716895172, 14.462251180774317], [79.10192872671693, 14.460204786871584], [79.10267942598907, 14.45504458307431], [79.10518545963282, 14.451276169365038], [79.10451073640817, 14.44748214630713], [79.10065249862666, 14.444006899811825], [79.09996616549743, 14.441590447453178], [79.10210115022434, 14.439885564343731], [79.10598849637164, 14.439916835925041], [79.11026122795025, 14.43616252578407], [79.11134173421651, 14.433760250584248], [79.11104643599288, 14.426869500027626], [79.11424131589807, 14.425172963802403], [79.11638761425206, 14.42209032775487], [79.11994442330499, 14.419363326744188], [79.12419634746819, 14.41801947440272], [79.12634531692517, 14.414592321629017], [79.13306203319556, 14.41430111346336], [79.13517647038017, 14.415006673545891], [79.13836816956986, 14.413654168183024], [79.13908632197928, 14.412282131906966], [79.13911775056813, 14.408493708633113], [79.14163115524813, 14.403691548000404], [79.14096154617887, 14.399208751957444], [79.14205006177892, 14.395773058485927], [79.14561468011101, 14.392012365360793], [79.14633554692915, 14.39029588693881], [79.1498886598085, 14.38791272811565], [79.15132745167541, 14.384824134611442], [79.1545327675859, 14.381749314939738], [79.15807437512564, 14.380743631566228], [79.15986067344186, 14.378346529634351], [79.1651912363444, 14.374599195921087], [79.16906918008785, 14.37566252057723], [79.17436879480256, 14.375703463265616], [79.17827192841258, 14.37366694798043], [79.18145168339852, 14.373691400886095], [79.18995323098656, 14.371001095478942], [79.1977948936667, 14.362450031537232], [79.20139934626613, 14.353522079683664], [79.20108457028704, 14.348697576945147], [79.20428322493864, 14.346310766814454], [79.20607423728441, 14.343224385573837], [79.20891129341332, 14.341868077198425], [79.21140325482077, 14.339475812844237], [79.21422659839838, 14.339841524334034], [79.21597654587212, 14.341921329179877], [79.2159601910737, 14.343987842355245], [79.2145334835515, 14.345699299875184], [79.2148731116876, 14.347424052554569], [79.22157441509532, 14.348852176424256], [79.2261398824218, 14.352330790907178], [79.22647689335126, 14.354399957943892], [79.22361801520294, 14.358511828414779], [79.22395500489492, 14.360580996413825], [79.22571061839055, 14.361971914627915], [79.22783582234216, 14.361298942828576], [79.22857493178226, 14.357171179076532], [79.23071902315851, 14.354087226234077], [79.23283873595841, 14.354103042228587], [79.23847245917842, 14.356556084650965], [79.24483170164086, 14.356603275766956], [79.25440264113554, 14.35254063461646], [79.25973920423066, 14.347757630446326], [79.26221217186406, 14.347775770030696], [79.26184560650073, 14.349495316383782], [79.25935399340389, 14.351888157838484], [79.2543919647561, 14.353918337515784], [79.2511775929999, 14.358372421454462], [79.24728329956471, 14.359376976029223], [79.24229950354747, 14.364162256213094], [79.23944613571054, 14.367585488369272], [79.2387179506816, 14.370335612292628], [79.2369351942598, 14.372388994695928], [79.2326872991365, 14.373390641084072], [79.23017885312755, 14.377849629022938], [79.22805620554095, 14.378178183737889], [79.22344124579179, 14.380899096437746], [79.22238126830217, 14.380891134286248], [79.21953011152377, 14.383969644205655], [79.21668980886568, 14.385670439029607], [79.2145287631285, 14.390820703539214], [79.21097616651475, 14.393204909017623], [79.20882039785931, 14.397666262815141], [79.20454990988296, 14.401422652891677], [79.20451133409762, 14.406244461973573], [79.20062711683772, 14.405870468331276], [79.19920814615135, 14.406548524284728], [79.19101696830491, 14.414407899721443], [79.18957289017492, 14.41818559320712], [79.1867430826816, 14.4185083019912], [79.1831841838377, 14.421580819388858], [79.17781904348236, 14.429461358728041], [79.17779662845139, 14.432216631091348], [79.181672823671, 14.433624277908631], [79.18236285163154, 14.435696186421533], [79.18587178068651, 14.438823100656004], [79.19044662487299, 14.441269294594953], [79.19291774812747, 14.441632688536892], [79.19290940533395, 14.442665923365963], [79.19219978873143, 14.443004913410036], [79.1921747459439, 14.446104616018786], [79.1939084927121, 14.450251108459762], [79.19388624214399, 14.453006400627], [79.19493264308089, 14.454736588333214], [79.1945653009739, 14.456455936383882], [79.19069698093648, 14.454015216280924], [79.18930833953004, 14.450904654170595], [79.1865004514178, 14.448472029373157], [79.18616936481277, 14.445714026860058], [79.18443020554561, 14.442256316718268], [79.18056784201963, 14.439126650173826], [79.17738996564503, 14.438757667786772], [79.17386993547734, 14.437008273722624], [79.16360993257535, 14.438306283175425], [79.16114175990852, 14.437598185946932], [79.15795546807706, 14.438262162803415], [79.15619128844132, 14.437903942755028], [79.15549867082356, 14.43617639030177], [79.1587104223605, 14.432412796576537], [79.1594426824251, 14.429318665159895], [79.15804328344527, 14.427585603048112], [79.15521902887215, 14.427219104325669], [79.14990403440137, 14.428899606591928], [79.1403111368262, 14.43502379924445], [79.13815926488577, 14.438795476960511], [79.13673706401386, 14.439817509047554], [79.13601305181407, 14.441878324024342], [79.13209398149965, 14.445635940852885], [79.12996776650436, 14.446307918396071], [79.12782712974409, 14.448701869188229], [79.12745641676517, 14.450765452086957], [79.1288412692327, 14.45422067593306], [79.12950489254789, 14.45939227488068], [79.1273814220487, 14.459719813261254], [79.12524928112276, 14.461080525485258], [79.11915685262387, 14.471020092242767], [79.11559622677194, 14.474091365061756], [79.1152311462538, 14.475466114782453], [79.11309296053169, 14.477515478062582], [79.11061293747771, 14.478184398496904], [79.1074143064908, 14.48022517670066], [79.10530232152963, 14.479174913568121]], [[79.22573233342393, 14.359216553162183], [79.22573776146194, 14.35852771269078], [79.22644705695623, 14.358188582856316], [79.22643891824558, 14.359221843975682], [79.22573233342393, 14.359216553162183]]], [[[79.16441836271555, 14.425913157819762], [79.16690333126607, 14.424554764836993], [79.17118328438038, 14.419765964073454], [79.17827602480995, 14.416720942830606], [79.18290895685223, 14.4119346062764], [79.18503473320054, 14.411262091785096], [79.18859064805714, 14.40853393356916], [79.19215757753044, 14.40442806090234], [79.19430819954138, 14.400655733829016], [79.20071545730134, 14.394849210632357], [79.20287409938902, 14.390043530301298], [79.20537221526493, 14.386962576996135], [79.20610362349032, 14.383868196737547], [79.20824555218888, 14.38112893531998], [79.20862906237026, 14.37734303040058], [79.21042031813819, 14.374256645704682], [79.21045319886224, 14.37012364204801], [79.20940150307742, 14.369082377048121], [79.20657506806197, 14.36906098361437], [79.1973505478415, 14.373813025443066], [79.1948746171472, 14.374138590090242], [79.19096050820637, 14.377553048529684], [79.1845174078737, 14.38783669495527], [79.18024677429491, 14.391592623024], [79.17735580841452, 14.39949227816339], [79.17342135703916, 14.405317219234977], [79.16986253223294, 14.408389542094584], [79.16589954565934, 14.417658384569393], [79.16270508314607, 14.419355681488339], [79.1598526422209, 14.422433308485047], [79.15983850249086, 14.424155337448482], [79.16124072486916, 14.425543982493322], [79.16441836271555, 14.425913157819762]], [[79.16196444279271, 14.42348305335239], [79.16375392208845, 14.420741559031896], [79.16587982135755, 14.420069234226732], [79.16730459003509, 14.41870258656327], [79.17126754526589, 14.40943371658414], [79.17554148585486, 14.405333604538175], [79.17911974673743, 14.399850309301767], [79.18129562276138, 14.39297842317867], [79.1862812749241, 14.38819466354165], [79.18700460916587, 14.386133610179813], [79.18914122459783, 14.384083377146945], [79.19272431271501, 14.37791096108665], [79.19557018350213, 14.375521634679803], [79.19804612956374, 14.375196064446936], [79.2065613404129, 14.370783065142055], [79.20868118244286, 14.370799115380118], [79.20901255193152, 14.373557122213297], [79.20722128487739, 14.376643494827066], [79.20683775388592, 14.380429395065534], [79.20433423638288, 14.384199207191894], [79.20324671658696, 14.387635309798448], [79.20218120737438, 14.388316083408345], [79.19930760713767, 14.394149619031687], [79.19290033982097, 14.399956102446435], [79.18932238806259, 14.405439645753672], [79.18433915191568, 14.409879014782756], [79.1804353905601, 14.411915556835401], [79.1765147601179, 14.41601848120746], [79.17013439918769, 14.418380114572823], [79.16549825574278, 14.42351055682707], [79.16301893954, 14.424180122731942], [79.16196444279271, 14.42348305335239]]]]}}, {"type": "Feature", "properties": {"depth_class": 2, "depth_lo_m": 1.0, "t_s": 84600.65281410964}, "geometry": {"type": "MultiPolygon", "coordinates": [[[[79.01815339219868, 14.220152915754356], [79.02063361758911, 14.21914024383072], [79.02065159775512, 14.21707394186038], [79.01960750057071, 14.215343252802397], [79.01819839683871, 14.214987168333762], [79.01610126561869, 14.2125589214722], [79.01291806577964, 14.213221304854397], [79.01254398765876, 14.215629045399083], [79.01324101536012, 14.216668060368143], [79.01641525626744, 14.217038827487833], [79.01815339219868, 14.220152915754356]], [[79.01395608813061, 14.215640780239521], [79.013974124304, 14.213574486052321], [79.01644227872582, 14.213939381788796], [79.0164272670522, 14.215661296171254], [79.01395608813061, 14.215640780239521]]], [[[79.15890271052439, 14.235744762761133], [79.1582244551067, 14.232295207249601], [79.1561087649173, 14.231934450296858], [79.156100381072, 14.232967682060588], [79.15890271052439, 14.235744762761133]]], [[[79.08152913049344, 14.240990763783339], [79.0847533076638, 14.235505943341071], [79.08476782352267, 14.233783961502166], [79.0840674948359, 14.23308950458502], [79.08159311890579, 14.233414059554859], [79.07911000429254, 14.234771773679837], [79.07768315945009, 14.236482383125871], [79.07800125995254, 14.240617964216305], [79.07870158792157, 14.241312439113432], [79.08152913049344, 14.240990763783339]], [[79.07943104488227, 14.238562961220072], [79.08015465913117, 14.236502269065609], [79.0815669463746, 14.236513620989646], [79.08048735883516, 14.238915875745315], [79.07943104488227, 14.238562961220072]]], [[[79.03450175466527, 14.248529588185537], [79.034166569858, 14.24646036522745], [79.03310435377429, 14.246796021339028], [79.03344251277102, 14.248520859106744], [79.03450175466527, 14.248529588185537]]], [[[79.02628804568184, 14.259138443746428], [79.02630303036523, 14.257416525317973], [79.02383138253299, 14.257396052775857], [79.02416947409795, 14.259120895213629], [79.02628804568184, 14.259138443746428]]], [[[79.20531295606911, 14.305674874302634], [79.20568256402228, 14.303611032496708], [79.20462296006193, 14.303603033067423], [79.20390287508543, 14.305319785981538], [79.20460381129583, 14.306013957812759], [79.20531295606911, 14.305674874302634]]], [[[79.10706084699251, 14.480222330869026], [79.11061293747771, 14.478184398496904], [79.11309296053169, 14.477515478062582], [79.1152311462538, 14.475466114782453], [79.11559622677194, 14.474091365061756], [79.11915685262387, 14.471020092242767], [79.12023748480661, 14.468617791739245], [79.12237551754433, 14.466568343790351], [79.12524928112276, 14.461080525485258], [79.1273814220487, 14.459719813261254], [79.12950489254789, 14.45939227488068], [79.1288412692327, 14.45422067593306], [79.12745641676517, 14.450765452086957], [79.12818630724078, 14.448015880102217], [79.12996776650436, 14.446307918396071], [79.13209398149965, 14.445635940852885], [79.13601305181407, 14.441878324024342], [79.13923950416951, 14.43639303972116], [79.14244579157325, 14.43331850487228], [79.14990403440137, 14.428899606591928], [79.15521902887215, 14.427219104325669], [79.15804328344527, 14.427585603048112], [79.1594426824251, 14.429318665159895], [79.1587104223605, 14.432412796576537], [79.15549867082356, 14.43617639030177], [79.15619128844132, 14.437903942755028], [79.15795546807706, 14.438262162803415], [79.16114175990852, 14.437598185946932], [79.16360993257535, 14.438306283175425], [79.17386993547734, 14.437008273722624], [79.17738996564503, 14.438757667786772], [79.18056784201963, 14.439126650173826], [79.18443020554561, 14.442256316718268], [79.18616936481277, 14.445714026860058], [79.1865004514178, 14.448472029373157], [79.18930833953004, 14.450904654170595], [79.19069698093648, 14.454015216280924], [79.1945653009739, 14.456455936383882], [79.19493264308089, 14.454736588333214], [79.19388624214399, 14.453006400627], [79.1939084927121, 14.450251108459762], [79.1921747459439, 14.446104616018786], [79.19219978873143, 14.443004913410036], [79.19290940533395, 14.442665923365963], [79.19291774812747, 14.441632688536892], [79.19044662487299, 14.441269294594953], [79.18587178068651, 14.438823100656004], [79.18236285163154, 14.435696186421533], [79.181672823671, 14.433624277908631], [79.17779662845139, 14.432216631091348], [79.17781904348236, 14.429461358728041], [79.1831841838377, 14.421580819388858], [79.1867430826816, 14.4185083019912], [79.18957289017492, 14.41818559320712], [79.19101696830491, 14.414407899721443], [79.19920814615135, 14.406548524284728], [79.20062711683772, 14.405870468331276], [79.20451133409762, 14.406244461973573], [79.20454990988296, 14.401422652891677], [79.20882039785931, 14.397666262815141], [79.21097616651475, 14.393204909017623], [79.2145287631285, 14.390820703539214], [79.21668980886568, 14.385670439029607], [79.21953011152377, 14.383969644205655], [79.22238126830217, 14.380891134286248], [79.22344124579179, 14.380899096437746], [79.22805620554095, 14.378178183737889], [79.23017885312755, 14.377849629022938], [79.2326872991365, 14.373390641084072], [79.2369351942598, 14.372388994695928], [79.2387179506816, 14.370335612292628], [79.23944613571054, 14.367585488369272], [79.24229950354747, 14.364162256213094], [79.24728329956471, 14.359376976029223], [79.2511775929999, 14.358372421454462], [79.2543919647561, 14.353918337515784], [79.25935399340389, 14.351888157838484], [79.26184560650073, 14.349495316383782], [79.26221217186406, 14.347775770030696], [79.25973920423066, 14.347757630446326], [79.25440264113554, 14.35254063461646], [79.24483170164086, 14.356603275766956], [79.23847245917842, 14.356556084650965], [79.23283873595841, 14.354103042228587], [79.23071902315851, 14.354087226234077], [79.22857493178226, 14.357171179076532], [79.22783582234216, 14.361298942828576], [79.22571061839055, 14.361971914627915], [79.22395500489492, 14.360580996413825], [79.22361801520294, 14.358511828414779], [79.22647689335126, 14.354399957943892], [79.2261398824218, 14.352330790907178], [79.22157441509532, 14.348852176424256], [79.2148731116876, 14.347424052554569], [79.2145334835515, 14.345699299875184], [79.2159601910737, 14.343987842355245], [79.21597654587212, 14.341921329179877], [79.21422659839838, 14.339841524334034], [79.21140325482077, 14.339475812844237], [79.20891129341332, 14.341868077198425], [79.20607423728441, 14.343224385573837], [79.20428322493864, 14.346310766814454], [79.20108457028704, 14.348697576945147], [79.20139934626613, 14.353522079683664], [79.1977948936667, 14.362450031537232], [79.18995323098656, 14.371001095478942], [79.18145168339852, 14.373691400886095], [79.17827192841258, 14.37366694798043], [79.17436879480256, 14.375703463265616], [79.16906918008785, 14.37566252057723], [79.1651912363444, 14.374599195921087], [79.15986067344186, 14.378346529634351], [79.15807437512564, 14.380743631566228], [79.1545327675859, 14.381749314939738], [79.15132745167541, 14.384824134611442], [79.1498886598085, 14.38791272811565], [79.14633554692915, 14.39029588693881], [79.14561468011101, 14.392012365360793], [79.14205006177892, 14.395773058485927], [79.14096154617887, 14.399208751957444], [79.14163115524813, 14.403691548000404], [79.13911775056813, 14.408493708633113], [79.13908632197928, 14.412282131906966], [79.13836816956986, 14.413654168183024], [79.13517647038017, 14.415006673545891], [79.13306203319556, 14.41430111346336], [79.12634531692517, 14.414592321629017], [79.12419634746819, 14.41801947440272], [79.11994442330499, 14.419363326744188], [79.11638761425206, 14.42209032775487], [79.11424131589807, 14.425172963802403], [79.11104643599288, 14.426869500027626], [79.11134173421651, 14.433760250584248], [79.11026122795025, 14.43616252578407], [79.10598849637164, 14.439916835925041], [79.10210115022434, 14.439885564343731], [79.09996616549743, 14.441590447453178], [79.10065249862666, 14.444006899811825], [79.10451073640817, 14.44748214630713], [79.10518545963282, 14.451276169365038], [79.10267942598907, 14.45504458307431], [79.10192872671693, 14.460204786871584], [79.09943716895172, 14.462251180774317], [79.09764656654771, 14.464992042363816], [79.09761723950623, 14.468435964729887], [79.10460125584403, 14.47848042887066], [79.10706084699251, 14.480222330869026]], [[79.16124355109422, 14.425199576489922], [79.15983850249086, 14.424155337448482], [79.16021167538864, 14.421747252380573], [79.16270508314607, 14.419355681488339], [79.16589954565934, 14.417658384569393], [79.16986253223294, 14.408389542094584], [79.17342135703916, 14.405317219234977], [79.17735580841452, 14.39949227816339], [79.18024677429491, 14.391592623024], [79.1845174078737, 14.38783669495527], [79.19203152838546, 14.376183496218868], [79.19416523234914, 14.374477613517172], [79.1973505478415, 14.373813025443066], [79.20657506806197, 14.36906098361437], [79.20940150307742, 14.369082377048121], [79.21045319886224, 14.37012364204801], [79.21042031813819, 14.374256645704682], [79.20862906237026, 14.37734303040058], [79.20824555218888, 14.38112893531998], [79.20610362349032, 14.383868196737547], [79.20537221526493, 14.386962576996135], [79.20287409938902, 14.390043530301298], [79.20071545730134, 14.394849210632357], [79.19430819954138, 14.400655733829016], [79.18965907352164, 14.40750882637201], [79.18503473320054, 14.411262091785096], [79.18290895685223, 14.4119346062764], [79.17827602480995, 14.416720942830606], [79.17118328438038, 14.419765964073454], [79.16654712977035, 14.424896425828553], [79.16441836271555, 14.425913157819762], [79.16124355109422, 14.425199576489922]], [[79.16147786732063, 14.396613841357873], [79.16117528625266, 14.390411767968924], [79.16295037978426, 14.389392279272057], [79.16435524757058, 14.390436478596232], [79.1646888787333, 14.392850075168452], [79.16253506479703, 14.396966492181543], [79.16147786732063, 14.396613841357873]]]]}}, {"type": "Feature", "properties": {"depth_class": 3, "depth_lo_m": 2.0, "t_s": 84600.65281410964}, "geometry": {"type": "MultiPolygon", "coordinates": [[[[79.01360606965545, 14.215293465045868], [79.0164272670522, 14.215661296171254], [79.01644227872582, 14.213939381788796], [79.013974124304, 14.213574486052321], [79.01360606965545, 14.215293465045868]]], [[[79.08048735883516, 14.238915875745315], [79.0815582207986, 14.237546807945652], [79.0815669463746, 14.236513620989646], [79.07944269258934, 14.237185380432265], [79.07943104488227, 14.238562961220072], [79.08048735883516, 14.238915875745315]]]]}}]}