{"type": "FeatureCollection", "features": [{"type": "Feature", "properties": {"depth_class": 1, "depth_lo_m": 0.3, "t_s": 26100.444652413305}, "geometry": {"type": "MultiPolygon", "coordinates": [[[[79.11680598822896, 14.245060370735448], [79.11928619638952, 14.244046654323691], [79.12037968009199, 14.239922160374306], [79.11899586030789, 14.236467004110674], [79.11723617185602, 14.235764283921135], [79.11545649681679, 14.237472369417446], [79.11435722443237, 14.242285636229639], [79.11680598822896, 14.245060370735448]]], [[[79.03872087236088, 14.250630776651318], [79.03944489297578, 14.248570261795415], [79.0387446811184, 14.247875684420041], [79.03697927893339, 14.24786116538355], [79.03660236430026, 14.250613348735241], [79.03872087236088, 14.250630776651318]]], [[[79.11993818243933, 14.250595876579526], [79.11993247589638, 14.251284682471088], [79.12063582936453, 14.25163465058879], [79.1206443860825, 14.250601441347214], [79.11993818243933, 14.250595876579526]]], [[[79.08098382532168, 14.263718003125916], [79.08417058632219, 14.262710383631317], [79.08419386409774, 14.259955219771074], [79.08209268605204, 14.257871813896873], [79.07925909657823, 14.258882258320039], [79.0757046590521, 14.26160893544611], [79.07605192447716, 14.262300573329714], [79.07852662133668, 14.26197611713748], [79.08098382532168, 14.263718003125916]]], [[[79.09855294621157, 14.274191450268368], [79.0950447743977, 14.271408054327678], [79.09256707461219, 14.272077068896454], [79.09290570960634, 14.27380188075301], [79.09395931177542, 14.274499154776453], [79.09855294621157, 14.274191450268368]]], [[[79.17711225664878, 14.429455896955663], [79.18602517930275, 14.41988051483812], [79.1870908903187, 14.419199839053054], [79.19027130555598, 14.41922424887455], [79.19098362376023, 14.418540843629314], [79.1913620071836, 14.415443843602578], [79.20026270609284, 14.407245432369082], [79.20203228133983, 14.40691447480178], [79.20484540681011, 14.408658052086894], [79.20696835674845, 14.408329743819072], [79.20733548191092, 14.406610349609858], [79.2055879453218, 14.404186027468288], [79.20596057591872, 14.401777804764048], [79.20987495450606, 14.398363127086483], [79.21167188251209, 14.394587922474843], [79.2159393875998, 14.391175790243206], [79.21702674401845, 14.38773960973498], [79.21880980297811, 14.385686414762716], [79.22058192100515, 14.38501087637528], [79.22307702965408, 14.38227411923166], [79.2280426332919, 14.37990028415662], [79.23122798286663, 14.37923523738211], [79.23373372323205, 14.375120659464887], [79.23833766537787, 14.373777205547317], [79.24119921590956, 14.369320730923452], [79.2447565112261, 14.36624713971797], [79.24832979138085, 14.361106937172208], [79.25187081431211, 14.360099761528803], [79.25472390243975, 14.356676345336014], [79.2593353628608, 14.354299144313105], [79.26360671847621, 14.350197116734169], [79.26751139985409, 14.347814553808215], [79.26824178429014, 14.344719859848624], [79.27110234782688, 14.340262904845737], [79.2711313953502, 14.33647418340437], [79.26974211392107, 14.333364020551262], [79.26975532215044, 14.33164187484142], [79.27118682613803, 14.329241166230597], [79.27191970823634, 14.32580201419078], [79.27441614786356, 14.322720127741398], [79.27301107492926, 14.321676565606172], [79.26947601342533, 14.321995280122913], [79.26838986664248, 14.325431846735482], [79.26552947619676, 14.329888789444098], [79.26545531630575, 14.339532781832215], [79.26330121119369, 14.343994832963231], [79.26153217755324, 14.344326317494197], [79.2566502392639, 14.336023770613478], [79.25599963138049, 14.328785619113143], [79.25461593067237, 14.324986541450588], [79.25182465189044, 14.320488210513659], [79.25186464396862, 14.315321816359901], [79.2504757371477, 14.312211580161636], [79.25083429366501, 14.311525328063729], [79.25295362967488, 14.311540918854593], [79.2543505541191, 14.31361786359312], [79.26106717071508, 14.312978221207453], [79.26137267539474, 14.31918051161415], [79.26312561162356, 14.32091557516264], [79.26524504962875, 14.320931066296904], [79.26631534772254, 14.319561089308072], [79.26636822154552, 14.312672509445022], [79.26568291758821, 14.309911922000481], [79.2586556296435, 14.305038273715764], [79.25335476926945, 14.305343832640345], [79.25051306986705, 14.307389612494106], [79.24910287494723, 14.307034783097006], [79.24771671507769, 14.30358011289161], [79.24525227056316, 14.302528600791396], [79.24209750676366, 14.2994052943525], [79.24071149168817, 14.295950598753045], [79.23685049743297, 14.29282201420777], [79.23580435359838, 14.291092039187117], [79.23369060574315, 14.290387470107657], [79.23228862327643, 14.28899928518635], [79.23441041409427, 14.288670593193851], [79.23828203219078, 14.290421508240337], [79.24463941181314, 14.29046849187656], [79.24889100349462, 14.28877758731586], [79.25244946527373, 14.285359277171068], [79.25457652472707, 14.284341542506423], [79.26059119206249, 14.283007775563787], [79.26095495342041, 14.281632639879192], [79.25778165696406, 14.280920544359647], [79.25602904007032, 14.27918547562232], [79.2578108019512, 14.277131830896998], [79.25782404684716, 14.275409687997021], [79.24973580388153, 14.27087258134694], [79.2462042193044, 14.27084661077246], [79.24513407601202, 14.272216514909873], [79.24509138740888, 14.2777273352641], [79.24648806238493, 14.27980429978157], [79.24647472705644, 14.281526431588409], [79.24362795637438, 14.284261011621988], [79.24150888652066, 14.284245366904068], [79.2379905117023, 14.282497126970904], [79.23516511640277, 14.282476198795766], [79.23305682374526, 14.281082785351217], [79.22987828269281, 14.281059175235166], [79.2281232087719, 14.279668348379285], [79.22673750144108, 14.276213604363011], [79.2178976161658, 14.277525388329723], [79.21401825798715, 14.276807444793187], [79.21156244637653, 14.274722373007469], [79.20520016573197, 14.275363395097461], [79.20449931090205, 14.27466923422025], [79.20419255845921, 14.268811454039223], [79.20209280235063, 14.266384546393727], [79.19714881208756, 14.266347196054557], [79.19435385526238, 14.262537219648628], [79.19048036655168, 14.26113009775991], [79.18907883939156, 14.25974170717164], [79.18838908590806, 14.257669845206284], [79.18314184427892, 14.251430069557914], [79.17294587881895, 14.245841239377944], [79.1708300252212, 14.245480595402242], [79.16872251455732, 14.244086695391989], [79.16519428722219, 14.243715162203971], [79.16133807661024, 14.240241156124016], [79.16104074396662, 14.233350207808082], [79.159656302563, 14.22989521518404], [79.15967860987355, 14.227139924032494], [79.15863054859601, 14.22575411753716], [79.15721826544875, 14.22574322935062], [79.15543335177593, 14.228140481718114], [79.15260596308087, 14.228463065670155], [79.15189421486863, 14.229146423548377], [79.1518746108187, 14.231557292329054], [79.15291145065518, 14.234320765836308], [79.15467127260291, 14.23502323511254], [79.15606963455383, 14.23675619772288], [79.15531870422372, 14.242261306762922], [79.15955027767535, 14.242982839021842], [79.15952515074692, 14.246082537193697], [79.15350280466758, 14.24844703015668], [79.15281621297042, 14.246030696800638], [79.15140941734836, 14.245330940446642], [79.14678819575677, 14.249083828658748], [79.14570918350725, 14.251486453969001], [79.14146342640221, 14.252486698600723], [79.13898036564694, 14.253845052504627], [79.12414978482036, 14.25372886760229], [79.12098608104922, 14.251981835529147], [79.11850293094201, 14.253339961854325], [79.11603119275824, 14.253320450185491], [79.10513097939788, 14.247723333808784], [79.09455553165594, 14.245572583118417], [79.08749087106614, 14.245860485539668], [79.08292400169644, 14.243068485790767], [79.08686303460485, 14.236556116409176], [79.08620620212619, 14.230695713496623], [79.0837376606297, 14.230331501805223], [79.07770938488703, 14.233382828769486], [79.07627962455746, 14.235437824429885], [79.0731078468019, 14.234723414437852], [79.07133373974963, 14.235742343342917], [79.06990098268204, 14.238141684529642], [79.06672626846249, 14.237771580280583], [79.06530225192351, 14.239137708836765], [79.06491983383786, 14.242578768674464], [79.05887040600565, 14.248040279482586], [79.05426259094324, 14.250069227922898], [79.05108776567485, 14.24969889790729], [79.05003738459152, 14.24865707515417], [79.04475892949772, 14.24654740024963], [79.04548287970364, 14.24448685771126], [79.04551845186595, 14.240354200217498], [79.0448241703969, 14.23897086494511], [79.04305883097668, 14.238956399725774], [79.04021051690418, 14.2416883250179], [79.0373978541278, 14.240287569552022], [79.03456734719688, 14.240953100836652], [79.03170697355945, 14.24506244881123], [79.02886144523436, 14.247449825286743], [79.02884948190132, 14.248827363329559], [79.03095601162471, 14.25022239756397], [79.03198539090482, 14.25367498924734], [79.03124932698513, 14.25711300890826], [79.02877168908675, 14.25778135649801], [79.02596791976973, 14.255347300214279], [79.02314320604114, 14.255323900288664], [79.02171883760111, 14.256689718988524], [79.02170081494938, 14.258756015458795], [79.02344827611259, 14.26083695674851], [79.02308617118595, 14.261867177539624], [79.019187042872, 14.263556843072765], [79.01425268746857, 14.2624825645159], [79.01318433983133, 14.263506879550123], [79.01281614674018, 14.265225839286739], [79.01139769671255, 14.265902818377956], [79.00999737884536, 14.26451350749768], [79.0075317316269, 14.263804096769789], [79.00718771408721, 14.262768005987615], [79.01112615225826, 14.256601600216054], [79.01150339047426, 14.25384949966012], [79.01257772617352, 14.252136424498573], [79.01225480990283, 14.248689672434415], [79.00769203010148, 14.245551963243225], [78.99709995512778, 14.245463289413998], [78.99605291101776, 14.244076885316735], [78.99606810841219, 14.242354996461275], [78.99892902832296, 14.238246154382068], [79.0014095207096, 14.237233720558272], [79.00318993803124, 14.235526594550874], [79.01240551590392, 14.231470607968726], [79.01525397468626, 14.228739039039825], [79.01813538528629, 14.222219214059661], [79.02132470169113, 14.220868008578503], [79.02172266370303, 14.215705172999746], [79.0192784575109, 14.212585260329863], [79.01716933073648, 14.211534556449934], [79.01363913874474, 14.211505259444257], [79.01222104809472, 14.2121822902303], [79.01114392998348, 14.214239775182309], [79.01144577628317, 14.220097201510507], [79.00964143385498, 14.22455946474122], [79.00431261467138, 14.228303473527928], [78.99722749646489, 14.230999407205479], [78.99259835969501, 14.235437782142672], [78.98972823293909, 14.240579668372513], [78.98967639681597, 14.246434067435272], [78.99282051012811, 14.250248965827824], [78.9984484481653, 14.252707080101258], [79.00480692072507, 14.252415951953909], [79.0044326368243, 14.254823652753949], [79.00229896986487, 14.256527808994532], [78.99835727267167, 14.263038415432575], [78.9986617200657, 14.268551423319167], [79.00005590200148, 14.270629550296372], [79.00251247847864, 14.272372179613129], [79.01204046141176, 14.27314069866609], [79.01416820393048, 14.272125229709403], [79.0194679202256, 14.271824945327062], [79.02088940010405, 14.270803537957336], [79.02512675602037, 14.270838702652092], [79.02688632665937, 14.271542099271452], [79.02795166636984, 14.27086210397306], [79.02867886553886, 14.268457262114925], [79.03223688323261, 14.265386989118978], [79.03576496806524, 14.265760504750835], [79.03718336397813, 14.265083371007929], [79.037563300095, 14.261986806137957], [79.04255430080434, 14.256517261432844], [79.04431680698498, 14.256876135304173], [79.04427522931292, 14.26169755876728], [79.0460259073204, 14.263433975846613], [79.04885076094294, 14.263457117689972], [79.05310579382068, 14.261425433100719], [79.05522442376513, 14.261442727325628], [79.05732830307707, 14.263181952678604], [79.06227477142477, 14.262877802957128], [79.06332821503351, 14.263575194921728], [79.06579998870174, 14.263595266690144], [79.06900145292366, 14.260865896667365], [79.071481991788, 14.259852727107972], [79.0732650782205, 14.25780064264467], [79.07610159183847, 14.256445877095622], [79.09376256828904, 14.255898874974225], [79.10079872334072, 14.259054814314123], [79.10393928935365, 14.26355730189585], [79.09758316619164, 14.263506653896123], [79.09580601018442, 14.264870145950034], [79.08769010336265, 14.264116323925547], [79.08837891096279, 14.266188366711827], [79.09049472836745, 14.266549749709105], [79.0912067697845, 14.265866614280512], [79.09403172921584, 14.265889224604855], [79.0961446668446, 14.266594955909584], [79.10497273524139, 14.266665322797902], [79.10883411102293, 14.269451382720941], [79.11165914409895, 14.269473789668307], [79.1140995218704, 14.273281781503503], [79.11337030484579, 14.27603139634973], [79.10768266621666, 14.280463765830904], [79.10556379307975, 14.280446915723818], [79.10488344069863, 14.277341702594013], [79.10347664751863, 14.276641659257796], [79.10135492840007, 14.27696917464817], [79.1013289427798, 14.280068760628097], [79.10237971619463, 14.281110402427585], [79.10520488404202, 14.28113290384357], [79.1055465040252, 14.282513310926083], [79.10905497951336, 14.285296586858394], [79.11541175617599, 14.285347004248187], [79.1235571776412, 14.282655958082879], [79.12854970467787, 14.276840013209279], [79.12892560701071, 14.274087555965082], [79.12824777819621, 14.270637967054322], [79.13253080266693, 14.265160743370018], [79.13677116235321, 14.264849504310305], [79.13923457466191, 14.26590203540509], [79.14135335285994, 14.265918569476694], [79.14348059539003, 14.264901863220146], [79.14807127575722, 14.264937579052358], [79.15509463989737, 14.269814085491703], [79.16462104498456, 14.270920959537454], [79.17307426740807, 14.27374140466957], [79.17692564285669, 14.277904127821232], [79.17973981823361, 14.2793033955094], [79.18253744451006, 14.282769119559925], [79.18496817427686, 14.287954199885698], [79.1852633389497, 14.295189598135162], [79.18312486865545, 14.297584319708092], [79.18346422401106, 14.29930908739319], [79.18557784056239, 14.300014094012226], [79.18735484383748, 14.298649903129567], [79.18912079527435, 14.298663356562356], [79.19192153599802, 14.30178459468356], [79.19365173970172, 14.306275422005005], [79.19470309669231, 14.307316719427476], [79.19647187141095, 14.306985710048794], [79.19684980392748, 14.303888642845306], [79.19756169642146, 14.303205166480671], [79.20180831045201, 14.302204008825056], [79.20211493962422, 14.308061774561947], [79.20458192262224, 14.308769299750518], [79.20742399027851, 14.306724119500974], [79.20851636557249, 14.302599085425241], [79.21066009969948, 14.299515272140583], [79.21631667817728, 14.29886888554848], [79.22021539170099, 14.297175888470496], [79.22233185107734, 14.297536158079891], [79.22232102204242, 14.29891384348734], [79.22089739458887, 14.300280962950714], [79.2155858247319, 14.3019633666364], [79.2145126224609, 14.303677510980922], [79.21413492936148, 14.3067746346298], [79.21551240528844, 14.311262702184727], [79.2169198307456, 14.31196214780134], [79.2183326979365, 14.31197274566082], [79.22010963645228, 14.310608298958929], [79.22363637603404, 14.31132357048863], [79.22503300893057, 14.31340065667745], [79.2246581328641, 14.316153388201451], [79.22252252186794, 14.318204065193362], [79.21862343882395, 14.319897057268008], [79.21855548666517, 14.328507554737303], [79.2153245380452, 14.33502763612194], [79.21071040258884, 14.33774839439802], [79.2075037232988, 14.341168566964843], [79.20608794120318, 14.34150230051237], [79.20395191353272, 14.34355275873672], [79.20358767016478, 14.344927748873266], [79.20180760288565, 14.346636441126279], [79.20003576199464, 14.347311869505715], [79.19998898433097, 14.35316693526315], [79.19602567437913, 14.36278099860482], [79.19247062889364, 14.365509373929951], [79.19139136527296, 14.367912176142276], [79.18889886509476, 14.37030416294999], [79.17792141276772, 14.373319817622889], [79.17330887052363, 14.375695284210073], [79.16659041639247, 14.376332190379909], [79.1651659450786, 14.377698869701288], [79.16652862201394, 14.383909174077392], [79.1693130924368, 14.389097198045443], [79.17457104124254, 14.394304316138209], [79.17774549226124, 14.395017673312868], [79.1791783958425, 14.39261769278652], [79.18558295840192, 14.387156006942197], [79.18594740857272, 14.385781070024274], [79.18808125209294, 14.384075259608952], [79.18987560929986, 14.38064465853944], [79.19415417006223, 14.375855268700409], [79.19804888915482, 14.374851649906581], [79.20691739237118, 14.370441325147006], [79.20833061823043, 14.370452025038604], [79.20902900569612, 14.371490622048826], [79.20901255193152, 14.373557122213297], [79.20721853897192, 14.376987911055888], [79.20647344034448, 14.381804380693326], [79.20540796895685, 14.382485173511293], [79.2039588879558, 14.38695184741027], [79.20217845142021, 14.388660498342906], [79.19966094926734, 14.394152310482031], [79.19253867049571, 14.400986638085543], [79.19110028335896, 14.404075533304349], [79.1875333428915, 14.40818138850486], [79.18256117139329, 14.411243065475155], [79.17650075487761, 14.417740527215848], [79.17189284700645, 14.419427031778032], [79.17046809772054, 14.420793709839266], [79.16902926222855, 14.423882415001891], [79.16971914971556, 14.425954344877384], [79.1742823052335, 14.429778437115155], [79.17711225664878, 14.429455896955663]], [[79.18963405983256, 14.410608533917182], [79.19393822090673, 14.402719511095805], [79.20035107324053, 14.396224178164728], [79.20358352627909, 14.389704485356974], [79.20500787755046, 14.38833755737591], [79.20609812530404, 14.384557028341888], [79.208240061656, 14.381817767894255], [79.20898786637548, 14.376656871750216], [79.21077911093077, 14.373570482963606], [79.21080102709138, 14.370815146659158], [79.20905093997636, 14.36873528790744], [79.20657781337333, 14.368716567277286], [79.20338158228454, 14.370758954237026], [79.20054962563887, 14.371426316772348], [79.19770937723291, 14.37312688705499], [79.19381745399808, 14.37378608994197], [79.19062105039822, 14.375828281752264], [79.18850118212578, 14.375812064296403], [79.18781121130436, 14.373740178704253], [79.19136644712742, 14.371011897019498], [79.19351669259765, 14.367239531232345], [79.19778662095612, 14.363483276061295], [79.20175537459123, 14.353180344715941], [79.20179386115234, 14.348358521385903], [79.2046364929339, 14.346313442107599], [79.20607149628223, 14.343568802554637], [79.21175651348986, 14.339478476290813], [79.21387606702802, 14.339494445935845], [79.21597927141845, 14.341576910280601], [79.21596291705447, 14.343643423518909], [79.21418021459958, 14.345696639434873], [79.21451711103293, 14.347765810762372], [79.21768566692919, 14.349167410765007], [79.22262880757121, 14.349548964705916], [79.22543874556386, 14.351636660926241], [79.2261208958803, 14.354741734158331], [79.22362344942917, 14.357822988695068], [79.22360442837534, 14.360233927530363], [79.22500945657023, 14.361277780612733], [79.22677593463766, 14.361291010944855], [79.22748794987298, 14.360607458387507], [79.22822706176052, 14.356479695964126], [79.23143911479804, 14.352370393012741], [79.2336020156147, 14.346875449200878], [79.23475353061252, 14.335172980199404], [79.23759034851797, 14.333816296164212], [79.23796512464429, 14.33106353335031], [79.23974750018091, 14.329010097974887], [79.24190454994748, 14.324203867815067], [79.24232749807514, 14.315251447257705], [79.23815592555168, 14.306609450941613], [79.23640061399918, 14.305218659356509], [79.23357762890049, 14.304853256467588], [79.23148262669437, 14.30173769387019], [79.22865700115423, 14.301716660809138], [79.2276162904372, 14.29929780883571], [79.22375545159173, 14.296169026721618], [79.21916665637735, 14.29579027405202], [79.21598249986769, 14.296455295033256], [79.21423829121535, 14.29368668364508], [79.2103668540704, 14.291935392665554], [79.20756320928139, 14.289158772704504], [79.19770987157679, 14.284606658711677], [79.19666133515388, 14.28322096655078], [79.19597969624834, 14.280115863181514], [79.19246731309816, 14.277678165270686], [79.18861562388331, 14.273515660128432], [79.18157196416337, 14.271050945012393], [79.17591609388286, 14.27169657696381], [79.17240408294268, 14.269258622427639], [79.16325034309862, 14.265743908957564], [79.1579533409816, 14.265703025526777], [79.15372136131283, 14.264981415772171], [79.15196412988776, 14.263934504590464], [79.14631970772656, 14.263201813811687], [79.14172342145768, 14.263854882275153], [79.13183873884591, 14.263433183679242], [79.12685232029258, 14.268560442525663], [79.12714282316492, 14.276140101140326], [79.1246451591368, 14.279220276596508], [79.1214439796046, 14.281950442010775], [79.11613526239749, 14.283286188353735], [79.11366607061701, 14.282922211238922], [79.11226208251769, 14.281877811991844], [79.11262958478517, 14.280158608870918], [79.11512167586221, 14.27776738352093], [79.11972683735856, 14.276081666624322], [79.12259478046707, 14.270937912309503], [79.12651057651765, 14.267180051131865], [79.12688078090267, 14.265116403916009], [79.1230049565907, 14.264052633464589], [79.11311753377235, 14.263974562507828], [79.10890306490973, 14.261185774836402], [79.10713461113683, 14.261516162059339], [79.10431544284688, 14.260804914658923], [79.10186958567793, 14.25768565402915], [79.09765250002923, 14.255241095970547], [79.09060491975342, 14.253462671062154], [79.07576309649129, 14.254721058220541], [79.07079335676323, 14.257780656210377], [79.06760956643497, 14.258443706189835], [79.0651084622169, 14.261867576692103], [79.05875547997634, 14.261471509250569], [79.05594244430316, 14.260070928912834], [79.05206127157255, 14.259694834176218], [79.04716232909797, 14.254488570400406], [79.04363437576743, 14.254115243280555], [79.03722808342708, 14.259917583541887], [79.03507964747047, 14.263343985442734], [79.03189573616162, 14.264006534567747], [79.0251417623393, 14.269116787119613], [79.02090143103715, 14.269426009085953], [79.01841761448581, 14.27078299046543], [79.01488649900229, 14.270753592484505], [79.01063707667086, 14.272095766056681], [79.00322780554235, 14.271344965338848], [79.00077123261002, 14.269602343998304], [78.99972711202525, 14.26787156332539], [78.99940440390988, 14.264424820634023], [79.00263689299732, 14.258252660675842], [79.00620108494952, 14.25449404000144], [79.00622226916711, 14.252083382638567], [79.00446898327444, 14.25069110154079], [78.99775444480922, 14.25132364136415], [78.99388582242767, 14.249569122017153], [78.99108562108063, 14.246790339068925], [78.99078131564337, 14.241277340037543], [78.99293924063419, 14.236818259375712], [78.99721535583686, 14.232376920598366], [79.00465658780571, 14.229339562740659], [79.0106975355774, 14.224912666309974], [79.01287294711524, 14.21838703644198], [79.012199989193, 14.214592964451], [79.01363012086742, 14.21253840655277], [79.0164542866189, 14.212561850093463], [79.02031055616503, 14.2156934839632], [79.02027459039152, 14.219826087145787], [79.01744132188135, 14.22083582579714], [79.01527201638234, 14.226672745478718], [79.01206150399166, 14.230434525069708], [78.99823201914568, 14.23720709928564], [78.9950150016889, 14.24165734541063], [78.99498763194369, 14.244756743335497], [78.99673473081974, 14.24683783685697], [79.00697681885303, 14.24657920623979], [79.01118954590765, 14.249369606108157], [79.01152451738122, 14.251438834365308], [79.01045017839742, 14.253151904268908], [79.01007292993985, 14.255904001798296], [79.0057813845071, 14.262067434465285], [79.0057541210211, 14.265166847556094], [79.0064542648409, 14.265861514777338], [79.00857287656336, 14.265879228858122], [79.01102948406569, 14.267621772764471], [79.01350424249189, 14.267298011668709], [79.0152848481387, 14.265590818207139], [79.02058741934087, 14.264946106552374], [79.02519876810187, 14.262573505690463], [79.02698524829214, 14.260177440451423], [79.02451656937511, 14.25981258783685], [79.02346628558966, 14.258770658449116], [79.02348129128451, 14.25704874290959], [79.0241904745768, 14.256710212428167], [79.02560284032465, 14.256721911479538], [79.02700622047404, 14.257766753770548], [79.02733834560216, 14.260180362555342], [79.03052519748482, 14.259173484417877], [79.03336788888421, 14.257130492143009], [79.03480114980042, 14.254731438554968], [79.03481606507049, 14.253009510641785], [79.03340968439679, 14.25230909845399], [79.0330745088312, 14.250239875138174], [79.03133299228182, 14.247470231773205], [79.03455244318762, 14.24267503022709], [79.03597366669133, 14.241653498239108], [79.03773901955564, 14.241668018523457], [79.03913940739498, 14.243057172613625], [79.04374123414973, 14.241717289966555], [79.04368781779962, 14.247916268328888], [79.04967246234513, 14.250031744086892], [79.05247646562997, 14.252465546662828], [79.05636341788681, 14.25215283907582], [79.05669291088306, 14.25491083697633], [79.05809644885007, 14.255955513183554], [79.06233950534211, 14.255301198812225], [79.06518190758878, 14.253257783651568], [79.06590571008383, 14.251197159336398], [79.07086363717802, 14.249515224364396], [79.07619210372839, 14.245769658494943], [79.0797346120732, 14.24442051914438], [79.0850192589143, 14.24584066277477], [79.08712617496477, 14.247235241299384], [79.09242542462842, 14.246933247104307], [79.10441328593238, 14.249095323944427], [79.10792415271312, 14.251534157755492], [79.11601689334334, 14.255042460562002], [79.13226277104256, 14.254825822609286], [79.13755378709169, 14.255556058553019], [79.14817532249975, 14.252194472725984], [79.15841554211572, 14.252273754492755], [79.15946929150041, 14.252970752320527], [79.15945532202726, 14.254692805448435], [79.15625768624203, 14.257079127139203], [79.15765617611154, 14.258812095258023], [79.16648982098586, 14.25819132412501], [79.1714252189312, 14.259262527468252], [79.17353287853823, 14.260656420736925], [79.17600477740861, 14.26067534621025], [79.17814568409915, 14.257936235050584], [79.17887405395732, 14.255186315898277], [79.17079672049344, 14.24961355146732], [79.16620907396663, 14.249233898230191], [79.16515531602305, 14.248536929584592], [79.16162145383649, 14.24885415854782], [79.16128229620628, 14.247129381656201], [79.16201081288422, 14.244379531967548], [79.16307290131063, 14.244043276484808], [79.16518315408081, 14.245092810236086], [79.16800797473168, 14.245114512980042], [79.17011271268609, 14.246852832703508], [79.17328235483811, 14.247910423720418], [79.17398025923585, 14.248949070397796], [79.1771499539341, 14.250006615472083], [79.18242181938957, 14.253146764967074], [79.18627032866361, 14.257653738290067], [79.18800018633272, 14.26214456945837], [79.1894017191274, 14.263532967102345], [79.19362014377035, 14.265976037677667], [79.19677375016532, 14.269099863485811], [79.20136465257798, 14.26913456311015], [79.20241589775296, 14.270175813427793], [79.20273079915674, 14.275000335167402], [79.20377934416068, 14.276386001383012], [79.21012532389437, 14.27781153919902], [79.21257571341556, 14.280585467736602], [79.21925339021631, 14.28476880218269], [79.22595292464334, 14.28619659773212], [79.2305092396957, 14.29070827651662], [79.23929602642463, 14.296284569954725], [79.24033417837535, 14.299047808832222], [79.24873364613515, 14.309098736951528], [79.24904682697128, 14.314267728573464], [79.25008782817787, 14.316686517930384], [79.25075426853516, 14.321858111606383], [79.25250446585675, 14.323937672544874], [79.25354020765052, 14.32704530681245], [79.25278837422209, 14.332895352026952], [79.25454399613908, 14.334286055382238], [79.25522919857039, 14.337046662563893], [79.25767543010481, 14.340509103395581], [79.25940720444937, 14.344999622226483], [79.26293200888833, 14.346058810659175], [79.2647090109936, 14.344694033471331], [79.2654367677096, 14.341943778647952], [79.26686309806355, 14.340231967412535], [79.26654424676107, 14.335751816754968], [79.2672640030776, 14.334034834535325], [79.26832378568176, 14.334042570927146], [79.26972097710271, 14.336119453143345], [79.26932806091872, 14.341283309925114], [79.26719254265248, 14.343334404095094], [79.26645950154652, 14.346773522182984], [79.26290811404434, 14.349158657750323], [79.25970195910455, 14.352579605549538], [79.25438128724282, 14.355296040247477], [79.25081627018145, 14.35940308804547], [79.24763123491168, 14.36006843817433], [79.24441932443105, 14.36417797943967], [79.24121806105018, 14.366909770949741], [79.23692979503798, 14.37307783854473], [79.23232856955347, 14.374076844788336], [79.23053217560465, 14.377852271412065], [79.22131584108229, 14.381572004908724], [79.22024222632398, 14.383286125487757], [79.218114061392, 14.384303419443143], [79.21562160811362, 14.386695696678052], [79.21453150058497, 14.39047628633137], [79.210981653193, 14.39251607607061], [79.20846979652983, 14.397319168548634], [79.20348708997854, 14.401759009700418], [79.20275555826257, 14.404853366471919], [79.19850695339372, 14.40585430752676], [79.19174870487852, 14.411313604170878], [79.18997908837899, 14.411644478708666], [79.18963405983256, 14.410608533917182]], [[79.2286074387039, 14.353038128522474], [79.2247538956078, 14.348876007467473], [79.22088146116425, 14.347124776654868], [79.2201857966284, 14.345741795426223], [79.21877816060987, 14.345042345514319], [79.2184385032648, 14.34331759506132], [79.22061518085448, 14.336100692856288], [79.22455791557273, 14.328896968061292], [79.22422364236046, 14.326483379603259], [79.22351987195127, 14.326133673231423], [79.22353884681347, 14.323722727592681], [79.22779661392863, 14.321343451695077], [79.22993491570153, 14.318948303496914], [79.23168758080419, 14.320683571488928], [79.23130466587028, 14.324469586737502], [79.23200305064138, 14.325508115626274], [79.23160662602282, 14.331016240424615], [79.23230772759575, 14.331710348120591], [79.23263669235517, 14.334812779482867], [79.23257730266789, 14.34239006585597], [79.23219702324863, 14.345831651628222], [79.2300313967933, 14.35167100154677], [79.2286074387039, 14.353038128522474]], [[79.2351391223919, 14.331042535278263], [79.23483436582215, 14.324840297263677], [79.23378542506676, 14.323454725317193], [79.23452152713105, 14.319671326785162], [79.23346991440295, 14.318630178711505], [79.23278231987747, 14.316213964166343], [79.23351301396079, 14.313119411822319], [79.23320018958616, 14.30795044009276], [79.23425713941238, 14.308302737833735], [79.23530064449635, 14.310377148504909], [79.23630651814763, 14.317273485277774], [79.23803234916699, 14.322452946969154], [79.23730973882532, 14.324514244424828], [79.2372666961854, 14.33002501735684], [79.23619618009647, 14.33139483648473], [79.2351391223919, 14.331042535278263]], [[79.26835815326235, 14.329564995162817], [79.26799961170218, 14.330251275525395], [79.26800489932643, 14.32956241772953], [79.26835815326235, 14.329564995162817]], [[79.22611160049158, 14.31099761887717], [79.22153605138817, 14.308896772534661], [79.21693613870097, 14.309895627981069], [79.21589553269335, 14.307476736404546], [79.21627048661604, 14.304724027495556], [79.21875378035301, 14.30336488378013], [79.22579894375569, 14.305828656362452], [79.22684776241287, 14.307214250487432], [79.22752717055444, 14.31066373944358], [79.22611160049158, 14.31099761887717]], [[79.2564911775553, 14.31087800689966], [79.25580068401216, 14.308806259387598], [79.25722684124729, 14.307094486123765], [79.25969670804818, 14.307457029593152], [79.2614495496122, 14.309192095402567], [79.26144159985765, 14.31022538024562], [79.26037662947931, 14.310906481867667], [79.2564911775553, 14.31087800689966]], [[79.20427249467154, 14.303255947747084], [79.20603849858513, 14.303269279794971], [79.20602209891082, 14.305335788418056], [79.20531022138762, 14.3060192922257], [79.20389740149534, 14.306008621303166], [79.20427249467154, 14.303255947747084]], [[79.19723321274063, 14.300102739971397], [79.19617088266814, 14.300439121172598], [79.19617363015375, 14.300094704824362], [79.19723321274063, 14.300102739971397]], [[79.2004201871256, 14.299093565596968], [79.20253934854536, 14.299109592246833], [79.20253387327996, 14.29979842741002], [79.20005876952166, 14.30012414397725], [79.2004201871256, 14.299093565596968]], [[79.20538129944923, 14.297064422823363], [79.19760836714359, 14.297350083993958], [79.19620110098619, 14.296650540766016], [79.19586439451903, 14.29458136347323], [79.1979972254011, 14.292875341333923], [79.19836686344169, 14.290811514165672], [79.1959110798119, 14.288726282245587], [79.1899236203013, 14.286614196415954], [79.1892475809844, 14.28282025322522], [79.19138033256006, 14.281114281647772], [79.19279023845421, 14.281469424906641], [79.19558536098491, 14.285279438340106], [79.20613957203123, 14.290525801625998], [79.21210555658288, 14.2953928647974], [79.21138283574767, 14.297454070504417], [79.20643541064858, 14.297761252059347], [79.20538129944923, 14.297064422823363]], [[79.22385277331274, 14.283769839492631], [79.21856601174784, 14.282352569412032], [79.218574140957, 14.28131930605413], [79.22139949636924, 14.281340429394792], [79.22315723756113, 14.282386880419493], [79.22385277331274, 14.283769839492631]], [[79.18859083839723, 14.27661540080955], [79.18083525419927, 14.27483410927375], [79.18049593283244, 14.273109341199778], [79.1815581441469, 14.272773016880421], [79.18649120451072, 14.274188368243774], [79.18859910088685, 14.27558215400999], [79.18859083839723, 14.27661540080955]], [[79.11836861727429, 14.2695268721048], [79.11450423817256, 14.267085353614762], [79.11451283249711, 14.266052149364226], [79.11769381764279, 14.265732871181244], [79.12298499530513, 14.266463455445361], [79.12226732892745, 14.267835503324132], [79.11978399880269, 14.269193620927181], [79.11836861727429, 14.2695268721048]], [[79.04781812590153, 14.260348951067447], [79.04710895630666, 14.260687554850769], [79.04711192213442, 14.26034316691527], [79.04781812590153, 14.260348951067447]], [[79.17144187865746, 14.25719605056315], [79.16932870495677, 14.256490968735966], [79.16862802435257, 14.255796721185035], [79.16899226281241, 14.254421783011406], [79.16688190681256, 14.25337227123925], [79.16689860072829, 14.251305798585172], [79.16971794561978, 14.252016315629888], [79.1704186197361, 14.252710559187387], [79.17040473360372, 14.254432622959186], [79.17499250137438, 14.254812208698551], [79.17604632175077, 14.255509140607705], [79.17603801421295, 14.256542381916415], [79.17426685984029, 14.257217697217795], [79.17144187865746, 14.25719605056315]], [[79.06628227721642, 14.248444884655257], [79.06417256634715, 14.247394528603474], [79.06418431414649, 14.24601696125656], [79.06560545082561, 14.244995238609167], [79.07302310945558, 14.244710836085506], [79.07230232188411, 14.246427100335412], [79.06875389041396, 14.248464905007], [79.06628227721642, 14.248444884655257]], [[79.07833102187793, 14.243375965817137], [79.0762242028438, 14.241981320435263], [79.07769481597857, 14.235104803516894], [79.08266394452929, 14.23204498210587], [79.08478233744188, 14.232061979400955], [79.08547976412066, 14.23310083071632], [79.08545074270303, 14.236544795767559], [79.08365922960945, 14.23963019767419], [79.08045242655794, 14.243048619548404], [79.07833102187793, 14.243375965817137]], [[79.07339957052206, 14.241958536506631], [79.07128987468195, 14.240908246338718], [79.0720223396773, 14.237814408472085], [79.07309032032363, 14.23678977826206], [79.07414953256917, 14.236798324484166], [79.0751941540068, 14.238528837729755], [79.07552096299852, 14.241631233293731], [79.07339957052206, 14.241958536506631]], [[79.1585552070726, 14.235053218070291], [79.15645346274242, 14.232970407893529], [79.15646184498458, 14.23193717592385], [79.15822166369794, 14.232639618249209], [79.1585552070726, 14.235053218070291]]], [[[79.24555170114807, 14.354886388620082], [79.24875005287689, 14.352498935174994], [79.25192963153678, 14.352522407679475], [79.25512255442993, 14.35082370806877], [79.25761419408614, 14.348430914657687], [79.25833406719092, 14.346713973533612], [79.25659697872283, 14.342912301285649], [79.25239241857774, 14.338403564732682], [79.25068219130446, 14.33115760874802], [79.24963312006265, 14.32977209311046], [79.24786686712467, 14.329759061210538], [79.245011394815, 14.33352685367158], [79.24462061014252, 14.338346182712137], [79.24319145672204, 14.340402266631548], [79.24100735341841, 14.34865272203153], [79.23884998885868, 14.353458905714595], [79.23954579276726, 14.354841847158724], [79.24555170114807, 14.354886388620082]], [[79.25232833538963, 14.346669780550794], [79.25375745859935, 14.344613637618673], [79.2548172832803, 14.344621439941669], [79.25621705982374, 14.346353967106651], [79.25620373403136, 14.348076098272218], [79.25371475509804, 14.350124449983628], [79.25194833890534, 14.35011143039113], [79.25232833538963, 14.346669780550794]], [[79.24846369760705, 14.343885705256303], [79.24639228396272, 14.337670397038762], [79.24677767453198, 14.333539910169952], [79.24784546877166, 14.332514462467271], [79.24889721254011, 14.333555560634432], [79.25096600186706, 14.340115278044285], [79.25094996983604, 14.342181830686986], [79.24987946290774, 14.343551713155291], [79.24846369760705, 14.343885705256303]]]]}}, {"type": "Feature", "properties": {"depth_class": 2, "depth_lo_m": 1.0, "t_s": 26100.444652413305}, "geometry": {"type": "MultiPolygon", "coordinates": [[[[79.1585552070726, 14.235053218070291], [79.15787137413179, 14.232292484160446], [79.15646184498458, 14.23193717592385], [79.15645346274242, 14.232970407893529], [79.1585552070726, 14.235053218070291]]], [[[79.07833102187793, 14.243375965817137], [79.08187348244478, 14.242026788150266], [79.08545074270303, 14.236544795767559], [79.08547976412066, 14.23310083071632], [79.08478233744188, 14.232061979400955], [79.0812458681198, 14.23272243159627], [79.0784067797394, 14.234421697094623], [79.07697701738475, 14.236476696736508], [79.0762242028438, 14.241981320435263], [79.07833102187793, 14.243375965817137]], [[79.07835433759448, 14.240620806966218], [79.07839221500697, 14.236143672400157], [79.08194327888752, 14.233761291418032], [79.08371152324426, 14.233431067944856], [79.08440023664073, 14.235503111048418], [79.08224692125786, 14.239618855693516], [79.08011390385624, 14.241323803383816], [79.07835433759448, 14.240620806966218]]], [[[79.07552096299852, 14.241631233293731], [79.07414953256917, 14.236798324484166], [79.07309032032363, 14.23678977826206], [79.0720223396773, 14.237814408472085], [79.07129864910195, 14.23987506592863], [79.0716400269483, 14.241255492590108], [79.07481188605894, 14.241969932643514], [79.07552096299852, 14.241631233293731]]], [[[79.04781812590153, 14.260348951067447], [79.04710895630666, 14.260687554850769], [79.0478151611446, 14.260693339148352], [79.04781812590153, 14.260348951067447]]], [[[79.19617363015375, 14.300094704824362], [79.19723046686677, 14.300447156521123], [79.19723321274063, 14.300102739971397], [79.19617363015375, 14.300094704824362]]], [[[79.1906858241333, 14.41164989539014], [79.19352386506192, 14.410293890458117], [79.19850695339372, 14.40585430752676], [79.20275555826257, 14.404853366471919], [79.20348708997854, 14.401759009700418], [79.20846979652983, 14.397319168548634], [79.210981653193, 14.39251607607061], [79.21453150058497, 14.39047628633137], [79.21562160811362, 14.386695696678052], [79.218114061392, 14.384303419443143], [79.22024222632398, 14.383286125487757], [79.22131584108229, 14.381572004908724], [79.23053217560465, 14.377852271412065], [79.23232856955347, 14.374076844788336], [79.23692979503798, 14.37307783854473], [79.24121806105018, 14.366909770949741], [79.24441932443105, 14.36417797943967], [79.24763123491168, 14.36006843817433], [79.25081627018145, 14.35940308804547], [79.25438128724282, 14.355296040247477], [79.25970195910455, 14.352579605549538], [79.26290811404434, 14.349158657750323], [79.26645950154652, 14.346773522182984], [79.26683397089124, 14.344020679076102], [79.26932806091872, 14.341283309925114], [79.26972097710271, 14.336119453143345], [79.26832378568176, 14.334042570927146], [79.2672640030776, 14.334034834535325], [79.26654424676107, 14.335751816754968], [79.26686309806355, 14.340231967412535], [79.2654367677096, 14.341943778647952], [79.2647090109936, 14.344694033471331], [79.26293200888833, 14.346058810659175], [79.25940720444937, 14.344999622226483], [79.25767543010481, 14.340509103395581], [79.25522919857039, 14.337046662563893], [79.25454399613908, 14.334286055382238], [79.25278837422209, 14.332895352026952], [79.25354020765052, 14.32704530681245], [79.25250446585675, 14.323937672544874], [79.25075426853516, 14.321858111606383], [79.25008782817787, 14.316686517930384], [79.24904682697128, 14.314267728573464], [79.24873364613515, 14.309098736951528], [79.24033417837535, 14.299047808832222], [79.23929602642463, 14.296284569954725], [79.2305092396957, 14.29070827651662], [79.22595292464334, 14.28619659773212], [79.21925339021631, 14.28476880218269], [79.21257571341556, 14.280585467736602], [79.21012532389437, 14.27781153919902], [79.20377934416068, 14.276386001383012], [79.20273079915674, 14.275000335167402], [79.20241589775296, 14.270175813427793], [79.20136465257798, 14.26913456311015], [79.19677375016532, 14.269099863485811], [79.19362014377035, 14.265976037677667], [79.1894017191274, 14.263532967102345], [79.18800018633272, 14.26214456945837], [79.18627032866361, 14.257653738290067], [79.18242181938957, 14.253146764967074], [79.1771499539341, 14.250006615472083], [79.17398025923585, 14.248949070397796], [79.17328235483811, 14.247910423720418], [79.17011271268609, 14.246852832703508], [79.16800797473168, 14.245114512980042], [79.16518315408081, 14.245092810236086], [79.16307290131063, 14.244043276484808], [79.16201081288422, 14.244379531967548], [79.16128229620628, 14.247129381656201], [79.16162145383649, 14.24885415854782], [79.16515531602305, 14.248536929584592], [79.16620907396663, 14.249233898230191], [79.17079672049344, 14.24961355146732], [79.17887405395732, 14.255186315898277], [79.17814568409915, 14.257936235050584], [79.17600477740861, 14.26067534621025], [79.17353287853823, 14.260656420736925], [79.1714252189312, 14.259262527468252], [79.16648982098586, 14.25819132412501], [79.15765617611154, 14.258812095258023], [79.15625768624203, 14.257079127139203], [79.15945532202726, 14.254692805448435], [79.15946929150041, 14.252970752320527], [79.15841554211572, 14.252273754492755], [79.14817532249975, 14.252194472725984], [79.13755378709169, 14.255556058553019], [79.13226277104256, 14.254825822609286], [79.11601689334334, 14.255042460562002], [79.10792415271312, 14.251534157755492], [79.10441328593238, 14.249095323944427], [79.09242542462842, 14.246933247104307], [79.08712617496477, 14.247235241299384], [79.0850192589143, 14.24584066277477], [79.0797346120732, 14.24442051914438], [79.07619210372839, 14.245769658494943], [79.07086363717802, 14.249515224364396], [79.06590571008383, 14.251197159336398], [79.06518190758878, 14.253257783651568], [79.06233950534211, 14.255301198812225], [79.05809644885007, 14.255955513183554], [79.05669291088306, 14.25491083697633], [79.05636341788681, 14.25215283907582], [79.05247646562997, 14.252465546662828], [79.04967246234513, 14.250031744086892], [79.04368781779962, 14.247916268328888], [79.04374123414973, 14.241717289966555], [79.04232894629965, 14.24170571024535], [79.04055170094307, 14.243068772277253], [79.03913940739498, 14.243057172613625], [79.03773901955564, 14.241668018523457], [79.03597366669133, 14.241653498239108], [79.03455244318762, 14.24267503022709], [79.03133299228182, 14.247470231773205], [79.0330745088312, 14.250239875138174], [79.03340968439679, 14.25230909845399], [79.03481606507049, 14.253009510641785], [79.03480114980042, 14.254731438554968], [79.03336788888421, 14.257130492143009], [79.03052519748482, 14.259173484417877], [79.02733834560216, 14.260180362555342], [79.02700622047404, 14.257766753770548], [79.02560284032465, 14.256721911479538], [79.0241904745768, 14.256710212428167], [79.02348129128451, 14.25704874290959], [79.02346628558966, 14.258770658449116], [79.02451656937511, 14.25981258783685], [79.02698524829214, 14.260177440451423], [79.02519876810187, 14.262573505690463], [79.02058741934087, 14.264946106552374], [79.0152848481387, 14.265590818207139], [79.01350424249189, 14.267298011668709], [79.01102948406569, 14.267621772764471], [79.00857287656336, 14.265879228858122], [79.0064542648409, 14.265861514777338], [79.0057541210211, 14.265166847556094], [79.0057813845071, 14.262067434465285], [79.01007292993985, 14.255904001798296], [79.01045017839742, 14.253151904268908], [79.01152451738122, 14.251438834365308], [79.01118954590765, 14.249369606108157], [79.00697681885303, 14.24657920623979], [78.99673473081974, 14.24683783685697], [78.99498763194369, 14.244756743335497], [78.9950150016889, 14.24165734541063], [78.99823201914568, 14.23720709928564], [79.01206150399166, 14.230434525069708], [79.01527201638234, 14.226672745478718], [79.01744132188135, 14.22083582579714], [79.02027459039152, 14.219826087145787], [79.02031055616503, 14.2156934839632], [79.0164542866189, 14.212561850093463], [79.01363012086742, 14.21253840655277], [79.012199989193, 14.214592964451], [79.01287294711524, 14.21838703644198], [79.0106975355774, 14.224912666309974], [79.00465658780571, 14.229339562740659], [78.99721535583686, 14.232376920598366], [78.99293924063419, 14.236818259375712], [78.99078131564337, 14.241277340037543], [78.99108562108063, 14.246790339068925], [78.99388582242767, 14.249569122017153], [78.99775444480922, 14.25132364136415], [79.00446898327444, 14.25069110154079], [79.00622226916711, 14.252083382638567], [79.00620108494952, 14.25449404000144], [79.00263689299732, 14.258252660675842], [78.99940440390988, 14.264424820634023], [78.99972711202525, 14.26787156332539], [79.00182144178602, 14.270644365562307], [79.00322780554235, 14.271344965338848], [79.01063707667086, 14.272095766056681], [79.01488649900229, 14.270753592484505], [79.01841761448581, 14.27078299046543], [79.02090143103715, 14.269426009085953], [79.0251417623393, 14.269116787119613], [79.03189573616162, 14.264006534567747], [79.03507964747047, 14.263343985442734], [79.03722808342708, 14.259917583541887], [79.04363437576743, 14.254115243280555], [79.04716232909797, 14.254488570400406], [79.05206127157255, 14.259694834176218], [79.05594244430316, 14.260070928912834], [79.05875547997634, 14.261471509250569], [79.0651084622169, 14.261867576692103], [79.06760956643497, 14.258443706189835], [79.07079335676323, 14.257780656210377], [79.07576309649129, 14.254721058220541], [79.09060491975342, 14.253462671062154], [79.09765250002923, 14.255241095970547], [79.10186958567793, 14.25768565402915], [79.10431544284688, 14.260804914658923], [79.10713461113683, 14.261516162059339], [79.10890306490973, 14.261185774836402], [79.11311753377235, 14.263974562507828], [79.1230049565907, 14.264052633464589], [79.12688078090267, 14.265116403916009], [79.12651057651765, 14.267180051131865], [79.12259478046707, 14.270937912309503], [79.11972683735856, 14.276081666624322], [79.11512167586221, 14.27776738352093], [79.11262958478517, 14.280158608870918], [79.11226208251769, 14.281877811991844], [79.11366607061701, 14.282922211238922], [79.11613526239749, 14.283286188353735], [79.1214439796046, 14.281950442010775], [79.1246451591368, 14.279220276596508], [79.12714282316492, 14.276140101140326], [79.12685232029258, 14.268560442525663], [79.13183873884591, 14.263433183679242], [79.14172342145768, 14.263854882275153], [79.14631970772656, 14.263201813811687], [79.15196412988776, 14.263934504590464], [79.15372136131283, 14.264981415772171], [79.1579533409816, 14.265703025526777], [79.16325034309862, 14.265743908957564], [79.17240408294268, 14.269258622427639], [79.17591609388286, 14.27169657696381], [79.18157196416337, 14.271050945012393], [79.18861562388331, 14.273515660128432], [79.19246731309816, 14.277678165270686], [79.19597969624834, 14.280115863181514], [79.19666133515388, 14.28322096655078], [79.19770987157679, 14.284606658711677], [79.20756320928139, 14.289158772704504], [79.2103668540704, 14.291935392665554], [79.21423829121535, 14.29368668364508], [79.21598249986769, 14.296455295033256], [79.21916665637735, 14.29579027405202], [79.22375545159173, 14.296169026721618], [79.2276162904372, 14.29929780883571], [79.22865700115423, 14.301716660809138], [79.23148262669437, 14.30173769387019], [79.23357762890049, 14.304853256467588], [79.23640061399918, 14.305218659356509], [79.23815592555168, 14.306609450941613], [79.24232749807514, 14.315251447257705], [79.24190454994748, 14.324203867815067], [79.23974750018091, 14.329010097974887], [79.23796512464429, 14.33106353335031], [79.23759034851797, 14.333816296164212], [79.23475353061252, 14.335172980199404], [79.2336020156147, 14.346875449200878], [79.23143911479804, 14.352370393012741], [79.22822706176052, 14.356479695964126], [79.22748794987298, 14.360607458387507], [79.22677593463766, 14.361291010944855], [79.22500945657023, 14.361277780612733], [79.22360442837534, 14.360233927530363], [79.22362344942917, 14.357822988695068], [79.2261208958803, 14.354741734158331], [79.22543874556386, 14.351636660926241], [79.22262880757121, 14.349548964705916], [79.21768566692919, 14.349167410765007], [79.21451711103293, 14.347765810762372], [79.21418021459958, 14.345696639434873], [79.21596291705447, 14.343643423518909], [79.21597927141845, 14.341576910280601], [79.21387606702802, 14.339494445935845], [79.21175651348986, 14.339478476290813], [79.20607149628223, 14.343568802554637], [79.2046364929339, 14.346313442107599], [79.20179386115234, 14.348358521385903], [79.20175537459123, 14.353180344715941], [79.19778662095612, 14.363483276061295], [79.19351669259765, 14.367239531232345], [79.19136644712742, 14.371011897019498], [79.18781121130436, 14.373740178704253], [79.18850118212578, 14.375812064296403], [79.19062105039822, 14.375828281752264], [79.19381745399808, 14.37378608994197], [79.19770937723291, 14.37312688705499], [79.20054962563887, 14.371426316772348], [79.20338158228454, 14.370758954237026], [79.20657781337333, 14.368716567277286], [79.20905093997636, 14.36873528790744], [79.21080102709138, 14.370815146659158], [79.21077911093077, 14.373570482963606], [79.20898786637548, 14.376656871750216], [79.208240061656, 14.381817767894255], [79.20645695077836, 14.383870876159888], [79.20572554727447, 14.38696525807447], [79.20358352627909, 14.389704485356974], [79.20106604184052, 14.395196314640126], [79.1946532408495, 14.401691673348065], [79.19285597078864, 14.405466706464718], [79.19143143295506, 14.406833538020589], [79.18962850042585, 14.411297357700054], [79.1906858241333, 14.41164989539014]], [[79.22524593771095, 14.376090482156371], [79.22315867827857, 14.37194154275222], [79.22317772028008, 14.369530606879568], [79.22424851777767, 14.368160880650061], [79.22497958057846, 14.365066400307478], [79.22710752925236, 14.364049018508668], [79.22889029122078, 14.361995711467829], [79.2292760946105, 14.357865302554796], [79.23142288939061, 14.354436921769608], [79.23530364183662, 14.355154736728057], [79.23811647394571, 14.356897880533381], [79.24447303981603, 14.357289506077354], [79.24908459805059, 14.354912518460036], [79.25262284621357, 14.354249744977047], [79.25047367746389, 14.358022779847989], [79.24693536616337, 14.358685513577129], [79.2433701655054, 14.362792426643537], [79.24088359913482, 14.364496186436844], [79.23588065128652, 14.371692254059782], [79.23128216091277, 14.37234682183837], [79.22807520366726, 14.375767242710353], [79.22524593771095, 14.376090482156371]], [[79.23919519729704, 14.354494799469046], [79.23884998885868, 14.353458905714595], [79.24100735341841, 14.34865272203153], [79.24246881441653, 14.342463575659101], [79.24462061014252, 14.338346182712137], [79.245011394815, 14.33352685367158], [79.24786686712467, 14.329759061210538], [79.24963312006265, 14.32977209311046], [79.25068219130446, 14.33115760874802], [79.25239241857774, 14.338403564732682], [79.25834205232309, 14.345680693571419], [79.25797280089715, 14.347744657825858], [79.25405736199627, 14.351504755256919], [79.25192963153678, 14.352522407679475], [79.24875005287689, 14.352498935174994], [79.24484243856811, 14.35522558024572], [79.23919519729704, 14.354494799469046]], [[79.25617174490965, 14.352209212001371], [79.25973920423066, 14.347757630446326], [79.26150560933017, 14.347770589921394], [79.26149498006507, 14.349148298599154], [79.25935931578027, 14.35119930446577], [79.25617174490965, 14.352209212001371]], [[79.23717786290632, 14.341390978062865], [79.23967493180884, 14.338309534469579], [79.24073740587528, 14.337972972699712], [79.24000668665329, 14.341067543265888], [79.23716439652208, 14.343113092326158], [79.23717786290632, 14.341390978062865]], [[79.24147884072431, 14.333500701280638], [79.24256543635944, 14.33006431095678], [79.24398647764515, 14.329041495839235], [79.24254397280473, 14.33281970428558], [79.24147884072431, 14.333500701280638]], [[79.24473047690476, 14.324224775592935], [79.24653680844564, 14.31907144814034], [79.24795775936275, 14.318048598399384], [79.2493439854072, 14.321503273729636], [79.24721118975812, 14.323209766586796], [79.24612738442981, 14.326301766935064], [79.24470369117404, 14.327669022854025], [79.24473047690476, 14.324224775592935]], [[79.24619962374088, 14.31700228874088], [79.24237840769241, 14.308707378115034], [79.23817740165875, 14.303854058069426], [79.23361261142735, 14.30037575313573], [79.23326748248597, 14.29933985919143], [79.22728198945806, 14.296884220255784], [79.22411946091624, 14.294793976900651], [79.21741969628523, 14.293366102522368], [79.21110317262013, 14.288152090645886], [79.20617779006695, 14.285703941286336], [79.20373290424479, 14.282241114087354], [79.19599341404968, 14.27839377858411], [79.18898253953209, 14.271796266507149], [79.18546484722332, 14.27004731822412], [79.18512549240445, 14.268322552763584], [79.18619043223187, 14.267641788809874], [79.18585382933092, 14.265572608452482], [79.18374879746048, 14.263834395275042], [79.17916634495108, 14.262766126595686], [79.17846838028481, 14.261727488349527], [79.17990854542916, 14.258294133642426], [79.18133209486896, 14.256927252863477], [79.18309771521776, 14.256940712483146], [79.18519992808577, 14.259023339633492], [79.18658214469967, 14.262822659219964], [79.18903207640528, 14.265596780448316], [79.1936036754792, 14.268042538598014], [79.19780031815193, 14.273240888943926], [79.20061733436059, 14.274295500783063], [79.20341525832399, 14.27776101115373], [79.20834589141488, 14.279520357072208], [79.21009537994551, 14.281600154644224], [79.21185578060292, 14.282302263479579], [79.21395034383164, 14.285417951707908], [79.2178217104668, 14.287169175514983], [79.22418163047512, 14.286872273028171], [79.22522766360208, 14.28860228726285], [79.23084088121354, 14.293466287756305], [79.23753004502677, 14.29627149111448], [79.24066594136681, 14.301805819696488], [79.24311964481757, 14.304235076399339], [79.24346214893633, 14.305615386748014], [79.24765796568524, 14.311157480785683], [79.24761521724439, 14.316668290622333], [79.24619962374088, 14.31700228874088]], [[79.00288987192286, 14.269620113139567], [79.00114863760975, 14.266850281841974], [79.00223829424331, 14.263415380994791], [79.00329455255931, 14.263768636342792], [79.0039764897203, 14.266529582143933], [79.00607995632811, 14.268269215008743], [79.01136748036194, 14.269346621350628], [79.0110053041202, 14.270376814212248], [79.00288987192286, 14.269620113139567]], [[79.01560780010463, 14.26903757068023], [79.01632306053202, 14.268010307709334], [79.01844170507081, 14.268027936683152], [79.01772645332183, 14.269055207253272], [79.01560780010463, 14.26903757068023]], [[79.02375034028515, 14.266694395258693], [79.02624907614667, 14.263615430426563], [79.03015116037085, 14.261581258243991], [79.03228769272052, 14.25953244740682], [79.03441224818509, 14.258861153627079], [79.0379730101423, 14.255446377171083], [79.03975632646201, 14.25339457687369], [79.0419164679722, 14.248590560249616], [79.04860431961647, 14.251056247041285], [79.05139944724488, 14.254523229161466], [79.05631620817516, 14.257663079001372], [79.05595720493781, 14.258348979955821], [79.05313535910352, 14.257981541139777], [79.05069030096615, 14.254861846762472], [79.04612084620572, 14.252413566365643], [79.04152474735275, 14.253064693884658], [79.0333290647789, 14.261607498718895], [79.03013919250539, 14.262958795732098], [79.02835571188103, 14.265010501657963], [79.02375034028515, 14.266694395258693]], [[79.16855014446769, 14.265440262760455], [79.16433205489156, 14.262996781416717], [79.15691074253995, 14.263628375836461], [79.15304035019925, 14.261876261627823], [79.14492974241436, 14.260435564193484], [79.13114952260521, 14.261361218168274], [79.12621437664407, 14.260289198216704], [79.1248104479922, 14.259244881209652], [79.12482183779868, 14.257867266433886], [79.12907057477047, 14.256522935317872], [79.13788710958418, 14.257969660353389], [79.1425001968651, 14.25525020901052], [79.14532510767192, 14.25527219549299], [79.14812190592558, 14.258738231819473], [79.15482839950519, 14.259134659066294], [79.1583456396767, 14.260884012897634], [79.1661144185002, 14.260943902448942], [79.1682164890692, 14.263026664615989], [79.17208704836807, 14.264778548500356], [79.17242907640747, 14.266158907821191], [79.16855014446769, 14.265440262760455]], [[79.0051054891421, 14.258617733295791], [79.00545555064637, 14.258965066784336], [79.0051024599267, 14.258962112527401], [79.0051054891421, 14.258617733295791]], [[79.00581166959165, 14.258623641139007], [79.0058177256388, 14.257934882347051], [79.00832261353554, 14.254167362488442], [79.00794836078218, 14.256575072963582], [79.00581166959165, 14.258623641139007]], [[79.05877316869179, 14.259405167251145], [79.05666635704772, 14.258010347159523], [79.06337821539648, 14.257720543390612], [79.06230420064426, 14.259433892613563], [79.05877316869179, 14.259405167251145]], [[79.00867872022191, 14.253825930886553], [79.00483417174551, 14.24931653735301], [79.0009442778838, 14.249972780463397], [78.99918497225374, 14.249269223205706], [79.00272784180748, 14.24792129410964], [79.00696472351926, 14.247956726065189], [79.01012125619111, 14.250393914689148], [79.00867872022191, 14.253825930886553]], [[79.10613277815654, 14.254619748151082], [79.10367543643696, 14.252878108493249], [79.1040371715375, 14.251847716436497], [79.10579979976872, 14.252206143387683], [79.10685048372382, 14.253247754313794], [79.10684186255655, 14.254280955086031], [79.10613277815654, 14.254619748151082]], [[79.03697630044239, 14.24820555158404], [79.0387446811184, 14.247875684420041], [79.03944489297578, 14.248570261795415], [79.03836481049805, 14.250972259711771], [79.03660236430026, 14.250613348735241], [79.03697630044239, 14.24820555158404]], [[79.08356910938164, 14.250306468679169], [79.0839396484815, 14.24824293040867], [79.08570510290333, 14.248257102456911], [79.08957461474996, 14.25001021966259], [79.08956881632622, 14.250699013437128], [79.08567895807371, 14.251356667534676], [79.08461967074216, 14.251348163946155], [79.08356910938164, 14.250306468679169]], [[78.99496025561875, 14.247856140405444], [78.99215091983663, 14.246110501377842], [78.99219355658296, 14.241289224305037], [78.99398927792133, 14.237860293566806], [78.99862451382761, 14.232733138189548], [79.00500056349793, 14.230375651783254], [79.01104153608044, 14.225948749725665], [79.01392902844178, 14.218740220810014], [79.01326206643897, 14.214257385035822], [79.0143301516362, 14.213233035542341], [79.01644528081957, 14.213594998880744], [79.01889245214753, 14.216370553311094], [79.01922748764765, 14.218439778907957], [79.0167472660527, 14.219452436464357], [79.01421288870303, 14.226663944280128], [79.01278265546523, 14.228718492511682], [79.0102962658442, 14.2304198262875], [79.00285807476467, 14.233112985471875], [78.99611368841813, 14.237189328312184], [78.99360884155762, 14.24095672291759], [78.99357536701706, 14.244744872767312], [78.99496025561875, 14.247856140405444]], [[79.1676409725146, 14.246833864157928], [79.16763541224454, 14.247522688962592], [79.16657887470876, 14.247170139156092], [79.16658165641168, 14.246825726953283], [79.1676409725146, 14.246833864157928]], [[79.04052494980955, 14.246168255601196], [79.04124596387244, 14.244452117812411], [79.04195211571805, 14.24445791301183], [79.04158418524257, 14.246176951841678], [79.04052494980955, 14.246168255601196]], [[79.03559080079616, 14.245094453119528], [79.035958772579, 14.243375428987287], [79.03702096945644, 14.243039757471113], [79.03842433514278, 14.24408452954122], [79.03876253434896, 14.245809364804327], [79.03629099430994, 14.245789037569859], [79.03559080079616, 14.245094453119528]]], [[[79.20253387327996, 14.29979842741002], [79.20253934854536, 14.299109592246833], [79.20006425245424, 14.299435309772903], [79.20005876952166, 14.30012414397725], [79.20253387327996, 14.29979842741002]]], [[[79.20531022138762, 14.3060192922257], [79.20603849858513, 14.303269279794971], [79.2049816306551, 14.302916864198435], [79.2039138213914, 14.303942115212626], [79.20389740149534, 14.306008621303166], [79.20531022138762, 14.3060192922257]]], [[[79.22753797713439, 14.309286051491714], [79.22649995652473, 14.306522771551762], [79.22509523084996, 14.305478961229992], [79.21875378035301, 14.30336488378013], [79.21627048661604, 14.304724027495556], [79.21589553269335, 14.307476736404546], [79.21693613870097, 14.309895627981069], [79.22153605138817, 14.308896772534661], [79.22717125156228, 14.311005526559903], [79.22753797713439, 14.309286051491714]]], [[[79.26108572686918, 14.310567224132338], [79.261101629393, 14.308500654803487], [79.25899292583233, 14.307107428344525], [79.25722684124729, 14.307094486123765], [79.25580068401216, 14.308806259387598], [79.2564911775553, 14.31087800689966], [79.26108572686918, 14.310567224132338]]], [[[79.23619618009647, 14.33139483648473], [79.2372666961854, 14.33002501735684], [79.23730973882532, 14.324514244424828], [79.23803234916699, 14.322452946969154], [79.23630651814763, 14.317273485277774], [79.23530064449635, 14.310377148504909], [79.23425713941238, 14.308302737833735], [79.23320018958616, 14.30795044009276], [79.23351301396079, 14.313119411822319], [79.23278231987747, 14.316213964166343], [79.23346991440295, 14.318630178711505], [79.23452152713105, 14.319671326785162], [79.23378542506676, 14.323454725317193], [79.23483436582215, 14.324840297263677], [79.2351391223919, 14.331042535278263], [79.23619618009647, 14.33139483648473]]], [[[79.26800489932643, 14.32956241772953], [79.26835286671526, 14.330253853087706], [79.26835815326235, 14.329564995162817], [79.26800489932643, 14.32956241772953]]]]}}, {"type": "Feature", "properties": {"depth_class": 3, "depth_lo_m": 2.0, "t_s": 26100.444652413305}, "geometry": {"type": "MultiPolygon", "coordinates": [[[[78.99496025561875, 14.247856140405444], [78.99357536701706, 14.244744872767312], [78.99360884155762, 14.24095672291759], [78.99611368841813, 14.237189328312184], [79.00285807476467, 14.233112985471875], [79.0102962658442, 14.2304198262875], [79.01278265546523, 14.228718492511682], [79.01421288870303, 14.226663944280128], [79.0167472660527, 14.219452436464357], [79.01922748764765, 14.218439778907957], [79.01889245214753, 14.216370553311094], [79.01644528081957, 14.213594998880744], [79.0143301516362, 14.213233035542341], [79.01326206643897, 14.214257385035822], [79.01392902844178, 14.218740220810014], [79.01104153608044, 14.225948749725665], [79.00500056349793, 14.230375651783254], [78.99862451382761, 14.232733138189548], [78.99398927792133, 14.237860293566806], [78.99219355658296, 14.241289224305037], [78.99215091983663, 14.246110501377842], [78.99390104236329, 14.247847236245603], [78.99496025561875, 14.247856140405444]], [[79.00854310002987, 14.229027591316186], [79.00924617357784, 14.229377857964487], [79.00854008257129, 14.229371972122689], [79.00854310002987, 14.229027591316186]], [[79.00924918996827, 14.22903347700973], [79.0099582954709, 14.228694979505793], [79.00995528022922, 14.22903936061928], [79.00924918996827, 14.22903347700973]], [[79.00996131063197, 14.228350598381764], [79.01173858151216, 14.22698777146507], [79.01390496991574, 14.2214952783792], [79.01496707932577, 14.221159695433052], [79.01458999081822, 14.223911821045206], [79.01244165539201, 14.227338028576952], [79.01066438498613, 14.228700860883192], [79.00996131063197, 14.228350598381764]], [[79.01432113575302, 14.214266182936639], [79.01538320956519, 14.213930593477533], [79.01643327196261, 14.214972530449831], [79.01606823495209, 14.216347132416987], [79.01430610767282, 14.21598809505003], [79.01432113575302, 14.214266182936639]]], [[[79.07905466678852, 14.241315280963356], [79.08224692125786, 14.239618855693516], [79.0840384520422, 14.236533466783918], [79.08440894799205, 14.234469922190506], [79.08371152324426, 14.233431067944856], [79.08194327888752, 14.233761291418032], [79.07839221500697, 14.236143672400157], [79.07800417460139, 14.24027356938424], [79.07905466678852, 14.241315280963356]], [[79.07978120804124, 14.238910196697084], [79.08015465913117, 14.236502269065609], [79.0815669463746, 14.236513620989646], [79.08048735883516, 14.238915875745315], [79.07978120804124, 14.238910196697084]]], [[[79.03842433514278, 14.24408452954122], [79.03666789674493, 14.243036853121877], [79.035958772579, 14.243375428987287], [79.03559080079616, 14.245094453119528], [79.03629099430994, 14.245789037569859], [79.03876253434896, 14.245809364804327], [79.03842433514278, 14.24408452954122]]], [[[79.04195211571805, 14.24445791301183], [79.0401778178123, 14.24547658195861], [79.04052494980955, 14.246168255601196], [79.04194023440544, 14.245835462259516], [79.04195211571805, 14.24445791301183]]], [[[79.00832563680333, 14.25382298244111], [79.0101121965913, 14.251427056227845], [79.00977421820004, 14.249702208142079], [79.00696472351926, 14.247956726065189], [79.00272784180748, 14.24792129410964], [78.99918497225374, 14.249269223205706], [79.00023812645524, 14.249966861723122], [79.00483417174551, 14.24931653735301], [79.00728755888255, 14.251403474904011], [79.00832563680333, 14.25382298244111]]], [[[79.00545555064637, 14.258965066784336], [79.0051054891421, 14.258617733295791], [79.0051024599267, 14.258962112527401], [79.00545555064637, 14.258965066784336]]], [[[79.00545857932646, 14.258620687478457], [79.00794836078218, 14.256575072963582], [79.00832261353554, 14.254167362488442], [79.00545857932646, 14.258620687478457]]], [[[79.02375034028515, 14.266694395258693], [79.02835571188103, 14.265010501657963], [79.03013919250539, 14.262958795732098], [79.0333290647789, 14.261607498718895], [79.04152474735275, 14.253064693884658], [79.04612084620572, 14.252413566365643], [79.05069030096615, 14.254861846762472], [79.05313535910352, 14.257981541139777], [79.05595720493781, 14.258348979955821], [79.05631620817516, 14.257663079001372], [79.05139944724488, 14.254523229161466], [79.04860431961647, 14.251056247041285], [79.0419164679722, 14.248590560249616], [79.03975632646201, 14.25339457687369], [79.0379730101423, 14.255446377171083], [79.03441224818509, 14.258861153627079], [79.03228769272052, 14.25953244740682], [79.03015116037085, 14.261581258243991], [79.02624907614667, 14.263615430426563], [79.02375034028515, 14.266694395258693]]], [[[79.06230420064426, 14.259433892613563], [79.06337821539648, 14.257720543390612], [79.05666635704772, 14.258010347159523], [79.05877316869179, 14.259405167251145], [79.06230420064426, 14.259433892613563]]], [[[79.00960194038036, 14.269331878114814], [79.00502670326723, 14.26757158988576], [79.00328241965137, 14.26514615108603], [79.00329455255931, 14.263768636342792], [79.00188216212501, 14.263756799486329], [79.00114863760975, 14.266850281841974], [79.00323994427704, 14.269967451356285], [79.01136143612463, 14.270035381818435], [79.01136748036194, 14.269346621350628], [79.00960194038036, 14.269331878114814]]], [[[79.01632306053202, 14.268010307709334], [79.01560780010463, 14.26903757068023], [79.01843568290646, 14.268716700192059], [79.01844170507081, 14.268027936683152], [79.01632306053202, 14.268010307709334]]], [[[79.16658165641168, 14.246825726953283], [79.16763541224454, 14.247522688962592], [79.1676409725146, 14.246833864157928], [79.16658165641168, 14.246825726953283]]], [[[79.08461967074216, 14.251348163946155], [79.08956881632622, 14.250699013437128], [79.08957461474996, 14.25001021966259], [79.08570510290333, 14.248257102456911], [79.08358364994942, 14.248584490167417], [79.08356910938164, 14.250306468679169], [79.08461967074216, 14.251348163946155]]], [[[79.10685048372382, 14.253247754313794], [79.10579979976872, 14.252206143387683], [79.10368119297772, 14.252189309174893], [79.10437300835774, 14.253916921590283], [79.10577967300956, 14.254616943782256], [79.10684186255655, 14.254280955086031], [79.10685048372382, 14.253247754313794]]], [[[79.17243740622897, 14.265125669430692], [79.1661144185002, 14.260943902448942], [79.1583456396767, 14.260884012897634], [79.15482839950519, 14.259134659066294], [79.14812190592558, 14.258738231819473], [79.14532510767192, 14.25527219549299], [79.1425001968651, 14.25525020901052], [79.13788710958418, 14.257969660353389], [79.13506217717585, 14.257947581708182], [79.13189547975857, 14.256545082761134], [79.12659594252942, 14.256847932990643], [79.12482183779868, 14.257867266433886], [79.1248104479922, 14.259244881209652], [79.12621437664407, 14.260289198216704], [79.13114952260521, 14.261361218168274], [79.14492974241436, 14.260435564193484], [79.15304035019925, 14.261876261627823], [79.15691074253995, 14.263628375836461], [79.16433205489156, 14.262996781416717], [79.16749352499747, 14.26508770734837], [79.17242907640747, 14.266158907821191], [79.17243740622897, 14.265125669430692]]], [[[79.24761521724439, 14.316668290622333], [79.2469622118389, 14.309774567995996], [79.24066594136681, 14.301805819696488], [79.23753004502677, 14.29627149111448], [79.23084088121354, 14.293466287756305], [79.22909110487747, 14.291386611983407], [79.22627911092785, 14.289643453847143], [79.22418163047512, 14.286872273028171], [79.2178217104668, 14.287169175514983], [79.21395034383164, 14.285417951707908], [79.21185578060292, 14.282302263479579], [79.21009537994551, 14.281600154644224], [79.20834589141488, 14.279520357072208], [79.20341525832399, 14.27776101115373], [79.20061733436059, 14.274295500783063], [79.19780031815193, 14.273240888943926], [79.1936036754792, 14.268042538598014], [79.18903207640528, 14.265596780448316], [79.18658214469967, 14.262822659219964], [79.18519992808577, 14.259023339633492], [79.18309771521776, 14.256940712483146], [79.18133209486896, 14.256927252863477], [79.17990854542916, 14.258294133642426], [79.17846838028481, 14.261727488349527], [79.17916634495108, 14.262766126595686], [79.18374879746048, 14.263834395275042], [79.18585382933092, 14.265572608452482], [79.18619043223187, 14.267641788809874], [79.18512549240445, 14.268322552763584], [79.18546484722332, 14.27004731822412], [79.18898253953209, 14.271796266507149], [79.19599341404968, 14.27839377858411], [79.20373290424479, 14.282241114087354], [79.20617779006695, 14.285703941286336], [79.21110317262013, 14.288152090645886], [79.21741969628523, 14.293366102522368], [79.22411946091624, 14.294793976900651], [79.22728198945806, 14.296884220255784], [79.23326748248597, 14.29933985919143], [79.23361261142735, 14.30037575313573], [79.23817740165875, 14.303854058069426], [79.24237840769241, 14.308707378115034], [79.24377253592513, 14.311128797436892], [79.24480008647477, 14.315269727818357], [79.24619962374088, 14.31700228874088], [79.24761521724439, 14.316668290622333]], [[79.22237786160693, 14.291680993231902], [79.22450238429175, 14.291007972336695], [79.22590702498158, 14.292051776667028], [79.225898922883, 14.293085043224396], [79.22272293129534, 14.292716896514193], [79.22237786160693, 14.291680993231902]], [[79.19322307354764, 14.2714840279256], [79.19357347676558, 14.27183112264128], [79.19322032730786, 14.271828444537258], [79.19322307354764, 14.2714840279256]], [[79.19322307354764, 14.2714840279256], [79.19287267140182, 14.27113693281121], [79.1932258197142, 14.271139611303493], [79.19322307354764, 14.2714840279256]]], [[[79.24470369117404, 14.327669022854025], [79.24612738442981, 14.326301766935064], [79.24721118975812, 14.323209766586796], [79.2493439854072, 14.321503273729636], [79.24795775936275, 14.318048598399384], [79.24689538961687, 14.318385204970674], [79.24509442824005, 14.322849687244213], [79.24470369117404, 14.327669022854025]]], [[[79.24147884072431, 14.333500701280638], [79.24397843645116, 14.330074769295527], [79.24398647764515, 14.329041495839235], [79.24185088521187, 14.331092350820605], [79.24147884072431, 14.333500701280638]]], [[[79.23716439652208, 14.343113092326158], [79.24000668665329, 14.341067543265888], [79.24073740587528, 14.337972972699712], [79.23753651450554, 14.340704757568803], [79.23716439652208, 14.343113092326158]]], [[[79.25865008135696, 14.351538541208084], [79.26149498006507, 14.349148298599154], [79.26150560933017, 14.347770589921394], [79.25973920423066, 14.347757630446326], [79.25617174490965, 14.352209212001371], [79.25865008135696, 14.351538541208084]]], [[[79.22878455399415, 14.375428112171962], [79.23128216091277, 14.37234682183837], [79.23588065128652, 14.371692254059782], [79.24088359913482, 14.364496186436844], [79.2433701655054, 14.362792426643537], [79.24693536616337, 14.358685513577129], [79.25047367746389, 14.358022779847989], [79.25262284621357, 14.354249744977047], [79.24908459805059, 14.354912518460036], [79.24447303981603, 14.357289506077354], [79.23811647394571, 14.356897880533381], [79.23530364183662, 14.355154736728057], [79.23142288939061, 14.354436921769608], [79.2292760946105, 14.357865302554796], [79.22889029122078, 14.361995711467829], [79.22710752925236, 14.364049018508668], [79.22497958057846, 14.365066400307478], [79.22424851777767, 14.368160880650061], [79.22317772028008, 14.369530606879568], [79.22419414086644, 14.375049272303073], [79.22524593771095, 14.376090482156371], [79.22878455399415, 14.375428112171962]]]]}}, {"type": "Feature", "properties": {"depth_class": 4, "depth_lo_m": 3.0, "t_s": 26100.444652413305}, "geometry": {"type": "MultiPolygon", "coordinates": [[[[79.01606823495209, 14.216347132416987], [79.01608625288439, 14.21428083569582], [79.01432113575302, 14.214266182936639], [79.01465612828208, 14.216335409477352], [79.01606823495209, 14.216347132416987]]], [[[79.00854310002987, 14.229027591316186], [79.00924617357784, 14.229377857964487], [79.00924918996827, 14.22903347700973], [79.00854310002987, 14.229027591316186]]], [[[79.00925220627808, 14.228689096044441], [79.00995528022922, 14.22903936061928], [79.0099582954709, 14.228694979505793], [79.00925220627808, 14.228689096044441]]], [[[79.0099582954709, 14.228694979505793], [79.01315677161938, 14.226310756539842], [79.01495204854179, 14.222881607233099], [79.01496707932577, 14.221159695433052], [79.01390496991574, 14.2214952783792], [79.01173858151216, 14.22698777146507], [79.0099582954709, 14.228694979505793]]], [[[79.07978120804124, 14.238910196697084], [79.0815582207986, 14.237546807945652], [79.0815669463746, 14.236513620989646], [79.08015465913117, 14.236502269065609], [79.07943978077928, 14.237529775644967], [79.07978120804124, 14.238910196697084]]], [[[79.19357622246932, 14.271486705962348], [79.19322307354764, 14.2714840279256], [79.19322032730786, 14.271828444537258], [79.19357347676558, 14.27183112264128], [79.19357622246932, 14.271486705962348]]], [[[79.19287267140182, 14.27113693281121], [79.19322307354764, 14.2714840279256], [79.1932258197142, 14.271139611303493], [79.19287267140182, 14.27113693281121]]], [[[79.225898922883, 14.293085043224396], [79.22450238429175, 14.291007972336695], [79.22308964330287, 14.290997426279997], [79.22237244968481, 14.292369836312009], [79.225898922883, 14.293085043224396]]]]}}]}