{"type": "FeatureCollection", "features": [{"type": "Feature", "properties": {"depth_class": 1, "depth_lo_m": 0.3, "t_s": 36900.484382771676}, "geometry": {"type": "MultiPolygon", "coordinates": [[[[79.11892739814174, 14.244732677313422], [79.12038538053808, 14.239233353651114], [79.11899586030789, 14.236467004110674], [79.11688309375461, 14.235761499593597], [79.11545935402852, 14.237127966968828], [79.11400699720363, 14.241938444375828], [79.11680598822896, 14.245060370735448], [79.11892739814174, 14.244732677313422]]], [[[79.08002360577697, 14.25200005062064], [79.0810974545262, 14.250286599243534], [79.07934364739475, 14.24889481177316], [79.07687201405393, 14.24887490050212], [79.07509780114435, 14.249893844468577], [79.07508611623811, 14.251271420265471], [79.07648973302442, 14.252315996305558], [79.08002360577697, 14.25200005062064]]], [[[79.08311415852556, 14.262357471483723], [79.08383784518612, 14.260296777340203], [79.08279307445079, 14.258566284081496], [79.08067443677503, 14.258549238154322], [79.07818810437425, 14.260251299107352], [79.0781793482486, 14.261284481958343], [79.07993323293105, 14.262676287759614], [79.08311415852556, 14.262357471483723]]], [[[79.0953805331438, 14.273477262368333], [79.09468295735745, 14.272438422187054], [79.09362066821015, 14.272774343386336], [79.09396510694765, 14.273810360604513], [79.0953805331438, 14.273477262368333]]], [[[79.10415409590989, 14.28009127290273], [79.10452453587872, 14.278027690209745], [79.1027646002067, 14.277324831192493], [79.10169652119589, 14.278349584033691], [79.10168497371454, 14.279727178022263], [79.10238548855958, 14.280421605255716], [79.10415409590989, 14.28009127290273]]], [[[79.27537756998385, 14.289315462211528], [79.275034878355, 14.287935176778383], [79.27397530815362, 14.287927494593411], [79.2746711853448, 14.289310341811547], [79.27537756998385, 14.289315462211528]]], [[[79.1862897493153, 14.299330653780753], [79.18771907358509, 14.297274935663296], [79.18702650090111, 14.295547478649668], [79.18490462732784, 14.295875732075954], [79.18348082253834, 14.297242603520772], [79.1838174144164, 14.299311785025234], [79.1862897493153, 14.299330653780753]]], [[[79.1875969968743, 14.444002853423978], [79.18902181956433, 14.442636079408764], [79.18869070123665, 14.439878076529256], [79.18307524962079, 14.435012814916256], [79.18308363316369, 14.43397958506174], [79.18168400908297, 14.43224663899608], [79.1792186200521, 14.431194322590555], [79.18101916298053, 14.427075042378943], [79.18708253419435, 14.420233072502272], [79.191676490374, 14.420268320024492], [79.19238880852285, 14.419584910479994], [79.19241935333186, 14.41579637600594], [79.2002571806601, 14.40793426039848], [79.2023801253011, 14.407605993365134], [79.20448652782824, 14.409344195292542], [79.2069600987128, 14.40936298956789], [79.20802845477317, 14.40833778998573], [79.20839832203009, 14.406273977600101], [79.20664527069887, 14.404538492885205], [79.20630842666267, 14.402469318304766], [79.21022555969762, 14.398710219677724], [79.21237857302863, 14.394593268054164], [79.21664606903484, 14.391181121831993], [79.21809221341888, 14.387058763643], [79.22057373948113, 14.386044131859256], [79.22378368585565, 14.382279426281071], [79.23193463264809, 14.379240518998927], [79.2337310182204, 14.375465080718804], [79.23904699727896, 14.37343804169246], [79.2404818192009, 14.370693171170162], [79.24546581063427, 14.365907952612101], [79.24868309103499, 14.361109549489473], [79.25186813998575, 14.360444186583242], [79.25578645200648, 14.356339723867253], [79.2671528202622, 14.348500828332796], [79.26859770772793, 14.344378011012473], [79.2703773087423, 14.342668756855096], [79.27145825959273, 14.3399210503151], [79.27148730041618, 14.336132328050313], [79.2700927328154, 14.333711025242874], [79.2701085796692, 14.331644450035736], [79.27189860962166, 14.328557451714449], [79.27262884181054, 14.325462725697143], [79.27616922006017, 14.324455108827848], [79.27830184044313, 14.322748332522101], [79.27831497320126, 14.321026177477385], [79.27761374316157, 14.32033219286643], [79.26877745193335, 14.320956842870112], [79.26810795181241, 14.316129682355154], [79.26532705081551, 14.310253773031224], [79.26006318302514, 14.305737474901463], [79.25724011956659, 14.305372348086683], [79.25617516338642, 14.306053432293652], [79.25334944632775, 14.306032686456806], [79.25121417162983, 14.308083663917207], [79.2494480867702, 14.308070663050568], [79.24804589971785, 14.30668254940549], [79.24735549479462, 14.304610786914612], [79.24139645996229, 14.298711221816026], [79.2396599443751, 14.294909485495353], [79.23649193748643, 14.293508244770331], [79.23333741959433, 14.290384848124557], [79.23052270541983, 14.288986160880361], [79.22983519529431, 14.286569946086491], [79.2411155625087, 14.289409135505437], [79.24535647099438, 14.289095998253003], [79.24854581319038, 14.28774170860374], [79.25175108120446, 14.284320808494044], [79.25458449081619, 14.283308259208109], [79.25529881141762, 14.282280153305203], [79.2535382372422, 14.281578350400402], [79.25354620646151, 14.280545067437018], [79.2563875163733, 14.278499205466515], [79.25921024695494, 14.278864304987936], [79.26024330537933, 14.28231633711891], [79.26094701736778, 14.282665926837886], [79.26377245411933, 14.282686549395436], [79.26766797749089, 14.281337129844509], [79.27049077703788, 14.28170210154251], [79.27576749502148, 14.28449597986577], [79.27859035780214, 14.284860861281302], [79.2824545011036, 14.287644387391923], [79.28450314071901, 14.296959362118782], [79.2841290293653, 14.299712276372304], [79.28445610704483, 14.30315915179426], [79.28517037585179, 14.302130949554847], [79.28519649561932, 14.298686620783865], [79.28732879109118, 14.296979725099877], [79.28733661495234, 14.295946424960022], [79.28593684477872, 14.294214082594731], [79.28564365874298, 14.28628957275838], [79.2814393782925, 14.281781383369172], [79.27826598297118, 14.281069553532452], [79.27123131635913, 14.277229629424273], [79.2691149129762, 14.276869807143289], [79.26701432763876, 14.274443385061513], [79.2620726297713, 14.274062931843703], [79.26031473406924, 14.273016754330294], [79.25962163316072, 14.271289449846899], [79.25716539847231, 14.269204806169213], [79.25683608028112, 14.266102364957488], [79.25578987209644, 14.264372470755749], [79.25687844729165, 14.260591504541546], [79.2569075641192, 14.25680278645921], [79.25234595755265, 14.252980475062508], [79.25128656351777, 14.252972710517236], [79.25021920183028, 14.253998224783357], [79.24984747032569, 14.256406627833785], [79.25265664408732, 14.258493913802539], [79.25264337632179, 14.260216054381688], [79.25085640983266, 14.262958528417832], [79.25084046670264, 14.265025094315897], [79.25328597779577, 14.268487504100293], [79.25291423606801, 14.270895910158476], [79.2500942819452, 14.270186320885857], [79.24799397388576, 14.267759759896203], [79.24233818304482, 14.268407001375882], [79.24127070459734, 14.269432461332972], [79.24125466653963, 14.271499015461007], [79.24476490670511, 14.274280470700134], [79.24543388320706, 14.279107642482822], [79.24789275687459, 14.28084797888202], [79.24681723449491, 14.282906738019037], [79.24326675964053, 14.28529168242098], [79.24150086022394, 14.285278642865695], [79.23868882313657, 14.283535628326774], [79.23374435982811, 14.28349899393515], [79.23269289927227, 14.282457859169353], [79.2291638603191, 14.282087192129701], [79.22671053574526, 14.279657831981696], [79.224947395655, 14.279300252328625], [79.22423025834098, 14.280672674837575], [79.22632769119706, 14.283443850022266], [79.22631959610375, 14.284477117561458], [79.21961469079675, 14.283738180312845], [79.2157542178627, 14.280609307997892], [79.21646869076208, 14.279581337758788], [79.21894085468594, 14.279599842165895], [79.21929943749348, 14.278913640899306], [79.21753361076081, 14.27890042936086], [79.21612908898155, 14.277856588436418], [79.21295062250374, 14.277832757671634], [79.21119569042493, 14.276441820592567], [79.20660461514844, 14.276407293041673], [79.20449112146177, 14.27570249018098], [79.20379299895413, 14.274663908836196], [79.20347807433164, 14.269839385775262], [79.20101970717054, 14.268098642496323], [79.19748552041274, 14.268416372625818], [79.19046112671705, 14.263541012246312], [79.18870920426578, 14.261805521022124], [79.18698208646254, 14.256970277686882], [79.18348393164726, 14.252810420085329], [79.18031692112663, 14.251408536566053], [79.17329344113689, 14.246532769751054], [79.17117758028823, 14.246172128042414], [79.16766321062487, 14.244078564521155], [79.16378467247789, 14.243359887641686], [79.16098498266953, 14.240238436151824], [79.16105189264994, 14.231972561637784], [79.16141333288863, 14.230942045023951], [79.16389045643103, 14.230272232988817], [79.1639043673757, 14.22855017204306], [79.16285627255782, 14.227164380366933], [79.16039033056076, 14.226456539254858], [79.15898919719153, 14.225068015579426], [79.15722384841197, 14.225054407334662], [79.15543614648841, 14.227796071131706], [79.15367078007725, 14.227782434087485], [79.15189701514774, 14.228802013680765], [79.15187180994066, 14.23190170211306], [79.15291145065518, 14.234320765836308], [79.15537464555248, 14.235373101618972], [79.15607243006535, 14.236411787260387], [79.15673667969335, 14.241583397676939], [79.1606039916306, 14.24367982757731], [79.16058445917517, 14.24609070529875], [79.15418940797916, 14.250863362837617], [79.15171764633611, 14.250844224130724], [79.15138697998597, 14.248086214529016], [79.14962707512043, 14.247383710739747], [79.14714130061292, 14.249086571288665], [79.14605947809972, 14.25183360672251], [79.14146060543482, 14.252831105745285], [79.13791538070248, 14.25452559693478], [79.13367804814591, 14.254492474763063], [79.13191816764414, 14.25378984122], [79.12344072145547, 14.254067715572281], [79.12168088552446, 14.253365010697653], [79.11602833302796, 14.253664852281767], [79.11109919574591, 14.25190374554997], [79.10407169698469, 14.247714918671857], [79.09384646259448, 14.245911340973079], [79.08713488139492, 14.246202051801577], [79.08432470900495, 14.244457410526833], [79.08220911018488, 14.244095999115713], [79.08222074575976, 14.242718416713263], [79.0865099615131, 14.236553287030839], [79.085844435894, 14.23172607434666], [79.08267266156659, 14.231011794003475], [79.07770647126108, 14.23372722373996], [79.07592072179222, 14.236123768713764], [79.072392946014, 14.235750896739484], [79.07024820282636, 14.23883332539609], [79.06671747460241, 14.238804758075846], [79.06600546479379, 14.239487823210832], [79.06599666655131, 14.240521000416527], [79.06845061695607, 14.242607369984778], [79.07268756702659, 14.24264162270756], [79.07691286068149, 14.244053378433028], [79.06803892009802, 14.249492365196918], [79.06133906234399, 14.248404767246248], [79.05425077945517, 14.251446786671584], [79.05213224406562, 14.251429495658783], [79.05003146679708, 14.24934585289313], [79.0443999157305, 14.247233282185528], [79.04445034430316, 14.241378688765598], [79.04198181344643, 14.24101403915586], [79.04091368854013, 14.242038509372945], [79.03914832942651, 14.242024012191944], [79.03809804103966, 14.240982147765802], [79.03527348532889, 14.24095891439437], [79.03348428039416, 14.243699461730584], [79.02957059069843, 14.247111273636278], [79.02955564208057, 14.248833196949914], [79.03166217704123, 14.250228225509378], [79.03199733944747, 14.252297449154575], [79.03445402679628, 14.254039757601099], [79.03195252583332, 14.257463223633025], [79.02876570278754, 14.258470124908133], [79.02702119820533, 14.256044834396468], [79.02526174085733, 14.255341453364995], [79.02314020492764, 14.255668283396787], [79.02170682282063, 14.258067250010889], [79.02485466739888, 14.261537430111696], [79.02378336454512, 14.262906182582862], [79.01881889393495, 14.265275817968655], [79.01528183283845, 14.265935199376186], [79.01244190646543, 14.267633558556925], [79.00715138508427, 14.266900559894744], [79.00575109134077, 14.2655112267356], [79.0057813845071, 14.262067434465285], [79.01007292993985, 14.255904001798296], [79.01080929970969, 14.252466088228495], [79.01048339193214, 14.24936371792817], [79.00556453221297, 14.246567405123049], [79.00379917573112, 14.246552641989727], [79.00096247786537, 14.24790650862208], [78.9977848278734, 14.247879861876935], [78.99497850723316, 14.245789875787146], [78.99394668997849, 14.24268157734748], [78.99503628471979, 14.23924670198924], [79.00037460336463, 14.23446982035465], [79.00038066519767, 14.233781062464766], [79.00144587538871, 14.23310117091921], [79.00497637625527, 14.233130691666474], [79.00746283060687, 14.231429422735271], [79.01064931331257, 14.23042276708605], [79.01385382845504, 14.2273497734766], [79.01672924729412, 14.221518733124588], [79.01990356688542, 14.221889463281796], [79.02096866992005, 14.221209469120577], [79.02168672354301, 14.21983777971867], [79.02137562667045, 14.215013483734918], [79.01751935036573, 14.211881866481264], [79.01293009436576, 14.211843776031177], [79.01150297172912, 14.213553947723556], [79.01148190310485, 14.215964620613429], [79.01217892634699, 14.21700363815606], [79.0114397540188, 14.220785964845978], [79.01212474663019, 14.223202511029344], [79.01032942674158, 14.226631633108346], [79.00500963238059, 14.229342511653151], [79.00287018185328, 14.231735467398089], [78.99827146536832, 14.232730179153904], [78.9961410276546, 14.234089926283424], [78.99293011190917, 14.23785139121116], [78.99148438992816, 14.24162766006703], [78.99144478423383, 14.24610455819353], [78.99353579351532, 14.249221775488495], [78.9984605993825, 14.251329568005676], [79.0048220609893, 14.250694055058938], [79.0065723238866, 14.252430713573675], [79.00620108494952, 14.25449404000144], [79.00263992579787, 14.25790828194337], [78.99904218667521, 14.26545498963954], [78.99937400867833, 14.267868598777806], [79.00252158659445, 14.271339044683351], [79.01169641400274, 14.272104610640259], [79.01346801660863, 14.27143057993084], [79.01805847805473, 14.271468816211444], [79.02089541573103, 14.270114773542753], [79.02407642481337, 14.269796769907792], [79.03579182259443, 14.262661035377583], [79.04184513820542, 14.256855850176565], [79.04185108409828, 14.256167076247685], [79.04362546626496, 14.255148405440808], [79.04609711908574, 14.255168669746904], [79.04679737588786, 14.255863230881276], [79.04537015928916, 14.257573596442407], [79.04464318093981, 14.259978518495476], [79.04462833266511, 14.261700455573635], [79.0463819812782, 14.263092482699516], [79.0492097944181, 14.262771231484654], [79.0513491494816, 14.2603778404939], [79.05628669186575, 14.261106977586557], [79.05839647606211, 14.262157413846076], [79.06580586477692, 14.262906483305981], [79.0679391973027, 14.261201705638134], [79.06866007793805, 14.259485466665694], [79.07468918517571, 14.25643447726522], [79.08989002106158, 14.254490206830598], [79.0972878409611, 14.256615872054326], [79.1008044912147, 14.258366016504302], [79.1036005734339, 14.261832495811202], [79.1078235991041, 14.263588170124136], [79.11099880810124, 14.263957779726315], [79.11310606778342, 14.26535216728234], [79.12440605301964, 14.265441366761937], [79.12510660766264, 14.266135731050804], [79.11973827208642, 14.274704057820852], [79.1122850512255, 14.279122607432154], [79.111211254845, 14.280836207850227], [79.11119689001758, 14.28255820946135], [79.11260087620298, 14.283602614853116], [79.11789529637089, 14.283988958956751], [79.12250057670917, 14.282303202196564], [79.12498975167819, 14.28025626708465], [79.1282050983736, 14.275804026240957], [79.12790033402884, 14.269946384441287], [79.12861797679803, 14.268574316460255], [79.1307481286863, 14.267213329550442], [79.13182738702903, 14.264810803359651], [79.13359869007466, 14.264135826369682], [79.13924305556854, 14.264868816380822], [79.15054599550183, 14.264612365504169], [79.15230322390806, 14.265659286936032], [79.15653800912719, 14.266036513131228], [79.15900155144948, 14.267088852319267], [79.16359510671751, 14.266779863550067], [79.1727433391314, 14.270983394546569], [79.17623874318319, 14.275487827030759], [79.18395286514625, 14.282435485716812], [79.18537104283499, 14.281757428136043], [79.18854676062314, 14.282126048816934], [79.19069326790773, 14.278698003779798], [79.19210590702338, 14.278708733086768], [79.19491471709692, 14.280796666804594], [79.19699804497492, 14.28529014345814], [79.20614776281053, 14.289492546011509], [79.2096523097959, 14.292963335793466], [79.21176325737297, 14.294012532019792], [79.21210827880385, 14.295048445282246], [79.21139645367391, 14.295731973803907], [79.20785363927064, 14.297083064600393], [79.19654879722991, 14.297342052030316], [79.19479384430029, 14.295950990190365], [79.19480209012923, 14.294917741512345], [79.19799996859263, 14.292530924419598], [79.19801642620725, 14.290464422713871], [79.1959083342035, 14.289070698872129], [79.18955942875243, 14.287989172032988], [79.18782664813246, 14.283842749676259], [79.18535724089902, 14.283479502102809], [79.1846453855295, 14.284162945968111], [79.18533239277892, 14.286579234583499], [79.18743211142909, 14.289006287096429], [79.18954565240038, 14.289711249107869], [79.19200137877935, 14.291796540954856], [79.191987617182, 14.29351861981229], [79.18949328552347, 14.296255139605087], [79.1894850146463, 14.297288385127464], [79.19263343416073, 14.301101133941511], [79.19470859881717, 14.306627887677251], [79.19612416421896, 14.306294197490045], [79.19685529813921, 14.303199810079148], [79.20110191364107, 14.302198665402667], [79.20180009225199, 14.303237260869672], [79.20104983353048, 14.30874259088106], [79.20210123874783, 14.309783860695205], [79.20386455383498, 14.310141632353165], [79.20777173459824, 14.30741561961776], [79.20922003840036, 14.302948825724055], [79.21100512119091, 14.300551186938666], [79.22021810193027, 14.296831467479533], [79.22304094755103, 14.29719701525492], [79.22373381186495, 14.298924399821713], [79.22584219006161, 14.300317906491824], [79.22582597485572, 14.302384438007056], [79.22511416039622, 14.30306800934316], [79.22370675572276, 14.302368615255702], [79.22301117754148, 14.300985651294175], [79.22195157582804, 14.300977730494102], [79.22159295743654, 14.301663931430008], [79.21699862840904, 14.301973965179412], [79.21485766632085, 14.304713422633554], [79.21482230130121, 14.309190878625726], [79.21586562061279, 14.31126535440089], [79.21797948103033, 14.311970096982558], [79.22011234949703, 14.310263878375983], [79.22293535998199, 14.310629446410266], [79.22504112699313, 14.312367392367781], [79.2253727005757, 14.315125402435946], [79.22358491391796, 14.31786757176214], [79.2189766682471, 14.319899706423408], [79.21890872954519, 14.328510205551451], [79.21567779050724, 14.33503029292438], [79.21460985414426, 14.336055577407611], [79.2110718548637, 14.33671780425039], [79.20715320168271, 14.340821479624346], [79.20431615149472, 14.34217776737137], [79.20253062020818, 14.344575301218843], [79.19933472876247, 14.34661767312632], [79.198614427958, 14.348334383351776], [79.19928242873824, 14.353161567800331], [79.1981867754239, 14.3576309094781], [79.19640655985974, 14.359339542909176], [79.1946069813338, 14.363459059366232], [79.19140797406538, 14.36584569508399], [79.18890441024277, 14.369615337063943], [79.18571914478859, 14.370279815672923], [79.18429759833803, 14.371302217084741], [79.17863917855908, 14.371947612620575], [79.17402667212212, 14.374323097682465], [79.16837378612328, 14.374279417199288], [79.16590908009829, 14.373227039361428], [79.1627209191648, 14.374235601874004], [79.15702008381486, 14.380046563746273], [79.1548973889724, 14.380374446747124], [79.1520510786591, 14.382763224347201], [79.14918201492719, 14.387907198280804], [79.1466917138417, 14.38995425262846], [79.14597085103622, 14.391670732641419], [79.14630428143406, 14.39408433160027], [79.15191507551943, 14.399294673967178], [79.15749502295488, 14.408293376061708], [79.16275588052822, 14.413156363452236], [79.16628390021212, 14.41387265048821], [79.16948950126503, 14.41079765990365], [79.16985410332171, 14.409422766548383], [79.17483757718993, 14.404983735661313], [79.18056941802459, 14.395383859809934], [79.18094228607765, 14.392975704501234], [79.18556905188417, 14.388878065853685], [79.19308039577733, 14.37756924588024], [79.19521410739208, 14.375863354511958], [79.19875275382672, 14.375201443656264], [79.20655859466461, 14.371127481416053], [79.20832513220869, 14.371140858264953], [79.20866198336603, 14.373210031881943], [79.20687071516922, 14.376296401689311], [79.20648443193176, 14.380426716838498], [79.20398090899145, 14.384196524539837], [79.2025372962312, 14.38797435448778], [79.19895426508114, 14.394146927053823], [79.19290311226146, 14.399611689605674], [79.19003743764338, 14.404411825688932], [79.18469530289947, 14.409537320517458], [79.18114770912774, 14.411232181678633], [79.17615858666916, 14.416360160275525], [79.17013158801049, 14.418724522496472], [79.16478303104824, 14.424538280551625], [79.16230652640614, 14.424863431062212], [79.15984133058645, 14.423810931676945], [79.15915154221537, 14.42173898413018], [79.15809707020725, 14.421041900107335], [79.15526439300999, 14.421708626515477], [79.15347764657574, 14.424105638426912], [79.15346061785249, 14.426172065415537], [79.15698312395753, 14.427577321782758], [79.158382513901, 14.429310389210462], [79.15765307278093, 14.432060110495176], [79.15444414984589, 14.435479284023591], [79.15442711603369, 14.437545710154598], [79.15582937433506, 14.438934391872623], [79.16430826922316, 14.43934500731772], [79.17350810138302, 14.43803875985653], [79.18126066867426, 14.440854152383444], [79.18512307014859, 14.443983811750593], [79.1875969968743, 14.444002853423978]], [[79.17000782258924, 14.433878460671771], [79.16754812252172, 14.432137212553322], [79.16615427917091, 14.429715375817173], [79.16617119520635, 14.42764893465176], [79.16867869377263, 14.423535264758701], [79.17224341539689, 14.419774177186685], [79.17720750453432, 14.417745986483771], [79.18219943191595, 14.41227357665484], [79.1861031874793, 14.410237004331142], [79.19144808830615, 14.404767063699852], [79.19288647651734, 14.4016781664921], [79.19502597930764, 14.399283480571768], [79.20036487384456, 14.394502106220585], [79.20753890560844, 14.381123582287866], [79.2079224275364, 14.377337679891165], [79.20971369230445, 14.374251301664556], [79.20974384525371, 14.370462716504193], [79.20833884671744, 14.369418775120241], [79.2065695772208, 14.369749816256984], [79.19805440811749, 14.37416282079432], [79.19380639013647, 14.375163744940263], [79.18917174568531, 14.380294838142747], [79.18773625937578, 14.383039315734795], [79.18595852911827, 14.384403422266443], [79.18452297350493, 14.387147871764794], [79.17883064515341, 14.391926150284835], [79.17774549226124, 14.395017673312868], [79.17489638603752, 14.397751139586337], [79.17137137492813, 14.39669059825791], [79.16715378132719, 14.393902488912435], [79.16543492303919, 14.388033850922115], [79.16227471122475, 14.385598307577968], [79.16088115533934, 14.38317647166604], [79.16090369819821, 14.380421214045684], [79.16340502464634, 14.376996349137048], [79.16517999652692, 14.375976828817707], [79.17365658427346, 14.376386830768462], [79.17826913878389, 14.37401135877222], [79.18393039204794, 14.373021566532813], [79.18924662335706, 14.370995691548904], [79.19138305988538, 14.368945416529384], [79.19281839318776, 14.366200897962651], [79.19601739335093, 14.363814242089726], [79.1978169510088, 14.359694712343794], [79.1992411206058, 14.358327797758516], [79.20069829134887, 14.352827884939304], [79.20001375160676, 14.350067194946195], [79.20038628022836, 14.347658967092235], [79.20322616728824, 14.345958321419042], [79.20643572174446, 14.342193806431226], [79.20785150804963, 14.341860071270139], [79.21141145073842, 14.338442558489826], [79.21388425162918, 14.338461190183212], [79.21599562317579, 14.339510396664663], [79.2180797918702, 14.344003779348435], [79.22684915679973, 14.351991657386801], [79.22753132754502, 14.355096728827204], [79.22539261337447, 14.357491806039418], [79.22537632645437, 14.35955832711996], [79.2267894982566, 14.359568909011307], [79.22823790013474, 14.355102012794037], [79.23108312754198, 14.352712177973888], [79.23359931594368, 14.347219871249427], [79.23545465437975, 14.33586708095339], [79.23722632707984, 14.335191364546288], [79.23829685827162, 14.33382154253121], [79.2386662481848, 14.331757624507116], [79.24260834977663, 14.324553522289579], [79.24268608381898, 14.314565211003423], [79.23886235042343, 14.306614685890365], [79.23499853197558, 14.303830479580228], [79.23184660352122, 14.300362628440144], [79.22797218824485, 14.298956018529035], [79.22411134903467, 14.295827242215513], [79.21705293618881, 14.295085558244187], [79.21635741807513, 14.29370258131983], [79.21178503508604, 14.291257175803727], [79.20933183157275, 14.28882764832003], [79.20440645888131, 14.286379462932583], [79.20336607109306, 14.283960540201303], [79.20161389935019, 14.282225116548593], [79.19423036001375, 14.278035978134922], [79.18827073488703, 14.272479727487706], [79.18122434683863, 14.27035942058235], [79.17592718346411, 14.270318923705513], [79.16361184695101, 14.264713397033706], [79.15901833392142, 14.265022391206477], [79.1544332308448, 14.264298067286449], [79.1512662970192, 14.262895801245815], [79.14667846476725, 14.262515744048766], [79.12725666543061, 14.26236394684987], [79.12477911975452, 14.263033320977856], [79.11631565623381, 14.261588888232087], [79.11489459465446, 14.262610927444543], [79.11348211760814, 14.262599752586015], [79.11103610588789, 14.259480568532842], [79.1092762804051, 14.258777771912605], [79.10608676857694, 14.260130148250346], [79.1046771925027, 14.259774523482193], [79.10293467410132, 14.257005285964045], [79.10012711698505, 14.254916401761479], [79.08990741730216, 14.252423825647313], [79.08708263235026, 14.252401187370756], [79.0856644304534, 14.253078647765811], [79.07754026584384, 14.25335771969889], [79.07541584056162, 14.254029421071737], [79.07009594206232, 14.25674176288261], [79.06585286209055, 14.257396214717472], [79.06406383970463, 14.260137018585581], [79.06229242989883, 14.260811456877283], [79.05312649034711, 14.259014708838617], [79.04822457036514, 14.254152853794771], [79.04470552206112, 14.252746379891663], [79.04151880181792, 14.253753467857301], [79.03759310253652, 14.258542946411392], [79.03262585125977, 14.261257286246636], [79.02871181171494, 14.264669038701301], [79.02623408426436, 14.26533734790583], [79.02731138043032, 14.263279816761182], [79.03726384610022, 14.255784951861724], [79.0401242894825, 14.251675545113843], [79.04085127545756, 14.249270637997487], [79.04017187149064, 14.246165355810984], [79.03593195816364, 14.246474903670698], [79.03449280724284, 14.249562745156373], [79.0323832715939, 14.248512125332011], [79.03239819841795, 14.24679019903323], [79.03488464967262, 14.245088638849149], [79.03596473046264, 14.242686656719599], [79.03773009134663, 14.242701178100319], [79.03912453575356, 14.244779106439234], [79.04302321770804, 14.243089051608068], [79.0422784618348, 14.247560296055628], [79.04332879828733, 14.248602147887068], [79.04931345551613, 14.250717634426234], [79.05176141303883, 14.25349294675923], [79.05352392004542, 14.253851751478877], [79.05562181778453, 14.256279761925418], [79.05738140635744, 14.256982931697138], [79.06055929820381, 14.25700880111984], [79.06303981863783, 14.255995718580778], [79.06658841699479, 14.253958021539225], [79.07156981722997, 14.24952093393774], [79.0758273416493, 14.247144388415917], [79.07972004674863, 14.246142494357812], [79.08430727209964, 14.246523786321696], [79.08747346118275, 14.247926864931083], [79.09806333805243, 14.248355941514562], [79.10193585363207, 14.249764470837098], [79.10405443564395, 14.24978131774303], [79.1096753117609, 14.253270159861508], [79.1132006256002, 14.253986922871093], [79.11601117304295, 14.25573126463919], [79.13225710014179, 14.25551463313368], [79.13436727559807, 14.25656443435885], [79.13719218966509, 14.2565865191387], [79.1425086563053, 14.254216987142652], [79.14745504306075, 14.253911030377811], [79.14814158886813, 14.256327373645833], [79.14919531817115, 14.257024415136689], [79.152729303202, 14.256707388022958], [79.15800370389097, 14.259503644006907], [79.16754084220916, 14.259232704242784], [79.17140577921181, 14.261673416714968], [79.1752818913969, 14.26273642231114], [79.1770475509951, 14.262749932095884], [79.17849327714134, 14.258627761276397], [79.18099001790257, 14.255546900516963], [79.18345911353703, 14.255910157292622], [79.18591169352855, 14.258339883193434], [79.18764154731291, 14.262830716499439], [79.19044463256974, 14.26560750996991], [79.194663106604, 14.268050567553683], [79.19675730686409, 14.271166367471183], [79.19815894868604, 14.272554725487776], [79.20097595894678, 14.273609332334582], [79.20342345390132, 14.276727755983137], [79.20905766762492, 14.278836831923833], [79.21010626967016, 14.280222476446834], [79.21854162021984, 14.285452358921493], [79.22489339047544, 14.286188698034286], [79.22699087508997, 14.288959873002833], [79.23015605365528, 14.29070564975525], [79.23155533878341, 14.292438270022451], [79.23824180253966, 14.295587875439718], [79.23998097744115, 14.299045195158948], [79.2480298799556, 14.308749104614602], [79.2507489312555, 14.322546963507994], [79.25284971045828, 14.324973550862676], [79.25318162857744, 14.327731560279013], [79.25174995731079, 14.330132139972331], [79.25069020244102, 14.330124331664445], [79.24928788607991, 14.328736211353858], [79.24787221600191, 14.329070210791702], [79.24501675387538, 14.332838004528162], [79.24427002858157, 14.33799914410676], [79.24284087479602, 14.34005522585627], [79.23885806725158, 14.352425637146805], [79.2391978898411, 14.354150376589457], [79.23990177246091, 14.354500048452945], [79.24555438405135, 14.354541964572332], [79.24804348062298, 14.352493713277038], [79.25193230423088, 14.352177982384001], [79.25512522191451, 14.350479282135332], [79.25761952044252, 14.34774206172432], [79.25800208486892, 14.343955965229778], [79.25275102075804, 14.337717315243124], [79.25207118655133, 14.334267852587262], [79.25348422017618, 14.334278257336157], [79.2545360002258, 14.335319334237196], [79.25522120419024, 14.338079941557758], [79.25940720444937, 14.344999622226483], [79.26293731807804, 14.345369955634887], [79.26400245717905, 14.344688861887402], [79.26651247574851, 14.339884957545854], [79.26659453014656, 14.329207674089657], [79.26981869721779, 14.323375571796854], [79.27053046375592, 14.322691859450677], [79.27194080236329, 14.32304657599841], [79.27086523948547, 14.32510543909545], [79.27048823767939, 14.328202731212347], [79.26833700538745, 14.332320426611497], [79.27007688343427, 14.335777600073637], [79.27003989171581, 14.340599606548135], [79.26718459944047, 14.344367689130989], [79.26645420257833, 14.347462378416484], [79.26326139771548, 14.349161246223433], [79.26005524753486, 14.352582199403757], [79.25508787068472, 14.35530124425014], [79.25116956763394, 14.359405696352727], [79.2479845328041, 14.360071051348381], [79.24334328377294, 14.366236660208232], [79.2404979805891, 14.368626635119679], [79.2376364276575, 14.3730831009335], [79.23267918009904, 14.374423904379418], [79.23159485222386, 14.377515774632535], [79.23052675463228, 14.378541112555718], [79.22734141420769, 14.379206150810175], [79.22201977018223, 14.381921735839445], [79.22023131676312, 14.384663799390466], [79.21668160905986, 14.386703692260207], [79.21559151873022, 14.39048428885348], [79.21132402354007, 14.393896415897759], [79.20917100027143, 14.398013356676937], [79.20489775560765, 14.402114167962957], [79.20487847227177, 14.404525073082823], [79.20628089888015, 14.405913470887041], [79.20626713225602, 14.407635546783004], [79.20485367416016, 14.407624807478168], [79.20274452431786, 14.406231024660128], [79.19991486946604, 14.406553911487915], [79.19207708571467, 14.414416020815048], [79.19137034070134, 14.414410607280931], [79.19027964637867, 14.41819101350794], [79.1863869184989, 14.418849997799452], [79.18247183393053, 14.422264197000379], [79.17782464649947, 14.42877254053151], [79.17604927262144, 14.429792109073494], [79.17425142283255, 14.433566928847304], [79.17000782258924, 14.433878460671771]], [[79.16186785235821, 14.392139298500288], [79.16293348091031, 14.391458723370123], [79.1629165793501, 14.393525167088264], [79.16185939659668, 14.393172519727331], [79.16186785235821, 14.392139298500288]], [[79.22861285551744, 14.352349286616583], [79.22300652877018, 14.34645183292453], [79.22231900127113, 14.344035596566972], [79.21951190312602, 14.341603456775836], [79.21917224202207, 14.339878706849545], [79.2227727034574, 14.331294694024596], [79.22455791557273, 14.328896968061292], [79.22457146421284, 14.327174863512685], [79.2231693433509, 14.325786608998126], [79.22318832147661, 14.323375663749317], [79.22744608453279, 14.32099639374563], [79.22888062837119, 14.318251559868015], [79.23029624312258, 14.317917668885562], [79.23098920984778, 14.31964504315299], [79.23239404720283, 14.320688830709349], [79.23201653915764, 14.323786003624406], [79.23306277316838, 14.325516004860674], [79.23294406798775, 14.340670587878344], [79.2325556978101, 14.345145441461307], [79.23039279431889, 14.350640375461637], [79.2296754088893, 14.352012784293246], [79.22861285551744, 14.352349286616583]], [[79.25161910795558, 14.347008996784687], [79.25340952158753, 14.34392218418896], [79.254469342821, 14.343929987698745], [79.25586911277986, 14.345662516226348], [79.25513855827494, 14.348757152311064], [79.2530081884082, 14.350119243724325], [79.25159772861639, 14.349764399591255], [79.25161910795558, 14.347008996784687]], [[79.24880626648678, 14.34526601408932], [79.24603634260768, 14.338012210106813], [79.24642174096402, 14.333881724738202], [79.24784814381464, 14.33217003734681], [79.24890255974951, 14.332866710054331], [79.25131659782583, 14.34046230823462], [79.25129789681753, 14.342873286663886], [79.24880626648678, 14.34526601408932]], [[79.26188810928761, 14.34398447979912], [79.25664757690903, 14.336368197246504], [79.25564904340402, 14.328438596762227], [79.25147674954569, 14.319796757805426], [79.2511608535878, 14.314972190717645], [79.25011451043132, 14.313242257530135], [79.25119284781832, 14.310839075138986], [79.25331217780035, 14.310854662002086], [79.25576877878031, 14.312939385867235], [79.26106982180586, 14.312633793085196], [79.26105921701944, 14.314011505511532], [79.25998892014988, 14.31538145878278], [79.25996238428257, 14.318825736755544], [79.26239527463291, 14.324010260051075], [79.26520005251976, 14.326786351889591], [79.26446971467252, 14.329881042771875], [79.26509939718127, 14.339874626407191], [79.26295058981847, 14.34364781789101], [79.26188810928761, 14.34398447979912]], [[79.23554084642842, 14.324845548616231], [79.23449998166764, 14.322426710552822], [79.23521991566493, 14.320709846600877], [79.23628230790479, 14.320373295586412], [79.2369807069497, 14.321411811340456], [79.2369591887622, 14.324167198369702], [79.23554084642842, 14.324845548616231]], [[79.26419856895409, 14.31920118066483], [79.26350533740646, 14.317473874509515], [79.26455974669359, 14.318170476159626], [79.26419856895409, 14.31920118066483]], [[79.25755615743353, 14.310196924009379], [79.25686299846383, 14.308469606088815], [79.25757474727564, 14.307785930887986], [79.25934083759019, 14.307798871136121], [79.26074310812612, 14.30918692664951], [79.26002871071505, 14.310215039864715], [79.25755615743353, 14.310196924009379]], [[79.22576920123359, 14.309617295345216], [79.21941948992908, 14.308536483993569], [79.21729478649507, 14.309209437677444], [79.21659379798464, 14.308515297779858], [79.21697146367177, 14.30541816707776], [79.21768330806884, 14.304734623971537], [79.22050895444359, 14.304755791765317], [79.22508711710736, 14.306512226167449], [79.22613323028199, 14.308242245003223], [79.22576920123359, 14.309617295345216]], [[79.20248732175016, 14.30565352460617], [79.20394391772277, 14.300153519734272], [79.20076515944723, 14.300129489739394], [79.20041744630603, 14.299437982781876], [79.20324573626863, 14.299114930272282], [79.20818500041273, 14.299841075075799], [79.20743764756101, 14.305002027881466], [79.20636163742772, 14.307060544221683], [79.20494060346236, 14.308083132198664], [79.20282135514648, 14.308067117116563], [79.20248732175016, 14.30565352460617]], [[79.12004853288688, 14.279872878562966], [79.12364277486958, 14.272323870864104], [79.12471073531333, 14.271299003339132], [79.12577014048368, 14.271307340350953], [79.12646217210765, 14.273034913887981], [79.1260833945681, 14.276131767471464], [79.12252342159509, 14.279547981455755], [79.12004853288688, 14.279872878562966]], [[79.18964204832571, 14.277656704088756], [79.1801206503432, 14.275861955672879], [79.17872742057075, 14.273440261160317], [79.17944202121457, 14.272412418589207], [79.18226720458188, 14.272433992991077], [79.1868471127305, 14.273846641429325], [79.19000346288067, 14.276626141052612], [79.18964204832571, 14.277656704088756]], [[79.2479220670841, 14.277059285460933], [79.24722372642637, 14.276020808099425], [79.24794337820137, 14.274303871271172], [79.25041020683116, 14.275010896950196], [79.25074741423414, 14.277080054577278], [79.25003575496756, 14.277763719662559], [79.2479220670841, 14.277059285460933]], [[79.2592314236021, 14.27610887456434], [79.25782669561445, 14.275065259385757], [79.25783728997732, 14.273687544836484], [79.26029357537364, 14.27577218705974], [79.2592314236021, 14.27610887456434]], [[79.0245195693085, 14.259468204560951], [79.02418747474859, 14.257054595714866], [79.0259529348097, 14.257069218591568], [79.02665312699128, 14.257763831658707], [79.0262850485052, 14.25948282740048], [79.0245195693085, 14.259468204560951]], [[79.17460889591034, 14.258598054460531], [79.16756031952823, 14.256821819732235], [79.16685964409811, 14.256127567525693], [79.16547501463239, 14.252672587594883], [79.16584483145779, 14.250608831694521], [79.16972905687948, 14.25063866488574], [79.17217587308338, 14.253757334987062], [79.17535116059015, 14.254126083298475], [79.17710845141887, 14.255172826639063], [79.17745327088737, 14.256208767690094], [79.17602416683815, 14.25826445055516], [79.17460889591034, 14.258598054460531]], [[79.15908264184569, 14.257100953449378], [79.16050629283012, 14.255734211059945], [79.16191597445496, 14.256089513271876], [79.16190760222426, 14.257122746335835], [79.16048953529548, 14.25780067551313], [79.15943017227634, 14.25779250041948], [79.15908264184569, 14.257100953449378]], [[79.15308802928979, 14.256021304670602], [79.15169239799611, 14.253943906538932], [79.15275734647119, 14.253263295179114], [79.15840715628596, 14.25330698584666], [79.1583931784104, 14.255029037893914], [79.15697231941226, 14.256051356664848], [79.15308802928979, 14.256021304670602]], [[79.05811118870163, 14.254233561424659], [79.06059757209195, 14.252531719834336], [79.06271612844795, 14.252548936990863], [79.06270730682341, 14.253582111052138], [79.06057696472567, 14.254942456132092], [79.05845838872234, 14.254925217150541], [79.05811118870163, 14.254233561424659]], [[79.03767948464692, 14.248555747246145], [79.03838564774003, 14.24856155463119], [79.03801768013211, 14.250280583087411], [79.03731151184853, 14.250274773928176], [79.03767948464692, 14.248555747246145]], [[79.16621463925988, 14.248545074076127], [79.16410713599115, 14.247151133601886], [79.16411827733666, 14.245773486640761], [79.16482726782772, 14.245434506958574], [79.16765209216369, 14.245456214423161], [79.16940372341472, 14.247191828476936], [79.16868639607932, 14.248564059622229], [79.16621463925988, 14.248545074076127]], [[79.07834268035906, 14.241998386475693], [79.07729218910626, 14.240956671830332], [79.07733008837847, 14.236479540191871], [79.07804788499034, 14.235107645643266], [79.08266103869485, 14.232389378119018], [79.08407330246327, 14.232400712019327], [79.08512379435601, 14.23344239644641], [79.08510057294669, 14.236197567917097], [79.08366504125546, 14.238941405649966], [79.08081424100241, 14.242018273124474], [79.07834268035906, 14.241998386475693]], [[79.07378185954241, 14.238517446546856], [79.07342294362593, 14.239203385343382], [79.07342878612137, 14.238514597447535], [79.07378185954241, 14.238517446546856]], [[79.15890271052439, 14.235744762761133], [79.156100381072, 14.232967682060588], [79.1561087649173, 14.231934450296858], [79.1582244551067, 14.232295207249601], [79.15890271052439, 14.235744762761133]], [[79.0192094927494, 14.220506078856653], [79.01676828428329, 14.217041756548586], [79.01324101536012, 14.216668060368143], [79.01254398765876, 14.215629045399083], [79.01327409385694, 14.212879856043], [79.01610126561869, 14.2125589214722], [79.02030755945819, 14.21603786761961], [79.02027459039152, 14.219826087145787], [79.0192094927494, 14.220506078856653]]]]}}, {"type": "Feature", "properties": {"depth_class": 2, "depth_lo_m": 1.0, "t_s": 36900.484382771676}, "geometry": {"type": "MultiPolygon", "coordinates": [[[[79.0192094927494, 14.220506078856653], [79.02063361758911, 14.21914024383072], [79.02030755945819, 14.21603786761961], [79.01610126561869, 14.2125589214722], [79.01327409385694, 14.212879856043], [79.01255902867392, 14.213907135081932], [79.01324101536012, 14.216668060368143], [79.01676828428329, 14.217041756548586], [79.01815339219868, 14.220152915754356], [79.0192094927494, 14.220506078856653]], [[79.01360606965545, 14.215293465045868], [79.013974124304, 14.213574486052321], [79.01609225821912, 14.213592070037937], [79.01678929857849, 14.214631076117234], [79.01571821188715, 14.215999819776169], [79.01360606965545, 14.215293465045868]]], [[[79.15857195433291, 14.232986751943363], [79.1575210856344, 14.23194534967712], [79.1561087649173, 14.231934450296858], [79.156100381072, 14.232967682060588], [79.15890271052439, 14.235744762761133], [79.15857195433291, 14.232986751943363]]], [[[79.08081424100241, 14.242018273124474], [79.08510057294669, 14.236197567917097], [79.08512379435601, 14.23344239644641], [79.08407330246327, 14.232400712019327], [79.08266103869485, 14.232389378119018], [79.07840386694859, 14.234766092176725], [79.07733008837847, 14.236479540191871], [79.07729218910626, 14.240956671830332], [79.07834268035906, 14.241998386475693], [79.08081424100241, 14.242018273124474]], [[79.07837473475914, 14.238210042420365], [79.07874237313216, 14.236490908799674], [79.07981032040792, 14.235466243802607], [79.08334974019819, 14.234461422826612], [79.08333230717743, 14.236527799163847], [79.08118478112821, 14.239954739228956], [79.07906340615689, 14.24028209585478], [79.07837473475914, 14.238210042420365]]], [[[79.07342878612137, 14.238514597447535], [79.07377601811608, 14.23920623458615], [79.07378185954241, 14.238517446546856], [79.07342878612137, 14.238514597447535]]], [[[79.15697231941226, 14.256051356664848], [79.1583931784104, 14.255029037893914], [79.15840715628596, 14.25330698584666], [79.15770372543479, 14.25295712151891], [79.1548732221306, 14.253624104586281], [79.15275734647119, 14.253263295179114], [79.15169239799611, 14.253943906538932], [79.15308802928979, 14.256021304670602], [79.15697231941226, 14.256051356664848]]], [[[79.02665312699128, 14.257763831658707], [79.0259529348097, 14.257069218591568], [79.02418747474859, 14.257054595714866], [79.02381937995807, 14.258773585480736], [79.0245195693085, 14.259468204560951], [79.0262850485052, 14.25948282740048], [79.02665312699128, 14.257763831658707]]], [[[79.1225262768633, 14.279203578815892], [79.1260833945681, 14.276131767471464], [79.12646217210765, 14.273034913887981], [79.12577014048368, 14.271307340350953], [79.12471073531333, 14.271299003339132], [79.12364277486958, 14.272323870864104], [79.12004853288688, 14.279872878562966], [79.1225262768633, 14.279203578815892]]], [[[79.17354181543567, 14.433905863004657], [79.17604927262144, 14.429792109073494], [79.17782464649947, 14.42877254053151], [79.18247183393053, 14.422264197000379], [79.1863869184989, 14.418849997799452], [79.19027964637867, 14.41819101350794], [79.19137034070134, 14.414410607280931], [79.19350167394362, 14.413049191350744], [79.19778086804105, 14.40825981129352], [79.20097771636368, 14.406217574147039], [79.20626713225602, 14.407635546783004], [79.20628089888015, 14.405913470887041], [79.20487847227177, 14.404525073082823], [79.20489775560765, 14.402114167962957], [79.20917100027143, 14.398013356676937], [79.21132402354007, 14.393896415897759], [79.21559151873022, 14.39048428885348], [79.21632280735753, 14.387389862894974], [79.21774980559614, 14.38567842926864], [79.22023131676312, 14.384663799390466], [79.22166371811706, 14.38226349880772], [79.22379457176599, 14.380901749434162], [79.23052675463228, 14.378541112555718], [79.23159485222386, 14.377515774632535], [79.23267918009904, 14.374423904379418], [79.2376364276575, 14.3730831009335], [79.2404979805891, 14.368626635119679], [79.24334328377294, 14.366236660208232], [79.2479845328041, 14.360071051348381], [79.25116956763394, 14.359405696352727], [79.25508787068472, 14.35530124425014], [79.26005524753486, 14.352582199403757], [79.26326139771548, 14.349161246223433], [79.26645420257833, 14.347462378416484], [79.26718459944047, 14.344367689130989], [79.27003989171581, 14.340599606548135], [79.27007688343427, 14.335777600073637], [79.26833700538745, 14.332320426611497], [79.27048823767939, 14.328202731212347], [79.27086523948547, 14.32510543909545], [79.27194080236329, 14.32304657599841], [79.27053046375592, 14.322691859450677], [79.26981869721779, 14.323375571796854], [79.26659453014656, 14.329207674089657], [79.26651247574851, 14.339884957545854], [79.26400245717905, 14.344688861887402], [79.26293731807804, 14.345369955634887], [79.25940720444937, 14.344999622226483], [79.25522120419024, 14.338079941557758], [79.2545360002258, 14.335319334237196], [79.25348422017618, 14.334278257336157], [79.25207118655133, 14.334267852587262], [79.25275102075804, 14.337717315243124], [79.25800208486892, 14.343955965229778], [79.25761952044252, 14.34774206172432], [79.25512522191451, 14.350479282135332], [79.25193230423088, 14.352177982384001], [79.24804348062298, 14.352493713277038], [79.24555438405135, 14.354541964572332], [79.23990177246091, 14.354500048452945], [79.2391978898411, 14.354150376589457], [79.23885806725158, 14.352425637146805], [79.24284087479602, 14.34005522585627], [79.24427002858157, 14.33799914410676], [79.24501675387538, 14.332838004528162], [79.24787221600191, 14.329070210791702], [79.24928788607991, 14.328736211353858], [79.25069020244102, 14.330124331664445], [79.25174995731079, 14.330132139972331], [79.25318162857744, 14.327731560279013], [79.25284971045828, 14.324973550862676], [79.2507489312555, 14.322546963507994], [79.2480298799556, 14.308749104614602], [79.23998097744115, 14.299045195158948], [79.23824180253966, 14.295587875439718], [79.23155533878341, 14.292438270022451], [79.23015605365528, 14.29070564975525], [79.22699087508997, 14.288959873002833], [79.22489339047544, 14.286188698034286], [79.21854162021984, 14.285452358921493], [79.21010626967016, 14.280222476446834], [79.20905766762492, 14.278836831923833], [79.20342345390132, 14.276727755983137], [79.20097595894678, 14.273609332334582], [79.19780853662232, 14.272207636582221], [79.194663106604, 14.268050567553683], [79.19044463256974, 14.26560750996991], [79.18764154731291, 14.262830716499439], [79.18591169352855, 14.258339883193434], [79.18345911353703, 14.255910157292622], [79.18099001790257, 14.255546900516963], [79.17849327714134, 14.258627761276397], [79.1770475509951, 14.262749932095884], [79.1752818913969, 14.26273642231114], [79.17140577921181, 14.261673416714968], [79.16754084220916, 14.259232704242784], [79.15800370389097, 14.259503644006907], [79.152729303202, 14.256707388022958], [79.14919531817115, 14.257024415136689], [79.14814158886813, 14.256327373645833], [79.14745504306075, 14.253911030377811], [79.1425086563053, 14.254216987142652], [79.13719218966509, 14.2565865191387], [79.13436727559807, 14.25656443435885], [79.13225710014179, 14.25551463313368], [79.11601117304295, 14.25573126463919], [79.1132006256002, 14.253986922871093], [79.1096753117609, 14.253270159861508], [79.10405443564395, 14.24978131774303], [79.10193585363207, 14.249764470837098], [79.09806333805243, 14.248355941514562], [79.08747346118275, 14.247926864931083], [79.08430727209964, 14.246523786321696], [79.07972004674863, 14.246142494357812], [79.0758273416493, 14.247144388415917], [79.07156981722997, 14.24952093393774], [79.06658841699479, 14.253958021539225], [79.06303981863783, 14.255995718580778], [79.06055929820381, 14.25700880111984], [79.05738140635744, 14.256982931697138], [79.05562181778453, 14.256279761925418], [79.05352392004542, 14.253851751478877], [79.05176141303883, 14.25349294675923], [79.04931345551613, 14.250717634426234], [79.04332879828733, 14.248602147887068], [79.0422784618348, 14.247560296055628], [79.04302321770804, 14.243089051608068], [79.03912453575356, 14.244779106439234], [79.03773009134663, 14.242701178100319], [79.03596473046264, 14.242686656719599], [79.03488464967262, 14.245088638849149], [79.03239819841795, 14.24679019903323], [79.0323832715939, 14.248512125332011], [79.03449280724284, 14.249562745156373], [79.03593195816364, 14.246474903670698], [79.04017187149064, 14.246165355810984], [79.04086911133884, 14.247204316007057], [79.0401242894825, 14.251675545113843], [79.03726384610022, 14.255784951861724], [79.02731138043032, 14.263279816761182], [79.02623408426436, 14.26533734790583], [79.02871181171494, 14.264669038701301], [79.03262585125977, 14.261257286246636], [79.03759310253652, 14.258542946411392], [79.04151880181792, 14.253753467857301], [79.04470552206112, 14.252746379891663], [79.04822457036514, 14.254152853794771], [79.05312649034711, 14.259014708838617], [79.06229242989883, 14.260811456877283], [79.06406383970463, 14.260137018585581], [79.06585286209055, 14.257396214717472], [79.07009594206232, 14.25674176288261], [79.07541584056162, 14.254029421071737], [79.07754026584384, 14.25335771969889], [79.0856644304534, 14.253078647765811], [79.08708263235026, 14.252401187370756], [79.08990741730216, 14.252423825647313], [79.10012711698505, 14.254916401761479], [79.10293467410132, 14.257005285964045], [79.1046771925027, 14.259774523482193], [79.10608676857694, 14.260130148250346], [79.1092762804051, 14.258777771912605], [79.11103610588789, 14.259480568532842], [79.11348211760814, 14.262599752586015], [79.11489459465446, 14.262610927444543], [79.11631565623381, 14.261588888232087], [79.12477911975452, 14.263033320977856], [79.12725666543061, 14.26236394684987], [79.14667846476725, 14.262515744048766], [79.1512662970192, 14.262895801245815], [79.1544332308448, 14.264298067286449], [79.15901833392142, 14.265022391206477], [79.16361184695101, 14.264713397033706], [79.17592718346411, 14.270318923705513], [79.18122434683863, 14.27035942058235], [79.18827073488703, 14.272479727487706], [79.19423036001375, 14.278035978134922], [79.20161389935019, 14.282225116548593], [79.20336607109306, 14.283960540201303], [79.20440645888131, 14.286379462932583], [79.20933183157275, 14.28882764832003], [79.21178503508604, 14.291257175803727], [79.21635741807513, 14.29370258131983], [79.21705293618881, 14.295085558244187], [79.22411134903467, 14.295827242215513], [79.22797218824485, 14.298956018529035], [79.23184660352122, 14.300362628440144], [79.23499853197558, 14.303830479580228], [79.23886235042343, 14.306614685890365], [79.24268608381898, 14.314565211003423], [79.24260834977663, 14.324553522289579], [79.2386662481848, 14.331757624507116], [79.23829685827162, 14.33382154253121], [79.23722632707984, 14.335191364546288], [79.23545465437975, 14.33586708095339], [79.23359931594368, 14.347219871249427], [79.23108312754198, 14.352712177973888], [79.22823790013474, 14.355102012794037], [79.2267894982566, 14.359568909011307], [79.22537632645437, 14.35955832711996], [79.22539261337447, 14.357491806039418], [79.22753132754502, 14.355096728827204], [79.22684915679973, 14.351991657386801], [79.2180797918702, 14.344003779348435], [79.21599562317579, 14.339510396664663], [79.21388425162918, 14.338461190183212], [79.21141145073842, 14.338442558489826], [79.20785150804963, 14.341860071270139], [79.20643572174446, 14.342193806431226], [79.20322616728824, 14.345958321419042], [79.20038628022836, 14.347658967092235], [79.20001375160676, 14.350067194946195], [79.20069829134887, 14.352827884939304], [79.1992411206058, 14.358327797758516], [79.1978169510088, 14.359694712343794], [79.19601739335093, 14.363814242089726], [79.19281839318776, 14.366200897962651], [79.19138305988538, 14.368945416529384], [79.18924662335706, 14.370995691548904], [79.18393039204794, 14.373021566532813], [79.17826913878389, 14.37401135877222], [79.17365658427346, 14.376386830768462], [79.16517999652692, 14.375976828817707], [79.16340502464634, 14.376996349137048], [79.16090369819821, 14.380421214045684], [79.16088115533934, 14.38317647166604], [79.16227471122475, 14.385598307577968], [79.16543492303919, 14.388033850922115], [79.16715378132719, 14.393902488912435], [79.17137137492813, 14.39669059825791], [79.17489638603752, 14.397751139586337], [79.17774549226124, 14.395017673312868], [79.17883064515341, 14.391926150284835], [79.18452297350493, 14.387147871764794], [79.18595852911827, 14.384403422266443], [79.18773625937578, 14.383039315734795], [79.18917174568531, 14.380294838142747], [79.19380639013647, 14.375163744940263], [79.19805440811749, 14.37416282079432], [79.2065695772208, 14.369749816256984], [79.20833884671744, 14.369418775120241], [79.20974384525371, 14.370462716504193], [79.20971369230445, 14.374251301664556], [79.2079224275364, 14.377337679891165], [79.20753890560844, 14.381123582287866], [79.20036487384456, 14.394502106220585], [79.19502597930764, 14.399283480571768], [79.19288647651734, 14.4016781664921], [79.19144808830615, 14.404767063699852], [79.18681548491362, 14.409553609325858], [79.18219943191595, 14.41227357665484], [79.17720750453432, 14.417745986483771], [79.17224341539689, 14.419774177186685], [79.1665302205671, 14.426962867911568], [79.16615427917091, 14.429715375817173], [79.16859986069949, 14.433178670544748], [79.17000782258924, 14.433878460671771], [79.17354181543567, 14.433905863004657]], [[79.189631280166, 14.410952945813895], [79.19500659393601, 14.401694373135854], [79.2014166274621, 14.395543418243852], [79.20429295122412, 14.389365438024964], [79.20571729629582, 14.38799850498048], [79.20680753016401, 14.384217970996174], [79.20859064130175, 14.382164860091363], [79.20933569749512, 14.37734837880244], [79.21148573503916, 14.3735758235765], [79.21116255052806, 14.369784565208166], [79.2097602886095, 14.368396214971463], [79.20764321150163, 14.368035760457378], [79.19735882875894, 14.372779782067077], [79.18992551557098, 14.374445226090852], [79.18993660261921, 14.373067573972394], [79.19243189464291, 14.370331165453196], [79.19351116252035, 14.367928359017785], [79.19706899823639, 14.364855556938899], [79.2006542644574, 14.358338534603806], [79.2010323131738, 14.355241476791221], [79.20210865286234, 14.353183025028622], [79.20179111258672, 14.348702937406317], [79.20498976100205, 14.346316116875046], [79.20677802444804, 14.343574146289173], [79.20997107943127, 14.341876078396897], [79.2113977905127, 14.340164649028054], [79.21422114256806, 14.34053036156209], [79.21527274594536, 14.341571594675152], [79.2156123774949, 14.343296346799798], [79.21347094672379, 14.34603573528503], [79.21346002524093, 14.347413408411422], [79.21416110929978, 14.348107568300888], [79.22121842086621, 14.349193945575877], [79.22543331932805, 14.352325501685183], [79.22576761052088, 14.354739089347676], [79.22326744210096, 14.358164759405364], [79.22325113488579, 14.360231277978441], [79.22535732176942, 14.361969267902984], [79.22712380559535, 14.361982496264448], [79.22819182909606, 14.360957165107358], [79.22892822149461, 14.357173820140718], [79.23107230844569, 14.354089863548229], [79.23284143814256, 14.353758620521397], [79.2353090390097, 14.354465892445083], [79.23812186320096, 14.35620903530423], [79.24554096882271, 14.356264084706256], [79.25582379110384, 14.351517760372639], [79.25974452383268, 14.347068776692618], [79.26292404457492, 14.3470920931171], [79.26291607962693, 14.348125375480823], [79.26006588825446, 14.351204492181537], [79.25332408371494, 14.3549438048257], [79.25118026797989, 14.358027996467412], [79.24728598069512, 14.359032551791108], [79.23944613571054, 14.367585488369272], [79.237293907308, 14.37170278200017], [79.23233668999667, 14.373043581659045], [79.22947492038892, 14.377499922274142], [79.2273522758995, 14.377828470940404], [79.22061191436171, 14.381222272124312], [79.21989162503738, 14.382939048321077], [79.21527101011432, 14.386348612962365], [79.21382482218407, 14.390470948679647], [79.21027222536652, 14.392855143416378], [79.20811919628296, 14.396972073877444], [79.20384871274125, 14.400728451654087], [79.20240495753742, 14.40450626318674], [79.19850971841612, 14.405509893789548], [79.19174870487852, 14.411313604170878], [79.18962294072492, 14.411986181440719], [79.189631280166, 14.410952945813895]], [[79.26795201043232, 14.336450993806316], [79.26865853992238, 14.336456150728095], [79.26864531869444, 14.338178294738858], [79.26759080841698, 14.337481700414513], [79.26795201043232, 14.336450993806316]], [[79.24686864828146, 14.321829457930749], [79.24759383619899, 14.319423694536981], [79.2486508677498, 14.319775936592327], [79.24863483824005, 14.321842490200995], [79.24686864828146, 14.321829457930749]], [[79.24621566987666, 14.314935736995706], [79.24379395063927, 14.308373397265338], [79.24168537330759, 14.306980029433975], [79.23818545401977, 14.302820785569887], [79.23572376113451, 14.301424756819113], [79.23362875312529, 14.2983092125406], [79.21989743187687, 14.292695772428825], [79.22241032708446, 14.287547933873315], [79.22346986618092, 14.287555845357337], [79.22416271333779, 14.289283226965908], [79.22837933777294, 14.292070198832572], [79.22942542446768, 14.293800200368759], [79.23787519126395, 14.297307380828471], [79.2385628088957, 14.2997235839311], [79.24241322575834, 14.304229854948339], [79.24379662715796, 14.308028972196857], [79.24695419551914, 14.310807844777923], [79.24692479687079, 14.314596525506795], [79.24621566987666, 14.314935736995706]], [[79.20655824818226, 14.282262414836756], [79.20515649598009, 14.280874094272509], [79.20233663986068, 14.280163942739462], [79.19565397254604, 14.276669018340518], [79.19425781621254, 14.274591811412016], [79.19144908305792, 14.272503878693216], [79.19006674242362, 14.268704573646671], [79.19077577977717, 14.268365521295602], [79.19359269515398, 14.269420205669192], [79.19673537836883, 14.273921705532961], [79.20025323484175, 14.275670504088723], [79.2030538998638, 14.278791601427823], [79.20657734300738, 14.279851482698756], [79.20867180930952, 14.28296720688262], [79.20655824818226, 14.282262414836756]], [[79.07543628895061, 14.251618663403727], [79.07509780114435, 14.249893844468577], [79.07687201405393, 14.24887490050212], [79.07934364739475, 14.24889481177316], [79.0810974545262, 14.250286599243534], [79.0807327103121, 14.251661339000336], [79.07966759547398, 14.252341602951667], [79.07648973302442, 14.252315996305558], [79.07543628895061, 14.251618663403727]]], [[[79.16868639607932, 14.248564059622229], [79.16905617290823, 14.246500293767195], [79.16765209216369, 14.245456214423161], [79.16411827733666, 14.245773486640761], [79.16410713599115, 14.247151133601886], [79.16621463925988, 14.248545074076127], [79.16868639607932, 14.248564059622229]]], [[[79.26029622045745, 14.275427758005032], [79.258543619579, 14.273692709662487], [79.25783728997732, 14.273687544836484], [79.25852773404611, 14.27575928220231], [79.25993776127635, 14.276114036113883], [79.26029622045745, 14.275427758005032]]], [[[79.25003575496756, 14.277763719662559], [79.25041020683116, 14.275010896950196], [79.24794337820137, 14.274303871271172], [79.24722905635085, 14.275331954813042], [79.24756889900986, 14.277056686967407], [79.24897624646152, 14.277755931637422], [79.25003575496756, 14.277763719662559]]], [[[79.20494060346236, 14.308083132198664], [79.20707624789078, 14.306032619085181], [79.20818500041273, 14.299841075075799], [79.20077338051318, 14.299096238015016], [79.20076515944723, 14.300129489739394], [79.20394391772277, 14.300153519734272], [79.20248732175016, 14.30565352460617], [79.20282135514648, 14.308067117116563], [79.20494060346236, 14.308083132198664]]], [[[79.22613323028199, 14.308242245003223], [79.22508711710736, 14.306512226167449], [79.22050895444359, 14.304755791765317], [79.21768330806884, 14.304734623971537], [79.21661282237945, 14.306104357685124], [79.21659379798464, 14.308515297779858], [79.21729478649507, 14.309209437677444], [79.22189197417268, 14.308554994406126], [79.22576920123359, 14.309617295345216], [79.22613323028199, 14.308242245003223]]], [[[79.26002871071505, 14.310215039864715], [79.26074310812612, 14.30918692664951], [79.25934083759019, 14.307798871136121], [79.25757474727564, 14.307785930887986], [79.25686299846383, 14.308469606088815], [79.25755615743353, 14.310196924009379], [79.26002871071505, 14.310215039864715]]], [[[79.26455974669359, 14.318170476159626], [79.26350533740646, 14.317473874509515], [79.26314415653434, 14.318504577050614], [79.26419856895409, 14.31920118066483], [79.26455974669359, 14.318170476159626]]], [[[79.23660594921358, 14.324164575186908], [79.2369807069497, 14.321411811340456], [79.2355758410061, 14.320368048042027], [79.23449459458547, 14.323115556390077], [79.23554084642842, 14.324845548616231], [79.23660594921358, 14.324164575186908]]]]}}, {"type": "Feature", "properties": {"depth_class": 3, "depth_lo_m": 2.0, "t_s": 36900.484382771676}, "geometry": {"type": "MultiPolygon", "coordinates": [[[[79.01430610767282, 14.21598809505003], [79.01678629677725, 14.214975459067562], [79.01609225821912, 14.213592070037937], [79.01361809590493, 14.213915935883495], [79.01430610767282, 14.21598809505003]]], [[[79.08118478112821, 14.239954739228956], [79.08333230717743, 14.236527799163847], [79.08334974019819, 14.234461422826612], [79.07981032040792, 14.235466243802607], [79.07874237313216, 14.236490908799674], [79.07871324239564, 14.239934859233783], [79.08118478112821, 14.239954739228956]]], [[[79.20867180930952, 14.28296720688262], [79.20657734300738, 14.279851482698756], [79.2030538998638, 14.278791601427823], [79.20025323484175, 14.275670504088723], [79.19673537836883, 14.273921705532961], [79.19359269515398, 14.269420205669192], [79.19077577977717, 14.268365521295602], [79.19006674242362, 14.268704573646671], [79.19144908305792, 14.272503878693216], [79.19425781621254, 14.274591811412016], [79.19565397254604, 14.276669018340518], [79.20233663986068, 14.280163942739462], [79.20515649598009, 14.280874094272509], [79.20761230025947, 14.282959232044286], [79.20867180930952, 14.28296720688262]]], [[[79.24692479687079, 14.314596525506795], [79.24695419551914, 14.310807844777923], [79.24379662715796, 14.308028972196857], [79.24241322575834, 14.304229854948339], [79.2385628088957, 14.2997235839311], [79.23787519126395, 14.297307380828471], [79.22942542446768, 14.293800200368759], [79.22837933777294, 14.292070198832572], [79.22416271333779, 14.289283226965908], [79.22346986618092, 14.287555845357337], [79.22241032708446, 14.287547933873315], [79.21989743187687, 14.292695772428825], [79.23362875312529, 14.2983092125406], [79.23572376113451, 14.301424756819113], [79.23818545401977, 14.302820785569887], [79.24168537330759, 14.306980029433975], [79.24379395063927, 14.308373397265338], [79.24551456649262, 14.314241670524318], [79.24621566987666, 14.314935736995706], [79.24692479687079, 14.314596525506795]]], [[[79.24863483824005, 14.321842490200995], [79.2486508677498, 14.319775936592327], [79.24759383619899, 14.319423694536981], [79.24688201983827, 14.320107331581436], [79.24686864828146, 14.321829457930749], [79.24863483824005, 14.321842490200995]]], [[[79.26830527514221, 14.336453572529901], [79.26759874579272, 14.336448414557335], [79.2679387838156, 14.338173137171971], [79.26864531869444, 14.338178294738858], [79.26830527514221, 14.336453572529901]]], [[[79.19103919212071, 14.411652602938606], [79.19850971841612, 14.405509893789548], [79.20276107479681, 14.404164537314571], [79.20384871274125, 14.400728451654087], [79.20811919628296, 14.396972073877444], [79.21027222536652, 14.392855143416378], [79.21382482218407, 14.390470948679647], [79.21527101011432, 14.386348612962365], [79.21989162503738, 14.382939048321077], [79.22061191436171, 14.381222272124312], [79.2273522758995, 14.377828470940404], [79.22947492038892, 14.377499922274142], [79.23233668999667, 14.373043581659045], [79.237293907308, 14.37170278200017], [79.23944613571054, 14.367585488369272], [79.2440740815173, 14.363142089677295], [79.24621804405362, 14.360057980215398], [79.24728598069512, 14.359032551791108], [79.25011502904306, 14.358709020321562], [79.25189220636803, 14.357344360715935], [79.25332408371494, 14.3549438048257], [79.26006588825446, 14.351204492181537], [79.26291607962693, 14.348125375480823], [79.26292404457492, 14.3470920931171], [79.25974452383268, 14.347068776692618], [79.25582379110384, 14.351517760372639], [79.24554096882271, 14.356264084706256], [79.23812186320096, 14.35620903530423], [79.2353090390097, 14.354465892445083], [79.23284143814256, 14.353758620521397], [79.23107230844569, 14.354089863548229], [79.22892822149461, 14.357173820140718], [79.22819182909606, 14.360957165107358], [79.22712380559535, 14.361982496264448], [79.22535732176942, 14.361969267902984], [79.22325113488579, 14.360231277978441], [79.22326744210096, 14.358164759405364], [79.22576761052088, 14.354739089347676], [79.22543331932805, 14.352325501685183], [79.22121842086621, 14.349193945575877], [79.21416110929978, 14.348107568300888], [79.21346002524093, 14.347413408411422], [79.21347094672379, 14.34603573528503], [79.2156123774949, 14.343296346799798], [79.21527274594536, 14.341571594675152], [79.21422114256806, 14.34053036156209], [79.2113977905127, 14.340164649028054], [79.20997107943127, 14.341876078396897], [79.20677802444804, 14.343574146289173], [79.20498976100205, 14.346316116875046], [79.20179111258672, 14.348702937406317], [79.20210865286234, 14.353183025028622], [79.2010323131738, 14.355241476791221], [79.2006542644574, 14.358338534603806], [79.19706899823639, 14.364855556938899], [79.19351116252035, 14.367928359017785], [79.19243189464291, 14.370331165453196], [79.18993660261921, 14.373067573972394], [79.18992551557098, 14.374445226090852], [79.19735882875894, 14.372779782067077], [79.20764321150163, 14.368035760457378], [79.2097602886095, 14.368396214971463], [79.21116255052806, 14.369784565208166], [79.21148573503916, 14.3735758235765], [79.20933569749512, 14.37734837880244], [79.20859064130175, 14.382164860091363], [79.20680753016401, 14.384217970996174], [79.20571729629582, 14.38799850498048], [79.20429295122412, 14.389365438024964], [79.2014166274621, 14.395543418243852], [79.19500659393601, 14.401694373135854], [79.19320932946532, 14.405469409632131], [79.18999576290676, 14.40957800689204], [79.18927235291889, 14.41163905991448], [79.19103919212071, 14.411652602938606]], [[79.23520104109716, 14.368242770131452], [79.23099383563456, 14.364078078941876], [79.23067572664912, 14.359597965798374], [79.23175724622939, 14.356850508297812], [79.23528744859797, 14.357221269325262], [79.23810299955585, 14.358619993422726], [79.24269582462658, 14.358654104947652], [79.24375033606384, 14.359350811388373], [79.2437449627939, 14.360039658525862], [79.23983715586512, 14.362766197565188], [79.23520104109716, 14.368242770131452]]]]}}, {"type": "Feature", "properties": {"depth_class": 4, "depth_lo_m": 3.0, "t_s": 36900.484382771676}, "geometry": {"type": "Polygon", "coordinates": [[[79.23449442460677, 14.368237502209512], [79.23099383563456, 14.364078078941876], [79.23067572664912, 14.359597965798374], [79.23140125149345, 14.35719229285799], [79.23387698622136, 14.356866317983918], [79.23810299955585, 14.358619993422726], [79.24339972717345, 14.359003768510913], [79.2437449627939, 14.360039658525862], [79.23983715586512, 14.362766197565188], [79.23591305833214, 14.367559192198595], [79.23449442460677, 14.368237502209512]]]}}]}