{"type": "FeatureCollection", "features": [{"type": "Feature", "properties": {"depth_class": 1, "depth_lo_m": 0.3, "t_s": 74700.75306820826}, "geometry": {"type": "MultiPolygon", "coordinates": [[[[79.01424296778274, 14.223220123053174], [79.01602618186206, 14.221168489959858], [79.01813838663901, 14.221874831035088], [79.02096866992005, 14.221209469120577], [79.02168672354301, 14.21983777971867], [79.02171966913033, 14.216049556950844], [79.02067556682104, 14.2143188719775], [79.01891644127093, 14.213615486208635], [79.0178693710617, 14.212229176129327], [79.0139921575822, 14.211508191486345], [79.01150297172912, 14.213553947723556], [79.01148190310485, 14.215964620613429], [79.01217892634699, 14.21700363815606], [79.01144276519125, 14.220441583183506], [79.01283382962676, 14.222864001902288], [79.01424296778274, 14.223220123053174]], [[79.01815339219868, 14.220152915754356], [79.01641525626744, 14.217038827487833], [79.01324101536012, 14.216668060368143], [79.01254398765876, 14.215629045399083], [79.01291806577964, 14.213221304854397], [79.01610126561869, 14.2125589214722], [79.01819839683871, 14.214987168333762], [79.02030755945819, 14.21603786761961], [79.02063661448385, 14.2187958601953], [79.01991855910141, 14.220167546157368], [79.01815339219868, 14.220152915754356]]], [[[79.16062073082857, 14.241613360551185], [79.16141333288863, 14.230942045023951], [79.16388767401897, 14.23061664514664], [79.16425466223365, 14.228897297796511], [79.16320934656169, 14.227167095131888], [79.16109368959671, 14.226806387010601], [79.15898919719153, 14.225068015579426], [79.15722384841197, 14.225054407334662], [79.15543614648841, 14.227796071131706], [79.15331770701934, 14.227779705115275], [79.15189701514774, 14.228802013680765], [79.15187180994066, 14.23190170211306], [79.15291425045393, 14.233976355919092], [79.15572493499282, 14.235720239400475], [79.15708977487797, 14.241586124182863], [79.15814347395816, 14.242283121995076], [79.15990895746806, 14.242296739560603], [79.16062073082857, 14.241613360551185]], [[79.15890271052439, 14.235744762761133], [79.156100381072, 14.232967682060588], [79.1561087649173, 14.231934450296858], [79.1582244551067, 14.232295207249601], [79.15890271052439, 14.235744762761133]]], [[[79.08115859049458, 14.243054298225754], [79.08615978992073, 14.236206060530675], [79.08618589922843, 14.233106490654498], [79.08443507785556, 14.231370355050153], [79.08231669182003, 14.231353355484158], [79.07770355755726, 14.234071618699938], [79.07591488787189, 14.236812557760208], [79.0723871015607, 14.236439684372865], [79.07131327157252, 14.238153098368386], [79.07164879999883, 14.240222311996115], [79.07305233664657, 14.24126689858418], [79.07623587291111, 14.24060374264391], [79.07693036170394, 14.241987011201704], [79.07868701807759, 14.243034413726718], [79.08115859049458, 14.243054298225754]], [[79.07800417460139, 14.24027356938424], [79.07768607369903, 14.236137988239372], [79.08230215997636, 14.233075335192929], [79.0840674948359, 14.23308950458502], [79.08476782352267, 14.233783961502166], [79.0847533076638, 14.235505943341071], [79.08224110502438, 14.240307647104727], [79.08082006229033, 14.241329482389697], [79.07870158792157, 14.241312439113432], [79.07800417460139, 14.24027356938424]]], [[[79.11821835883717, 14.245071512487145], [79.12036827828598, 14.241299773694987], [79.1203882306469, 14.238888950273804], [79.11899871194554, 14.236122600929617], [79.11653001572947, 14.235758714744671], [79.1143801013723, 14.239530419205416], [79.11400413678402, 14.242282846396957], [79.11680598822896, 14.245060370735448], [79.11821835883717, 14.245071512487145]]], [[[79.16938705731988, 14.249258304748714], [79.17011271268609, 14.246852832703508], [79.16871418063701, 14.245119933448054], [79.16695422780072, 14.244417553686498], [79.16306732832118, 14.244732099680535], [79.1630478205135, 14.247142980536276], [79.16514696315588, 14.24957016518527], [79.16796905929223, 14.249936287421468], [79.16938705731988, 14.249258304748714]]], [[[79.03554013007644, 14.250949013555928], [79.0366291776813, 14.247513873873078], [79.0394686893612, 14.245815167890548], [79.03913643322558, 14.2434015593998], [79.03738594882373, 14.241665115509615], [79.03561761715916, 14.24199497871526], [79.03418744478843, 14.24404966533019], [79.03170398768316, 14.245406833998175], [79.03027674584823, 14.24711710443601], [79.03026180257916, 14.248839028483157], [79.0316681509471, 14.249539455419903], [79.03306256862246, 14.251617416362873], [79.03554013007644, 14.250949013555928]], [[79.03381349243577, 14.24645745597372], [79.03486676209809, 14.24715495376699], [79.03450175466527, 14.248529588185537], [79.0330924167534, 14.248173562985087], [79.03310435377429, 14.246796021339028], [79.03381349243577, 14.24645745597372]]], [[[79.15065832104086, 14.250836013997782], [79.15067796568138, 14.24842515076216], [79.14891525250266, 14.248067050447604], [79.14785032105834, 14.248747646479444], [79.14748316062173, 14.250466947029198], [79.14853124258536, 14.251852805341743], [79.14994368108526, 14.251863764496576], [79.15065832104086, 14.250836013997782]]], [[[79.15731984181178, 14.256742905802403], [79.15945811607106, 14.254348394843776], [79.15841554211572, 14.252273754492755], [79.15629966916595, 14.25191297732984], [79.15134209087852, 14.253596760684701], [79.1516811745642, 14.25532154289267], [79.15378865714396, 14.256715592266994], [79.15731984181178, 14.256742905802403]]], [[[79.13293497574783, 14.258964216694876], [79.13188980703012, 14.257233893041619], [79.13083046387912, 14.25722559124934], [79.13117222753829, 14.258605978914245], [79.13293497574783, 14.258964216694876]]], [[[79.02804154572235, 14.260530589186269], [79.0284185952044, 14.257778436996752], [79.02702119820533, 14.256044834396468], [79.02455556226504, 14.255335604427632], [79.02207192835726, 14.256692648188968], [79.0220509053966, 14.259103327882938], [79.02345127789235, 14.260492573724974], [79.0252107656334, 14.261195972272752], [79.02804154572235, 14.260530589186269]], [[79.02383138253299, 14.257396052775857], [79.02559984263743, 14.257066295060401], [79.02664413778716, 14.25879698293623], [79.02487266498778, 14.259471130173212], [79.02381937995807, 14.258773585480736], [79.02383138253299, 14.257396052775857]]], [[[79.04956882551404, 14.262085344424321], [79.04994562326007, 14.259333125376621], [79.04783887698481, 14.257938234206215], [79.04607338689839, 14.25792377245424], [79.04499925057591, 14.2596370268955], [79.04497846673935, 14.262047739314534], [79.04603184337627, 14.262745200570048], [79.04850358252169, 14.262765450493285], [79.04956882551404, 14.262085344424321]]], [[[79.08311707004823, 14.262013076241544], [79.08349346713261, 14.259260752706338], [79.08279307445079, 14.258566284081496], [79.07996530927423, 14.258887946705295], [79.07854121259146, 14.260254145413967], [79.0785324580722, 14.261287328479622], [79.07958303760977, 14.26232904852435], [79.08205190822744, 14.262693345098118], [79.08311707004823, 14.262013076241544]]], [[[79.12429771684636, 14.278528688930633], [79.12643083991121, 14.276823352878795], [79.12715421285748, 14.274762486466766], [79.12612612377445, 14.270965714719107], [79.12436045117038, 14.270951820048477], [79.12364847891735, 14.271635064713587], [79.12112226198624, 14.278159229357948], [79.12146683675391, 14.279195222864454], [79.12429771684636, 14.278528688930633]]], [[[79.10415986245036, 14.279402474961445], [79.10381825341616, 14.27802206717275], [79.1024056894136, 14.278010814823002], [79.10238837462667, 14.28007720665401], [79.10415986245036, 14.279402474961445]]], [[[79.2083934132389, 14.495138244003295], [79.21939880353304, 14.489366522571117], [79.22509585763181, 14.484243071191594], [79.22795385888163, 14.480475821891913], [79.23082813539848, 14.474642018990503], [79.23192401087262, 14.4701725586946], [79.23197307488023, 14.463973030211196], [79.23060014288139, 14.458796131845604], [79.22815329087085, 14.455333344615871], [79.22567918370758, 14.455314714338506], [79.22071453429004, 14.45734387465788], [79.21576355026136, 14.457650842270237], [79.21363187006962, 14.459012421257057], [79.21221808205702, 14.459001688733004], [79.20940706181207, 14.456913712566873], [79.19916279350477, 14.45614671208121], [79.1967192693943, 14.45233924447338], [79.1960401813088, 14.448889711383073], [79.19464036828099, 14.447156821828326], [79.19465982144033, 14.444745939018537], [79.19821067297813, 14.442706516444696], [79.1978738939245, 14.440637338542603], [79.19505768456511, 14.439238054385337], [79.19081674222846, 14.439205540360456], [79.1872965757583, 14.437456333890257], [79.18448886334676, 14.435023704715473], [79.1823991915495, 14.431218858400484], [79.18028160800289, 14.43085809643896], [79.18029559747943, 14.429136048704764], [79.18350965027874, 14.425027643618321], [79.1842331694779, 14.422966621731392], [79.18708253419435, 14.420233072502272], [79.191676490374, 14.420268320024492], [79.19238880852285, 14.419584910479994], [79.19277827975294, 14.41511025699996], [79.19954768895592, 14.408273287579423], [79.20273348920482, 14.407608682679687], [79.20519326200213, 14.409349567726036], [79.2066067312249, 14.409360306255737], [79.2076750886921, 14.408335108458248], [79.20804495912651, 14.406271297001284], [79.20594405774902, 14.403844296165254], [79.2059550701537, 14.402466635273264], [79.21022830531861, 14.398365803511298], [79.21202522773405, 14.39459059552828], [79.2162927282811, 14.391178456301311], [79.21702127776635, 14.388428445239203], [79.21880707302697, 14.386030832915196], [79.22057919390274, 14.385355294880455], [79.22343035771878, 14.382276773019914], [79.23122798286663, 14.37923523738211], [79.23265481911105, 14.377523693698295], [79.23338040443247, 14.375118022344687], [79.2365656773714, 14.37445289386904], [79.23940840211587, 14.372407402919347], [79.2415606023956, 14.368290086645578], [79.24476188382287, 14.36555829256559], [79.24726721128788, 14.361443521237746], [79.25151751563804, 14.360097154143785], [79.25437327836377, 14.35632931718623], [79.26075916532992, 14.352931812443193], [79.26360937287366, 14.349852689223475], [79.26680218608612, 14.348153817628749], [79.26788850664394, 14.344717279576576], [79.2700266770527, 14.342321751220808], [79.27110762982628, 14.339574046495969], [79.2711313953502, 14.33647418340437], [79.26938885377916, 14.333361444509425], [79.26940206470194, 14.331639299121894], [79.27335904922037, 14.322367994417169], [79.26947337334747, 14.32233970951394], [79.2680313332307, 14.32611812812305], [79.26553212374367, 14.329544360992905], [79.26514179076756, 14.33436377581924], [79.2658085853734, 14.339535364815033], [79.26402102481336, 14.342277867467676], [79.26329324976695, 14.345028115803675], [79.25905392802593, 14.344997028747013], [79.25801539293691, 14.342233831812814], [79.25661295985695, 14.340845742523582], [79.25762750944662, 14.346708782245734], [79.25477460566442, 14.350132255428331], [79.2455570668834, 14.354197540514104], [79.23849131604226, 14.354145125632579], [79.23780090924073, 14.35207333664877], [79.23889575791115, 14.34760371591624], [79.24391676599005, 14.33799652933047], [79.24430220271222, 14.33386605182066], [79.24680176382199, 14.330440085754423], [79.24753234034586, 14.327345477063105], [79.24929857408132, 14.327358509304913], [79.25069554284379, 14.32943548022308], [79.25210854517036, 14.329445889728893], [79.25317896253573, 14.328075986513051], [79.25320561976315, 14.324631723701968], [79.25110217096295, 14.322549565369002], [79.25112084643239, 14.320138583074298], [79.24904415723871, 14.314612154433561], [79.24872029940072, 14.310820866605276], [79.24453248379102, 14.304245513011695], [79.24172555770713, 14.301813657573105], [79.23963045762073, 14.298698156396995], [79.23894551154768, 14.295937530717179], [79.22978670000643, 14.292769560097987], [79.22838742794852, 14.291036930794524], [79.22522226156656, 14.289291131589534], [79.22523846680953, 14.287224598484098], [79.2238365595082, 14.285836371637945], [79.22171479186021, 14.286164970675703], [79.22064713770382, 14.2871903162471], [79.22063359862398, 14.28891242289238], [79.21921816351261, 14.289246276420581], [79.2178217104668, 14.287169175514983], [79.21359988720327, 14.2850708812508], [79.2125621194926, 14.28230756773647], [79.21044854791845, 14.28160280951732], [79.20799817766965, 14.27882886105727], [79.2023639770918, 14.27671976121123], [79.20061459879466, 14.27463991872121], [79.19815073160487, 14.273587978019451], [79.19360093050773, 14.268386955381487], [79.1907867763724, 14.266987856253326], [79.18937421134109, 14.266977127743736], [79.18618216355483, 14.268675034913544], [79.18371292350169, 14.268311789722382], [79.18160512468411, 14.266917971462098], [79.17630249849789, 14.267566319594462], [79.17348571109305, 14.266511442820075], [79.17279331708193, 14.264783964202957], [79.1664675456663, 14.260946618693714], [79.16188527299795, 14.259878034045984], [79.15763659070649, 14.261222965918497], [79.15518152160801, 14.259137391684103], [79.15305718058374, 14.259809806576662], [79.14847221445595, 14.25908538262987], [79.14673193772465, 14.255971992386742], [79.14285331045262, 14.25525295914838], [79.14037022376539, 14.256611324567645], [79.140709223579, 14.258336112412843], [79.14775753466768, 14.26011312156019], [79.14986221945091, 14.261851616102975], [79.15656321356353, 14.262936825359906], [79.15832046337877, 14.263983704321989], [79.16114550825417, 14.264005516528757], [79.16292232608106, 14.262641488086235], [79.16398171382846, 14.26264965038396], [79.16573900276249, 14.263696478488145], [79.16678447233224, 14.265426687549464], [79.1699599031547, 14.265795525843012], [79.1720703852881, 14.266845024841583], [79.17522644276102, 14.269624688814657], [79.1903978848122, 14.271462584809719], [79.19425232555844, 14.275280644840262], [79.19529532682783, 14.277355176138883], [79.19952228159988, 14.278764924632032], [79.20549874365993, 14.282254430980153], [79.20724276645899, 14.285023086247556], [79.21846569804643, 14.29509614309232], [79.2237662697262, 14.294791339920648], [79.2286893756712, 14.297583590812643], [79.23256646612167, 14.298645763740991], [79.23817203306076, 14.304542906350187], [79.24375647189729, 14.313195347126499], [79.24368951083846, 14.32180596678117], [79.24295086658825, 14.325933834294409], [79.23722363523385, 14.335535787608467], [79.23649018735074, 14.33897476616523], [79.2343463375251, 14.342058800500897], [79.23180861711771, 14.350306499415714], [79.22931400525079, 14.35304340854118], [79.22825415553832, 14.353035487724144], [79.22510717158079, 14.348878652732068], [79.22054178614407, 14.345400027283024], [79.21600379807701, 14.338477139715092], [79.21353917970677, 14.337425274441554], [79.2114196460028, 14.337409304041005], [79.2075064616355, 14.340824149643367], [79.20573468046362, 14.341499628257704], [79.20216911345624, 14.345605871683565], [79.1993292247393, 14.34730650432321], [79.19895943916211, 14.349370313879422], [79.19963570649807, 14.353164251794718], [79.19854281529881, 14.357289180779066], [79.19675984674684, 14.359342232320492], [79.19496027433216, 14.36346175221551], [79.19176127018301, 14.365848393141947], [79.18961378478743, 14.369276328413813], [79.18288160383702, 14.371635784890419], [79.17793257240787, 14.371942174579791], [79.1743827737739, 14.373981413201555], [79.1690831995835, 14.373940475621724], [79.16732509747746, 14.372893577349869], [79.16485198252765, 14.372874415588685], [79.16130488969576, 14.374569034471634], [79.15702573052458, 14.379357750723596], [79.15312800206549, 14.380705068406145], [79.14992268601695, 14.383779868770059], [79.1484838844029, 14.386868452470658], [79.1449307771952, 14.38925159056368], [79.14420990453645, 14.390968063958073], [79.14064528413546, 14.394728735366252], [79.13919770933335, 14.39885044361531], [79.13986728235636, 14.403333240430777], [79.13771577522758, 14.407104959271946], [79.13696617120198, 14.412265411624501], [79.13590037180987, 14.412945847198245], [79.13343259263054, 14.412237502235836], [79.12636258115, 14.412525924565854], [79.12387180053003, 14.414572676271698], [79.12315066891016, 14.416289052675626], [79.11960838979284, 14.417294123160348], [79.11853674107842, 14.418663266435551], [79.11605450786742, 14.419676725757943], [79.1135519636565, 14.423100933248259], [79.11035711129652, 14.424797463371826], [79.10892908836186, 14.426508115580901], [79.10959515033923, 14.43133532080772], [79.10885930201093, 14.434773608627488], [79.10565258785587, 14.437847627775326], [79.10105849585115, 14.437810662206656], [79.0975011713216, 14.440537310441284], [79.09747774989432, 14.44329245389234], [79.10308542683954, 14.448848343037756], [79.10306498122459, 14.451259099738062], [79.10056184063635, 14.454683093365079], [79.10017623015999, 14.458468565668834], [79.09482791127323, 14.463935991737136], [79.08917007722042, 14.46423453315744], [79.08671080993474, 14.46249248029987], [79.08565052864367, 14.462483858194675], [79.08315881583863, 14.46453005788697], [79.0817066537408, 14.468995595130338], [79.08235142009384, 14.476233526884165], [79.08617142997618, 14.48418616125965], [79.09387402351946, 14.492859125856514], [79.09527910526796, 14.49390376800766], [79.10093477449102, 14.49394956320268], [79.10273440754946, 14.490175528636792], [79.10522043306923, 14.488817924875146], [79.10879895847012, 14.483680495023988], [79.11698389079791, 14.477202251805275], [79.1177082269219, 14.475141536139414], [79.1216280894189, 14.471384259264012], [79.12235235876234, 14.4693235208729], [79.12449038210603, 14.467274052283077], [79.12557671513007, 14.464182921701303], [79.12771754273837, 14.461789015094286], [79.12983815117155, 14.46180587483703], [79.13123749131786, 14.463539099291445], [79.13405349345106, 14.464939133306805], [79.1358264450948, 14.46426434006052], [79.13585804720489, 14.460475940498586], [79.1309416541643, 14.456648311325818], [79.1306199006251, 14.452857114676906], [79.12957404015873, 14.45112670067633], [79.1299447350317, 14.449063112223088], [79.13385241397876, 14.446683143936193], [79.13705893151344, 14.443608711491358], [79.13849834464564, 14.440520273954746], [79.1427820455545, 14.435387701529729], [79.15130621380692, 14.43028830641349], [79.15626501351721, 14.428949418107106], [79.15731951296027, 14.429646513623618], [79.15730817985022, 14.43102413400552], [79.15374019310744, 14.435129345715067], [79.15337543370897, 14.436504194643206], [79.1551197279014, 14.439273265089684], [79.15723448542381, 14.4399786623597], [79.16359580550667, 14.440028313472856], [79.17385588862842, 14.43873031412698], [79.17772655092615, 14.44082685286502], [79.17984421988152, 14.441187648068128], [79.18265474106792, 14.443275924929086], [79.18404604612005, 14.446042102084714], [79.18471935145479, 14.450180467664522], [79.18717938843753, 14.451921572839362], [79.1885568418251, 14.456409786074557], [79.19136763110915, 14.458497988160575], [79.1924140316941, 14.460228187023688], [79.19240010411171, 14.461950241826695], [79.19096679712759, 14.464350254069531], [79.19448183008463, 14.466788276844724], [79.19516091423556, 14.470237812977192], [79.19475176519313, 14.477123321770325], [79.19613782115674, 14.48057828398856], [79.19611276508047, 14.483677983483295], [79.19467654010613, 14.486422413276122], [79.1939249460504, 14.491927548071256], [79.19567848985987, 14.493663183140692], [79.20026007603482, 14.495420495358443], [79.20520634104291, 14.49580277874339], [79.2083934132389, 14.495138244003295]], [[79.11240934327284, 14.47475464465263], [79.10048281998094, 14.463981705231404], [79.10264142743767, 14.459521698839314], [79.10303576664765, 14.454703036977882], [79.10517962385569, 14.451964957745858], [79.10520879965988, 14.448521015416672], [79.0999544696796, 14.44296802112], [79.09996616549743, 14.441590447453178], [79.1013914397375, 14.440224265491503], [79.10563218611696, 14.440258390316721], [79.11026122795025, 14.43616252578407], [79.11170673701025, 14.432385496945493], [79.11101449103663, 14.430657856297513], [79.11104643599288, 14.426869500027626], [79.11459758771622, 14.42483139146182], [79.11781266156252, 14.420724017036177], [79.12136366014128, 14.418685786270025], [79.12348673545652, 14.41835825515644], [79.1270549130579, 14.414253530210646], [79.13623941976117, 14.41467064422993], [79.13872724697175, 14.412968150468943], [79.13912346387411, 14.407804904263973], [79.14163400709016, 14.403347145188032], [79.14096439812205, 14.398864349146125], [79.14205291134348, 14.395428655361185], [79.14597369374437, 14.391326328629228], [79.14633838879513, 14.389951482815302], [79.14989149573914, 14.38756832322825], [79.15311102356279, 14.382771502557807], [79.15559836098139, 14.381068769096322], [79.15843050942836, 14.380401975365954], [79.1627096645164, 14.375613232897496], [79.1648379317308, 14.374596456604806], [79.17330887052363, 14.375695284210073], [79.1779186226727, 14.373664228357331], [79.18216108004194, 14.373352417523137], [79.18959992713505, 14.370998393777239], [79.19244849679751, 14.368264683624307], [79.19281286139052, 14.366889725541943], [79.19636792723291, 14.364161347441968], [79.19781143711228, 14.360383542205232], [79.19959440645907, 14.35833048275907], [79.20104606760157, 14.35351939825205], [79.20073404943014, 14.348350480106486], [79.20392995701624, 14.346308090995608], [79.20572097384976, 14.343221712985006], [79.20855803155271, 14.341865409081201], [79.21140598686591, 14.33913139473659], [79.21352553673545, 14.33914736713478], [79.2156341864671, 14.340540996179266], [79.2163298092563, 14.341923986260756], [79.21631073217812, 14.344334918727135], [79.21524274909387, 14.345360200527812], [79.21558238258984, 14.34708495280668], [79.21876182778199, 14.347108861310733], [79.22368863764476, 14.349556908784155], [79.22649316407671, 14.352333434729243], [79.22683017831514, 14.354402601636385], [79.2239713060659, 14.358514477109583], [79.223960438907, 14.359892156687733], [79.2260666291752, 14.361630140613965], [79.22784124476682, 14.36061010169039], [79.22858035032165, 14.356482337422444], [79.23072172857982, 14.353742804922131], [79.23354800857085, 14.353763888179701], [79.23847515323064, 14.356211661965512], [79.24448109466485, 14.356256234711246], [79.25476126519025, 14.351854384718067], [79.26009780363279, 14.347071369509614], [79.26362795168227, 14.347441696355483], [79.25935133210973, 14.352232584509137], [79.25367737464822, 14.354946408603306], [79.25117491794892, 14.358716846431033], [79.24728061836313, 14.359721400256861], [79.24051144644787, 14.366904521455675], [79.238356547275, 14.37136625020127], [79.23693249468468, 14.372733416625577], [79.23268459286246, 14.373735062193022], [79.23017614213678, 14.378194049534084], [79.22805349123506, 14.378522603842649], [79.22166916770466, 14.38157466119991], [79.21952738301587, 14.384314062543426], [79.21704314103675, 14.38567310296984], [79.2145260255995, 14.391165120736533], [79.2109734230666, 14.393549325475336], [79.20881765021842, 14.398010678735778], [79.20490326447582, 14.401425337833878], [79.2041772654669, 14.403830871752456], [79.20556591209743, 14.406941348127308], [79.2023939217183, 14.405883921149213], [79.19956150777213, 14.406551218150316], [79.19101418999715, 14.41475231177181], [79.19027964637867, 14.41819101350794], [79.18709646069989, 14.418511016700787], [79.1828252170282, 14.422266918796092], [79.18210168845839, 14.424327935226714], [79.17781624186271, 14.429805767810455], [79.17779943058949, 14.431872222082937], [79.18167562013487, 14.43327986819635], [79.18236564745315, 14.43535177663719], [79.18622519056979, 14.438825820410464], [79.1900959953601, 14.440922169616748], [79.19433141136717, 14.441643524196197], [79.19255320645689, 14.443007624446961], [79.19218587680666, 14.44472697052062], [79.19286489926802, 14.448176507514084], [79.19425914169447, 14.450598229888335], [79.19458754871803, 14.453700643986037], [79.19598183820376, 14.456122361242954], [79.19561450039009, 14.457841711411584], [79.1938500749464, 14.457483748954937], [79.19069140733356, 14.454704037940816], [79.18895490996955, 14.450901936817116], [79.18614702625102, 14.448469308255426], [79.18581873659818, 14.445366895599175], [79.18442741150513, 14.442600726697329], [79.18126906412994, 14.439820924084314], [79.17703655760971, 14.438754934802182], [79.17457393672225, 14.43735815624587], [79.16467014679806, 14.438314540664006], [79.15654185494533, 14.438251111544007], [79.15549015869084, 14.43720960397019], [79.15550434520381, 14.435487581136554], [79.15835419590732, 14.432754442012952], [79.15909212314479, 14.428971501563227], [79.15839383900263, 14.427932767793173], [79.15592579995484, 14.427224630848006], [79.15025742149166, 14.42890237839308], [79.14208954175943, 14.433660122567957], [79.13673706401386, 14.439817509047554], [79.13601305181407, 14.441878324024342], [79.13209398149965, 14.445635940852885], [79.12996776650436, 14.446307918396071], [79.12818630724078, 14.448015880102217], [79.12745064976815, 14.451454249355153], [79.12849649381063, 14.453184670953894], [79.12950777457299, 14.4590478760776], [79.12631824180596, 14.460055774055007], [79.1241803106501, 14.462105270792362], [79.12237841204845, 14.466223946607201], [79.12024328118467, 14.467928998330066], [79.11916265333774, 14.470331299402897], [79.11453296437264, 14.474427261783067], [79.11240934327284, 14.47475464465263]], [[79.26758287040846, 14.338514986177563], [79.26725077353338, 14.335756977621639], [79.26831320865226, 14.335420286191463], [79.26934921047578, 14.338527879103651], [79.26862416107575, 14.340933724612222], [79.2668472115702, 14.34229853756778], [79.26758287040846, 14.338514986177563]], [[79.24793905297287, 14.320459577025398], [79.24864552486412, 14.320464787837043], [79.2486401816942, 14.321153639039933], [79.24793370765028, 14.321148427967284], [79.24793905297287, 14.320459577025398]]], [[[79.16325301232953, 14.395594356550962], [79.16432710069114, 14.39388055430214], [79.16434961879118, 14.391125293821842], [79.16330089151991, 14.389739431609161], [79.16188757985529, 14.38972844860112], [79.16116964773569, 14.391100581962391], [79.16114427071211, 14.394200244410529], [79.16183402528017, 14.396272182838453], [79.16325301232953, 14.395594356550962]]], [[[79.1827031948523, 14.262104245901266], [79.18271699540979, 14.260382171396758], [79.18095687371698, 14.259679876582574], [79.17847391343638, 14.261038660184248], [79.17916634495108, 14.262766126595686], [79.18199140769144, 14.262787690002943], [79.1827031948523, 14.262104245901266]]], [[[79.28282075717618, 14.285924771808034], [79.28073039966375, 14.28212071619193], [79.27826074520422, 14.281758417872869], [79.27404095258228, 14.279316711292603], [79.26840330336778, 14.277553533525575], [79.26630272092905, 14.275127105441639], [79.26065732161771, 14.274397049921522], [79.25891266425992, 14.271628717986935], [79.25610592593249, 14.269197054402078], [79.25473307424394, 14.264020287083694], [79.25474632983156, 14.262298145126344], [79.25581901515301, 14.260583756076269], [79.25584285310927, 14.257483897674017], [79.25514452293739, 14.256445444655776], [79.25373197401645, 14.25643510499437], [79.25405859951111, 14.25988197481781], [79.25191585024886, 14.262966300194899], [79.25189991676346, 14.265032867265141], [79.25434809813667, 14.268150839854556], [79.25431626088935, 14.272283977209236], [79.25642198099193, 14.274021637301948], [79.25781610012147, 14.276442973768276], [79.2606282300437, 14.278185770006681], [79.26131606496638, 14.280601932089462], [79.26308194666336, 14.280614820554575], [79.2641573164895, 14.278555969473791], [79.26521683732982, 14.2785636904011], [79.2669721642767, 14.27995426884562], [79.26909122283895, 14.279969682426922], [79.27577274141896, 14.283807116590435], [79.27859559575238, 14.284171997000142], [79.28070424350875, 14.285565041650514], [79.28282075717618, 14.285924771808034]]], [[[79.25109260458825, 14.278115930272165], [79.25182286895367, 14.27502126948298], [79.25077400951791, 14.273635781519857], [79.24724504441883, 14.273265394703637], [79.24617755999247, 14.274290876183908], [79.24615622742353, 14.27704628776227], [79.2472077349474, 14.278087367708272], [79.24967460017334, 14.278794405242136], [79.25109260458825, 14.278115930272165]]], [[[79.28492945042214, 14.287317783551732], [79.28352191067016, 14.286618732812803], [79.28351407472007, 14.287652031689118], [79.28421001286607, 14.289034857470114], [79.28491640019831, 14.289039949467451], [79.28492945042214, 14.287317783551732]]], [[[79.19729634766011, 14.292181156437705], [79.1969568882937, 14.290456396349768], [79.19448463572184, 14.290437649842263], [79.19447089438155, 14.292159731264253], [79.19517176236126, 14.29285392346381], [79.19729634766011, 14.292181156437705]]], [[[79.27850913386715, 14.295538252309628], [79.27886757779096, 14.294851944402485], [79.27851437614558, 14.294849388674562], [79.27850913386715, 14.295538252309628]]], [[[79.18593932123972, 14.2989835453901], [79.18595589676492, 14.2969170586152], [79.18418719697677, 14.29724799744926], [79.18417613588373, 14.298625653947262], [79.18593932123972, 14.2989835453901]]], [[[79.20600022860349, 14.30809113266246], [79.20778265900121, 14.306037946159819], [79.20888047989185, 14.301224071615776], [79.20995370784686, 14.299509955985721], [79.21066009969948, 14.299515272140583], [79.2106710002242, 14.298137595585258], [79.20430531840003, 14.299122933381225], [79.20393844631813, 14.300842355370017], [79.20215329237895, 14.303239931995751], [79.20176447246655, 14.307714685307179], [79.20281587716511, 14.308755951869104], [79.20600022860349, 14.30809113266246]], [[79.20426975888743, 14.303600365542856], [79.20603576548798, 14.303613697924995], [79.20602209891082, 14.305335788418056], [79.20495428101353, 14.306361043127053], [79.20389740149534, 14.306008621303166], [79.20426975888743, 14.303600365542856]]], [[[79.22472579142975, 14.307542853155812], [79.22226685956358, 14.305802268014476], [79.21979440491873, 14.305783764982511], [79.218020221842, 14.306803793737565], [79.21800935921584, 14.308181474833162], [79.22118826074092, 14.30820528749364], [79.22329670014767, 14.309598823913431], [79.22506547729266, 14.30926759887369], [79.22472579142975, 14.307542853155812]]], [[[79.26179217279817, 14.310572392354768], [79.26181071796782, 14.308161393861278], [79.25970201220284, 14.306768173522379], [79.25687362454231, 14.307091896106826], [79.25508892688053, 14.309489928243392], [79.25578207386516, 14.311217250016881], [79.26108042546358, 14.311256080491736], [79.26179217279817, 14.310572392354768]]], [[[79.27865771179559, 14.322406462391607], [79.28328394142262, 14.317962090326239], [79.28436720414362, 14.314869856407505], [79.2844325817532, 14.306259045365248], [79.28586374730828, 14.303858207896875], [79.28589508146986, 14.299725012339442], [79.28519649561932, 14.298686620783865], [79.28378104698785, 14.299020862301292], [79.2834095355187, 14.301429341079174], [79.2819783640359, 14.303830163039501], [79.28191028522419, 14.312785396647444], [79.28012577901757, 14.315183640681555], [79.27764263938377, 14.316543452030727], [79.27619551961979, 14.32101080284994], [79.27618500063527, 14.32238852536643], [79.27865771179559, 14.322406462391607]]], [[[79.26595681981449, 14.320247368224415], [79.2659726889883, 14.318180795217085], [79.26492885848744, 14.316106484490632], [79.26387445675229, 14.315409885323588], [79.26210565265227, 14.315741400270376], [79.26207384665737, 14.319874538250774], [79.26347620209836, 14.321262586654953], [79.26488916292132, 14.321272914336435], [79.26595681981449, 14.320247368224415]]], [[[79.23312476835999, 14.317594282942515], [79.23135592905307, 14.31792556164448], [79.23169836989608, 14.319305881585604], [79.23311398931166, 14.318971974108608], [79.23312476835999, 14.317594282942515]]], [[[79.23661402068521, 14.323131305326468], [79.23661940130856, 14.322442458700513], [79.23591292780857, 14.322437211417242], [79.23590754503229, 14.323126057780403], [79.23661402068521, 14.323131305326468]]], [[[79.25417740784373, 14.336005587606307], [79.25207385548518, 14.333923426736824], [79.25173394409363, 14.33219869521792], [79.25067685019182, 14.331846460084751], [79.25031558220022, 14.332877132670438], [79.25135665970477, 14.335295924158826], [79.25275635781809, 14.337028463480685], [79.25416674291226, 14.337383292255913], [79.25417740784373, 14.336005587606307]]], [[[79.16548415828092, 14.42523259110906], [79.17082990752348, 14.419763225312105], [79.17756647853959, 14.417059896545904], [79.18219943191595, 14.41227357665484], [79.18823728546094, 14.40853122293098], [79.19144531259799, 14.405111476113007], [79.193239829237, 14.401680868918895], [79.20071821673476, 14.394504796155411], [79.20323569940739, 14.389012970361344], [79.20501888332828, 14.386959895390548], [79.2061063724742, 14.383523780919592], [79.20788948309158, 14.381470675293071], [79.20863454993035, 14.37665419741931], [79.21042579898555, 14.373567811867037], [79.21044771946823, 14.37081247609592], [79.20939876201432, 14.36942679390879], [79.2072816763792, 14.36906633513224], [79.2001852961378, 14.372801290931978], [79.19451854255765, 14.374480309045413], [79.19167267669272, 14.376869623231313], [79.18487351949233, 14.387494995685973], [79.18024398406503, 14.391937033674811], [79.17735301215347, 14.399836688028767], [79.17413367091378, 14.404633864934295], [79.16985972267022, 14.408733950256412], [79.16589672812555, 14.418002791695004], [79.16234888529108, 14.419697336501077], [79.1605678797502, 14.421405601424306], [79.15984981442446, 14.422777714298885], [79.16053961151044, 14.424849660775175], [79.1630048223484, 14.425902154513961], [79.16548415828092, 14.42523259110906]], [[79.16232911990252, 14.422108180925699], [79.1676607794937, 14.418360922958373], [79.17126754526589, 14.40943371658414], [79.17589764052919, 14.404991924149554], [79.17662113941087, 14.402930922916468], [79.17876081125951, 14.400536406344777], [79.18165174780628, 14.392636730438365], [79.18556627035953, 14.389222477604363], [79.19308039577733, 14.37756924588024], [79.1959234956249, 14.375524328302644], [79.19910882403794, 14.374859717729041], [79.20691464723592, 14.370785741498326], [79.20832787525593, 14.370796441657038], [79.20865375409913, 14.374243281653573], [79.20722403071005, 14.376299078587724], [79.2064789362838, 14.381115548786953], [79.2046958172876, 14.383168642665304], [79.2032494706994, 14.387290894631404], [79.20182511743572, 14.388657811657106], [79.19895150301497, 14.39449134120593], [79.19218809274939, 14.400639522063413], [79.19074970386025, 14.403728414928914], [79.18861011194986, 14.40612305097067], [79.18469530289947, 14.409537320517458], [79.18150386678599, 14.410890493088843], [79.17687093248253, 14.4156768014646], [79.17332880309496, 14.41668270861752], [79.16906865033359, 14.419060708193168], [79.16478867212791, 14.423849467101745], [79.16231499952741, 14.423830212340333], [79.16232911990252, 14.422108180925699]]]]}}, {"type": "Feature", "properties": {"depth_class": 2, "depth_lo_m": 1.0, "t_s": 74700.75306820826}, "geometry": {"type": "MultiPolygon", "coordinates": [[[[79.02027459039152, 14.219826087145787], [79.02065159775512, 14.21707394186038], [79.01960750057071, 14.215343252802397], [79.01819839683871, 14.214987168333762], [79.01610126561869, 14.2125589214722], [79.01291806577964, 14.213221304854397], [79.01254398765876, 14.215629045399083], [79.01324101536012, 14.216668060368143], [79.01641525626744, 14.217038827487833], [79.01815339219868, 14.220152915754356], [79.02027459039152, 14.219826087145787]], [[79.01430610767282, 14.21598809505003], [79.013974124304, 14.213574486052321], [79.01644227872582, 14.213939381788796], [79.0164272670522, 14.215661296171254], [79.01430610767282, 14.21598809505003]]], [[[79.15890271052439, 14.235744762761133], [79.1582244551067, 14.232295207249601], [79.1561087649173, 14.231934450296858], [79.156100381072, 14.232967682060588], [79.15890271052439, 14.235744762761133]]], [[[79.08152913049344, 14.240990763783339], [79.0847533076638, 14.235505943341071], [79.08476782352267, 14.233783961502166], [79.0840674948359, 14.23308950458502], [79.08230215997636, 14.233075335192929], [79.07768607369903, 14.236137988239372], [79.07765109757193, 14.240270726184372], [79.07870158792157, 14.241312439113432], [79.08152913049344, 14.240990763783339]], [[79.07980158751471, 14.236499429781176], [79.08192001837978, 14.236516457667234], [79.08084043434876, 14.238918714487241], [79.07942813276097, 14.238907356390781], [79.07980158751471, 14.236499429781176]]], [[[79.03450175466527, 14.248529588185537], [79.034166569858, 14.24646036522745], [79.03310435377429, 14.246796021339028], [79.03344251277102, 14.248520859106744], [79.03450175466527, 14.248529588185537]]], [[[79.02628804568184, 14.259138443746428], [79.02630303036523, 14.257416525317973], [79.02383138253299, 14.257396052775857], [79.02416947409795, 14.259120895213629], [79.02628804568184, 14.259138443746428]]], [[[79.20389740149534, 14.306008621303166], [79.20602209891082, 14.305335788418056], [79.20603576548798, 14.303613697924995], [79.20462569530865, 14.30325861520478], [79.2039138213914, 14.303942115212626], [79.20389740149534, 14.306008621303166]]], [[[79.24793905297287, 14.320459577025398], [79.24793370765028, 14.321148427967284], [79.2486401816942, 14.321153639039933], [79.24864552486412, 14.320464787837043], [79.24793905297287, 14.320459577025398]]], [[[79.2668472115702, 14.34229853756778], [79.26862416107575, 14.340933724612222], [79.26934921047578, 14.338527879103651], [79.26831320865226, 14.335420286191463], [79.26725077353338, 14.335756977621639], [79.267566992493, 14.340581557421253], [79.2668472115702, 14.34229853756778]]], [[[79.11453587260996, 14.47408286638719], [79.11916265333774, 14.470331299402897], [79.12024328118467, 14.467928998330066], [79.12237841204845, 14.466223946607201], [79.1241803106501, 14.462105270792362], [79.12631824180596, 14.460055774055007], [79.12950777457299, 14.4590478760776], [79.12849649381063, 14.453184670953894], [79.12745064976815, 14.451454249355153], [79.12818630724078, 14.448015880102217], [79.12996776650436, 14.446307918396071], [79.13209398149965, 14.445635940852885], [79.13601305181407, 14.441878324024342], [79.13673706401386, 14.439817509047554], [79.14208954175943, 14.433660122567957], [79.15025742149166, 14.42890237839308], [79.15592579995484, 14.427224630848006], [79.15839383900263, 14.427932767793173], [79.15909212314479, 14.428971501563227], [79.15835419590732, 14.432754442012952], [79.15550434520381, 14.435487581136554], [79.15549015869084, 14.43720960397019], [79.15654185494533, 14.438251111544007], [79.16467014679806, 14.438314540664006], [79.17457393672225, 14.43735815624587], [79.17703655760971, 14.438754934802182], [79.18126906412994, 14.439820924084314], [79.18442741150513, 14.442600726697329], [79.18581873659818, 14.445366895599175], [79.18614702625102, 14.448469308255426], [79.18895490996955, 14.450901936817116], [79.19069140733356, 14.454704037940816], [79.1938500749464, 14.457483748954937], [79.19561450039009, 14.457841711411584], [79.19598183820376, 14.456122361242954], [79.19458754871803, 14.453700643986037], [79.19425914169447, 14.450598229888335], [79.19286489926802, 14.448176507514084], [79.19218587680666, 14.44472697052062], [79.19255320645689, 14.443007624446961], [79.19433141136717, 14.441643524196197], [79.1900959953601, 14.440922169616748], [79.18622519056979, 14.438825820410464], [79.18236564745315, 14.43535177663719], [79.18167562013487, 14.43327986819635], [79.17779943058949, 14.431872222082937], [79.17781624186271, 14.429805767810455], [79.18210168845839, 14.424327935226714], [79.1828252170282, 14.422266918796092], [79.18709646069989, 14.418511016700787], [79.19027964637867, 14.41819101350794], [79.19101418999715, 14.41475231177181], [79.19956150777213, 14.406551218150316], [79.2023939217183, 14.405883921149213], [79.20556591209743, 14.406941348127308], [79.2041772654669, 14.403830871752456], [79.20490326447582, 14.401425337833878], [79.20881765021842, 14.398010678735778], [79.2109734230666, 14.393549325475336], [79.2145260255995, 14.391165120736533], [79.21704314103675, 14.38567310296984], [79.21952738301587, 14.384314062543426], [79.22166916770466, 14.38157466119991], [79.22805349123506, 14.378522603842649], [79.23017614213678, 14.378194049534084], [79.23268459286246, 14.373735062193022], [79.23693249468468, 14.372733416625577], [79.238356547275, 14.37136625020127], [79.24051144644787, 14.366904521455675], [79.24728061836313, 14.359721400256861], [79.25117491794892, 14.358716846431033], [79.25367737464822, 14.354946408603306], [79.25935133210973, 14.352232584509137], [79.26362795168227, 14.347441696355483], [79.26009780363279, 14.347071369509614], [79.25476126519025, 14.351854384718067], [79.24448109466485, 14.356256234711246], [79.23847515323064, 14.356211661965512], [79.23354800857085, 14.353763888179701], [79.23072172857982, 14.353742804922131], [79.22858035032165, 14.356482337422444], [79.22784124476682, 14.36061010169039], [79.2260666291752, 14.361630140613965], [79.223960438907, 14.359892156687733], [79.2239713060659, 14.358514477109583], [79.22683017831514, 14.354402601636385], [79.22649316407671, 14.352333434729243], [79.22368863764476, 14.349556908784155], [79.21876182778199, 14.347108861310733], [79.21558238258984, 14.34708495280668], [79.21524274909387, 14.345360200527812], [79.21631073217812, 14.344334918727135], [79.2156341864671, 14.340540996179266], [79.21352553673545, 14.33914736713478], [79.21140598686591, 14.33913139473659], [79.20855803155271, 14.341865409081201], [79.20572097384976, 14.343221712985006], [79.20392995701624, 14.346308090995608], [79.20073404943014, 14.348350480106486], [79.20104606760157, 14.35351939825205], [79.19959440645907, 14.35833048275907], [79.19781143711228, 14.360383542205232], [79.19636792723291, 14.364161347441968], [79.19281286139052, 14.366889725541943], [79.19244849679751, 14.368264683624307], [79.18959992713505, 14.370998393777239], [79.18216108004194, 14.373352417523137], [79.1779186226727, 14.373664228357331], [79.17330887052363, 14.375695284210073], [79.1648379317308, 14.374596456604806], [79.1627096645164, 14.375613232897496], [79.15843050942836, 14.380401975365954], [79.15559836098139, 14.381068769096322], [79.15311102356279, 14.382771502557807], [79.14989149573914, 14.38756832322825], [79.14633838879513, 14.389951482815302], [79.14597369374437, 14.391326328629228], [79.14205291134348, 14.395428655361185], [79.14096439812205, 14.398864349146125], [79.14163400709016, 14.403347145188032], [79.13912346387411, 14.407804904263973], [79.13872724697175, 14.412968150468943], [79.13623941976117, 14.41467064422993], [79.1270549130579, 14.414253530210646], [79.12348673545652, 14.41835825515644], [79.12136366014128, 14.418685786270025], [79.11781266156252, 14.420724017036177], [79.11459758771622, 14.42483139146182], [79.11104643599288, 14.426869500027626], [79.11101449103663, 14.430657856297513], [79.11170673701025, 14.432385496945493], [79.11026122795025, 14.43616252578407], [79.10563218611696, 14.440258390316721], [79.1013914397375, 14.440224265491503], [79.09996616549743, 14.441590447453178], [79.0999544696796, 14.44296802112], [79.10520879965988, 14.448521015416672], [79.10517962385569, 14.451964957745858], [79.10303576664765, 14.454703036977882], [79.10264142743767, 14.459521698839314], [79.10048281998094, 14.463981705231404], [79.11240934327284, 14.47475464465263], [79.11453587260996, 14.47408286638719]], [[79.16124355109422, 14.425199576489922], [79.15984133058645, 14.423810931676945], [79.1605678797502, 14.421405601424306], [79.16234888529108, 14.419697336501077], [79.16589672812555, 14.418002791695004], [79.16985972267022, 14.408733950256412], [79.17413367091378, 14.404633864934295], [79.17735301215347, 14.399836688028767], [79.18024398406503, 14.391937033674811], [79.18487351949233, 14.387494995685973], [79.19167267669272, 14.376869623231313], [79.19451854255765, 14.374480309045413], [79.2001852961378, 14.372801290931978], [79.2072816763792, 14.36906633513224], [79.20939876201432, 14.36942679390879], [79.21044771946823, 14.37081247609592], [79.21042579898555, 14.373567811867037], [79.20863454993035, 14.37665419741931], [79.20788948309158, 14.381470675293071], [79.2061063724742, 14.383523780919592], [79.20501888332828, 14.386959895390548], [79.20323569940739, 14.389012970361344], [79.20071821673476, 14.394504796155411], [79.193239829237, 14.401680868918895], [79.18966185245264, 14.407164414369799], [79.18574703713672, 14.410578700823033], [79.18219943191595, 14.41227357665484], [79.17756647853959, 14.417059896545904], [79.17082990752348, 14.419763225312105], [79.16619374574651, 14.424893679172298], [79.16371159238271, 14.425907657224252], [79.16124355109422, 14.425199576489922]], [[79.19640063321307, 14.404116060938907], [79.19855118496943, 14.400343686466336], [79.20246839082161, 14.396584726630406], [79.20534470404253, 14.390406732312444], [79.20676905086353, 14.389039793066226], [79.20785927481018, 14.385259253080577], [79.21000119936953, 14.382519975118118], [79.21074348725215, 14.3780479030231], [79.2128962475223, 14.373930915871775], [79.21223067941544, 14.368759319376633], [79.20906738763229, 14.366668786859886], [79.20588493729282, 14.366989132611977], [79.19666601811335, 14.371052327751798], [79.1949022561931, 14.370694449944965], [79.19562820050007, 14.36828893721934], [79.19990362952049, 14.363843812061969], [79.20351901978623, 14.353538157227906], [79.2035492315676, 14.349749578360518], [79.20568258564519, 14.348043548825299], [79.20782960188549, 14.344615409830345], [79.20995740479523, 14.3435981670774], [79.21138412847222, 14.341886739304002], [79.21315044140667, 14.341900053613253], [79.21349005652702, 14.343624806909833], [79.2113485986734, 14.346364172793761], [79.211682735386, 14.348777763029783], [79.21520455860565, 14.350182060685835], [79.2166067582127, 14.351570371457157], [79.22190866361225, 14.351265764849218], [79.2240147631654, 14.353003757117651], [79.22364518344943, 14.355067629396377], [79.22078896935773, 14.35883503922791], [79.22112321116603, 14.361248627568258], [79.22358268570092, 14.362989285569379], [79.22357453100798, 14.36402254466077], [79.22074541491008, 14.364345746828066], [79.21896801637983, 14.36571014393038], [79.21895166075899, 14.367776656345594], [79.22035670689318, 14.368820539354246], [79.22212323967007, 14.36883381118485], [79.22390064891013, 14.367469391364837], [79.22427841278497, 14.364372263450008], [79.22710481627658, 14.364393438845962], [79.22959417720958, 14.36234541472721], [79.23033596763254, 14.357873221407752], [79.23140666139854, 14.356503450148843], [79.2338796873605, 14.356521896163196], [79.2377524013807, 14.358272943284556], [79.24234521850623, 14.35830706079784], [79.24410631808158, 14.359009006570652], [79.24409825990293, 14.360042277488887], [79.24018776379629, 14.36311324565582], [79.2373316842755, 14.36688087266938], [79.23660077794095, 14.369975409501144], [79.23553274043132, 14.37100077735084], [79.23128486906091, 14.372002400950898], [79.22842580920832, 14.376114308109317], [79.2199161715361, 14.37983928192708], [79.21741832758983, 14.382920422908887], [79.2142192226065, 14.38530735938685], [79.21277302517622, 14.3894296875583], [79.20886435021785, 14.392155606652873], [79.20706740203768, 14.395930787436217], [79.2020847055261, 14.400370599851714], [79.20136144217497, 14.40243170783001], [79.19781406262733, 14.404126848248074], [79.19640063321307, 14.404116060938907]], [[79.16114427071211, 14.394200244410529], [79.16153143359492, 14.390070108622458], [79.16330089151991, 14.389739431609161], [79.16434961879118, 14.391125293821842], [79.16432710069114, 14.39388055430214], [79.16254070152384, 14.39627767799907], [79.16183402528017, 14.396272182838453], [79.16114427071211, 14.394200244410529]]]]}}, {"type": "Feature", "properties": {"depth_class": 3, "depth_lo_m": 2.0, "t_s": 74700.75306820826}, "geometry": {"type": "MultiPolygon", "coordinates": [[[[79.01360606965545, 14.215293465045868], [79.0164272670522, 14.215661296171254], [79.01644227872582, 14.213939381788796], [79.013974124304, 14.213574486052321], [79.01360606965545, 14.215293465045868]]], [[[79.08084043434876, 14.238918714487241], [79.08155531211784, 14.237891203576662], [79.08156985474447, 14.23616922531665], [79.0794456043216, 14.23684098520907], [79.07942813276097, 14.238907356390781], [79.08084043434876, 14.238918714487241]]], [[[79.19640063321307, 14.404116060938907], [79.20136144217497, 14.40243170783001], [79.2020847055261, 14.400370599851714], [79.20706740203768, 14.395930787436217], [79.20886435021785, 14.392155606652873], [79.21277302517622, 14.3894296875583], [79.2142192226065, 14.38530735938685], [79.21741832758983, 14.382920422908887], [79.2199161715361, 14.37983928192708], [79.22842580920832, 14.376114308109317], [79.23128486906091, 14.372002400950898], [79.23553274043132, 14.37100077735084], [79.23660077794095, 14.369975409501144], [79.2373316842755, 14.36688087266938], [79.24018776379629, 14.36311324565582], [79.24409825990293, 14.360042277488887], [79.24410631808158, 14.359009006570652], [79.24234521850623, 14.35830706079784], [79.2377524013807, 14.358272943284556], [79.2338796873605, 14.356521896163196], [79.23140666139854, 14.356503450148843], [79.23033596763254, 14.357873221407752], [79.22959417720958, 14.36234541472721], [79.22710481627658, 14.364393438845962], [79.22427841278497, 14.364372263450008], [79.22425938969882, 14.366783201815249], [79.22283257367943, 14.368494696823838], [79.21965281954246, 14.36847080812519], [79.21895166075899, 14.367776656345594], [79.21896801637983, 14.36571014393038], [79.22074541491008, 14.364345746828066], [79.22357453100798, 14.36402254466077], [79.22358268570092, 14.362989285569379], [79.22112321116603, 14.361248627568258], [79.22078896935773, 14.35883503922791], [79.22364518344943, 14.355067629396377], [79.2240147631654, 14.353003757117651], [79.22190866361225, 14.351265764849218], [79.2166067582127, 14.351570371457157], [79.21520455860565, 14.350182060685835], [79.211682735386, 14.348777763029783], [79.2113485986734, 14.346364172793761], [79.21349005652702, 14.343624806909833], [79.21315044140667, 14.341900053613253], [79.21138412847222, 14.341886739304002], [79.20995740479523, 14.3435981670774], [79.20782960188549, 14.344615409830345], [79.20568258564519, 14.348043548825299], [79.20390799583414, 14.349063422582507], [79.20315475023573, 14.354913143411965], [79.20208115909729, 14.356627183959304], [79.20170587084644, 14.359379828828875], [79.20027620018304, 14.36143558983236], [79.19990362952049, 14.363843812061969], [79.19491054647756, 14.369661207696208], [79.19525279757082, 14.371041557809102], [79.19666601811335, 14.371052327751798], [79.20588493729282, 14.366989132611977], [79.20906738763229, 14.366668786859886], [79.2108284157535, 14.367370975332495], [79.21292361030729, 14.370486741493979], [79.2128962475223, 14.373930915871775], [79.21074348725215, 14.3780479030231], [79.21000119936953, 14.382519975118118], [79.20821809661368, 14.384573097770463], [79.20712788324505, 14.388353640704787], [79.20534470404253, 14.390406732312444], [79.20318335185753, 14.395556855734291], [79.19712394761133, 14.402054974363239], [79.19640063321307, 14.404116060938907]]]]}}]}