{"type": "FeatureCollection", "features": [{"type": "Feature", "properties": {"depth_class": 1, "depth_lo_m": 0.3, "t_s": 82800.12716200468}, "geometry": {"type": "MultiPolygon", "coordinates": [[[[79.01424296778274, 14.223220123053174], [79.01602618186206, 14.221168489959858], [79.01813838663901, 14.221874831035088], [79.02096866992005, 14.221209469120577], [79.02168672354301, 14.21983777971867], [79.02171966913033, 14.216049556950844], [79.02067556682104, 14.2143188719775], [79.01891644127093, 14.213615486208635], [79.0178693710617, 14.212229176129327], [79.0139921575822, 14.211508191486345], [79.01150297172912, 14.213553947723556], [79.01148190310485, 14.215964620613429], [79.01217892634699, 14.21700363815606], [79.01144276519125, 14.220441583183506], [79.01283382962676, 14.222864001902288], [79.01424296778274, 14.223220123053174]], [[79.01815339219868, 14.220152915754356], [79.01641525626744, 14.217038827487833], [79.01324101536012, 14.216668060368143], [79.01254398765876, 14.215629045399083], [79.01291806577964, 14.213221304854397], [79.01610126561869, 14.2125589214722], [79.01819839683871, 14.214987168333762], [79.02030755945819, 14.21603786761961], [79.02063661448385, 14.2187958601953], [79.01991855910141, 14.220167546157368], [79.01815339219868, 14.220152915754356]]], [[[79.16062073082857, 14.241613360551185], [79.16141333288863, 14.230942045023951], [79.16388767401897, 14.23061664514664], [79.16425188065335, 14.229241710064466], [79.16320934656169, 14.227167095131888], [79.16109368959671, 14.226806387010601], [79.15898919719153, 14.225068015579426], [79.15722384841197, 14.225054407334662], [79.15543614648841, 14.227796071131706], [79.15331770701934, 14.227779705115275], [79.15189701514774, 14.228802013680765], [79.15187180994066, 14.23190170211306], [79.15291425045393, 14.233976355919092], [79.15572493499282, 14.235720239400475], [79.15708977487797, 14.241586124182863], [79.15814347395816, 14.242283121995076], [79.15990895746806, 14.242296739560603], [79.16062073082857, 14.241613360551185]], [[79.15890271052439, 14.235744762761133], [79.156100381072, 14.232967682060588], [79.1561087649173, 14.231934450296858], [79.1582244551067, 14.232295207249601], [79.15890271052439, 14.235744762761133]]], [[[79.08222365445923, 14.242374021086396], [79.08616269126503, 14.23586166391974], [79.08618589922843, 14.233106490654498], [79.08513830521576, 14.231720413936236], [79.08160765648091, 14.231692080612673], [79.07699159319492, 14.234754722914893], [79.07591197079478, 14.23715695226768], [79.07450552261072, 14.236456777950805], [79.07203110878068, 14.236781227347615], [79.07130157375234, 14.239530672437589], [79.07234910500024, 14.240916802965831], [79.07411156974005, 14.241275447603545], [79.07588571359318, 14.240256502362405], [79.07693036170394, 14.241987011201704], [79.07868701807759, 14.243034413726718], [79.08115859049458, 14.243054298225754], [79.08222365445923, 14.242374021086396]], [[79.07800708917237, 14.239929174541674], [79.07804205795068, 14.23579643561188], [79.08230215997636, 14.233075335192929], [79.0840674948359, 14.23308950458502], [79.08476782352267, 14.233783961502166], [79.0847533076638, 14.235505943341071], [79.08224110502438, 14.240307647104727], [79.08082006229033, 14.241329482389697], [79.07870158792157, 14.241312439113432], [79.07800708917237, 14.239929174541674]]], [[[79.11821835883717, 14.245071512487145], [79.12036827828598, 14.241299773694987], [79.1203882306469, 14.238888950273804], [79.11899871194554, 14.236122600929617], [79.11653001572947, 14.235758714744671], [79.1143801013723, 14.239530419205416], [79.11400413678402, 14.242282846396957], [79.11680598822896, 14.245060370735448], [79.11821835883717, 14.245071512487145]]], [[[79.16938705731988, 14.249258304748714], [79.17010993633328, 14.247197245588358], [79.16871418063701, 14.245119933448054], [79.166601126252, 14.244414841240927], [79.16306732832118, 14.244732099680535], [79.16305060756646, 14.246798569016825], [79.16514696315588, 14.24957016518527], [79.16796905929223, 14.249936287421468], [79.16938705731988, 14.249258304748714]]], [[[79.03554013007644, 14.250949013555928], [79.03698821392922, 14.246828006718907], [79.03875658358997, 14.24649813805168], [79.03947166355192, 14.245470781105054], [79.03878930883116, 14.24270988467011], [79.03738594882373, 14.241665115509615], [79.03561761715916, 14.24199497871526], [79.03418744478843, 14.24404966533019], [79.03170398768316, 14.245406833998175], [79.03027674584823, 14.24711710443601], [79.03026180257916, 14.248839028483157], [79.03341565390926, 14.251620327758394], [79.03554013007644, 14.250949013555928]], [[79.03381349243577, 14.24645745597372], [79.03486676209809, 14.24715495376699], [79.03450175466527, 14.248529588185537], [79.0330924167534, 14.248173562985087], [79.03310435377429, 14.246796021339028], [79.03381349243577, 14.24645745597372]]], [[[79.14888435209784, 14.251855545913502], [79.15101704145654, 14.250149933078053], [79.15067796568138, 14.24842515076216], [79.14820623550241, 14.248405978891922], [79.14749159442616, 14.24943372182049], [79.1478306459271, 14.251158505782573], [79.14888435209784, 14.251855545913502]]], [[[79.15838479078947, 14.256062268996695], [79.15911338385736, 14.253312437782343], [79.15806243004766, 14.252271027947508], [79.15523753619165, 14.252249196791407], [79.15169520366683, 14.25359949742433], [79.15168398053454, 14.254977133819937], [79.15414177527428, 14.256718325970553], [79.15731984181178, 14.256742905802403], [79.15838479078947, 14.256062268996695]]], [[[79.14706254594385, 14.258730001267264], [79.14567259149406, 14.255963757223753], [79.14249455686192, 14.255939023536728], [79.14142956982256, 14.25661958364428], [79.14177422109218, 14.257655556858236], [79.14529413104346, 14.259060680950903], [79.14706254594385, 14.258730001267264]]], [[[79.02804154572235, 14.260530589186269], [79.0284185952044, 14.257778436996752], [79.02702119820533, 14.256044834396468], [79.02455556226504, 14.255335604427632], [79.02207192835726, 14.256692648188968], [79.0220509053966, 14.259103327882938], [79.02345127789235, 14.260492573724974], [79.0252107656334, 14.261195972272752], [79.02804154572235, 14.260530589186269]], [[79.02383138253299, 14.257396052775857], [79.02559984263743, 14.257066295060401], [79.02664413778716, 14.25879698293623], [79.02487266498778, 14.259471130173212], [79.02381937995807, 14.258773585480736], [79.02383138253299, 14.257396052775857]]], [[[79.15551223386278, 14.261895401113824], [79.15517591850482, 14.259826210943096], [79.15411654920763, 14.259818011110424], [79.15339628092806, 14.261534588189587], [79.15551223386278, 14.261895401113824]]], [[[79.04956882551404, 14.262085344424321], [79.04994266195278, 14.259677513925018], [79.04924534627528, 14.258638571089168], [79.04783887698481, 14.257938234206215], [79.04571732170355, 14.258265266255668], [79.04499925057591, 14.2596370268955], [79.04532860188453, 14.262395022668189], [79.04850358252169, 14.262765450493285], [79.04956882551404, 14.262085344424321]]], [[[79.08311707004823, 14.262013076241544], [79.08349346713261, 14.259260752706338], [79.08279307445079, 14.258566284081496], [79.07996530927423, 14.258887946705295], [79.07854121259146, 14.260254145413967], [79.0785324580722, 14.261287328479622], [79.08063945771873, 14.262681975628587], [79.08311707004823, 14.262013076241544]]], [[[79.16079517129886, 14.263658381235558], [79.16222165082931, 14.261947222107933], [79.16187689830888, 14.260911266764621], [79.16011126806065, 14.260897646361023], [79.1583344509574, 14.26226165363537], [79.15902952074364, 14.26364475025521], [79.16079517129886, 14.263658381235558]]], [[[79.12465371483188, 14.278187067356129], [79.12679252829656, 14.275792920190746], [79.1268210048519, 14.272348883784531], [79.12541985450484, 14.270960158419063], [79.1236456269315, 14.271979467794093], [79.12183997563454, 14.276787190910632], [79.12182283964556, 14.278853606194145], [79.12465371483188, 14.278187067356129]]], [[[79.10415986245036, 14.279402474961445], [79.10381825341616, 14.27802206717275], [79.1024056894136, 14.278010814823002], [79.10238837462667, 14.28007720665401], [79.10415986245036, 14.279402474961445]]], [[[79.16325019523511, 14.395938763805482], [79.16469450717621, 14.392161259911605], [79.16400473305563, 14.390089327520096], [79.16259705237171, 14.389389533852153], [79.1611724670315, 14.390756174970933], [79.16113863055192, 14.394889058171778], [79.16183120587166, 14.396616589798017], [79.16325019523511, 14.395938763805482]]], [[[79.18200797545101, 14.260721201503879], [79.18024509046757, 14.260363315877216], [79.17917464201824, 14.26173288401928], [79.18128790411276, 14.262437887697773], [79.18199693057271, 14.262098860545079], [79.18200797545101, 14.260721201503879]]], [[[79.25471186162503, 14.266775713673784], [79.25368954344269, 14.26194595805346], [79.2522636873892, 14.26365774560405], [79.25225572214768, 14.26469102931883], [79.25471186162503, 14.266775713673784]]], [[[79.16856127372854, 14.264062614466171], [79.16750466039016, 14.263710059830881], [79.16749352499747, 14.26508770734837], [79.16855292689425, 14.26509585070258], [79.16856127372854, 14.264062614466171]]], [[[79.18334873867191, 14.26968675685913], [79.18159959866776, 14.267606800491746], [79.17911931569044, 14.268621166084051], [79.18087673143668, 14.269667895858616], [79.18334873867191, 14.26968675685913]]], [[[79.25109526411214, 14.27777150297948], [79.25146172784294, 14.276051959426724], [79.25006502274856, 14.273975020904953], [79.2475955425589, 14.27361241977852], [79.2465307234921, 14.274293476247358], [79.24616156099239, 14.276357434930256], [79.24721040037154, 14.277742941132871], [79.24897092090607, 14.278444785430265], [79.25109526411214, 14.27777150297948]]], [[[79.28247279528503, 14.28523335787766], [79.28037721753341, 14.282118165452715], [79.2786113079278, 14.282105403906657], [79.27439150476228, 14.279663702458864], [79.26840067019786, 14.277897964004527], [79.26630008503277, 14.275471535606334], [79.26065467728176, 14.274741479072274], [79.25820898840541, 14.271279126194417], [79.25540226250757, 14.268847455598904], [79.25469329686918, 14.269186711393164], [79.25467207576023, 14.271942136732973], [79.25677779610454, 14.27367979367508], [79.25782139800924, 14.275754116597865], [79.26028034889656, 14.277494332176964], [79.26131606496638, 14.280601932089462], [79.26308194666336, 14.280614820554575], [79.26416259591404, 14.277867110096832], [79.2648689409249, 14.277872257646344], [79.26627108553447, 14.279260266730368], [79.26944703149341, 14.27962781891595], [79.2733109630176, 14.282411472014203], [79.27930196582497, 14.284177103957763], [79.28035367247766, 14.285218057835943], [79.28247279528503, 14.28523335787766]]], [[[79.1965844932961, 14.29286463658808], [79.19730457979843, 14.291147906003298], [79.19590009693927, 14.290103948688941], [79.1944818876002, 14.290782066147592], [79.19482132783448, 14.292506827563852], [79.1965844932961, 14.29286463658808]]], [[[79.18594208401116, 14.298639130953813], [79.18489633572469, 14.296908974996596], [79.18418443181397, 14.297592411589477], [79.18452656044182, 14.298972764562219], [79.18594208401116, 14.298639130953813]]], [[[79.20564702015032, 14.308088466365437], [79.2077853899202, 14.305693527769156], [79.20852455270658, 14.301565829507346], [79.20996188657256, 14.298476698984867], [79.20465030925233, 14.300158853969826], [79.2025119693023, 14.30255376764399], [79.2017781738428, 14.30599259919453], [79.20211493962422, 14.308061774561947], [79.20352229512936, 14.308761292594468], [79.20564702015032, 14.308088466365437]], [[79.20426702303047, 14.303944783328154], [79.20568256402228, 14.303611032496708], [79.20566889475792, 14.305333122655647], [79.20495701630533, 14.306016625281313], [79.20390287508543, 14.305319785981538], [79.20426702303047, 14.303944783328154]]], [[[79.22437258021466, 14.307540214776626], [79.22226415068253, 14.306146689130996], [79.21978897955914, 14.306472606277431], [79.21978084097817, 14.307505868141332], [79.22294619452185, 14.309251761895885], [79.22471496908393, 14.308920539202616], [79.22437258021466, 14.307540214776626]]], [[[79.26072720152935, 14.311253495464369], [79.26214804485217, 14.310230547289763], [79.26215864008213, 14.30885283362684], [79.25970201220284, 14.306768173522379], [79.2575827132906, 14.306752647965006], [79.25544746490188, 14.308803666948748], [79.25508360761555, 14.310178782459415], [79.25613529681029, 14.311219842386146], [79.26072720152935, 14.311253495464369]]], [[[79.27936682633405, 14.322067151341288], [79.28328394142262, 14.317962090326239], [79.28436982008319, 14.314525424091007], [79.28443519595284, 14.30591461278796], [79.28586635887082, 14.303513774991094], [79.28588985980487, 14.300413878369925], [79.28519388395554, 14.299031053707871], [79.2841342561254, 14.29902341093891], [79.28197574649121, 14.304174595231727], [79.28191028522419, 14.312785396647444], [79.28012577901757, 14.315183640681555], [79.27764263938377, 14.316543452030727], [79.27692302986877, 14.318260483263598], [79.27689411796324, 14.322049222113243], [79.27936682633405, 14.322067151341288]]], [[[79.2656009352598, 14.32058921759288], [79.2659726889883, 14.318180795217085], [79.26527680004672, 14.316797921707428], [79.26422504096193, 14.315756895028189], [79.26245888386103, 14.315743984041505], [79.26174446935318, 14.316772100416568], [79.26242443390309, 14.320221550960511], [79.26382944219844, 14.321265169362539], [79.2656009352598, 14.32058921759288]]], [[[79.23171185464673, 14.317583768970971], [79.23134783658851, 14.31895882901564], [79.23275806314423, 14.319313768838931], [79.23312476835999, 14.317594282942515], [79.23171185464673, 14.317583768970971]]], [[[79.09238938552154, 14.501113015483465], [79.09490208304709, 14.496656028138524], [79.09774170440627, 14.495301385917493], [79.10092304040995, 14.49532713153176], [79.10163586983074, 14.494644062509105], [79.10344135637378, 14.49018123660662], [79.10593030315161, 14.488479231586608], [79.10629547069772, 14.48710450728194], [79.11235983465797, 14.480609357402063], [79.11377659061043, 14.480276310919516], [79.11662462272993, 14.47788821236689], [79.11806458350178, 14.474799968920896], [79.12126884636734, 14.472070230098037], [79.12736122236892, 14.462130601581709], [79.12948471624249, 14.461803066204965], [79.13370005271464, 14.464936330409149], [79.1358264450948, 14.46426434006052], [79.13585804720489, 14.460475940498586], [79.1309416541643, 14.456648311325818], [79.1306199006251, 14.452857114676906], [79.12957404015873, 14.45112670067633], [79.1299447350317, 14.449063112223088], [79.13385241397876, 14.446683143936193], [79.13705893151344, 14.443608711491358], [79.13849834464564, 14.440520273954746], [79.1431382975251, 14.435046083036683], [79.14988696681843, 14.430966028558991], [79.15520484864294, 14.428941128085839], [79.15731951296027, 14.429646513623618], [79.1569462857565, 14.432054587337548], [79.15373735331566, 14.435473749969713], [79.15372031298904, 14.437540175275261], [79.1551197279014, 14.439273265089684], [79.16889974147334, 14.439725151352329], [79.17102863235928, 14.438708393097139], [79.17385588862842, 14.43873031412698], [79.18054824502016, 14.441537515256059], [79.18335318580422, 14.444314604396215], [79.18437151519468, 14.449488924057343], [79.18787787792036, 14.452960243763513], [79.1885568418251, 14.456409786074557], [79.19066910997898, 14.457459324157169], [79.1924140316941, 14.460228187023688], [79.19131746045376, 14.46469738152662], [79.19448183008463, 14.466788276844724], [79.19516091423556, 14.470237812977192], [79.19475455027933, 14.47677891082548], [79.19613782115674, 14.48057828398856], [79.19611833361111, 14.482989161447524], [79.19323190677397, 14.49020006043774], [79.18575814006402, 14.496342214320274], [79.1850399221683, 14.49771438570805], [79.18537379724843, 14.500127977141862], [79.19739306860966, 14.500220559806042], [79.20162684693203, 14.501286323998313], [79.20410975722258, 14.500272029532855], [79.22285141512975, 14.499725757552813], [79.22568774985159, 14.498713896737703], [79.22640299606029, 14.497685989019363], [79.22786631554393, 14.491497164030765], [79.2328971859984, 14.481201908003067], [79.23544509184944, 14.471921192284027], [79.23482250928909, 14.461238905395767], [79.23169318340935, 14.45467107715152], [79.22888200279417, 14.452583318328562], [79.2274545936319, 14.45429477103003], [79.22248724134221, 14.456668390185635], [79.21576355026136, 14.457650842270237], [79.21363187006962, 14.459012421257057], [79.21221808205702, 14.459001688733004], [79.20905361883575, 14.4569110242712], [79.19986690019768, 14.456496530070373], [79.19671649223838, 14.452683656505906], [79.19638527795965, 14.449925653921039], [79.19464036828099, 14.447156821828326], [79.19465982144033, 14.444745939018537], [79.19714209422966, 14.443731644513134], [79.19821344583521, 14.442362103836881], [79.19752325240412, 14.440290223379682], [79.19435086010793, 14.439232640673543], [79.19081674222846, 14.439205540360456], [79.18835122585486, 14.438153306135527], [79.18413825276417, 14.434676572915262], [79.1827497943598, 14.431565991935932], [79.18063220664483, 14.431205232684116], [79.17993660739613, 14.429822140842488], [79.18387699400755, 14.423308312350244], [79.18708253419435, 14.420233072502272], [79.19203264999065, 14.419926615589135], [79.19242212969196, 14.415451963717706], [79.1999038167262, 14.407931567320608], [79.20202952144164, 14.407258889167432], [79.20554662919847, 14.409352253150626], [79.2076750886921, 14.408335108458248], [79.20769434730816, 14.405924200406961], [79.20594130446563, 14.40418871136191], [79.2059550701537, 14.402466635273264], [79.21022830531861, 14.398365803511298], [79.21238405595884, 14.393904434658308], [79.21593665216254, 14.391520207696006], [79.2180976758464, 14.38636992765615], [79.22129131079639, 14.384671773216287], [79.22307702965408, 14.38227411923166], [79.2280426332919, 14.37990028415662], [79.23122798286663, 14.37923523738211], [79.23373642817197, 14.374776238200466], [79.23869637712352, 14.373090990565956], [79.2415632940184, 14.367945663726669], [79.24405258477104, 14.365897477575983], [79.2454872901011, 14.363152562620819], [79.2479791722044, 14.360759900012368], [79.2518734885675, 14.35975533646388], [79.25508520220846, 14.355645670036912], [79.26004992675128, 14.353271052952037], [79.26290014782712, 14.35019193992561], [79.26716076600633, 14.347467543673625], [79.26789115344359, 14.34437285112312], [79.27002932012576, 14.341977322307196], [79.27111291154499, 14.338885188104369], [79.27112611461382, 14.337163041942368], [79.26903559370747, 14.333358867942309], [79.2690461647409, 14.331981151911098], [79.27047767835309, 14.32958044873477], [79.2712184869831, 14.325108011490391], [79.27229404684134, 14.32304914643226], [79.27088634541015, 14.32235000228132], [79.26946545269257, 14.323372997624354], [79.26874047233024, 14.32577885202724], [79.2658853771873, 14.329546942102095], [79.26580593632413, 14.339879793027565], [79.26293731807804, 14.345369955634887], [79.25834205232309, 14.345680693571419], [79.25726624005861, 14.347739465096968], [79.25441865357888, 14.3504740799532], [79.24520109529216, 14.354539348760298], [79.23883921666722, 14.354836596991527], [79.23743145588034, 14.354137245251984], [79.23673297133003, 14.35309872171157], [79.23711320794808, 14.349657124137195], [79.24320487443482, 14.33868014637681], [79.24395162783932, 14.333519013469475], [79.24609258403667, 14.330779290752938], [79.24718444384762, 14.326654018735477], [79.24860009885957, 14.326320021728073], [79.25105146287538, 14.329093657585664], [79.25211121311118, 14.329101463731968], [79.25318429454826, 14.327387134034513], [79.25320295435935, 14.324976150030139], [79.25075159993082, 14.322202537562417], [79.25077561481488, 14.319102703581661], [79.24869093033305, 14.314609550923782], [79.2480191986927, 14.310126807878344], [79.24382873982567, 14.303895870559904], [79.23997293549738, 14.300078468987158], [79.23824180253966, 14.295587875439718], [79.2294281200129, 14.293455777554211], [79.22838203456996, 14.291725776163673], [79.2252141579735, 14.290324398001186], [79.22488798837402, 14.286877542375036], [79.2241870347234, 14.286183428951924], [79.22206796919589, 14.286167609142584], [79.22135620176093, 14.286851174702592], [79.22168773016436, 14.289609186006038], [79.22097324183785, 14.290637170174955], [79.21779730017455, 14.290268962513062], [79.21640357028471, 14.287847433682998], [79.21323855746921, 14.286101490444466], [79.2122007911784, 14.283338175544426], [79.2093890442174, 14.281594843328325], [79.20764228870978, 14.279170622195387], [79.20341252631921, 14.278105429523022], [79.20060912744393, 14.27532875456614], [79.19849566863702, 14.274623901777938], [79.19324504082934, 14.268728694655996], [79.18901281489201, 14.268007692095956], [79.18652979497394, 14.269366553685092], [79.18652152680195, 14.270399799834525], [79.19075653291195, 14.270776434717078], [79.19145183212467, 14.27215946243907], [79.19426056142979, 14.274247394682208], [79.19565122896147, 14.277013435266017], [79.19952775762773, 14.2780760893984], [79.20409973028343, 14.280521686519753], [79.2104104322501, 14.28642468282422], [79.2128554660666, 14.289887457439285], [79.21426547432137, 14.290242483506951], [79.2181206463125, 14.294060235667331], [79.22447535545771, 14.294452191498232], [79.2283415750704, 14.296892115099862], [79.23151494963355, 14.29760461754515], [79.2336260630214, 14.29865363599925], [79.23818008585056, 14.303509633913363], [79.24062037042279, 14.307661037620063], [79.2434246706465, 14.310437336863991], [79.24446559592526, 14.312856142732358], [79.24443882831629, 14.316300392791245], [79.24548781217368, 14.317685922126143], [79.24368683146979, 14.322150391431382], [79.24294282247256, 14.326967107444379], [79.23828609806776, 14.335199235672427], [79.23683806364397, 14.33966623792452], [79.23469690760453, 14.34240585264539], [79.23180321087602, 14.350995342634242], [79.22966728863204, 14.353046047761557], [79.22860473018929, 14.353382549459681], [79.22405277298753, 14.348181874921146], [79.22264239131118, 14.347826864956676], [79.21843578112997, 14.343662014373038], [79.21565054015461, 14.33847448277331], [79.2131859239081, 14.337422614021554], [79.21106365841842, 14.337751058562247], [79.20821571894531, 14.34048507063944], [79.20537867808076, 14.341841372377132], [79.20216636601367, 14.345950287854981], [79.19968249333044, 14.347309187177329], [79.19930445301715, 14.350406244189278], [79.1999944886815, 14.352478104155141], [79.19854281529881, 14.357289180779066], [79.19675708828917, 14.359686647065502], [79.19567238224069, 14.362778307469004], [79.19211733316916, 14.365506676992203], [79.19103806598868, 14.367909477153567], [79.1892577117866, 14.36961803954903], [79.18288160383702, 14.371635784890419], [79.17828587544649, 14.37194489386351], [79.1743827737739, 14.373981413201555], [79.1690831995835, 14.373940475621724], [79.1652052844399, 14.372877154563152], [79.16094876957632, 14.374910696780026], [79.15702573052458, 14.379357750723596], [79.15312800206549, 14.380705068406145], [79.15027883656956, 14.38343822698657], [79.1484838844029, 14.386868452470658], [79.1449307771952, 14.38925159056368], [79.14420990453645, 14.390968063958073], [79.14064528413546, 14.394728735366252], [79.13919770933335, 14.39885044361531], [79.13986728235636, 14.403333240430777], [79.13771577522758, 14.407104959271946], [79.13732238970736, 14.411923797942558], [79.13590037180987, 14.412945847198245], [79.13343259263054, 14.412237502235836], [79.12636258115, 14.412525924565854], [79.12387180053003, 14.414572676271698], [79.12315066891016, 14.416289052675626], [79.12067136489405, 14.416958168184593], [79.11605450786742, 14.419676725757943], [79.1135519636565, 14.423100933248259], [79.11035711129652, 14.424797463371826], [79.10892908836186, 14.426508115580901], [79.10958352239201, 14.432712903376029], [79.10850300478045, 14.435115169033198], [79.10565258785587, 14.437847627775326], [79.10105849585115, 14.437810662206656], [79.0975011713216, 14.440537310441284], [79.09747774989432, 14.44329245389234], [79.10203688811859, 14.44746222791707], [79.10308250626878, 14.449192736883964], [79.10306790225809, 14.450914705955624], [79.100564766246, 14.454338700184103], [79.0998198789405, 14.458810106065599], [79.09483084767128, 14.463591599977658], [79.08952939692843, 14.463548621403193], [79.08883137461716, 14.462509710200264], [79.08886376901623, 14.458721413090252], [79.08605998636641, 14.455943320503657], [79.08324151247088, 14.454887150998477], [79.08078534865102, 14.452800663966705], [79.07689487432866, 14.453113337655394], [79.0747595875849, 14.454817951199624], [79.07331328970571, 14.45859465202401], [79.07045621426398, 14.462015363653835], [79.06969283551214, 14.468552913506292], [79.06715620810816, 14.475764704908114], [79.07172718968162, 14.478557521225879], [79.07170636161435, 14.480968227534682], [79.07026276611768, 14.48440048814182], [79.07581411489522, 14.496500405868078], [79.07648243508976, 14.500983228718596], [79.09238938552154, 14.501113015483465]], [[79.10671323054022, 14.479530697164465], [79.10146115645037, 14.473633264055794], [79.097626038431, 14.467402788131814], [79.09800586340467, 14.464306114662149], [79.10192872671693, 14.460204786871584], [79.10267942598907, 14.45504458307431], [79.10518545963282, 14.451276169365038], [79.10451073640817, 14.44748214630713], [79.10065249862666, 14.444006899811825], [79.09996616549743, 14.441590447453178], [79.10174775558265, 14.439882718297763], [79.10598849637164, 14.439916835925041], [79.10990493010497, 14.436504088263327], [79.11134173421651, 14.433760250584248], [79.11104643599288, 14.426869500027626], [79.11459758771622, 14.42483139146182], [79.11781266156252, 14.420724017036177], [79.12136366014128, 14.418685786270025], [79.12348673545652, 14.41835825515644], [79.1270549130579, 14.414253530210646], [79.1365927816767, 14.41467343380638], [79.13836816956986, 14.413654168183024], [79.13908632197928, 14.412282131906966], [79.13912060725892, 14.408149306453833], [79.14163115524813, 14.403691548000404], [79.14096154617887, 14.399208751957444], [79.14205006177892, 14.395773058485927], [79.14525850810378, 14.392353997404038], [79.14597937893471, 14.390637520573161], [79.14953250078364, 14.388254368269738], [79.15132745167541, 14.384824134611442], [79.1545327675859, 14.381749314939738], [79.15807437512564, 14.380743631566228], [79.16235354441478, 14.375954897349768], [79.1651912363444, 14.374599195921087], [79.16942248721557, 14.375665253777271], [79.17436879480256, 14.375703463265616], [79.17827192841258, 14.37366694798043], [79.18109837699339, 14.373688686003451], [79.18995323098656, 14.371001095478942], [79.1977948936667, 14.362450031537232], [79.19780592292308, 14.361072372024617], [79.19995044569333, 14.357988751842342], [79.19996421113663, 14.356266674729069], [79.20140209639312, 14.353177663877299], [79.2010873199312, 14.34835316105873], [79.20392721212363, 14.346652507480718], [79.20643024118219, 14.342882640578958], [79.20784603194502, 14.342548905973162], [79.21140325482077, 14.339475812844237], [79.21387606702802, 14.339494445935845], [79.21597654587212, 14.341921329179877], [79.21595746502054, 14.344332261181085], [79.21453075497958, 14.346043718382617], [79.21522638348044, 14.347426712275976], [79.2226315244635, 14.349204544777049], [79.2261398824218, 14.352330790907178], [79.22647418131172, 14.354744378442943], [79.22361529798167, 14.358856248258888], [79.2243055824941, 14.360928064892857], [79.22606391508374, 14.361974560826534], [79.22783582234216, 14.361298942828576], [79.22893634757693, 14.356140557445885], [79.23142829814694, 14.35374807889261], [79.23882574981924, 14.356558710851752], [79.24447840978651, 14.356600658510429], [79.25546783798305, 14.351859586368407], [79.25938592342263, 14.347755036973863], [79.26256545323682, 14.347778359296617], [79.26220154691362, 14.349153479226484], [79.25935399340389, 14.351888157838484], [79.25403600548819, 14.354260160619061], [79.2511775929999, 14.358372421454462], [79.24692732115282, 14.359718786095566], [79.24443544204013, 14.36211143787144], [79.23980213802228, 14.367243692478157], [79.23835924440273, 14.371021827966986], [79.23657917902263, 14.37273078470675], [79.23233127643965, 14.37373242375574], [79.23017885312755, 14.377849629022938], [79.22734684519757, 14.378517310896305], [79.22131584108229, 14.381572004908724], [79.21953011152377, 14.383969644205655], [79.21597494168992, 14.386698362399358], [79.21488483989421, 14.39047895436614], [79.21097616651475, 14.393204909017623], [79.20882039785931, 14.397666262815141], [79.20419104432892, 14.402108797283157], [79.20486469627245, 14.4062471478523], [79.20062711683772, 14.405870468331276], [79.19920814615135, 14.406548524284728], [79.19315385257818, 14.412357662205041], [79.19314830327433, 14.41304648723026], [79.19101696830491, 14.414407899721443], [79.18992626824001, 14.418188303621744], [79.1867430826816, 14.4185083019912], [79.1835403571644, 14.421239129571308], [79.18174550771195, 14.424669621954413], [79.17781904348236, 14.429461358728041], [79.17744883594379, 14.431525082034723], [79.1792046202159, 14.43291636899017], [79.18132221989755, 14.43327714264648], [79.18236285163154, 14.435696186421533], [79.18552116247662, 14.438475970074046], [79.18974258140824, 14.440919455278916], [79.19327116382723, 14.44163539824571], [79.19219978873143, 14.443004913410036], [79.19217752876985, 14.445760204660104], [79.1939084927121, 14.450251108459762], [79.19389180522664, 14.452317577648655], [79.19527774011864, 14.455772532458994], [79.19491595965417, 14.456803057908337], [79.19104484324154, 14.454706753387553], [79.18895769871611, 14.450557526213402], [79.18614981882935, 14.448124898118024], [79.18582432144021, 14.444678075258613], [79.18443020554561, 14.442256316718268], [79.18056784201963, 14.439126650173826], [79.17738996564503, 14.438757667786772], [79.17386993547734, 14.437008273722624], [79.17104270092617, 14.436986355416979], [79.16891382744507, 14.438003115876798], [79.1653826015284, 14.437631230133473], [79.16396333724163, 14.438309036200785], [79.1607883569257, 14.437595428825325], [79.15830887154722, 14.438264924295375], [79.15619128844132, 14.437903942755028], [79.15549867082356, 14.43617639030177], [79.1587104223605, 14.432412796576537], [79.1594426824251, 14.429318665159895], [79.15804328344527, 14.427585603048112], [79.15521902887215, 14.427219104325669], [79.14883818143285, 14.429580094966662], [79.14244579157325, 14.43331850487228], [79.1395957626679, 14.436051427450794], [79.13601305181407, 14.441878324024342], [79.13209398149965, 14.445635940852885], [79.12996776650436, 14.446307918396071], [79.12782712974409, 14.448701869188229], [79.12779830171573, 14.452145856439257], [79.1288412692327, 14.45422067593306], [79.12950489254789, 14.45939227488068], [79.1273814220487, 14.459719813261254], [79.12524928112276, 14.461080525485258], [79.11987244520557, 14.469992553806016], [79.1163118460162, 14.473063840887397], [79.11344932754119, 14.477173919220398], [79.10883398168721, 14.479547766531656], [79.10671323054022, 14.479530697164465]], [[79.22609376612856, 14.358185937910914], [79.22643891824558, 14.359221843975682], [79.22608562579875, 14.359219198832042], [79.22609376612856, 14.358185937910914]], [[79.26865589581733, 14.336800579551163], [79.26864531869444, 14.338178294738858], [79.2679387838156, 14.338173137171971], [79.26759345427921, 14.337137271805913], [79.26865589581733, 14.336800579551163]]], [[[79.16441836271555, 14.425913157819762], [79.17118328438038, 14.419765964073454], [79.17721030464637, 14.41740157716735], [79.18290895685223, 14.4119346062764], [79.18503473320054, 14.411262091785096], [79.18894679096209, 14.408192231843657], [79.19215757753044, 14.40442806090234], [79.19395207718948, 14.400997446198563], [79.20035935382226, 14.395190935029845], [79.20323294493004, 14.389357385475748], [79.20501338058517, 14.387648726404281], [79.20610362349032, 14.383868196737547], [79.20824555218888, 14.38112893531998], [79.20862906237026, 14.37734303040058], [79.21042031813819, 14.374256645704682], [79.21045045920157, 14.370468059077218], [79.20940150307742, 14.369082377048121], [79.2058657135716, 14.369400046183115], [79.1973505478415, 14.373813025443066], [79.1948746171472, 14.374138590090242], [79.19096050820637, 14.377553048529684], [79.1845174078737, 14.38783669495527], [79.18024677429491, 14.391592623024], [79.1769968685823, 14.400178371977933], [79.17342135703916, 14.405317219234977], [79.16950355327472, 14.409075619646764], [79.16625573513859, 14.41731672311468], [79.16234888529108, 14.419697336501077], [79.1598526422209, 14.422433308485047], [79.15983850249086, 14.424155337448482], [79.16229805261271, 14.425896649688905], [79.16441836271555, 14.425913157819762]], [[79.16232629597687, 14.422452587229778], [79.16375392208845, 14.420741559031896], [79.16587982135755, 14.420069234226732], [79.1676607794937, 14.418360922958373], [79.17126754526589, 14.40943371658414], [79.17554148585486, 14.405333604538175], [79.17876081125951, 14.400536406344777], [79.18129562276138, 14.39297842317867], [79.1862812749241, 14.38819466354165], [79.18700460916587, 14.386133610179813], [79.18914122459783, 14.384083377146945], [79.19272431271501, 14.37791096108665], [79.19557018350213, 14.375521634679803], [79.19804612956374, 14.375196064446936], [79.2065613404129, 14.370783065142055], [79.20868118244286, 14.370799115380118], [79.20901529440744, 14.373212705545509], [79.20722128487739, 14.376643494827066], [79.20683775388592, 14.380429395065534], [79.20433423638288, 14.384199207191894], [79.20324671658696, 14.387635309798448], [79.20146626923305, 14.38934395401355], [79.19930760713767, 14.394149619031687], [79.19254421682659, 14.400297812591413], [79.18932238806259, 14.405439645753672], [79.18433915191568, 14.409879014782756], [79.18079155038579, 14.411573869594163], [79.17687093248253, 14.4156768014646], [79.17013439918769, 14.418380114572823], [79.16478867212791, 14.423849467101745], [79.16231499952741, 14.423830212340333], [79.16232629597687, 14.422452587229778]]]]}}, {"type": "Feature", "properties": {"depth_class": 2, "depth_lo_m": 1.0, "t_s": 82800.12716200468}, "geometry": {"type": "MultiPolygon", "coordinates": [[[[79.02027459039152, 14.219826087145787], [79.02065159775512, 14.21707394186038], [79.01960750057071, 14.215343252802397], [79.01819839683871, 14.214987168333762], [79.01610126561869, 14.2125589214722], [79.01291806577964, 14.213221304854397], [79.01254398765876, 14.215629045399083], [79.01324101536012, 14.216668060368143], [79.01641525626744, 14.217038827487833], [79.01815339219868, 14.220152915754356], [79.02027459039152, 14.219826087145787]], [[79.01430610767282, 14.21598809505003], [79.013974124304, 14.213574486052321], [79.01644227872582, 14.213939381788796], [79.0164272670522, 14.215661296171254], [79.01430610767282, 14.21598809505003]]], [[[79.15890271052439, 14.235744762761133], [79.1582244551067, 14.232295207249601], [79.1561087649173, 14.231934450296858], [79.156100381072, 14.232967682060588], [79.15890271052439, 14.235744762761133]]], [[[79.08152913049344, 14.240990763783339], [79.0847533076638, 14.235505943341071], [79.08476782352267, 14.233783961502166], [79.0840674948359, 14.23308950458502], [79.08159311890579, 14.233414059554859], [79.07911000429254, 14.234771773679837], [79.07768315945009, 14.236482383125871], [79.07800125995254, 14.240617964216305], [79.07870158792157, 14.241312439113432], [79.08152913049344, 14.240990763783339]], [[79.07943104488227, 14.238562961220072], [79.08015465913117, 14.236502269065609], [79.0815669463746, 14.236513620989646], [79.08048735883516, 14.238915875745315], [79.07943104488227, 14.238562961220072]]], [[[79.03450175466527, 14.248529588185537], [79.034166569858, 14.24646036522745], [79.03310435377429, 14.246796021339028], [79.03344251277102, 14.248520859106744], [79.03450175466527, 14.248529588185537]]], [[[79.02628804568184, 14.259138443746428], [79.02630303036523, 14.257416525317973], [79.02383138253299, 14.257396052775857], [79.02416947409795, 14.259120895213629], [79.02628804568184, 14.259138443746428]]], [[[79.20531295606911, 14.305674874302634], [79.20568256402228, 14.303611032496708], [79.20462296006193, 14.303603033067423], [79.20390287508543, 14.305319785981538], [79.20425060635917, 14.306011289820043], [79.20531295606911, 14.305674874302634]]], [[[79.26794936524956, 14.336795422500364], [79.2679387838156, 14.338173137171971], [79.26864531869444, 14.338178294738858], [79.26865589581733, 14.336800579551163], [79.26794936524956, 14.336795422500364]]], [[[79.10671323054022, 14.479530697164465], [79.11238313559372, 14.477854198844243], [79.11487478468918, 14.475807677033524], [79.1163118460162, 14.473063840887397], [79.1188005042771, 14.471361662151352], [79.12023748480661, 14.468617791739245], [79.12237551754433, 14.466568343790351], [79.12524928112276, 14.461080525485258], [79.1273814220487, 14.459719813261254], [79.12950489254789, 14.45939227488068], [79.1288412692327, 14.45422067593306], [79.12779830171573, 14.452145856439257], [79.12818630724078, 14.448015880102217], [79.12996776650436, 14.446307918396071], [79.13209398149965, 14.445635940852885], [79.13601305181407, 14.441878324024342], [79.13673706401386, 14.439817509047554], [79.14244579157325, 14.43331850487228], [79.14954780243455, 14.42924123788068], [79.15521902887215, 14.427219104325669], [79.15804328344527, 14.427585603048112], [79.1594426824251, 14.429318665159895], [79.1587104223605, 14.432412796576537], [79.15549867082356, 14.43617639030177], [79.15619128844132, 14.437903942755028], [79.15830887154722, 14.438264924295375], [79.1607883569257, 14.437595428825325], [79.16396333724163, 14.438309036200785], [79.1653826015284, 14.437631230133473], [79.16891382744507, 14.438003115876798], [79.17104270092617, 14.436986355416979], [79.17386993547734, 14.437008273722624], [79.17738996564503, 14.438757667786772], [79.18056784201963, 14.439126650173826], [79.18443020554561, 14.442256316718268], [79.18582432144021, 14.444678075258613], [79.18614981882935, 14.448124898118024], [79.18895769871611, 14.450557526213402], [79.19104484324154, 14.454706753387553], [79.19491595965417, 14.456803057908337], [79.19527774011864, 14.455772532458994], [79.19217752876985, 14.445760204660104], [79.19219978873143, 14.443004913410036], [79.19327116382723, 14.44163539824571], [79.18974258140824, 14.440919455278916], [79.18552116247662, 14.438475970074046], [79.18236285163154, 14.435696186421533], [79.18132221989755, 14.43327714264648], [79.1792046202159, 14.43291636899017], [79.17744883594379, 14.431525082034723], [79.17781904348236, 14.429461358728041], [79.18174550771195, 14.424669621954413], [79.1835403571644, 14.421239129571308], [79.1867430826816, 14.4185083019912], [79.18992626824001, 14.418188303621744], [79.19101696830491, 14.414407899721443], [79.19314830327433, 14.41304648723026], [79.19315385257818, 14.412357662205041], [79.19920814615135, 14.406548524284728], [79.20062711683772, 14.405870468331276], [79.20486469627245, 14.4062471478523], [79.20419104432892, 14.402108797283157], [79.20882039785931, 14.397666262815141], [79.21097616651475, 14.393204909017623], [79.21488483989421, 14.39047895436614], [79.21597494168992, 14.386698362399358], [79.21953011152377, 14.383969644205655], [79.22131584108229, 14.381572004908724], [79.22734684519757, 14.378517310896305], [79.23017885312755, 14.377849629022938], [79.23233127643965, 14.37373242375574], [79.23657917902263, 14.37273078470675], [79.23835924440273, 14.371021827966986], [79.23980213802228, 14.367243692478157], [79.24443544204013, 14.36211143787144], [79.24692732115282, 14.359718786095566], [79.2511775929999, 14.358372421454462], [79.25403600548819, 14.354260160619061], [79.25935399340389, 14.351888157838484], [79.26220154691362, 14.349153479226484], [79.26256545323682, 14.347778359296617], [79.25938592342263, 14.347755036973863], [79.25546783798305, 14.351859586368407], [79.24447840978651, 14.356600658510429], [79.23882574981924, 14.356558710851752], [79.23142829814694, 14.35374807889261], [79.22893634757693, 14.356140557445885], [79.22783582234216, 14.361298942828576], [79.22606391508374, 14.361974560826534], [79.2243055824941, 14.360928064892857], [79.22360986332275, 14.359545087915622], [79.2243354608475, 14.357139445267464], [79.22647418131172, 14.354744378442943], [79.2261398824218, 14.352330790907178], [79.2226315244635, 14.349204544777049], [79.21522638348044, 14.347426712275976], [79.21453075497958, 14.346043718382617], [79.21595746502054, 14.344332261181085], [79.21597654587212, 14.341921329179877], [79.21387606702802, 14.339494445935845], [79.21140325482077, 14.339475812844237], [79.20784603194502, 14.342548905973162], [79.20643024118219, 14.342882640578958], [79.20392721212363, 14.346652507480718], [79.2010873199312, 14.34835316105873], [79.20140209639312, 14.353177663877299], [79.19996421113663, 14.356266674729069], [79.19995044569333, 14.357988751842342], [79.19780592292308, 14.361072372024617], [79.1977948936667, 14.362450031537232], [79.18995323098656, 14.371001095478942], [79.18109837699339, 14.373688686003451], [79.17827192841258, 14.37366694798043], [79.17436879480256, 14.375703463265616], [79.16942248721557, 14.375665253777271], [79.1651912363444, 14.374599195921087], [79.16235354441478, 14.375954897349768], [79.15807437512564, 14.380743631566228], [79.1545327675859, 14.381749314939738], [79.15132745167541, 14.384824134611442], [79.14953250078364, 14.388254368269738], [79.14597937893471, 14.390637520573161], [79.14525850810378, 14.392353997404038], [79.14205006177892, 14.395773058485927], [79.14096154617887, 14.399208751957444], [79.14163115524813, 14.403691548000404], [79.13912060725892, 14.408149306453833], [79.13908632197928, 14.412282131906966], [79.13836816956986, 14.413654168183024], [79.1365927816767, 14.41467343380638], [79.1270549130579, 14.414253530210646], [79.12348673545652, 14.41835825515644], [79.12136366014128, 14.418685786270025], [79.11781266156252, 14.420724017036177], [79.11459758771622, 14.42483139146182], [79.11104643599288, 14.426869500027626], [79.11134173421651, 14.433760250584248], [79.10990493010497, 14.436504088263327], [79.10598849637164, 14.439916835925041], [79.10174775558265, 14.439882718297763], [79.09996616549743, 14.441590447453178], [79.10065249862666, 14.444006899811825], [79.10451073640817, 14.44748214630713], [79.10518545963282, 14.451276169365038], [79.10267942598907, 14.45504458307431], [79.10192872671693, 14.460204786871584], [79.09800586340467, 14.464306114662149], [79.097626038431, 14.467402788131814], [79.10390897030388, 14.476752763015103], [79.10671323054022, 14.479530697164465]], [[79.16229805261271, 14.425896649688905], [79.15983850249086, 14.424155337448482], [79.16021167538864, 14.421747252380573], [79.16625573513859, 14.41731672311468], [79.16950355327472, 14.409075619646764], [79.17342135703916, 14.405317219234977], [79.1769968685823, 14.400178371977933], [79.18024677429491, 14.391592623024], [79.1845174078737, 14.38783669495527], [79.19096050820637, 14.377553048529684], [79.1948746171472, 14.374138590090242], [79.1973505478415, 14.373813025443066], [79.2058657135716, 14.369400046183115], [79.20940150307742, 14.369082377048121], [79.21045045920157, 14.370468059077218], [79.21042031813819, 14.374256645704682], [79.20862906237026, 14.37734303040058], [79.20824555218888, 14.38112893531998], [79.20610362349032, 14.383868196737547], [79.20501338058517, 14.387648726404281], [79.20323294493004, 14.389357385475748], [79.20035935382226, 14.395190935029845], [79.19395207718948, 14.400997446198563], [79.18930293278359, 14.407850529444593], [79.18503473320054, 14.411262091785096], [79.18290895685223, 14.4119346062764], [79.1786321960668, 14.416379260263462], [79.17118328438038, 14.419765964073454], [79.16583754269811, 14.425235338890987], [79.16441836271555, 14.425913157819762], [79.16229805261271, 14.425896649688905]], [[79.16148068727034, 14.396269434466804], [79.1611724670315, 14.390756174970933], [79.16295037978426, 14.389392279272057], [79.16400473305563, 14.390089327520096], [79.16469169299202, 14.392505667545306], [79.16253788319776, 14.396622085095585], [79.16148068727034, 14.396269434466804]]]]}}, {"type": "Feature", "properties": {"depth_class": 3, "depth_lo_m": 2.0, "t_s": 82800.12716200468}, "geometry": {"type": "MultiPolygon", "coordinates": [[[[79.01360606965545, 14.215293465045868], [79.0164272670522, 14.215661296171254], [79.01644227872582, 14.213939381788796], [79.013974124304, 14.213574486052321], [79.01360606965545, 14.215293465045868]]], [[[79.08048735883516, 14.238915875745315], [79.0815582207986, 14.237546807945652], [79.0815669463746, 14.236513620989646], [79.07944269258934, 14.237185380432265], [79.07943104488227, 14.238562961220072], [79.08048735883516, 14.238915875745315]]]]}}]}