{"type": "FeatureCollection", "features": [{"type": "Feature", "properties": {"depth_class": 1, "depth_lo_m": 0.3, "t_s": 86400.0}, "geometry": {"type": "MultiPolygon", "coordinates": [[[[79.01424296778274, 14.223220123053174], [79.01602618186206, 14.221168489959858], [79.01813838663901, 14.221874831035088], [79.02096866992005, 14.221209469120577], [79.02168672354301, 14.21983777971867], [79.02171966913033, 14.216049556950844], [79.02067556682104, 14.2143188719775], [79.01926646668736, 14.213962794386443], [79.0178693710617, 14.212229176129327], [79.0139921575822, 14.211508191486345], [79.01150297172912, 14.213553947723556], [79.01148190310485, 14.215964620613429], [79.01217892634699, 14.21700363815606], [79.01144276519125, 14.220441583183506], [79.01283382962676, 14.222864001902288], [79.01424296778274, 14.223220123053174]], [[79.01815339219868, 14.220152915754356], [79.01641525626744, 14.217038827487833], [79.01324101536012, 14.216668060368143], [79.01254398765876, 14.215629045399083], [79.01291806577964, 14.213221304854397], [79.01610126561869, 14.2125589214722], [79.01819839683871, 14.214987168333762], [79.02030755945819, 14.21603786761961], [79.02063361758911, 14.21914024383072], [79.01991855910141, 14.220167546157368], [79.01815339219868, 14.220152915754356]]], [[[79.16062073082857, 14.241613360551185], [79.16141333288863, 14.230942045023951], [79.16388767401897, 14.23061664514664], [79.16425188065335, 14.229241710064466], [79.16320934656169, 14.227167095131888], [79.16109368959671, 14.226806387010601], [79.15898919719153, 14.225068015579426], [79.15722384841197, 14.225054407334662], [79.15543614648841, 14.227796071131706], [79.15367078007725, 14.227782434087485], [79.15189701514774, 14.228802013680765], [79.15187180994066, 14.23190170211306], [79.15291425045393, 14.233976355919092], [79.15572493499282, 14.235720239400475], [79.15708977487797, 14.241586124182863], [79.15814347395816, 14.242283121995076], [79.15990895746806, 14.242296739560603], [79.16062073082857, 14.241613360551185]], [[79.15890271052439, 14.235744762761133], [79.156100381072, 14.232967682060588], [79.1561087649173, 14.231934450296858], [79.1582244551067, 14.232295207249601], [79.15890271052439, 14.235744762761133]]], [[[79.08222365445923, 14.242374021086396], [79.08616269126503, 14.23586166391974], [79.08618589922843, 14.233106490654498], [79.08513830521576, 14.231720413936236], [79.08160765648091, 14.231692080612673], [79.07699159319492, 14.234754722914893], [79.07591197079478, 14.23715695226768], [79.07450552261072, 14.236456777950805], [79.07203110878068, 14.236781227347615], [79.07130157375234, 14.239530672437589], [79.07234910500024, 14.240916802965831], [79.07411156974005, 14.241275447603545], [79.07588571359318, 14.240256502362405], [79.07693036170394, 14.241987011201704], [79.07868701807759, 14.243034413726718], [79.08222365445923, 14.242374021086396]], [[79.07800708917237, 14.239929174541674], [79.07804205795068, 14.23579643561188], [79.08230215997636, 14.233075335192929], [79.0840674948359, 14.23308950458502], [79.08476782352267, 14.233783961502166], [79.0847533076638, 14.235505943341071], [79.08224110502438, 14.240307647104727], [79.08082006229033, 14.241329482389697], [79.07870158792157, 14.241312439113432], [79.07800708917237, 14.239929174541674]]], [[[79.11821835883717, 14.245071512487145], [79.12036827828598, 14.241299773694987], [79.1203882306469, 14.238888950273804], [79.11899871194554, 14.236122600929617], [79.11653001572947, 14.235758714744671], [79.1143801013723, 14.239530419205416], [79.11400413678402, 14.242282846396957], [79.11680598822896, 14.245060370735448], [79.11821835883717, 14.245071512487145]]], [[[79.03554013007644, 14.250949013555928], [79.03698821392922, 14.246828006718907], [79.03947166355192, 14.245470781105054], [79.03843921133668, 14.242362596340547], [79.03738594882373, 14.241665115509615], [79.03561761715916, 14.24199497871526], [79.03418744478843, 14.24404966533019], [79.03170398768316, 14.245406833998175], [79.03027674584823, 14.24711710443601], [79.03026180257916, 14.248839028483157], [79.03341565390926, 14.251620327758394], [79.03554013007644, 14.250949013555928]], [[79.03451368344689, 14.247152045410301], [79.03450175466527, 14.248529588185537], [79.0330924167534, 14.248173562985087], [79.03310435377429, 14.246796021339028], [79.03451368344689, 14.247152045410301]]], [[[79.15065832104086, 14.250836013997782], [79.15067796568138, 14.24842515076216], [79.14891525250266, 14.248067050447604], [79.14785032105834, 14.248747646479444], [79.14748316062173, 14.250466947029198], [79.14818094372106, 14.25150565575944], [79.1499464889825, 14.251519355663461], [79.15065832104086, 14.250836013997782]]], [[[79.15838479078947, 14.256062268996695], [79.15911338385736, 14.253312437782343], [79.15806243004766, 14.252271027947508], [79.15523753619165, 14.252249196791407], [79.15169520366683, 14.25359949742433], [79.15168398053454, 14.254977133819937], [79.1534383426815, 14.256368448666375], [79.15696672300872, 14.25674017679889], [79.15838479078947, 14.256062268996695]]], [[[79.14672349642876, 14.257005216584732], [79.14531947623415, 14.255961011125045], [79.14355390106232, 14.255947272798728], [79.14249173674742, 14.256283430784126], [79.14213015922778, 14.257313901388402], [79.14459070861554, 14.258710778365167], [79.14670942610012, 14.25872725670527], [79.14672349642876, 14.257005216584732]]], [[[79.02804154572235, 14.260530589186269], [79.0284185952044, 14.257778436996752], [79.02702119820533, 14.256044834396468], [79.02455556226504, 14.255335604427632], [79.02207192835726, 14.256692648188968], [79.0220509053966, 14.259103327882938], [79.02345127789235, 14.260492573724974], [79.0252107656334, 14.261195972272752], [79.02804154572235, 14.260530589186269]], [[79.02383138253299, 14.257396052775857], [79.02559984263743, 14.257066295060401], [79.02664413778716, 14.25879698293623], [79.02487266498778, 14.259471130173212], [79.02381937995807, 14.258773585480736], [79.02383138253299, 14.257396052775857]]], [[[79.15446686949707, 14.260165154386693], [79.15410253210774, 14.261540058043924], [79.15516190943835, 14.26154825890736], [79.15517031510254, 14.26051503016021], [79.15446686949707, 14.260165154386693]]], [[[79.04956882551404, 14.262085344424321], [79.04994266195278, 14.259677513925018], [79.04924534627528, 14.258638571089168], [79.04783887698481, 14.257938234206215], [79.04571732170355, 14.258265266255668], [79.04499925057591, 14.2596370268955], [79.04532860188453, 14.262395022668189], [79.04850358252169, 14.262765450493285], [79.04956882551404, 14.262085344424321]]], [[[79.08311707004823, 14.262013076241544], [79.08349346713261, 14.259260752706338], [79.08279307445079, 14.258566284081496], [79.07996530927423, 14.258887946705295], [79.07854121259146, 14.260254145413967], [79.0785324580722, 14.261287328479622], [79.08063945771873, 14.262681975628587], [79.08311707004823, 14.262013076241544]]], [[[79.16150981012699, 14.262630597708148], [79.1611678532028, 14.261250230918716], [79.1601084736707, 14.261242056903892], [79.15904350259251, 14.26192269883057], [79.15903231726266, 14.26330033999122], [79.16079796513945, 14.263313970628957], [79.16150981012699, 14.262630597708148]]], [[[79.12430056920495, 14.278184285909846], [79.1267953762938, 14.275448516597354], [79.1268210048519, 14.272348883784531], [79.12612327569242, 14.271310118309394], [79.12400161420601, 14.271637845878384], [79.12183711982674, 14.277131593484134], [79.12182569583409, 14.278509203673144], [79.1225291320554, 14.278859176165536], [79.12430056920495, 14.278184285909846]]], [[[79.10415986245036, 14.279402474961445], [79.10381825341616, 14.27802206717275], [79.1024056894136, 14.278010814823002], [79.10238837462667, 14.28007720665401], [79.10415986245036, 14.279402474961445]]], [[[79.16325019523511, 14.395938763805482], [79.16468606440003, 14.39319448278105], [79.16470013532091, 14.391472444612539], [79.16330370727142, 14.389395024164664], [79.16224372503379, 14.389386787904952], [79.16117528625266, 14.390411767968924], [79.16113581035978, 14.395233465036565], [79.16182838638849, 14.396960996747023], [79.16325019523511, 14.395938763805482]]], [[[79.16938705731988, 14.249258304748714], [79.17010993633328, 14.247197245588358], [79.16906450611407, 14.245467055631995], [79.166601126252, 14.244414841240927], [79.16306732832118, 14.244732099680535], [79.16305060756646, 14.246798569016825], [79.16479663885218, 14.249223037317808], [79.16620350837614, 14.249922722342431], [79.16938705731988, 14.249258304748714]]], [[[79.18024232675427, 14.260707730324988], [79.18023127116352, 14.262085388011524], [79.18164379854345, 14.26209616708329], [79.18130171575116, 14.260715814599545], [79.18024232675427, 14.260707730324988]]], [[[79.2533284384624, 14.262976655248309], [79.25260887184469, 14.264693618668874], [79.25401351349973, 14.265737255439518], [79.25403208080495, 14.263326257901019], [79.2533284384624, 14.262976655248309]]], [[[79.18053464777893, 14.268287542301712], [79.18052911795736, 14.268976370841264], [79.18229483131461, 14.268989847534757], [79.1819472140299, 14.268298324160108], [79.18053464777893, 14.268287542301712]]], [[[79.25109792356513, 14.277427075676373], [79.25111387879397, 14.275360511638743], [79.25006236239594, 14.274319448116868], [79.24723971534708, 14.273954248115146], [79.24652805770609, 14.274637902796464], [79.24650939521348, 14.27704888834821], [79.24721040037154, 14.277742941132871], [79.25038626401482, 14.278110741787053], [79.25109792356513, 14.277427075676373]]], [[[79.28211960797627, 14.28523080917934], [79.28108096709866, 14.282467699064563], [79.27755438306329, 14.28175330867274], [79.27333459963057, 14.279311590433082], [79.26839803695773, 14.278242394473057], [79.26594691596534, 14.275468964637811], [79.26241522916007, 14.275443226184128], [79.25995098902419, 14.274391891112227], [79.25855685558155, 14.271970565592724], [79.25504380217397, 14.269533726198551], [79.25467472864648, 14.27159770860197], [79.25678044612732, 14.273335365206417], [79.25782139800924, 14.275754116597865], [79.26028034889656, 14.277494332176964], [79.26166924116484, 14.280604510828995], [79.26379358117734, 14.279931113155232], [79.2638067833007, 14.278208965166383], [79.2648715794588, 14.277527827812962], [79.26592054777277, 14.278913265065997], [79.26980020769986, 14.279630385427147], [79.27225667591892, 14.281714922949222], [79.27647910930071, 14.283812231794178], [79.27930196582497, 14.284177103957763], [79.28035367247766, 14.285218057835943], [79.28211960797627, 14.28523080917934]]], [[[79.1965844932961, 14.29286463658808], [79.19730457979843, 14.291147906003298], [79.19590009693927, 14.290103948688941], [79.1944818876002, 14.290782066147592], [79.19482132783448, 14.292506827563852], [79.1965844932961, 14.29286463658808]]], [[[79.18594208401116, 14.298639130953813], [79.18489633572469, 14.296908974996596], [79.18418443181397, 14.297592411589477], [79.18452656044182, 14.298972764562219], [79.18594208401116, 14.298639130953813]]], [[[79.2060029626466, 14.307746714668559], [79.20814678575539, 14.30466293501843], [79.20852728160594, 14.301221410847115], [79.20959778510509, 14.299851716035084], [79.20925549823365, 14.298471381134428], [79.20500350512633, 14.300161520301698], [79.20215055337047, 14.303584349389983], [79.20211767958072, 14.307717357303872], [79.20281861619223, 14.30841153449807], [79.2060029626466, 14.307746714668559]], [[79.20426702303047, 14.303944783328154], [79.20567983031498, 14.30395545054944], [79.20531295606911, 14.305674874302634], [79.20425334265315, 14.305666872097573], [79.20426702303047, 14.303944783328154]]], [[[79.2247176747784, 14.308576117706608], [79.22437528615868, 14.307195793304903], [79.22049539696123, 14.30647789574403], [79.22048726160564, 14.307511158005696], [79.22224247703817, 14.308902057686481], [79.22400583558307, 14.309259682744173], [79.2247176747784, 14.308576117706608]]], [[[79.26072720152935, 14.311253495464369], [79.26214804485217, 14.310230547289763], [79.26215864008213, 14.30885283362684], [79.25970201220284, 14.306768173522379], [79.2575827132906, 14.306752647965006], [79.25544746490188, 14.308803666948748], [79.25508360761555, 14.310178782459415], [79.25613529681029, 14.311219842386146], [79.26072720152935, 14.311253495464369]]], [[[79.27936682633405, 14.322067151341288], [79.28328394142262, 14.317962090326239], [79.28436982008319, 14.314525424091007], [79.28443519595284, 14.30591461278796], [79.28586635887082, 14.303513774991094], [79.28519388395554, 14.299031053707871], [79.28377581915312, 14.299709727606846], [79.28197312887683, 14.304519027413525], [79.28191028522419, 14.312785396647444], [79.28012577901757, 14.315183640681555], [79.27764263938377, 14.316543452030727], [79.27692302986877, 14.318260483263598], [79.27724736180657, 14.3220517850061], [79.27936682633405, 14.322067151341288]]], [[[79.26595681981449, 14.320247368224415], [79.26492621260913, 14.316450913220145], [79.26422504096193, 14.315756895028189], [79.26245888386103, 14.315743984041505], [79.26174446935318, 14.316772100416568], [79.26242443390309, 14.320221550960511], [79.26312561162356, 14.32091557516264], [79.26524504962875, 14.320931066296904], [79.26595681981449, 14.320247368224415]]], [[[79.23171185464673, 14.317583768970971], [79.23134783658851, 14.31895882901564], [79.23275806314423, 14.319313768838931], [79.23312476835999, 14.317594282942515], [79.23171185464673, 14.317583768970971]]], [[[79.09274287509906, 14.50111588740989], [79.09525556607741, 14.496658895421524], [79.09809518587507, 14.495304248666374], [79.10021314150838, 14.495665805917056], [79.10199228290544, 14.494302526972632], [79.1030820232775, 14.490867168156472], [79.10593030315161, 14.488479231586608], [79.10808034681469, 14.485052380925064], [79.11235983465797, 14.480609357402063], [79.11377659061043, 14.480276310919516], [79.11662462272993, 14.47788821236689], [79.11806458350178, 14.474799968920896], [79.12126884636734, 14.472070230098037], [79.12736122236892, 14.462130601581709], [79.12948471624249, 14.461803066204965], [79.13370005271464, 14.464936330409149], [79.1358264450948, 14.46426434006052], [79.13585804720489, 14.460475940498586], [79.1309416541643, 14.456648311325818], [79.1306199006251, 14.452857114676906], [79.12957404015873, 14.45112670067633], [79.1299447350317, 14.449063112223088], [79.13670265613288, 14.443950317812027], [79.13849834464564, 14.440520273954746], [79.1431382975251, 14.435046083036683], [79.14988696681843, 14.430966028558991], [79.15520484864294, 14.428941128085839], [79.15732234605055, 14.429302108501687], [79.1569462857565, 14.432054587337548], [79.15373735331566, 14.435473749969713], [79.15372031298904, 14.437540175275261], [79.1551197279014, 14.439273265089684], [79.16889974147334, 14.439725151352329], [79.17067522566006, 14.438705650587046], [79.17420929599626, 14.438733051874342], [79.18054824502016, 14.441537515256059], [79.18300536091247, 14.44362306000335], [79.18404884144195, 14.445697692279094], [79.18437151519468, 14.449488924057343], [79.18753002804495, 14.4522687033352], [79.18855963229363, 14.456065375707631], [79.19137041766903, 14.458153577317473], [79.1924140316941, 14.460228187023688], [79.19239731837472, 14.462294652755553], [79.19132861154779, 14.463319738852764], [79.19131746045376, 14.46469738152662], [79.19448183008463, 14.466788276844724], [79.19550324472874, 14.471618169621628], [79.19475455027933, 14.47677891082548], [79.19613782115674, 14.48057828398856], [79.19611833361111, 14.482989161447524], [79.19396677835604, 14.486761391640227], [79.19323469683161, 14.48985565016487], [79.18576094289836, 14.495997805655534], [79.18468361452913, 14.498056061737058], [79.18466958922187, 14.499778103621612], [79.18537099298263, 14.500472385611618], [79.19845081255323, 14.500573110326272], [79.20020723731386, 14.50196431104867], [79.20162128808148, 14.501975147058769], [79.20339995968334, 14.50061103260603], [79.22603029713572, 14.500094232391252], [79.22957091831333, 14.499432080693845], [79.23135215479158, 14.497723315021686], [79.2321056060149, 14.491873541920015], [79.23609489440588, 14.479159288889074], [79.23721517012574, 14.471590024771473], [79.2362363288432, 14.461249503810757], [79.234504418235, 14.456758808009706], [79.23171224778227, 14.452260146949238], [79.23030938956309, 14.450871854246259], [79.22889564014967, 14.450861227701262], [79.22674497775166, 14.454633866664683], [79.22071453429004, 14.45734387465788], [79.21576355026136, 14.457650842270237], [79.21363187006962, 14.459012421257057], [79.21221808205702, 14.459001688733004], [79.20905361883575, 14.4569110242712], [79.1995134597365, 14.456493827533906], [79.19706437268846, 14.453375186710112], [79.19638527795965, 14.449925653921039], [79.19463758896464, 14.44750123361601], [79.19466260016951, 14.444401527146283], [79.19785448114838, 14.443048226475133], [79.19787112089055, 14.440981751136087], [79.19611514634505, 14.439590583283545], [79.19046333084478, 14.439202827418367], [79.18764719564389, 14.437803461993157], [79.18413825276417, 14.434676572915262], [79.18310039825549, 14.431913125067311], [79.17992821186039, 14.430855369247846], [79.1799394057601, 14.429477731352897], [79.18315347017398, 14.425369332575032], [79.18387699400755, 14.423308312350244], [79.18708253419435, 14.420233072502272], [79.19132310868808, 14.42026561184767], [79.19239158569096, 14.419240498307849], [79.19242212969196, 14.415451963717706], [79.20025994341304, 14.407589846389053], [79.20202952144164, 14.407258889167432], [79.2044892843722, 14.408999780521484], [79.20731897061992, 14.408676841729644], [79.20769434730816, 14.405924200406961], [79.20594130446563, 14.40418871136191], [79.20595782307265, 14.402122220023923], [79.20987220834371, 14.398707543186212], [79.21202796977666, 14.394246178902232], [79.21593665216254, 14.391520207696006], [79.21845373995309, 14.38602817154469], [79.22129131079639, 14.384671773216287], [79.22307702965408, 14.38227411923166], [79.23158401676557, 14.378893457710731], [79.23302708570463, 14.375115384697665], [79.2369216956683, 14.374111104239184], [79.23941109783732, 14.372062980519711], [79.24192198506961, 14.367259441353596], [79.24334059520741, 14.366581083507008], [79.24691391137846, 14.361440906749923], [79.2518734885675, 14.35975533646388], [79.25544116251191, 14.355303845462329], [79.26004992675128, 14.353271052952037], [79.26325608805327, 14.349850101146846], [79.26680483520681, 14.347809389473591], [79.26789380017294, 14.344028422659202], [79.270749076627, 14.340260329616774], [79.2711234741404, 14.337507471195682], [79.2690329507735, 14.333703296923975], [79.26904880732364, 14.331636722877157], [79.2704829581566, 14.32889158999446], [79.27158755795537, 14.323044005039671], [79.26981869721779, 14.323375571796854], [79.26945225019675, 14.32509514426607], [79.2658853771873, 14.329546942102095], [79.26580328720446, 14.340224221229635], [79.26293731807804, 14.345369955634887], [79.25869532968359, 14.345683288232062], [79.25512788932825, 14.350134856191428], [79.24555438405135, 14.354541964572332], [79.23778204782718, 14.354484295188646], [79.23602909888349, 14.352749041453787], [79.23640125710222, 14.350340713546714], [79.24285161097939, 14.338677529893339], [79.24359569053146, 14.333860823312655], [79.24573933240235, 14.330776679976003], [79.24683119846178, 14.326651410317616], [79.24860277154599, 14.325975596288753], [79.25140471288303, 14.329096260159526], [79.25246713066304, 14.328759638658054], [79.25318429454826, 14.327387134034513], [79.25320295435935, 14.324976150030139], [79.2507489312555, 14.322546963507994], [79.25077294677833, 14.31944712962135], [79.24868558957895, 14.315298402482169], [79.24870428097496, 14.31288742184488], [79.24731810228651, 14.309432747534213], [79.24382606416182, 14.304240295753793], [79.24066862136833, 14.301461395018695], [79.23788860740576, 14.295585259279088], [79.22942542446768, 14.293800200368759], [79.22802884734965, 14.291723146062694], [79.22486097354802, 14.290321763451871], [79.22488798837402, 14.286877542375036], [79.2241870347234, 14.286183428951924], [79.22171208601512, 14.286509392255759], [79.22168231695984, 14.290298028946692], [79.22097053398153, 14.29098159148666], [79.21673775165911, 14.29026102430876], [79.21499357159526, 14.28749242156949], [79.21288266267796, 14.286443258812323], [79.21184762016017, 14.28333552295458], [79.2093863205318, 14.281939262718193], [79.20728912507292, 14.27916796360372], [79.20235577668772, 14.277753015779478], [79.20060639165912, 14.275673172472922], [79.19849292978093, 14.274968319303325], [79.19533922515245, 14.271844505318695], [79.19464664532403, 14.27011706930826], [79.1925387517817, 14.268723338090783], [79.18936320617156, 14.268354791707583], [79.18829827049723, 14.26903557054262], [79.18829001058532, 14.27006881773595], [79.19075928268414, 14.270432018545375], [79.19180498175211, 14.272162143224662], [79.19426330657382, 14.273902977941946], [79.19565397254604, 14.276669018340518], [79.19882691487703, 14.277381913022891], [79.20410246172523, 14.280177268089853], [79.21285818605385, 14.28954303762364], [79.2153223049435, 14.290594852966644], [79.21812335911426, 14.293715814980215], [79.22377167836125, 14.294102496457437], [79.22799107813448, 14.296545061552415], [79.23222134384166, 14.297609868989571], [79.23468297200209, 14.2990059271878], [79.23537593327738, 14.300733288456565], [79.23853329341318, 14.303512251059303], [79.23992467034252, 14.306278109981426], [79.24203054976645, 14.308015916280146], [79.2444736248192, 14.311822867510813], [79.24479205705813, 14.316303002922393], [79.2458437184953, 14.3173441057664], [79.24583034171273, 14.319066231554205], [79.2436787929362, 14.323183665319261], [79.24329874851828, 14.326625297264313], [79.23863935520673, 14.335201858330512], [79.23790593009764, 14.338640843952577], [79.23505287185596, 14.342064059479014], [79.23215919414068, 14.350653556107627], [79.22966728863204, 14.353046047761557], [79.22825144648421, 14.353379908595354], [79.22755842923586, 14.351652521487935], [79.22440333375836, 14.348528941396314], [79.22193856129257, 14.347477147088687], [79.2201912363019, 14.345052956254824], [79.21843305892284, 14.344006433674272], [79.21600107318234, 14.33882155870877], [79.2131859239081, 14.337422614021554], [79.21106365841842, 14.337751058562247], [79.20785972166102, 14.340826819136899], [79.20466667008108, 14.342524858606748], [79.20251963303222, 14.34595296623535], [79.19968249333044, 14.347309187177329], [79.19930720572309, 14.350061828690619], [79.19999173654277, 14.352822519714401], [79.19854005997851, 14.357633595922874], [79.1971158915519, 14.359000506382923], [79.19495751229653, 14.36380616649828], [79.19247339507541, 14.365164960170814], [79.1892577117866, 14.36961803954903], [79.18323490736975, 14.371638496733313], [79.17828587544649, 14.37194489386351], [79.17544548456613, 14.373645176247662], [79.17226014320566, 14.374309462016587], [79.1652052844399, 14.372877154563152], [79.16201431213669, 14.374230115477365], [79.15702573052458, 14.379357750723596], [79.15490304231808, 14.379685634569974], [79.1527718601626, 14.381046715592044], [79.14956369866307, 14.384465914802108], [79.1484838844029, 14.386868452470658], [79.1449307771952, 14.38925159056368], [79.14456607547524, 14.390626433385519], [79.14064528413546, 14.394728735366252], [79.13919770933335, 14.39885044361531], [79.13986728235636, 14.403333240430777], [79.13771577522758, 14.407104959271946], [79.13732238970736, 14.411923797942558], [79.13590037180987, 14.412945847198245], [79.13307923519028, 14.41223470839221], [79.12636258115, 14.412525924565854], [79.12387180053003, 14.414572676271698], [79.12279442373476, 14.416630641398728], [79.12067136489405, 14.416958168184593], [79.11605450786742, 14.419676725757943], [79.1135519636565, 14.423100933248259], [79.11035711129652, 14.424797463371826], [79.10892908836186, 14.426508115580901], [79.10959515033923, 14.43133532080772], [79.10885930201093, 14.434773608627488], [79.10565258785587, 14.437847627775326], [79.10105849585115, 14.437810662206656], [79.0975011713216, 14.440537310441284], [79.09747774989432, 14.44329245389234], [79.10203688811859, 14.44746222791707], [79.10308250626878, 14.449192736883964], [79.10306790225809, 14.450914705955624], [79.100564766246, 14.454338700184103], [79.0998198789405, 14.458810106065599], [79.09483084767128, 14.463591599977658], [79.08988282643466, 14.46355149035182], [79.08918185746855, 14.462856970649034], [79.08956766909942, 14.459071541425754], [79.08746776160079, 14.456643589033902], [79.08149807920371, 14.452117644606211], [79.06841602321586, 14.452699530919825], [79.06699346111041, 14.45372109083491], [79.06554704770137, 14.457497728852992], [79.06552916529019, 14.459564044706907], [79.06868017063033, 14.463034028795525], [79.06900383120046, 14.466480793984532], [79.06609885926879, 14.475411601333644], [79.06749474595323, 14.477489539082432], [79.07101731452666, 14.478896108914464], [79.07100540857431, 14.480273654822945], [79.06886979698757, 14.48197817347276], [79.06533227184731, 14.4822934937672], [79.06461938983486, 14.482976444433977], [79.0645925029504, 14.48607590966957], [79.06734855993966, 14.494364431526972], [79.06835227710344, 14.500916477657785], [79.09274287509906, 14.50111588740989]], [[79.10600046895968, 14.480213790189923], [79.1014465141666, 14.475355227936875], [79.09726673427447, 14.468088714331898], [79.09800879498464, 14.463961722274835], [79.10192872671693, 14.460204786871584], [79.10267942598907, 14.45504458307431], [79.10518545963282, 14.451276169365038], [79.10451073640817, 14.44748214630713], [79.10065249862666, 14.444006899811825], [79.09996616549743, 14.441590447453178], [79.10210115022434, 14.439885564343731], [79.10598849637164, 14.439916835925041], [79.11026122795025, 14.43616252578407], [79.11170673701025, 14.432385496945493], [79.11104353228978, 14.427213896105204], [79.11531012809856, 14.42414824474157], [79.11745640136148, 14.421065595734914], [79.12136366014128, 14.418685786270025], [79.12419634746819, 14.41801947440272], [79.12563284005584, 14.41527550996789], [79.1270549130579, 14.414253530210646], [79.13306203319556, 14.41430111346336], [79.13552983261042, 14.415009464776514], [79.13872438868054, 14.413312552430758], [79.13911775056813, 14.408493708633113], [79.14163115524813, 14.403691548000404], [79.14096154617887, 14.399208751957444], [79.14205006177892, 14.395773058485927], [79.14561468011101, 14.392012365360793], [79.14633554692915, 14.39029588693881], [79.1498886598085, 14.38791272811565], [79.15132745167541, 14.384824134611442], [79.1545327675859, 14.381749314939738], [79.15807437512564, 14.380743631566228], [79.16306297030363, 14.375615975579507], [79.1651912363444, 14.374599195921087], [79.16906918008785, 14.37566252057723], [79.17436879480256, 14.375703463265616], [79.17862523422642, 14.373669667076816], [79.18428369796288, 14.373024277066385], [79.18995323098656, 14.371001095478942], [79.1977948936667, 14.362450031537232], [79.20139934626613, 14.353522079683664], [79.20108457028704, 14.348697576945147], [79.20428322493864, 14.346310766814454], [79.20713950657684, 14.34254356579287], [79.20891129341332, 14.341868077198425], [79.21140325482077, 14.339475812844237], [79.21422659839838, 14.339841524334034], [79.21597654587212, 14.341921329179877], [79.2159601910737, 14.343987842355245], [79.2145334835515, 14.345699299875184], [79.2148731116876, 14.347424052554569], [79.22227824845592, 14.349201895765502], [79.2261398824218, 14.352330790907178], [79.22647689335126, 14.354399957943892], [79.22361801520294, 14.358511828414779], [79.22395500489492, 14.360580996413825], [79.22571061839055, 14.361971914627915], [79.22712380559535, 14.361982496264448], [79.22819182909606, 14.360957165107358], [79.22857493178226, 14.357171179076532], [79.23071902315851, 14.354087226234077], [79.23389589268973, 14.354455365018602], [79.2381191686091, 14.356553457924049], [79.24518499356647, 14.35660589249734], [79.25404668430924, 14.352882458021801], [79.25973920423066, 14.347757630446326], [79.26221217186406, 14.347775770030696], [79.26184560650073, 14.349495316383782], [79.25935399340389, 14.351888157838484], [79.25332675474745, 14.354599379343172], [79.2511775929999, 14.358372421454462], [79.24799257317014, 14.35903777827377], [79.24479411341714, 14.361425208770209], [79.24016083275136, 14.366557473220128], [79.2369351942598, 14.372388994695928], [79.2326872991365, 14.373390641084072], [79.23017885312755, 14.377849629022938], [79.22805620554095, 14.378178183737889], [79.22167189239012, 14.381230242380234], [79.21953011152377, 14.383969644205655], [79.21775799988282, 14.384645175345558], [79.21561887307752, 14.387040114201149], [79.2145287631285, 14.390820703539214], [79.21097616651475, 14.393204909017623], [79.20846430023819, 14.398008000266941], [79.20454990988296, 14.401422652891677], [79.204514089985, 14.40590004710765], [79.19956427131591, 14.40620680423287], [79.19066081713223, 14.414749603616622], [79.1899290489093, 14.4178438918792], [79.18603354008583, 14.418847281965402], [79.18282800942642, 14.421922508531896], [79.1813893258807, 14.425011308007363], [79.1792522121104, 14.427061410153296], [79.17746004562993, 14.430147446124712], [79.17744603333708, 14.431869490985795], [79.181672823671, 14.433624277908631], [79.18236285163154, 14.435696186421533], [79.18622239998241, 14.439170230833389], [79.18938916752998, 14.440916740411799], [79.19291774812747, 14.441632688536892], [79.19183245643858, 14.444724258617423], [79.19390571164811, 14.450595520017686], [79.19456808219886, 14.456111524871178], [79.19350776596599, 14.456103392028584], [79.19104762953611, 14.454362342495473], [79.18896048738901, 14.450213115599109], [79.1865004514178, 14.448472029373157], [79.18478082706721, 14.442603449312807], [79.18056784201963, 14.439126650173826], [79.17774337375441, 14.43876040024216], [79.17422334013042, 14.437011011129755], [79.17068929694167, 14.436983613247707], [79.16891382744507, 14.438003115876798], [79.16502919764956, 14.437628479361535], [79.16325652798373, 14.438303529620905], [79.16114175990852, 14.437598185946932], [79.15584072302318, 14.437556773563742], [79.15585774380642, 14.435490345782775], [79.15835136369626, 14.433098847234993], [79.1594426824251, 14.429318665159895], [79.15733934301947, 14.427235677547875], [79.15521902887215, 14.427219104325669], [79.14990403440137, 14.428899606591928], [79.13995488111753, 14.435365412951285], [79.13601305181407, 14.441878324024342], [79.13209398149965, 14.445635940852885], [79.12996776650436, 14.446307918396071], [79.12782712974409, 14.448701869188229], [79.12745641676517, 14.450765452086957], [79.1288412692327, 14.45422067593306], [79.12950489254789, 14.45939227488068], [79.1273814220487, 14.459719813261254], [79.12524928112276, 14.461080525485258], [79.11915685262387, 14.471020092242767], [79.11559622677194, 14.474091365061756], [79.1152311462538, 14.475466114782453], [79.11309296053169, 14.477515478062582], [79.10954673329925, 14.478864663562325], [79.1081212257183, 14.480230866771821], [79.10600046895968, 14.480213790189923]], [[79.2260964794278, 14.357841517582882], [79.2268003478559, 14.358191227275537], [79.22643620519801, 14.359566264327817], [79.22573233342393, 14.359216553162183], [79.2260964794278, 14.357841517582882]]], [[[79.16441836271555, 14.425913157819762], [79.17118328438038, 14.419765964073454], [79.17791985246892, 14.417062624723068], [79.18255279921875, 14.412276297014921], [79.18823450406869, 14.408875634621058], [79.19251370837192, 14.404086352287221], [79.19502044099667, 14.399972307071357], [79.20071545730134, 14.394849210632357], [79.20287409938902, 14.390043530301298], [79.20537221526493, 14.386962576996135], [79.20645969922148, 14.383526460275101], [79.20824280695882, 14.381473351612378], [79.20862631848111, 14.37768744687544], [79.21078459040685, 14.372881648950576], [79.21045319886224, 14.37012364204801], [79.20940150307742, 14.369082377048121], [79.20657506806197, 14.36906098361437], [79.19805992678747, 14.373473991639965], [79.19416523234914, 14.374477613517172], [79.19167544637745, 14.376525209954151], [79.18416129517333, 14.388178393551483], [79.18024677429491, 14.391592623024], [79.17664072392834, 14.400520055252967], [79.17306519847708, 14.405658895373449], [79.16986253223294, 14.408389542094584], [79.16589954565934, 14.417658384569393], [79.16270508314607, 14.419355681488339], [79.15985546994256, 14.422088902660628], [79.15983850249086, 14.424155337448482], [79.16124072486916, 14.425543982493322], [79.16441836271555, 14.425913157819762]], [[79.16197291664471, 14.422449834709067], [79.16730459003509, 14.41870258656327], [79.17126754526589, 14.40943371658414], [79.17554148585486, 14.405333604538175], [79.17698008576828, 14.402244830477786], [79.17804572876324, 14.401564187968704], [79.18056104629746, 14.396417091586152], [79.18129562276138, 14.39297842317867], [79.1862812749241, 14.38819466354165], [79.18700460916587, 14.386133610179813], [79.18914122459783, 14.384083377146945], [79.19272431271501, 14.37791096108665], [79.19557018350213, 14.375521634679803], [79.19875551233709, 14.374857028981669], [79.2065613404129, 14.370783065142055], [79.20868118244286, 14.370799115380118], [79.20901255193152, 14.373557122213297], [79.20722128487739, 14.376643494827066], [79.20683500663898, 14.380773811111842], [79.20433423638288, 14.384199207191894], [79.20324671658696, 14.387635309798448], [79.20218120737438, 14.388316083408345], [79.19930760713767, 14.394149619031687], [79.19290033982097, 14.399956102446435], [79.18967852449408, 14.405097942135015], [79.18433915191568, 14.409879014782756], [79.18221338788022, 14.410551524374416], [79.1765147601179, 14.41601848120746], [79.16977821300316, 14.418721782354309], [79.16549825574278, 14.42351055682707], [79.16266555734684, 14.424177370926053], [79.16197291664471, 14.422449834709067]]]]}}, {"type": "Feature", "properties": {"depth_class": 2, "depth_lo_m": 1.0, "t_s": 86400.0}, "geometry": {"type": "MultiPolygon", "coordinates": [[[[79.01815339219868, 14.220152915754356], [79.02063361758911, 14.21914024383072], [79.02065159775512, 14.21707394186038], [79.01960750057071, 14.215343252802397], [79.01819839683871, 14.214987168333762], [79.01610126561869, 14.2125589214722], [79.01291806577964, 14.213221304854397], [79.01254398765876, 14.215629045399083], [79.01324101536012, 14.216668060368143], [79.01641525626744, 14.217038827487833], [79.01815339219868, 14.220152915754356]], [[79.01395608813061, 14.215640780239521], [79.013974124304, 14.213574486052321], [79.01644227872582, 14.213939381788796], [79.0164272670522, 14.215661296171254], [79.01395608813061, 14.215640780239521]]], [[[79.15890271052439, 14.235744762761133], [79.1582244551067, 14.232295207249601], [79.1561087649173, 14.231934450296858], [79.156100381072, 14.232967682060588], [79.15890271052439, 14.235744762761133]]], [[[79.08152913049344, 14.240990763783339], [79.0847533076638, 14.235505943341071], [79.08476782352267, 14.233783961502166], [79.0840674948359, 14.23308950458502], [79.08159311890579, 14.233414059554859], [79.08087825806406, 14.23444157273225], [79.07911000429254, 14.234771773679837], [79.07768315945009, 14.236482383125871], [79.07800125995254, 14.240617964216305], [79.07870158792157, 14.241312439113432], [79.08152913049344, 14.240990763783339]], [[79.07943104488227, 14.238562961220072], [79.08015465913117, 14.236502269065609], [79.0815669463746, 14.236513620989646], [79.08048735883516, 14.238915875745315], [79.07943104488227, 14.238562961220072]]], [[[79.03450175466527, 14.248529588185537], [79.0345166654432, 14.246807659690159], [79.03310435377429, 14.246796021339028], [79.03344251277102, 14.248520859106744], [79.03450175466527, 14.248529588185537]]], [[[79.02628804568184, 14.259138443746428], [79.02630303036523, 14.257416525317973], [79.02383138253299, 14.257396052775857], [79.02416947409795, 14.259120895213629], [79.02628804568184, 14.259138443746428]]], [[[79.20566889475792, 14.305333122655647], [79.20567983031498, 14.30395545054944], [79.20462296006193, 14.303603033067423], [79.20390834838412, 14.304630950618026], [79.20425334265315, 14.305666872097573], [79.20566889475792, 14.305333122655647]]], [[[79.1088310635089, 14.479892160631234], [79.10954673329925, 14.478864663562325], [79.11309296053169, 14.477515478062582], [79.1152311462538, 14.475466114782453], [79.11559622677194, 14.474091365061756], [79.11915685262387, 14.471020092242767], [79.12524928112276, 14.461080525485258], [79.1273814220487, 14.459719813261254], [79.12950489254789, 14.45939227488068], [79.1288412692327, 14.45422067593306], [79.12745641676517, 14.450765452086957], [79.12818630724078, 14.448015880102217], [79.12996776650436, 14.446307918396071], [79.13209398149965, 14.445635940852885], [79.13601305181407, 14.441878324024342], [79.13673706401386, 14.439817509047554], [79.14066739144928, 14.434682184859403], [79.14990403440137, 14.428899606591928], [79.15521902887215, 14.427219104325669], [79.15733934301947, 14.427235677547875], [79.1594426824251, 14.429318665159895], [79.15835136369626, 14.433098847234993], [79.15585774380642, 14.435490345782775], [79.15584072302318, 14.437556773563742], [79.16114175990852, 14.437598185946932], [79.16325652798373, 14.438303529620905], [79.16502919764956, 14.437628479361535], [79.16891382744507, 14.438003115876798], [79.17068929694167, 14.436983613247707], [79.17422334013042, 14.437011011129755], [79.17774337375441, 14.43876040024216], [79.18056784201963, 14.439126650173826], [79.18478082706721, 14.442603449312807], [79.1865004514178, 14.448472029373157], [79.18896048738901, 14.450213115599109], [79.19104762953611, 14.454362342495473], [79.19350776596599, 14.456103392028584], [79.19456808219886, 14.456111524871178], [79.19390571164811, 14.450595520017686], [79.19183245643858, 14.444724258617423], [79.19291774812747, 14.441632688536892], [79.18938916752998, 14.440916740411799], [79.18622239998241, 14.439170230833389], [79.18236285163154, 14.435696186421533], [79.181672823671, 14.433624277908631], [79.17744603333708, 14.431869490985795], [79.17746004562993, 14.430147446124712], [79.1792522121104, 14.427061410153296], [79.1813893258807, 14.425011308007363], [79.18282800942642, 14.421922508531896], [79.18603354008583, 14.418847281965402], [79.1899290489093, 14.4178438918792], [79.19066081713223, 14.414749603616622], [79.19956427131591, 14.40620680423287], [79.204514089985, 14.40590004710765], [79.20454990988296, 14.401422652891677], [79.20846430023819, 14.398008000266941], [79.21097616651475, 14.393204909017623], [79.2145287631285, 14.390820703539214], [79.21561887307752, 14.387040114201149], [79.21775799988282, 14.384645175345558], [79.21953011152377, 14.383969644205655], [79.22167189239012, 14.381230242380234], [79.22805620554095, 14.378178183737889], [79.23017885312755, 14.377849629022938], [79.2326872991365, 14.373390641084072], [79.2369351942598, 14.372388994695928], [79.24016083275136, 14.366557473220128], [79.24479411341714, 14.361425208770209], [79.24799257317014, 14.35903777827377], [79.2511775929999, 14.358372421454462], [79.25332675474745, 14.354599379343172], [79.25935399340389, 14.351888157838484], [79.26184560650073, 14.349495316383782], [79.26221217186406, 14.347775770030696], [79.25973920423066, 14.347757630446326], [79.25404668430924, 14.352882458021801], [79.24518499356647, 14.35660589249734], [79.2381191686091, 14.356553457924049], [79.23389589268973, 14.354455365018602], [79.23071902315851, 14.354087226234077], [79.22857493178226, 14.357171179076532], [79.22819182909606, 14.360957165107358], [79.22712380559535, 14.361982496264448], [79.22571061839055, 14.361971914627915], [79.22395500489492, 14.360580996413825], [79.22361801520294, 14.358511828414779], [79.22647689335126, 14.354399957943892], [79.2261398824218, 14.352330790907178], [79.22227824845592, 14.349201895765502], [79.2148731116876, 14.347424052554569], [79.2145334835515, 14.345699299875184], [79.2159601910737, 14.343987842355245], [79.21597654587212, 14.341921329179877], [79.21422659839838, 14.339841524334034], [79.21140325482077, 14.339475812844237], [79.20891129341332, 14.341868077198425], [79.20713950657684, 14.34254356579287], [79.20428322493864, 14.346310766814454], [79.20108457028704, 14.348697576945147], [79.20139934626613, 14.353522079683664], [79.1977948936667, 14.362450031537232], [79.18995323098656, 14.371001095478942], [79.18428369796288, 14.373024277066385], [79.17862523422642, 14.373669667076816], [79.17436879480256, 14.375703463265616], [79.16906918008785, 14.37566252057723], [79.1651912363444, 14.374599195921087], [79.16306297030363, 14.375615975579507], [79.15807437512564, 14.380743631566228], [79.1545327675859, 14.381749314939738], [79.15132745167541, 14.384824134611442], [79.1498886598085, 14.38791272811565], [79.14633554692915, 14.39029588693881], [79.14561468011101, 14.392012365360793], [79.14205006177892, 14.395773058485927], [79.14096154617887, 14.399208751957444], [79.14163115524813, 14.403691548000404], [79.13911775056813, 14.408493708633113], [79.13872438868054, 14.413312552430758], [79.13552983261042, 14.415009464776514], [79.13306203319556, 14.41430111346336], [79.1270549130579, 14.414253530210646], [79.12563284005584, 14.41527550996789], [79.12419634746819, 14.41801947440272], [79.12136366014128, 14.418685786270025], [79.11745640136148, 14.421065595734914], [79.11531012809856, 14.42414824474157], [79.11104353228978, 14.427213896105204], [79.11170673701025, 14.432385496945493], [79.11026122795025, 14.43616252578407], [79.10598849637164, 14.439916835925041], [79.10210115022434, 14.439885564343731], [79.09996616549743, 14.441590447453178], [79.10065249862666, 14.444006899811825], [79.10451073640817, 14.44748214630713], [79.10518545963282, 14.451276169365038], [79.10267942598907, 14.45504458307431], [79.10192872671693, 14.460204786871584], [79.09800879498464, 14.463961722274835], [79.09726673427447, 14.468088714331898], [79.10249515763839, 14.476741358104203], [79.10600046895968, 14.480213790189923], [79.1088310635089, 14.479892160631234]], [[79.1619446678569, 14.425893896483347], [79.15983850249086, 14.424155337448482], [79.15985546994256, 14.422088902660628], [79.16270508314607, 14.419355681488339], [79.16589954565934, 14.417658384569393], [79.16986253223294, 14.408389542094584], [79.17306519847708, 14.405658895373449], [79.17664072392834, 14.400520055252967], [79.18024677429491, 14.391592623024], [79.18416129517333, 14.388178393551483], [79.19167544637745, 14.376525209954151], [79.19416523234914, 14.374477613517172], [79.19805992678747, 14.373473991639965], [79.20657506806197, 14.36906098361437], [79.20940150307742, 14.369082377048121], [79.21045319886224, 14.37012364204801], [79.21078459040685, 14.372881648950576], [79.20862631848111, 14.37768744687544], [79.20824280695882, 14.381473351612378], [79.20645969922148, 14.383526460275101], [79.20537221526493, 14.386962576996135], [79.20287409938902, 14.390043530301298], [79.20071545730134, 14.394849210632357], [79.19502044099667, 14.399972307071357], [79.18965907352164, 14.40750882637201], [79.18610040246803, 14.410581415563172], [79.18255279921875, 14.412276297014921], [79.17791985246892, 14.417062624723068], [79.17118328438038, 14.419765964073454], [79.16548133856489, 14.425576997933737], [79.1619446678569, 14.425893896483347]], [[79.16147786732063, 14.396613841357873], [79.16117528625266, 14.390411767968924], [79.16224372503379, 14.389386787904952], [79.16330370727142, 14.389395024164664], [79.16435524757058, 14.390436478596232], [79.16468606440003, 14.39319448278105], [79.16253506479703, 14.396966492181543], [79.16147786732063, 14.396613841357873]]]]}}, {"type": "Feature", "properties": {"depth_class": 3, "depth_lo_m": 2.0, "t_s": 86400.0}, "geometry": {"type": "MultiPolygon", "coordinates": [[[[79.01360606965545, 14.215293465045868], [79.0164272670522, 14.215661296171254], [79.01644227872582, 14.213939381788796], [79.013974124304, 14.213574486052321], [79.01360606965545, 14.215293465045868]]], [[[79.08048735883516, 14.238915875745315], [79.0815582207986, 14.237546807945652], [79.0815669463746, 14.236513620989646], [79.07944269258934, 14.237185380432265], [79.07943104488227, 14.238562961220072], [79.08048735883516, 14.238915875745315]]]]}}]}