{"type": "FeatureCollection", "features": [{"type": "Feature", "properties": {"depth_class": 1, "depth_lo_m": 0.3, "t_s": 25200.189235932557}, "geometry": {"type": "MultiPolygon", "coordinates": [[[[79.11822121344981, 14.244727109708116], [79.1200094885156, 14.241985799397547], [79.12003799761582, 14.238541766691025], [79.11899586030789, 14.236467004110674], [79.11723617185602, 14.235764283921135], [79.11545649681679, 14.237472369417446], [79.11436008431725, 14.241941234138288], [79.11680598822896, 14.245060370735448], [79.11822121344981, 14.244727109708116]]], [[[79.03872384873371, 14.250286390159268], [79.0390947865122, 14.248222973300864], [79.03662024060361, 14.248547032255251], [79.03695544877823, 14.250616254692561], [79.03872384873371, 14.250286390159268]]], [[[79.08416476610185, 14.263399174491257], [79.08453824612427, 14.260991243868075], [79.08279889678008, 14.257877493498148], [79.08032424571903, 14.258202000552345], [79.07570758166491, 14.26126454168473], [79.07569881359252, 14.262297722937333], [79.07852662133668, 14.26197611713748], [79.08063071120444, 14.263715159760592], [79.08416476610185, 14.263399174491257]]], [[[79.09890319023245, 14.274538667187297], [79.09891186036111, 14.27350547293641], [79.09539790347917, 14.271410877834288], [79.0925699738399, 14.271732672026157], [79.09255547692815, 14.273454656272502], [79.09360617817893, 14.27449632854012], [79.09890319023245, 14.274538667187297]]], [[[79.17747125413084, 14.428769810045559], [79.18638134580159, 14.419538819860332], [79.1906274652003, 14.418882546588863], [79.19172093594752, 14.41475772649729], [79.19955321670186, 14.407584459839411], [79.20238564408709, 14.406917164510391], [79.20484540681011, 14.408658052086894], [79.20625887140697, 14.408668792194108], [79.2069711092813, 14.407985328548385], [79.20698762294847, 14.40591883670296], [79.20558519142392, 14.404530442587548], [79.20524560327955, 14.402805682731811], [79.20951885706252, 14.398704866166996], [79.21203071174662, 14.393901762265648], [79.2159393875998, 14.391175790243206], [79.2170294770359, 14.387395191967094], [79.21916586492144, 14.385344657310279], [79.22058192100515, 14.38501087637528], [79.22307702965408, 14.38227411923166], [79.2280426332919, 14.37990028415662], [79.23122798286663, 14.37923523738211], [79.23338040443247, 14.375118022344687], [79.23869368010689, 14.373435412802877], [79.24084321180301, 14.369662528726819], [79.24404452231481, 14.3669307478649], [79.24832979138085, 14.361106937172208], [79.25187081431211, 14.360099761528803], [79.25507986504344, 14.356334521579019], [79.26075650598186, 14.353276239341714], [79.26360671847621, 14.350197116734169], [79.26715546891391, 14.348156400123539], [79.2686029989597, 14.343689153816117], [79.27074115148456, 14.341293616869741], [79.27112875501709, 14.336818612678597], [79.26973947206454, 14.333708449661863], [79.26975796358568, 14.331297445668092], [79.27082829331214, 14.329927451911024], [79.27192234524762, 14.325457584453305], [79.2733485118914, 14.323745714710036], [79.27335904922037, 14.322367994417169], [79.27195134774396, 14.321668856651494], [79.26947337334747, 14.32233970951394], [79.26552682857948, 14.330233217884844], [79.26545266671751, 14.339877209980136], [79.26402632921759, 14.341589011825004], [79.26365713997525, 14.343652992240967], [79.26153217755324, 14.344326317494197], [79.2566502392639, 14.336023770613478], [79.25599963138049, 14.328785619113143], [79.25148208353734, 14.319107905475924], [79.25186730953979, 14.314977389999354], [79.25047040276654, 14.312900432518369], [79.25118751615602, 14.311527927839936], [79.25295362967488, 14.311540918854593], [79.2543505541191, 14.31361786359312], [79.26142039740895, 14.312980806034231], [79.26208975092399, 14.317807969448648], [79.26314415653434, 14.318504577050614], [79.26455974669359, 14.318170476159626], [79.26599384394699, 14.315425363955642], [79.2653323388923, 14.30956491505653], [79.25971261966498, 14.305390461255518], [79.25300155603088, 14.305341237181887], [79.25015985397037, 14.307387012451118], [79.24910287494723, 14.307034783097006], [79.24771671507769, 14.30358011289161], [79.24525227056316, 14.302528600791396], [79.24139913824713, 14.298366796913168], [79.2400131387919, 14.294912098905849], [79.23685049743297, 14.29282201420777], [79.2365080448132, 14.291441699766038], [79.23263911728256, 14.289346332020248], [79.2326444967715, 14.288657484923148], [79.23441041409427, 14.288670593193851], [79.23792884511192, 14.290418893064054], [79.24499260024695, 14.29047109710427], [79.24960004064033, 14.288438357320144], [79.25244946527373, 14.285359277171068], [79.25811628548908, 14.28333412767017], [79.25883059140627, 14.282306009352753], [79.25496952151386, 14.279177713497566], [79.25324084347565, 14.27434277808266], [79.25007832344753, 14.272252884689003], [79.24725303749354, 14.272232114508173], [79.24583239671271, 14.273254996279476], [79.24544455605819, 14.277729937550053], [79.24647739426435, 14.281182005247906], [79.2432747778873, 14.284258405477438], [79.24150888652066, 14.284245366904068], [79.23834368643638, 14.28249974063794], [79.2355182905649, 14.282478816649204], [79.23305682374526, 14.281082785351217], [79.22987828269281, 14.281059175235166], [79.2281232087719, 14.279668348379285], [79.22708796851654, 14.276560656461717], [79.22603387333305, 14.275863921659035], [79.21895710576905, 14.277533314456582], [79.2133146523805, 14.276457726571975], [79.21156244637653, 14.274722373007469], [79.20520016573197, 14.275363395097461], [79.20449931090205, 14.27466923422025], [79.20453751962812, 14.269847371826593], [79.20314677034797, 14.267081373994381], [79.20033255853001, 14.265682382492063], [79.19679841018313, 14.26600010680228], [79.19470699047106, 14.2625398943687], [79.18943196921595, 14.259744389189605], [79.18839183664191, 14.25732542910933], [79.18558611491852, 14.254893040392307], [79.18314184427892, 14.251430069557914], [79.1806783196022, 14.250377985592687], [79.17787276860143, 14.247945524766822], [79.17575688248321, 14.247584921291585], [79.16872251455732, 14.244086695391989], [79.16519428722219, 14.243715162203971], [79.16133807661024, 14.240241156124016], [79.16104074396662, 14.233350207808082], [79.15965072498986, 14.23058403786747], [79.15932832522702, 14.226792792684053], [79.15827747769727, 14.225751396272102], [79.15650374611343, 14.226771014664912], [79.15578642581659, 14.22814320763226], [79.152250089509, 14.22880474494387], [79.15187741162185, 14.231212882534594], [79.15256396818621, 14.23362921480772], [79.15537464555248, 14.235373101618972], [79.15606963455383, 14.23675619772288], [79.15605006388138, 14.239167070667643], [79.15460971361645, 14.242600257748133], [79.15919717982912, 14.242980115893342], [79.15988383669578, 14.245396438537384], [79.15385871113979, 14.24810535303767], [79.15247712537223, 14.24430591557162], [79.15177092846476, 14.244300447374377], [79.14962988257807, 14.24703930183948], [79.14750283844776, 14.248056088062356], [79.14606510559298, 14.251144790562973], [79.13862725502939, 14.253842296900295], [79.12414978482036, 14.25372886760229], [79.12133633380425, 14.252329020076953], [79.12065009018038, 14.24991263513375], [79.11959078804041, 14.249904287619284], [79.11992391551054, 14.2523178912298], [79.11921199737519, 14.25300112918076], [79.11603119275824, 14.253320450185491], [79.10407457360593, 14.247370518789943], [79.09243989445467, 14.245211259168592], [79.08960939879003, 14.245877456133384], [79.08678759822365, 14.245510428041682], [79.08538686828183, 14.244121515186093], [79.08327417691928, 14.243415717558927], [79.08436247938087, 14.239980261674615], [79.08686013417444, 14.236900513141618], [79.08655636640924, 14.231042939024666], [79.08585603891161, 14.230348487579446], [79.0833845978543, 14.230328669018869], [79.0791303847126, 14.232361006883279], [79.07592655540078, 14.235434979625323], [79.07275477941607, 14.234720565084903], [79.07025698065065, 14.237800145443389], [79.06601719468686, 14.238110253456131], [79.06494037649189, 14.240168023667993], [79.0649227687379, 14.24223437656221], [79.05816128948227, 14.248378923476924], [79.05390950365455, 14.250066347682013], [79.05214406839426, 14.250051938649777], [79.04792776629478, 14.247606584671477], [79.04510904351088, 14.246894681250781], [79.04517723851862, 14.23897375642472], [79.04270576333042, 14.238953505117653], [79.04056655990537, 14.241346836728885], [79.03915427705032, 14.241335238524863], [79.03775092272132, 14.240290472273603], [79.03492339625146, 14.240611621893414], [79.02886144523436, 14.247449825286743], [79.02919658087515, 14.249519049505588], [79.03130013123112, 14.251258466632903], [79.03198240356978, 14.254019374244184], [79.0316083975319, 14.256427154418], [79.02983097121309, 14.257790111869069], [79.02877168908675, 14.25778135649801], [79.0263210093459, 14.255350222855887], [79.02314320604114, 14.255323900288664], [79.02171883760111, 14.256689718988524], [79.02170081494938, 14.258756015458795], [79.02344827611259, 14.26083695674851], [79.0223769695063, 14.262205702300948], [79.01883394205024, 14.26355390822061], [79.01389958937864, 14.26247962257306], [79.01281614674018, 14.265225839286739], [79.01104761563903, 14.265555491235098], [79.00999737884536, 14.26451350749768], [79.0075317316269, 14.263804096769789], [79.00754686381309, 14.26208219864711], [79.01112615225826, 14.256601600216054], [79.01257772617352, 14.252136424498573], [79.01225480990283, 14.248689672434415], [79.00769203010148, 14.245551963243225], [78.99745302311908, 14.245466252771728], [78.99605291101776, 14.244076885316735], [78.99606810841219, 14.242354996461275], [78.99892902832296, 14.238246154382068], [79.01382674415217, 14.230449210825531], [79.01740529042887, 14.224968420005181], [79.01777634493008, 14.222905051844313], [79.02132470169113, 14.220868008578503], [79.02172266370303, 14.215705172999746], [79.0203315308683, 14.213282798073816], [79.01716933073648, 14.211534556449934], [79.01363913874474, 14.211505259444257], [79.01222104809472, 14.2121822902303], [79.01114392998348, 14.214239775182309], [79.01144577628317, 14.220097201510507], [79.00964143385498, 14.22455946474122], [79.00360350435626, 14.228641953332117], [78.99722749646489, 14.230999407205479], [78.99117092809047, 14.237147789726611], [78.98973128138981, 14.240235291862051], [78.98967639681597, 14.246434067435272], [78.99317053916886, 14.25059631344307], [78.99809536869809, 14.252704116743296], [79.00480692072507, 14.252415951953909], [79.0044326368243, 14.254823652753949], [79.00086841323929, 14.258582242378488], [78.99835727267167, 14.263038415432575], [78.99798593007485, 14.265101715316884], [78.99831469912408, 14.267859702000253], [78.99970583428863, 14.270282207918692], [79.00321566551273, 14.272722479152328], [79.01204046141176, 14.27314069866609], [79.01416820393048, 14.272125229709403], [79.0194679202256, 14.271824945327062], [79.02088940010405, 14.270803537957336], [79.02477364258674, 14.270835775135213], [79.02688332767464, 14.2718864826927], [79.02903497107246, 14.268115799401919], [79.0311715817751, 14.266067008848585], [79.03258998977273, 14.265389904488654], [79.03611807593771, 14.26576341496949], [79.03718336397813, 14.265083371007929], [79.03827844328788, 14.260959460975549], [79.04255430080434, 14.256517261432844], [79.04431680698498, 14.256876135304173], [79.04427225888477, 14.262041946078492], [79.04567280097379, 14.263431080765596], [79.04920386800174, 14.263460008069778], [79.05345889861425, 14.261428316777256], [79.05592768169886, 14.261792877606657], [79.05697519473897, 14.26317907438554], [79.06192166252126, 14.262874932049295], [79.06615309953946, 14.263598131996098], [79.06971059907845, 14.26052722364125], [79.0718350979875, 14.259855583265857], [79.07397420948575, 14.257461954836284], [79.0764546936991, 14.256448725747914], [79.09376256828904, 14.255898874974225], [79.10079872334072, 14.259054814314123], [79.10358905143748, 14.263210093230198], [79.09758605598819, 14.263162255770009], [79.09616491365816, 14.264184171452316], [79.08628345341879, 14.263416195074635], [79.08662494186798, 14.264796613600073], [79.08907934341637, 14.266882823574907], [79.0912038697283, 14.266211011045298], [79.09578865186407, 14.26693653210772], [79.10567610454459, 14.267015337687232], [79.10848098223325, 14.269448579500553], [79.1113060146964, 14.2694709906292], [79.11270705973836, 14.270859787471165], [79.11373204839457, 14.27500099057743], [79.11016905894141, 14.278761399618126], [79.10662610893412, 14.280110943682445], [79.10453318258212, 14.276994492881077], [79.10100467687361, 14.276621960472422], [79.10132605510378, 14.280413159017742], [79.10484885524868, 14.281474492061927], [79.10589389001447, 14.283204919465945], [79.10905210248629, 14.285640986642719], [79.11611806622382, 14.285352595714992], [79.1232011703135, 14.282997576833715], [79.12854970467787, 14.276840013209279], [79.12892560701071, 14.274087555965082], [79.12824777819621, 14.270637967054322], [79.13253080266693, 14.265160743370018], [79.13571178067919, 14.26484121987091], [79.14099739853096, 14.266260221771251], [79.14383372419796, 14.26490461372702], [79.14771814604742, 14.264934834815824], [79.14947817255738, 14.265637367474357], [79.15438836255194, 14.269808615473547], [79.15827009264322, 14.270183084626309], [79.16073368794456, 14.271235411931903], [79.16532454135948, 14.27127081091268], [79.17272111900563, 14.273738695833067], [79.17692564285669, 14.277904127821232], [79.17868588290435, 14.278606466747997], [79.1828850804188, 14.283460644123275], [79.18496541217566, 14.288298614443956], [79.1852633389497, 14.295189598135162], [79.18312486865545, 14.297584319708092], [79.18346422401106, 14.29930908739319], [79.18557784056239, 14.300014094012226], [79.18735484383748, 14.298649903129567], [79.18912079527435, 14.298663356562356], [79.19227197816606, 14.302131695769644], [79.19470584779135, 14.306972303557604], [79.1964773680142, 14.306296877605543], [79.19685255106991, 14.303544226467464], [79.19968912089487, 14.302187972269728], [79.20216150896687, 14.302206679750235], [79.20282683283627, 14.30737828232213], [79.20529654688822, 14.307741381683943], [79.20707624789078, 14.306032619085181], [79.20852455270658, 14.301565829507346], [79.2110214696254, 14.29848467183142], [79.2067858722673, 14.298108333735053], [79.20467491729792, 14.297059091886949], [79.19655154351999, 14.296997635520654], [79.19586439451903, 14.29458136347323], [79.1979972254011, 14.292875341333923], [79.19836686344169, 14.290811514165672], [79.19731829856691, 14.28942582173663], [79.19133080382338, 14.287313767726145], [79.1895759579523, 14.285922679197672], [79.18924482642542, 14.283164668750704], [79.19102441755336, 14.281456014502762], [79.19243707412744, 14.28146674387229], [79.19698981495468, 14.286323394224814], [79.20613957203123, 14.290525801625998], [79.20929367201994, 14.293649515752437], [79.21070369483184, 14.294004564914847], [79.21210555658288, 14.2953928647974], [79.21137466412146, 14.29848732839917], [79.21631667817728, 14.29886888554848], [79.22021539170099, 14.297175888470496], [79.22233185107734, 14.297536158079891], [79.22232102204242, 14.29891384348734], [79.22089739458887, 14.300280962950714], [79.21594174323066, 14.30162159701009], [79.21414853558105, 14.305052536679305], [79.21481685944278, 14.30987971785212], [79.21621611683298, 14.311612425914163], [79.2183326979365, 14.31197274566082], [79.22010963645228, 14.310608298958929], [79.22222892866674, 14.310624162693575], [79.22363637603404, 14.31132357048863], [79.22503300893057, 14.31340065667745], [79.2246581328641, 14.316153388201451], [79.22252252186794, 14.318204065193362], [79.21862343882395, 14.319897057268008], [79.21855276763914, 14.328851974499864], [79.21532181279707, 14.335372055087545], [79.21389789118135, 14.336739097052385], [79.2114196460028, 14.337409304041005], [79.20714772385867, 14.341510314123237], [79.2057319392865, 14.341844045224157], [79.20322891311335, 14.345613905046768], [79.19967699009338, 14.34799801846635], [79.19998347968817, 14.35385576632913], [79.19853730458512, 14.357978011056167], [79.19675432975829, 14.360031061799999], [79.19566686054874, 14.363467136335027], [79.19211179950553, 14.366195504344219], [79.18996431509484, 14.369623442939485], [79.18464534277709, 14.371993750912942], [79.17721201141495, 14.373658787530992], [79.174724898446, 14.375361778504143], [79.16977299137619, 14.376012395546416], [79.16693530131722, 14.377368152959034], [79.16691002900858, 14.38046782905486], [79.16898221772496, 14.386339193419305], [79.17423170279213, 14.39257953994941], [79.17775387608913, 14.393984443038336], [79.18522684833219, 14.387497707479396], [79.18559130142823, 14.38612277146885], [79.18844012830105, 14.383389141073302], [79.19130551106112, 14.37858898890832], [79.19451024757353, 14.37551355065045], [79.19804888915482, 14.374851649906581], [79.20656408608836, 14.370438648857546], [79.20868392487716, 14.37045469869494], [79.20903174773568, 14.371146205317952], [79.20900980938288, 14.373901538870575], [79.20721579299364, 14.377332327274194], [79.2068322593192, 14.381118227147626], [79.20504914320267, 14.383171324062419], [79.20431772428859, 14.386265699809343], [79.2018196042264, 14.389346641360673], [79.19966094926734, 14.394152310482031], [79.19289479471976, 14.400644928096327], [79.19110028335896, 14.404075533304349], [79.18717719811407, 14.408523087848097], [79.18468694158508, 14.41057055343382], [79.18256117139329, 14.411243065475155], [79.17614457834792, 14.418082205891332], [79.17437489856597, 14.41841295424416], [79.17117766460996, 14.420454780234643], [79.17044279464447, 14.423893380719427], [79.17148889300637, 14.425623639487272], [79.17499750962523, 14.428750681837032], [79.17747125413084, 14.428769810045559]], [[79.19140922170533, 14.409588836524229], [79.19429157547103, 14.402722212141061], [79.20141938595927, 14.39519900365392], [79.20358077219676, 14.390048900517257], [79.2057200466949, 14.387654089355667], [79.2060953761016, 14.384901444128268], [79.20859613089885, 14.381476027404634], [79.20898237989633, 14.377345704864956], [79.21077363116407, 14.374259316934586], [79.21080650540499, 14.370126312477916], [79.20870037795555, 14.36838819836313], [79.20728716476862, 14.368377502180357], [79.20196560557494, 14.371092639991046], [79.19664945133277, 14.373118813918657], [79.19382021978012, 14.37344167616609], [79.19133598353774, 14.374800443600732], [79.18992274362516, 14.374789639094146], [79.18958329552632, 14.373064871866035], [79.19279073126647, 14.369645035438328], [79.19351392759567, 14.367583945130326], [79.19635688670337, 14.365539005501358], [79.19849872139818, 14.362799821818566], [79.19887405909444, 14.360047188023591], [79.20030097838489, 14.358335851181717], [79.20067628024053, 14.355583210107804], [79.20174987534315, 14.353869176452163], [79.20214713187241, 14.348361200760825], [79.20463374911967, 14.346657858726502], [79.20642476032874, 14.343571474684701], [79.20855255760415, 14.342554244051215], [79.21140052270303, 14.339820230941392], [79.21387333868266, 14.339838864499075], [79.21562873465858, 14.341229833897337], [79.21560965104749, 14.343640765580153], [79.21346548612739, 14.346724571869212], [79.21416110929978, 14.348107568300888], [79.21732966695104, 14.34950917332607], [79.22262609060678, 14.349893384624291], [79.22543603248198, 14.35198108131096], [79.22612632096649, 14.354052893281894], [79.22362888336691, 14.357134148933367], [79.22325113488579, 14.360231277978441], [79.22536003694056, 14.361624847822613], [79.22748523815682, 14.360951878895818], [79.22822435198714, 14.356824116730412], [79.23143911479804, 14.352370393012741], [79.2336020156147, 14.346875449200878], [79.23475083499521, 14.3355174028016], [79.23546543239566, 14.334489389997698], [79.23759034851797, 14.333816296164212], [79.23796512464429, 14.33106353335031], [79.23974750018091, 14.329010097974887], [79.24190723243521, 14.323859443554904], [79.2415861831719, 14.319723736634023], [79.24232749807514, 14.315251447257705], [79.23990052909092, 14.309377929208628], [79.23780539852406, 14.306262408674096], [79.23604740417817, 14.305216038737479], [79.23392814675522, 14.305200304015814], [79.2339093082559, 14.30761126700384], [79.23564579386797, 14.31141304158855], [79.23630920781683, 14.31692906185783], [79.23803503721845, 14.322108523377842], [79.23730973882532, 14.324514244424828], [79.2372666961854, 14.33002501735684], [79.23548967874243, 14.33138958473467], [79.23479395627571, 14.330006639909595], [79.23483436582215, 14.324840297263677], [79.23378542506676, 14.323454725317193], [79.23452152713105, 14.319671326785162], [79.23346991440295, 14.318630178711505], [79.23278231987747, 14.316213964166343], [79.233515707074, 14.312774988802818], [79.23285505523481, 14.306914545064044], [79.23357762890049, 14.304853256467588], [79.23253415994358, 14.302778842060338], [79.23112942325065, 14.301735066571656], [79.22900750628942, 14.302063714273581], [79.22726579146217, 14.29895075398365], [79.22305177084698, 14.29581932910877], [79.21562930765266, 14.29645264567474], [79.21458876067246, 14.294033754589595], [79.21071731450104, 14.292282468357573], [79.20756320928139, 14.289158772704504], [79.1980603003191, 14.284953749656815], [79.19630816733932, 14.283218290935963], [79.19562927765138, 14.279768770293495], [79.19281772343004, 14.278025261920748], [79.18861562388331, 14.273515660128432], [79.18121881827602, 14.271048249267347], [79.17591332130269, 14.27204099025223], [79.17416146603402, 14.270305398608045], [79.16430695652916, 14.266096482751687], [79.15513108291206, 14.265336763507335], [79.149848167968, 14.263573658593302], [79.13219186302035, 14.263435951150942], [79.13041772272837, 14.264455322508812], [79.12969442316977, 14.266516208163715], [79.12684947381398, 14.268904846328931], [79.12714282316492, 14.276140101140326], [79.12393030514414, 14.280247921488598], [79.12073481943838, 14.282289269847814], [79.1143695039459, 14.283272207867862], [79.11190606169205, 14.282219411919542], [79.11191754910985, 14.28084181004702], [79.11476853282967, 14.277764588023764], [79.11901769480225, 14.276420491439538], [79.1200856952227, 14.27539564992884], [79.12295362003861, 14.270251888947827], [79.12579862324475, 14.267863304673783], [79.12652480893205, 14.265458032097147], [79.12194558700175, 14.264044288311622], [79.1127644126359, 14.26397176668371], [79.10890019271257, 14.261530175285664], [79.10466567877678, 14.261152122000338], [79.10081602603906, 14.256988420758658], [79.097299395658, 14.255238278930035], [79.08954561953465, 14.25345418811521], [79.08600590770956, 14.254459065888716], [79.08247781452125, 14.254086305784078], [79.07505397631083, 14.255059752839797], [79.07150249068218, 14.257441976214723], [79.06760663213244, 14.258788098383897], [79.06546157022014, 14.261870442682618], [79.05840237400095, 14.261468633408397], [79.05558934109945, 14.260068049181895], [79.05170816977181, 14.259691948773229], [79.04751245789475, 14.254835849688826], [79.04398746718431, 14.254118139529028], [79.04079180187995, 14.256158375227654], [79.03472355830193, 14.263685459456514], [79.03189573616162, 14.264006534567747], [79.02549487317405, 14.269119713746232], [79.02090143103715, 14.269426009085953], [79.01841761448581, 14.27078299046543], [79.01311792455519, 14.271083254463681], [79.01099018903422, 14.272098714773849], [79.00217151365445, 14.270991705315016], [78.99972711202525, 14.26787156332539], [78.99940744298709, 14.264080442761536], [79.00263689299732, 14.258252660675842], [79.00584497385087, 14.254835467260735], [79.00622226916711, 14.252083382638567], [79.00446898327444, 14.25069110154079], [79.00022295222692, 14.25168875388955], [78.99775444480922, 14.25132364136415], [78.99283269330817, 14.248871458212701], [78.99074169710617, 14.245754236356673], [78.99078436265336, 14.24093296332372], [78.99293924063419, 14.236818259375712], [78.99721535583686, 14.232376920598366], [79.00465658780571, 14.229339562740659], [79.01034148283206, 14.225254107999934], [79.01287294711524, 14.21838703644198], [79.012199989193, 14.214592964451], [79.01363012086742, 14.21253840655277], [79.0164542866189, 14.212561850093463], [79.01856041921545, 14.21395694435964], [79.02065759050254, 14.216385174452778], [79.02063062061421, 14.21948462745562], [79.01708228232802, 14.221521662624522], [79.01491295909705, 14.227358576681466], [79.01206150399166, 14.230434525069708], [79.00213683389126, 14.23482897584922], [79.00142164023131, 14.235856204180624], [78.99787592839478, 14.237548517083283], [78.9950150016889, 14.24165734541063], [78.99498763194369, 14.244756743335497], [78.99708780086893, 14.246840801034622], [79.00697681885303, 14.24657920623979], [79.01118954590765, 14.249369606108157], [79.01152451738122, 14.251438834365308], [79.01007292993985, 14.255904001798296], [79.00577835555417, 14.262411813739837], [79.00610419239543, 14.265514181358945], [79.00892597879968, 14.265882179376515], [79.01032629655118, 14.267271496653061], [79.01315113706512, 14.267295067645701], [79.0156409660544, 14.265249377472399], [79.01917199743444, 14.265278753189623], [79.02555486772741, 14.262232047507952], [79.02662316017856, 14.26120766888137], [79.02663215106207, 14.260174517825291], [79.02451656937511, 14.25981258783685], [79.02346628558966, 14.258770658449116], [79.02383738333995, 14.256707286360145], [79.02595593196169, 14.256724834937197], [79.02735332345512, 14.258458443183015], [79.02734134133263, 14.25983597870197], [79.02910682640467, 14.259850581021354], [79.03336788888421, 14.257130492143009], [79.03445999389493, 14.253350986571649], [79.03305958337103, 14.251961801642706], [79.03272739646025, 14.249548192984651], [79.03167412453395, 14.248850685288287], [79.03133597917146, 14.24712584672275], [79.03562059635712, 14.241650592617704], [79.03773901955564, 14.241668018523457], [79.03913940739498, 14.243057172613625], [79.04055170094307, 14.243068772277253], [79.04339112942498, 14.241370008104608], [79.04409133994376, 14.242064571442127], [79.04334067358037, 14.247224597810181], [79.04439101419361, 14.248266445414478], [79.05037567646833, 14.250381905476495], [79.05247646562997, 14.252465546662828], [79.0570696000666, 14.252158592598006], [79.05704305671755, 14.25525810419006], [79.06021503401561, 14.25597275659818], [79.06340467699434, 14.254621020760696], [79.06518484438436, 14.252913391793196], [79.06590864533891, 14.250852767270867], [79.07015452891709, 14.24985390567444], [79.07867536080123, 14.244411993228306], [79.07833102187793, 14.243375965817137], [79.07587112353063, 14.241978474269683], [79.06916555973571, 14.241579905028624], [79.06846233469898, 14.241229798593412], [79.06847112218446, 14.240196619939566], [79.07094264882618, 14.240216606300702], [79.07273724973123, 14.236786928478615], [79.07450260347372, 14.23680117218212], [79.07553263703124, 14.240253656033486], [79.07623879023309, 14.240259348169811], [79.07697701738475, 14.236476696736508], [79.07805079839338, 14.234763250643216], [79.08266394452929, 14.23204498210587], [79.08478233744188, 14.232061979400955], [79.08547976412066, 14.23310083071632], [79.08545074270303, 14.236544795767559], [79.08222947162508, 14.24168522980117], [79.0793873548928, 14.243728887678136], [79.0797346120732, 14.24442051914438], [79.0853723461319, 14.245843496163522], [79.08747926478719, 14.247238071842608], [79.09313160560248, 14.24693889187323], [79.10441328593238, 14.249095323944427], [79.10862748378439, 14.251884159110688], [79.11637000124549, 14.255045249860151], [79.13261588190596, 14.254828587819926], [79.13720067409947, 14.25555330051351], [79.14782221260216, 14.252191731041194], [79.15558784817841, 14.252596337425866], [79.15771211425199, 14.251923890545152], [79.1598168184424, 14.253662298334193], [79.15874070423331, 14.255720585348444], [79.15661360428032, 14.256737447273142], [79.15660520750853, 14.257770677189793], [79.15765617611154, 14.258812095258023], [79.1671960669725, 14.258196753955128], [79.1707217458279, 14.258912697109524], [79.17423913498843, 14.260661830627017], [79.1763606757192, 14.260333634058139], [79.17886299452049, 14.25656397316924], [79.17782299083345, 14.254144981456868], [79.17395254678986, 14.252393205636258], [79.1704436101033, 14.249610843739472], [79.1609152391356, 14.24884871570177], [79.16201360094638, 14.244035120569709], [79.16800797473168, 14.245114512980042], [79.17081614954844, 14.247202660612263], [79.17257891120143, 14.247560602390138], [79.17468370958946, 14.24929888832692], [79.17750306626532, 14.250009313350223], [79.17995828132844, 14.25209467188591], [79.18277493764404, 14.253149455624301], [79.18696832171645, 14.258692356769643], [79.18835056792432, 14.262491669466414], [79.19397328419019, 14.265978714115342], [79.19642334516747, 14.26875277332439], [79.20136738590489, 14.268790144870794], [79.2027663149553, 14.270522896068353], [79.20273079915674, 14.275000335167402], [79.20377934416068, 14.276386001383012], [79.21047848596672, 14.277814193338926], [79.21187481909844, 14.279891324338752], [79.21854975137927, 14.284419095845717], [79.22560244638477, 14.285849542704694], [79.2284116945958, 14.287937126116162], [79.23015874748052, 14.290361226714799], [79.23964654237584, 14.29663160878916], [79.24033417837535, 14.299047808832222], [79.24873364613515, 14.309098736951528], [79.24904682697128, 14.314267728573464], [79.25008782817787, 14.316686517930384], [79.25075426853516, 14.321858111606383], [79.25250446585675, 14.323937672544874], [79.25354020765052, 14.32704530681245], [79.25279104179488, 14.332550926004453], [79.25454399613908, 14.334286055382238], [79.25522919857039, 14.337046662563893], [79.25767543010481, 14.340509103395581], [79.25940720444937, 14.344999622226483], [79.26116561585903, 14.346045863319123], [79.26328528770576, 14.34606139854992], [79.26470635927093, 14.345038461333035], [79.26543411762856, 14.342288206722635], [79.26686045049053, 14.340576395797896], [79.26653895229583, 14.336440673658043], [79.2672613573094, 14.334379263173505], [79.26832114152981, 14.334386999758909], [79.26971569219592, 14.336808311186804], [79.2693307048592, 14.340938881109038], [79.26683661916773, 14.343676250795363], [79.26610357102845, 14.347115366952266], [79.26326405244083, 14.34881681874603], [79.25970195910455, 14.352579605549538], [79.25473724787336, 14.354954216779623], [79.25117224282693, 14.359061271397115], [79.2472779370904, 14.360065824474004], [79.24370734191805, 14.364861587313667], [79.24015005833265, 14.367935163952056], [79.23728581041833, 14.372736048017655], [79.23268459286246, 14.373735062193022], [79.23017885312755, 14.377849629022938], [79.22096251453216, 14.381569348090474], [79.21953283995936, 14.383625225857372], [79.21776073116693, 14.384300757350157], [79.21562434307725, 14.386351279144433], [79.2145342379689, 14.390131869113008], [79.2102694809088, 14.393199559751274], [79.20847254456649, 14.396974752673684], [79.20348984654207, 14.401414594898267], [79.20240495753742, 14.40450626318674], [79.19850971841612, 14.405509893789548], [79.19281990710998, 14.409944070241744], [79.19140922170533, 14.409588836524229]], [[79.22644976971579, 14.357844162462202], [79.22573504747895, 14.358872132931728], [79.22574318921183, 14.357838872177396], [79.22644976971579, 14.357844162462202]], [[79.22790087244466, 14.353032846399834], [79.22545502254252, 14.349570138397635], [79.2184194468025, 14.345728530023067], [79.21772380153223, 14.344345543654944], [79.22025648984638, 14.336786882925697], [79.22240045820043, 14.333702991091359], [79.22456062544482, 14.32855254717252], [79.22351987195127, 14.326133673231423], [79.22354155721975, 14.323378306745248], [79.22708744265269, 14.321682600138384], [79.22993491570153, 14.318948303496914], [79.23168758080419, 14.320683571488928], [79.23161742372491, 14.329638551777704], [79.23300613574011, 14.332748876557808], [79.23295486510456, 14.339292899351177], [79.23219432163592, 14.346176073444905], [79.2300313967933, 14.35167100154677], [79.2289607219414, 14.353040768794818], [79.22790087244466, 14.353032846399834]], [[79.22611160049158, 14.31099761887717], [79.22153605138817, 14.308896772534661], [79.21693613870097, 14.309895627981069], [79.21589553269335, 14.307476736404546], [79.21627048661604, 14.304724027495556], [79.21733825073144, 14.3036987149171], [79.22016388362958, 14.303719885311628], [79.22579894375569, 14.305828656362452], [79.22684776241287, 14.307214250487432], [79.22752717055444, 14.31066373944358], [79.22611160049158, 14.31099761887717]], [[79.25684440010413, 14.310880598155151], [79.25615921866591, 14.308119996612675], [79.25758005802297, 14.307097075616442], [79.25969670804818, 14.307457029593152], [79.2614495496122, 14.309192095402567], [79.26073250401049, 14.310564639234524], [79.25931695992512, 14.310898722260198], [79.25684440010413, 14.310880598155151]], [[79.2021834166596, 14.299451339968135], [79.20076789987552, 14.299785072508405], [79.20077064023084, 14.299440655266945], [79.2021834166596, 14.299451339968135]], [[79.23726002688555, 14.285591719057894], [79.2383222457675, 14.285255138691266], [79.23866738504664, 14.28629102665441], [79.23760784313514, 14.286283183487896], [79.23726002688555, 14.285591719057894]], [[79.22349959937331, 14.283767204105983], [79.21926964457914, 14.28270227501569], [79.218574140957, 14.28131930605413], [79.22104632669014, 14.281337790808543], [79.22315723756113, 14.282386880419493], [79.22349959937331, 14.283767204105983]], [[79.18823768245994, 14.276612714441226], [79.18366046994886, 14.274855670735116], [79.18118840590998, 14.274836806286741], [79.18049316692593, 14.273453755328314], [79.18296797707445, 14.27312821059944], [79.18859910088685, 14.27558215400999], [79.18823768245994, 14.276612714441226]], [[79.11907773763183, 14.269188046509106], [79.11555789070508, 14.26778253678043], [79.11486309306729, 14.266399344494834], [79.12263186828274, 14.266460673760857], [79.12262331069752, 14.267493882814103], [79.11907773763183, 14.269188046509106]], [[79.04711785355252, 14.259654391012672], [79.04852729359206, 14.26001034489388], [79.04816529938165, 14.261040618656825], [79.04675288756407, 14.261029049770848], [79.04711785355252, 14.259654391012672]], [[79.17356061410034, 14.257212288687727], [79.16968182582968, 14.25649367939297], [79.16898392381914, 14.25545502033113], [79.16969571954016, 14.25477161661631], [79.17463938206717, 14.25480950621495], [79.17604355264542, 14.255853554387729], [79.17356061410034, 14.257212288687727]], [[79.16828880844854, 14.254071947580155], [79.1665371402495, 14.252336320943622], [79.16689581859471, 14.251650210720328], [79.16901449686284, 14.251666483032023], [79.17006550460343, 14.252707850324352], [79.17005439370472, 14.254085501090161], [79.16828880844854, 14.254071947580155]], [[79.06698845202416, 14.248450607364799], [79.06452858816938, 14.247053001240744], [79.06595559876205, 14.245342492792533], [79.07266710288329, 14.245052378272364], [79.07230232188411, 14.246427100335412], [79.06946299559648, 14.248126227542096], [79.06698845202416, 14.248450607364799]], [[79.15855799846915, 14.23470880707526], [79.15680375079187, 14.233317543909434], [79.15645905097854, 14.232281586590858], [79.15821887221458, 14.232984029238366], [79.15855799846915, 14.23470880707526]]], [[[79.2391925046815, 14.354839222338155], [79.24519572833522, 14.355228196714581], [79.24839408855436, 14.352840749122116], [79.25299216344355, 14.352185796889056], [79.25618774074468, 14.350142655325316], [79.25833140533881, 14.347058400166734], [79.25764614798086, 14.344297796429265], [79.25239241857774, 14.338403564732682], [79.25067952078363, 14.331502034421616], [79.24963312006265, 14.32977209311046], [79.24786686712467, 14.329759061210538], [79.245011394815, 14.33352685367158], [79.24462061014252, 14.338346182712137], [79.24319145672204, 14.340402266631548], [79.2406460068132, 14.34968337039228], [79.23885268172779, 14.353114482869152], [79.2391925046815, 14.354839222338155]], [[79.25196971449763, 14.347356027147336], [79.25375745859935, 14.344613637618673], [79.2548172832803, 14.344621439941669], [79.25621972476986, 14.346009540842124], [79.25548917326105, 14.349104178339068], [79.25300551775806, 14.350463669277968], [79.25194833890534, 14.35011143039113], [79.25196971449763, 14.347356027147336]], [[79.24846369760705, 14.343885705256303], [79.24639228396272, 14.337670397038762], [79.24677767453198, 14.333539910169952], [79.24784546877166, 14.332514462467271], [79.24889721254011, 14.333555560634432], [79.25096600186706, 14.340115278044285], [79.25059135376904, 14.342868075778735], [79.24952351585975, 14.343893530843816], [79.24846369760705, 14.343885705256303]]]]}}, {"type": "Feature", "properties": {"depth_class": 2, "depth_lo_m": 1.0, "t_s": 25200.189235932557}, "geometry": {"type": "MultiPolygon", "coordinates": [[[[79.15856637221121, 14.233675574027469], [79.1575182932315, 14.232289760549996], [79.15645905097854, 14.232281586590858], [79.15820491367855, 14.234706084027408], [79.15856637221121, 14.233675574027469]]], [[[79.048521366299, 14.260699121356927], [79.04817715610945, 14.259663066021407], [79.0467617866536, 14.259995886182516], [79.04675288756407, 14.261029049770848], [79.048521366299, 14.260699121356927]]], [[[79.23866738504664, 14.28629102665441], [79.23761588778483, 14.285249909783897], [79.23725734479896, 14.28593614356025], [79.23866738504664, 14.28629102665441]]], [[[79.2021834166596, 14.299451339968135], [79.20076789987552, 14.299785072508405], [79.20218067845322, 14.29979575747754], [79.2021834166596, 14.299451339968135]]], [[[79.22752717055444, 14.31066373944358], [79.22684776241287, 14.307214250487432], [79.22579894375569, 14.305828656362452], [79.22016388362958, 14.303719885311628], [79.21733825073144, 14.3036987149171], [79.21627048661604, 14.304724027495556], [79.21589553269335, 14.307476736404546], [79.21693613870097, 14.309895627981069], [79.22153605138817, 14.308896772534661], [79.22611160049158, 14.31099761887717], [79.22752717055444, 14.31066373944358]]], [[[79.26073250401049, 14.310564639234524], [79.2614495496122, 14.309192095402567], [79.25969670804818, 14.307457029593152], [79.25758005802297, 14.307097075616442], [79.25615921866591, 14.308119996612675], [79.25614327139883, 14.31018656055567], [79.25684440010413, 14.310880598155151], [79.26073250401049, 14.310564639234524]]], [[[79.19352941210747, 14.409605065129469], [79.19850971841612, 14.405509893789548], [79.20276107479681, 14.404164537314571], [79.20348984654207, 14.401414594898267], [79.20847254456649, 14.396974752673684], [79.2102694809088, 14.393199559751274], [79.2145342379689, 14.390131869113008], [79.21562434307725, 14.386351279144433], [79.21776073116693, 14.384300757350157], [79.21953283995936, 14.383625225857372], [79.22096251453216, 14.381569348090474], [79.23017885312755, 14.377849629022938], [79.23268459286246, 14.373735062193022], [79.23728581041833, 14.372736048017655], [79.24015005833265, 14.367935163952056], [79.24370734191805, 14.364861587313667], [79.2472779370904, 14.360065824474004], [79.25117224282693, 14.359061271397115], [79.25473724787336, 14.354954216779623], [79.25970195910455, 14.352579605549538], [79.26326405244083, 14.34881681874603], [79.26610357102845, 14.347115366952266], [79.26683661916773, 14.343676250795363], [79.2693307048592, 14.340938881109038], [79.26971569219592, 14.336808311186804], [79.26832114152981, 14.334386999758909], [79.2672613573094, 14.334379263173505], [79.26653895229583, 14.336440673658043], [79.26686045049053, 14.340576395797896], [79.26543411762856, 14.342288206722635], [79.26470635927093, 14.345038461333035], [79.26328528770576, 14.34606139854992], [79.26116561585903, 14.346045863319123], [79.25940720444937, 14.344999622226483], [79.25767543010481, 14.340509103395581], [79.25522919857039, 14.337046662563893], [79.25454399613908, 14.334286055382238], [79.25279104179488, 14.332550926004453], [79.25354020765052, 14.32704530681245], [79.25250446585675, 14.323937672544874], [79.25075426853516, 14.321858111606383], [79.25008782817787, 14.316686517930384], [79.24904682697128, 14.314267728573464], [79.24873364613515, 14.309098736951528], [79.24033417837535, 14.299047808832222], [79.23964654237584, 14.29663160878916], [79.23015874748052, 14.290361226714799], [79.2284116945958, 14.287937126116162], [79.22560244638477, 14.285849542704694], [79.21854975137927, 14.284419095845717], [79.21187481909844, 14.279891324338752], [79.21047848596672, 14.277814193338926], [79.20377934416068, 14.276386001383012], [79.20273079915674, 14.275000335167402], [79.2027663149553, 14.270522896068353], [79.20136738590489, 14.268790144870794], [79.19642334516747, 14.26875277332439], [79.19397328419019, 14.265978714115342], [79.18835056792432, 14.262491669466414], [79.18696832171645, 14.258692356769643], [79.18277493764404, 14.253149455624301], [79.17995828132844, 14.25209467188591], [79.17750306626532, 14.250009313350223], [79.17468370958946, 14.24929888832692], [79.17257891120143, 14.247560602390138], [79.17081614954844, 14.247202660612263], [79.16800797473168, 14.245114512980042], [79.16201360094638, 14.244035120569709], [79.1609152391356, 14.24884871570177], [79.1704436101033, 14.249610843739472], [79.17395254678986, 14.252393205636258], [79.17782299083345, 14.254144981456868], [79.17886299452049, 14.25656397316924], [79.1763606757192, 14.260333634058139], [79.17423913498843, 14.260661830627017], [79.1707217458279, 14.258912697109524], [79.1671960669725, 14.258196753955128], [79.15765617611154, 14.258812095258023], [79.15660520750853, 14.257770677189793], [79.15661360428032, 14.256737447273142], [79.15874070423331, 14.255720585348444], [79.15981402508304, 14.254006709028307], [79.15911897234417, 14.252623616615951], [79.15771211425199, 14.251923890545152], [79.15558784817841, 14.252596337425866], [79.14782221260216, 14.252191731041194], [79.13720067409947, 14.25555330051351], [79.13261588190596, 14.254828587819926], [79.11637000124549, 14.255045249860151], [79.10862748378439, 14.251884159110688], [79.10441328593238, 14.249095323944427], [79.09313160560248, 14.24693889187323], [79.08747926478719, 14.247238071842608], [79.0853723461319, 14.245843496163522], [79.0797346120732, 14.24442051914438], [79.0793873548928, 14.243728887678136], [79.08222947162508, 14.24168522980117], [79.08545074270303, 14.236544795767559], [79.08547976412066, 14.23310083071632], [79.08478233744188, 14.232061979400955], [79.08266394452929, 14.23204498210587], [79.07805079839338, 14.234763250643216], [79.07697701738475, 14.236476696736508], [79.07623879023309, 14.240259348169811], [79.07553263703124, 14.240253656033486], [79.07450260347372, 14.23680117218212], [79.07238125679503, 14.237128471964235], [79.07094264882618, 14.240216606300702], [79.06847112218446, 14.240196619939566], [79.06846233469898, 14.241229798593412], [79.06916555973571, 14.241579905028624], [79.07587112353063, 14.241978474269683], [79.07833102187793, 14.243375965817137], [79.07867536080123, 14.244411993228306], [79.07015452891709, 14.24985390567444], [79.06590864533891, 14.250852767270867], [79.06518484438436, 14.252913391793196], [79.06340467699434, 14.254621020760696], [79.06021503401561, 14.25597275659818], [79.05704305671755, 14.25525810419006], [79.0570696000666, 14.252158592598006], [79.05247646562997, 14.252465546662828], [79.05037567646833, 14.250381905476495], [79.04439101419361, 14.248266445414478], [79.04334067358037, 14.247224597810181], [79.04406760615772, 14.24481967385593], [79.04409133994376, 14.242064571442127], [79.04339112942498, 14.241370008104608], [79.04055170094307, 14.243068772277253], [79.03913940739498, 14.243057172613625], [79.03773901955564, 14.241668018523457], [79.03562059635712, 14.241650592617704], [79.03133597917146, 14.24712584672275], [79.03167412453395, 14.248850685288287], [79.03272739646025, 14.249548192984651], [79.03305958337103, 14.251961801642706], [79.03445999389493, 14.253350986571649], [79.03336788888421, 14.257130492143009], [79.02910682640467, 14.259850581021354], [79.02734134133263, 14.25983597870197], [79.02735332345512, 14.258458443183015], [79.02595593196169, 14.256724834937197], [79.02383738333995, 14.256707286360145], [79.02346628558966, 14.258770658449116], [79.02451656937511, 14.25981258783685], [79.02663215106207, 14.260174517825291], [79.02662316017856, 14.26120766888137], [79.02555486772741, 14.262232047507952], [79.01917199743444, 14.265278753189623], [79.0156409660544, 14.265249377472399], [79.01315113706512, 14.267295067645701], [79.01032629655118, 14.267271496653061], [79.00892597879968, 14.265882179376515], [79.00610419239543, 14.265514181358945], [79.00577835555417, 14.262411813739837], [79.01007292993985, 14.255904001798296], [79.01152451738122, 14.251438834365308], [79.01118954590765, 14.249369606108157], [79.00697681885303, 14.24657920623979], [78.99708780086893, 14.246840801034622], [78.99498763194369, 14.244756743335497], [78.9950150016889, 14.24165734541063], [78.99787592839478, 14.237548517083283], [79.00142164023131, 14.235856204180624], [79.00213683389126, 14.23482897584922], [79.01206150399166, 14.230434525069708], [79.01491295909705, 14.227358576681466], [79.01708228232802, 14.221521662624522], [79.02063062061421, 14.21948462745562], [79.02065759050254, 14.216385174452778], [79.01856041921545, 14.21395694435964], [79.0164542866189, 14.212561850093463], [79.01363012086742, 14.21253840655277], [79.012199989193, 14.214592964451], [79.01287294711524, 14.21838703644198], [79.01034148283206, 14.225254107999934], [79.00465658780571, 14.229339562740659], [78.99721535583686, 14.232376920598366], [78.99293924063419, 14.236818259375712], [78.99078436265336, 14.24093296332372], [78.99074169710617, 14.245754236356673], [78.99283269330817, 14.248871458212701], [78.99775444480922, 14.25132364136415], [79.00022295222692, 14.25168875388955], [79.00446898327444, 14.25069110154079], [79.00622226916711, 14.252083382638567], [79.00584497385087, 14.254835467260735], [79.00263689299732, 14.258252660675842], [78.99940744298709, 14.264080442761536], [78.99972711202525, 14.26787156332539], [79.00217151365445, 14.270991705315016], [79.01099018903422, 14.272098714773849], [79.01311792455519, 14.271083254463681], [79.01841761448581, 14.27078299046543], [79.02090143103715, 14.269426009085953], [79.02549487317405, 14.269119713746232], [79.03189573616162, 14.264006534567747], [79.03472355830193, 14.263685459456514], [79.04079180187995, 14.256158375227654], [79.04398746718431, 14.254118139529028], [79.04751245789475, 14.254835849688826], [79.05170816977181, 14.259691948773229], [79.05558934109945, 14.260068049181895], [79.05840237400095, 14.261468633408397], [79.06546157022014, 14.261870442682618], [79.06760663213244, 14.258788098383897], [79.07150249068218, 14.257441976214723], [79.07505397631083, 14.255059752839797], [79.08247781452125, 14.254086305784078], [79.08600590770956, 14.254459065888716], [79.08954561953465, 14.25345418811521], [79.097299395658, 14.255238278930035], [79.10081602603906, 14.256988420758658], [79.10466567877678, 14.261152122000338], [79.10890019271257, 14.261530175285664], [79.1127644126359, 14.26397176668371], [79.12194558700175, 14.264044288311622], [79.12652480893205, 14.265458032097147], [79.12579862324475, 14.267863304673783], [79.12295362003861, 14.270251888947827], [79.1200856952227, 14.27539564992884], [79.11901769480225, 14.276420491439538], [79.11476853282967, 14.277764588023764], [79.11191754910985, 14.28084181004702], [79.11190606169205, 14.282219411919542], [79.1143695039459, 14.283272207867862], [79.12073481943838, 14.282289269847814], [79.12393030514414, 14.280247921488598], [79.12714282316492, 14.276140101140326], [79.12684947381398, 14.268904846328931], [79.12969442316977, 14.266516208163715], [79.13041772272837, 14.264455322508812], [79.13219186302035, 14.263435951150942], [79.149848167968, 14.263573658593302], [79.15513108291206, 14.265336763507335], [79.16430695652916, 14.266096482751687], [79.17416146603402, 14.270305398608045], [79.17591332130269, 14.27204099025223], [79.18121881827602, 14.271048249267347], [79.18861562388331, 14.273515660128432], [79.19281772343004, 14.278025261920748], [79.19562927765138, 14.279768770293495], [79.19630816733932, 14.283218290935963], [79.1980603003191, 14.284953749656815], [79.20756320928139, 14.289158772704504], [79.21071731450104, 14.292282468357573], [79.21458876067246, 14.294033754589595], [79.21562930765266, 14.29645264567474], [79.22305177084698, 14.29581932910877], [79.22726579146217, 14.29895075398365], [79.22900750628942, 14.302063714273581], [79.23112942325065, 14.301735066571656], [79.23253415994358, 14.302778842060338], [79.23357762890049, 14.304853256467588], [79.23285505523481, 14.306914545064044], [79.23352378598369, 14.311741719681546], [79.23278231987747, 14.316213964166343], [79.23346991440295, 14.318630178711505], [79.23452152713105, 14.319671326785162], [79.23378542506676, 14.323454725317193], [79.23483436582215, 14.324840297263677], [79.23479395627571, 14.330006639909595], [79.23548967874243, 14.33138958473467], [79.2372666961854, 14.33002501735684], [79.23730973882532, 14.324514244424828], [79.23803503721845, 14.322108523377842], [79.23630920781683, 14.31692906185783], [79.23564579386797, 14.31141304158855], [79.2339093082559, 14.30761126700384], [79.23392814675522, 14.305200304015814], [79.23604740417817, 14.305216038737479], [79.23780539852406, 14.306262408674096], [79.23990052909092, 14.309377929208628], [79.24232749807514, 14.315251447257705], [79.2415861831719, 14.319723736634023], [79.24190723243521, 14.323859443554904], [79.23974750018091, 14.329010097974887], [79.23796512464429, 14.33106353335031], [79.23759034851797, 14.333816296164212], [79.23546543239566, 14.334489389997698], [79.23475083499521, 14.3355174028016], [79.2336020156147, 14.346875449200878], [79.23143911479804, 14.352370393012741], [79.22822435198714, 14.356824116730412], [79.22748523815682, 14.360951878895818], [79.22536003694056, 14.361624847822613], [79.22325113488579, 14.360231277978441], [79.22362888336691, 14.357134148933367], [79.22612632096649, 14.354052893281894], [79.22543603248198, 14.35198108131096], [79.22262609060678, 14.349893384624291], [79.21732966695104, 14.34950917332607], [79.21416110929978, 14.348107568300888], [79.21346548612739, 14.346724571869212], [79.21560965104749, 14.343640765580153], [79.21562873465858, 14.341229833897337], [79.21387333868266, 14.339838864499075], [79.21140052270303, 14.339820230941392], [79.20855255760415, 14.342554244051215], [79.20642476032874, 14.343571474684701], [79.20463374911967, 14.346657858726502], [79.20214713187241, 14.348361200760825], [79.20174987534315, 14.353869176452163], [79.20067628024053, 14.355583210107804], [79.20030097838489, 14.358335851181717], [79.19887405909444, 14.360047188023591], [79.19849872139818, 14.362799821818566], [79.19635688670337, 14.365539005501358], [79.19351392759567, 14.367583945130326], [79.19279073126647, 14.369645035438328], [79.18958329552632, 14.373064871866035], [79.18992274362516, 14.374789639094146], [79.19133598353774, 14.374800443600732], [79.19382021978012, 14.37344167616609], [79.19664945133277, 14.373118813918657], [79.20196560557494, 14.371092639991046], [79.20728716476862, 14.368377502180357], [79.20870037795555, 14.36838819836313], [79.21080650540499, 14.370126312477916], [79.21077363116407, 14.374259316934586], [79.20898237989633, 14.377345704864956], [79.20859613089885, 14.381476027404634], [79.2060953761016, 14.384901444128268], [79.2057200466949, 14.387654089355667], [79.20358077219676, 14.390048900517257], [79.20141938595927, 14.39519900365392], [79.19500659393601, 14.401694373135854], [79.19356546074731, 14.405127699464899], [79.19178201789722, 14.407180655986567], [79.19140922170533, 14.409588836524229], [79.19352941210747, 14.409605065129469]], [[79.22809419826768, 14.373356301168021], [79.22669180002605, 14.371968037074401], [79.22565087827594, 14.369549155193967], [79.22567803719605, 14.366104955566719], [79.22924629779445, 14.361653932122692], [79.22963480113499, 14.357179100690653], [79.23142018490476, 14.354781343192371], [79.23495035407, 14.355152105529005], [79.23740989194238, 14.356892625369861], [79.23917365437121, 14.3572501821283], [79.24553291883082, 14.357297356660808], [79.24943788813202, 14.354915128550614], [79.25191359388191, 14.35458895923231], [79.25118561772686, 14.357339146461863], [79.24622609251634, 14.359024708120367], [79.238391604356, 14.366888760336854], [79.23730740069254, 14.369980671761068], [79.23588335226763, 14.371347832295756], [79.23234751624935, 14.371665897339621], [79.22915414354388, 14.373364233665452], [79.22809419826768, 14.373356301168021]], [[79.23989638931664, 14.355188894443017], [79.23885268172779, 14.353114482869152], [79.2406460068132, 14.34968337039228], [79.24319145672204, 14.340402266631548], [79.24462061014252, 14.338346182712137], [79.245011394815, 14.33352685367158], [79.24786686712467, 14.329759061210538], [79.24963312006265, 14.32977209311046], [79.25067952078363, 14.331502034421616], [79.25239241857774, 14.338403564732682], [79.25834471389243, 14.345336266896416], [79.25797013829363, 14.348089084362678], [79.25583179053345, 14.35048448221381], [79.25299216344355, 14.352185796889056], [79.24839408855436, 14.352840749122116], [79.24519572833522, 14.355228196714581], [79.23989638931664, 14.355188894443017]], [[79.25723693566444, 14.351528154998018], [79.26009248510934, 14.347760223392974], [79.26150295211974, 14.348115017106537], [79.26078309628532, 14.349831969885285], [79.25900602964916, 14.351196709818959], [79.25723693566444, 14.351528154998018]], [[79.23753651450554, 14.340704757568803], [79.23967493180884, 14.338309534469579], [79.24073471884574, 14.338317396334114], [79.24000668665329, 14.341067543265888], [79.2382268964981, 14.342776544953407], [79.23716708994202, 14.342768669494458], [79.23753651450554, 14.340704757568803]], [[79.24185088521187, 14.331092350820605], [79.24292136836031, 14.329722502050487], [79.24434240594766, 14.328699684343121], [79.24254397280473, 14.33281970428558], [79.24147884072431, 14.333500701280638], [79.24185088521187, 14.331092350820605]], [[79.24473315508614, 14.323880350809278], [79.2461809000117, 14.31941326530115], [79.24795775936275, 14.318048598399384], [79.2493439854072, 14.321503273729636], [79.24685260006596, 14.323896009204757], [79.24576878559523, 14.326988006810115], [79.24434508559341, 14.328355259760887], [79.24473315508614, 14.323880350809278]], [[79.2469034106305, 14.317351928878725], [79.24479741007377, 14.31561415286349], [79.2441177263765, 14.312164682724147], [79.24237840769241, 14.308707378115034], [79.23677262878338, 14.302810312270287], [79.23466146091405, 14.301761315975643], [79.23221326729842, 14.29864313860708], [79.22903987522109, 14.29793064361092], [79.22411946091624, 14.294793976900651], [79.21777017076185, 14.293713169295554], [79.21039953944684, 14.287802360535533], [79.20582461652694, 14.285701279332667], [79.20302930240385, 14.281891365490539], [79.1949394236216, 14.277696916343809], [79.1893329359001, 14.272143366745548], [79.18441093064865, 14.26935041731562], [79.18088226048135, 14.268979067225409], [79.18089055349533, 14.267945824197145], [79.1854813921116, 14.26798082698436], [79.18584831676374, 14.26626143918909], [79.18444955171556, 14.264528606383307], [79.18092371891488, 14.263812851142767], [79.17846561359828, 14.262071902416483], [79.17847944629266, 14.26034983197714], [79.18062308480496, 14.25726627997982], [79.18168797955165, 14.256585530998223], [79.18345083950848, 14.256943402840285], [79.18555030064563, 14.259370442767047], [79.18623452066743, 14.262131141334352], [79.18868168943456, 14.265249680837373], [79.19430721892292, 14.268392308675821], [79.1985038847671, 14.273590649139061], [79.20026691571722, 14.273948414785359], [79.20341525832399, 14.27776101115373], [79.20799545241931, 14.279173280263908], [79.21395849592005, 14.284384691223023], [79.21395306126686, 14.285073531556732], [79.21747124481729, 14.28682210980445], [79.22418163047512, 14.286872273028171], [79.22627911092785, 14.289643453847143], [79.22874061416684, 14.291039560239906], [79.23049038466813, 14.293119237968579], [79.23753004502677, 14.29627149111448], [79.2399675738446, 14.300767318153724], [79.24242125898562, 14.303196580120588], [79.24765796568524, 14.311157480785683], [79.24761254486255, 14.31701271614826], [79.2469034106305, 14.317351928878725]], [[79.00429623392144, 14.270320706262519], [79.00218669450226, 14.269269813873107], [79.00114560056204, 14.267194660002236], [79.00116685819478, 14.264784012658549], [79.0029535885844, 14.262388163297322], [79.00397952232115, 14.266185203367554], [79.00572988131536, 14.267921880696397], [79.01207369691889, 14.269352514987197], [79.01135841388506, 14.270379762036502], [79.00429623392144, 14.270320706262519]], [[79.01526072348449, 14.268345867263909], [79.01667918139437, 14.267668865776669], [79.01879782320114, 14.267686491172656], [79.01878879168218, 14.268719636673184], [79.01737033136115, 14.269396650637415], [79.01595789374001, 14.269384892626649], [79.01526072348449, 14.268345867263909]], [[79.02305013427053, 14.26599977173615], [79.03157850885975, 14.259871002336185], [79.03405915142038, 14.258858242260196], [79.03940323706766, 14.253391674507283], [79.04156338559173, 14.248587662035789], [79.04930753463341, 14.251406411748434], [79.05175254093737, 14.254526113998427], [79.05316196111242, 14.254882037474793], [79.05631620817516, 14.257663079001372], [79.06373131658256, 14.257723411127456], [79.06194815399144, 14.259775413436868], [79.05348550290525, 14.258328813407415], [79.04823049572342, 14.253464077076915], [79.0468240603338, 14.252763738410213], [79.0436462539942, 14.252737693586116], [79.04045953107655, 14.253744766802837], [79.03902335591546, 14.256488249472197], [79.03403825251252, 14.261268938986186], [79.03084838822541, 14.262620246688403], [79.0287088170075, 14.265013422700736], [79.02445355227971, 14.267044634194091], [79.022688016179, 14.267029990205168], [79.02305013427053, 14.26599977173615]], [[79.17348571109305, 14.266511442820075], [79.1678438753907, 14.265434834243777], [79.16432926648223, 14.263341192718027], [79.1579673331051, 14.263980975444854], [79.1519809726089, 14.261868051154641], [79.14668972448534, 14.261138112434137], [79.12691492361321, 14.260983556199896], [79.12445163540728, 14.2599309107898], [79.12375964704384, 14.25820333638985], [79.12730501161664, 14.256509076194666], [79.13260170676296, 14.256550614400027], [79.13435877763492, 14.257597651223705], [79.13824305339098, 14.25762801146985], [79.14214708335284, 14.255247458350505], [79.14462169619574, 14.254922294311738], [79.14603133612556, 14.255277686892017], [79.14707380021522, 14.257352368915758], [79.14918126658279, 14.258746457671023], [79.15412495856981, 14.258784782824689], [79.15728906214183, 14.26053141654612], [79.16682067290668, 14.260949334416082], [79.16821927151179, 14.262682252553073], [79.17279331708193, 14.264783964202957], [79.17348571109305, 14.266511442820075]], [[79.00439627872991, 14.258956202447122], [79.00796952966256, 14.254164413446892], [79.00728755888255, 14.251403474904011], [79.00448109617038, 14.249313584132029], [79.00165042963634, 14.249978697116527], [78.99917889992017, 14.249957979699314], [78.9984788237753, 14.24926329954561], [79.00237476885717, 14.247918338055545], [79.0059085275593, 14.247603495401592], [79.00942416157348, 14.249354881744868], [79.01012427589647, 14.250049534155153], [79.01010917656343, 14.251771436719649], [79.00867872022191, 14.253825930886553], [79.008304472234, 14.256233642550816], [79.00402803293322, 14.260675141509012], [79.00439627872991, 14.258956202447122]], [[79.11142076335067, 14.255694954424564], [79.11212697938531, 14.255700546354968], [79.11247435620521, 14.256392144167826], [79.11176527103476, 14.256730954159606], [79.11142076335067, 14.255694954424564]], [[79.10507058631707, 14.254955733351647], [79.102619010782, 14.2525252844741], [79.10298074970257, 14.251494894516838], [79.1047462490502, 14.251508928846405], [79.1072035869601, 14.253250556834399], [79.10683611472811, 14.254969755548387], [79.10507058631707, 14.254955733351647]], [[79.08391347957584, 14.251342492277438], [79.08287164967535, 14.249267607659727], [79.08358946563295, 14.247895698689195], [79.08535491699196, 14.24790987298993], [79.0906338989154, 14.25001870047607], [79.09027210957483, 14.25104906513292], [79.08709134226838, 14.251367998345524], [79.08391347957584, 14.251342492277438]], [[79.03662024060361, 14.248547032255251], [79.0390947865122, 14.248222973300864], [79.0390799089121, 14.249944906336829], [79.03695544877823, 14.250616254692561], [79.03662024060361, 14.248547032255251]], [[78.99531028518119, 14.248203484889412], [78.99249789656427, 14.246802226035697], [78.99180699138658, 14.245074399643638], [78.99219660145478, 14.24094484729211], [78.99363318050055, 14.23820170404304], [78.99862451382761, 14.232733138189548], [79.00429144703368, 14.230714132865277], [79.01104153608044, 14.225948749725665], [79.01392902844178, 14.218740220810014], [79.01326206643897, 14.214257385035822], [79.0143301516362, 14.213233035542341], [79.01644528081957, 14.213594998880744], [79.01924248119025, 14.2167178619947], [79.01922748764765, 14.218439778907957], [79.0167472660527, 14.219452436464357], [79.01564910592471, 14.223920618907568], [79.01385382845504, 14.2273497734766], [79.01100537482326, 14.230081326069985], [79.00214894687198, 14.233451458581195], [78.99539846107847, 14.238216533856024], [78.99360275600908, 14.241645477530701], [78.99357841056354, 14.244400495561015], [78.99531028518119, 14.248203484889412]], [[79.0341635874065, 14.246804750884936], [79.03451070137095, 14.24749643111991], [79.03380156001244, 14.24783499824767], [79.03380752638343, 14.24714622713176], [79.0341635874065, 14.246804750884936]], [[79.03982176698648, 14.245818068651142], [79.03558484072892, 14.245783225093545], [79.0356027199756, 14.24371690904514], [79.03737404224744, 14.243042661298785], [79.03912156118695, 14.245123493172775], [79.04230816135492, 14.244116422417969], [79.04158121410192, 14.246521339043847], [79.03982176698648, 14.245818068651142]], [[79.16623133335624, 14.24647860136302], [79.16729064763133, 14.246486739928462], [79.16763541224454, 14.247522688962592], [79.16657609293155, 14.247514551348445], [79.16623133335624, 14.24647860136302]], [[79.07870158792157, 14.241312439113432], [79.07839221500697, 14.236143672400157], [79.07981614194777, 14.234777453097745], [79.08371152324426, 14.233431067944856], [79.0844118516206, 14.234125525883544], [79.08439733270177, 14.235847507313405], [79.08153203987371, 14.240646368246807], [79.07870158792157, 14.241312439113432]]]]}}, {"type": "Feature", "properties": {"depth_class": 3, "depth_lo_m": 2.0, "t_s": 25200.189235932557}, "geometry": {"type": "MultiPolygon", "coordinates": [[[[78.99531028518119, 14.248203484889412], [78.99357841056354, 14.244400495561015], [78.99360275600908, 14.241645477530701], [78.99539846107847, 14.238216533856024], [79.00214894687198, 14.233451458581195], [79.01100537482326, 14.230081326069985], [79.01385382845504, 14.2273497734766], [79.01564910592471, 14.223920618907568], [79.0167472660527, 14.219452436464357], [79.01922748764765, 14.218439778907957], [79.01924248119025, 14.2167178619947], [79.01644528081957, 14.213594998880744], [79.0143301516362, 14.213233035542341], [79.01326206643897, 14.214257385035822], [79.01392902844178, 14.218740220810014], [79.01104153608044, 14.225948749725665], [79.00429144703368, 14.230714132865277], [78.99862451382761, 14.232733138189548], [78.99363318050055, 14.23820170404304], [78.99219660145478, 14.24094484729211], [78.99180699138658, 14.245074399643638], [78.99319794541226, 14.247496920493976], [78.99531028518119, 14.248203484889412]], [[79.00747490830277, 14.230051900588844], [79.01102647029975, 14.227670656720127], [79.01245671009063, 14.22561612004942], [79.01354892739378, 14.221836726267629], [79.01497309107661, 14.220470930639348], [79.01494904214381, 14.223225989561525], [79.0127977091038, 14.226996583824842], [79.00995226490693, 14.229383741722236], [79.00747490830277, 14.230051900588844]], [[79.01430610767282, 14.21598809505003], [79.01432113575302, 14.214266182936639], [79.01608625288439, 14.21428083569582], [79.0164242644765, 14.21600567901618], [79.01571220436057, 14.216688585139034], [79.01430610767282, 14.21598809505003]]], [[[79.0804669830344, 14.241326643147532], [79.08153203987371, 14.240646368246807], [79.08403554733593, 14.236877862946088], [79.0844118516206, 14.234125525883544], [79.08371152324426, 14.233431067944856], [79.07981614194777, 14.234777453097745], [79.07803331680725, 14.236829620486064], [79.07835142340241, 14.240965201859341], [79.0804669830344, 14.241326643147532]], [[79.07942813276097, 14.238907356390781], [79.08051064079866, 14.23616071237002], [79.0819229262152, 14.236172061922813], [79.0811964193886, 14.23857715717962], [79.08013137226935, 14.239257431785127], [79.07942813276097, 14.238907356390781]]], [[[79.04158121410192, 14.246521339043847], [79.04230816135492, 14.244116422417969], [79.03912156118695, 14.245123493172775], [79.03737404224744, 14.243042661298785], [79.0356027199756, 14.24371690904514], [79.03558484072892, 14.245783225093545], [79.03982176698648, 14.245818068651142], [79.04158121410192, 14.246521339043847]]], [[[79.0345166654432, 14.246807659690159], [79.03380752638343, 14.24714622713176], [79.03380156001244, 14.24783499824767], [79.03451070137095, 14.24749643111991], [79.0345166654432, 14.246807659690159]]], [[[79.09027500783266, 14.25070466811916], [79.0902837021419, 14.249671477014878], [79.08535491699196, 14.24790987298993], [79.08358946563295, 14.247895698689195], [79.08287746780944, 14.248578816508996], [79.08391347957584, 14.251342492277438], [79.09027500783266, 14.25070466811916]]], [[[79.1072035869601, 14.253250556834399], [79.1047462490502, 14.251508928846405], [79.10262477037996, 14.251836485558544], [79.10507058631707, 14.254955733351647], [79.10683611472811, 14.254969755548387], [79.1072035869601, 14.253250556834399]]], [[[79.00402803293322, 14.260675141509012], [79.008304472234, 14.256233642550816], [79.00867872022191, 14.253825930886553], [79.01010917656343, 14.251771436719649], [79.01012427589647, 14.250049534155153], [79.0059085275593, 14.247603495401592], [78.99883493455407, 14.2489218834484], [78.99847578657923, 14.249607677648678], [78.99917889992017, 14.249957979699314], [79.00448109617038, 14.249313584132029], [79.00728755888255, 14.251403474904011], [79.00796952966256, 14.254164413446892], [79.00475542870838, 14.258270399423113], [79.00402803293322, 14.260675141509012]]], [[[79.02622508817502, 14.2663704982668], [79.0287088170075, 14.265013422700736], [79.03084838822541, 14.262620246688403], [79.03403825251252, 14.261268938986186], [79.03902335591546, 14.256488249472197], [79.04045953107655, 14.253744766802837], [79.0436462539942, 14.252737693586116], [79.0468240603338, 14.252763738410213], [79.04823049572342, 14.253464077076915], [79.05348550290525, 14.258328813407415], [79.06194815399144, 14.259775413436868], [79.06373131658256, 14.257723411127456], [79.05631620817516, 14.257663079001372], [79.05316196111242, 14.254882037474793], [79.05175254093737, 14.254526113998427], [79.04930753463341, 14.251406411748434], [79.04156338559173, 14.248587662035789], [79.04011834030207, 14.252364318587155], [79.03833205839155, 14.254760509509982], [79.03405915142038, 14.258858242260196], [79.03264377769777, 14.259190976556297], [79.02376235022828, 14.265316863524282], [79.022688016179, 14.267029990205168], [79.02622508817502, 14.2663704982668]]], [[[79.01135841388506, 14.270379762036502], [79.01207369691889, 14.269352514987197], [79.00643306174864, 14.26827216970359], [79.00397952232115, 14.266185203367554], [79.0033066841725, 14.262391121430557], [79.00188519729166, 14.263412421071596], [79.00114560056204, 14.267194660002236], [79.00253676516827, 14.269617152922365], [79.00429623392144, 14.270320706262519], [79.01135841388506, 14.270379762036502]]], [[[79.01737033136115, 14.269396650637415], [79.01878879168218, 14.268719636673184], [79.01879782320114, 14.267686491172656], [79.01667918139437, 14.267668865776669], [79.01526072348449, 14.268345867263909], [79.01525469151652, 14.269034629422526], [79.01737033136115, 14.269396650637415]]], [[[79.16729064763133, 14.246486739928462], [79.16623133335624, 14.24647860136302], [79.16622576895469, 14.247167425642541], [79.16763541224454, 14.247522688962592], [79.16729064763133, 14.246486739928462]]], [[[79.11176527103476, 14.256730954159606], [79.11212697938531, 14.255700546354968], [79.11142076335067, 14.255694954424564], [79.11176527103476, 14.256730954159606]]], [[[79.17279054115868, 14.26512837708877], [79.16576407715463, 14.260596774033882], [79.15728906214183, 14.26053141654612], [79.15412495856981, 14.258784782824689], [79.14812471799968, 14.258393823540368], [79.14603133612556, 14.255277686892017], [79.14462169619574, 14.254922294311738], [79.14214708335284, 14.255247458350505], [79.13824305339098, 14.25762801146985], [79.13435877763492, 14.257597651223705], [79.13260170676296, 14.256550614400027], [79.12730501161664, 14.256509076194666], [79.12375964704384, 14.25820333638985], [79.12445163540728, 14.2599309107898], [79.12691492361321, 14.260983556199896], [79.14668972448534, 14.261138112434137], [79.1519809726089, 14.261868051154641], [79.1579673331051, 14.263980975444854], [79.16432926648223, 14.263341192718027], [79.1678438753907, 14.265434834243777], [79.17136688887797, 14.266495193670552], [79.17348571109305, 14.266511442820075], [79.17279054115868, 14.26512837708877]]], [[[79.24761254486255, 14.31701271614826], [79.2469622118389, 14.309774567995996], [79.2399675738446, 14.300767318153724], [79.23753004502677, 14.29627149111448], [79.23049038466813, 14.293119237968579], [79.22874061416684, 14.291039560239906], [79.22627911092785, 14.289643453847143], [79.22418163047512, 14.286872273028171], [79.2164144265904, 14.286469751447008], [79.21395306126686, 14.285073531556732], [79.21395849592005, 14.284384691223023], [79.20799545241931, 14.279173280263908], [79.20341525832399, 14.27776101115373], [79.20026691571722, 14.273948414785359], [79.1985038847671, 14.273590649139061], [79.19605100884885, 14.271161020420227], [79.19430721892292, 14.268392308675821], [79.18798091870786, 14.26455548042112], [79.18588689855727, 14.261439623154622], [79.18555030064563, 14.259370442767047], [79.18345083950848, 14.256943402840285], [79.18168797955165, 14.256585530998223], [79.17919676428346, 14.258977570022124], [79.17846561359828, 14.262071902416483], [79.18092371891488, 14.263812851142767], [79.18444955171556, 14.264528606383307], [79.18584831676374, 14.26626143918909], [79.1854813921116, 14.26798082698436], [79.18089055349533, 14.267945824197145], [79.18088226048135, 14.268979067225409], [79.18441093064865, 14.26935041731562], [79.1893329359001, 14.272143366745548], [79.1949394236216, 14.277696916343809], [79.20302930240385, 14.281891365490539], [79.20582461652694, 14.285701279332667], [79.21039953944684, 14.287802360535533], [79.21777017076185, 14.293713169295554], [79.22411946091624, 14.294793976900651], [79.22903987522109, 14.29793064361092], [79.23221326729842, 14.29864313860708], [79.23466146091405, 14.301761315975643], [79.23677262878338, 14.302810312270287], [79.24237840769241, 14.308707378115034], [79.24514528587117, 14.31630561252894], [79.2469034106305, 14.317351928878725], [79.24761254486255, 14.31701271614826]], [[79.22238056745987, 14.29133657167617], [79.22344553254011, 14.290655641804392], [79.22485556971901, 14.291010607541837], [79.2262521118198, 14.293087676731504], [79.2230734139798, 14.293063956314636], [79.22236974361562, 14.29271425783638], [79.22238056745987, 14.29133657167617]], [[79.19217187032638, 14.270442741386429], [79.1932313118276, 14.270450778027909], [79.19427428641791, 14.272525310876325], [79.19251128122691, 14.272167503227276], [79.19217187032638, 14.270442741386429]]], [[[79.24434508559341, 14.328355259760887], [79.24576878559523, 14.326988006810115], [79.24685260006596, 14.323896009204757], [79.2493439854072, 14.321503273729636], [79.24795775936275, 14.318048598399384], [79.2461809000117, 14.31941326530115], [79.24509710559829, 14.322505262353332], [79.24434508559341, 14.328355259760887]]], [[[79.24147884072431, 14.333500701280638], [79.24433704644245, 14.329388533476198], [79.24434240594766, 14.328699684343121], [79.24149226477388, 14.33177858161565], [79.24147884072431, 14.333500701280638]]], [[[79.2382268964981, 14.342776544953407], [79.24000668665329, 14.341067543265888], [79.24073471884574, 14.338317396334114], [79.23967493180884, 14.338309534469579], [79.23753651450554, 14.340704757568803], [79.23716708994202, 14.342768669494458], [79.2382268964981, 14.342776544953407]]], [[[79.25723693566444, 14.351528154998018], [79.26078309628532, 14.349831969885285], [79.26115232816908, 14.347767999078012], [79.25973654432369, 14.348102057307472], [79.25723693566444, 14.351528154998018]]], [[[79.22809419826768, 14.373356301168021], [79.23234751624935, 14.371665897339621], [79.23588335226763, 14.371347832295756], [79.23730740069254, 14.369980671761068], [79.238391604356, 14.366888760336854], [79.24622609251634, 14.359024708120367], [79.25118561772686, 14.357339146461863], [79.25191359388191, 14.35458895923231], [79.24943788813202, 14.354915128550614], [79.24553291883082, 14.357297356660808], [79.23917365437121, 14.3572501821283], [79.23740989194238, 14.356892625369861], [79.23495035407, 14.355152105529005], [79.23142018490476, 14.354781343192371], [79.22963480113499, 14.357179100690653], [79.22924629779445, 14.361653932122692], [79.22567803719605, 14.366104955566719], [79.22565087827594, 14.369549155193967], [79.22669180002605, 14.371968037074401], [79.22809419826768, 14.373356301168021]]]]}}, {"type": "Feature", "properties": {"depth_class": 4, "depth_lo_m": 3.0, "t_s": 25200.189235932557}, "geometry": {"type": "MultiPolygon", "coordinates": [[[[79.01500614995845, 14.21668272352145], [79.0164242644765, 14.21600567901618], [79.01643327196261, 14.214972530449831], [79.01503018667233, 14.213927662999582], [79.01395909436057, 14.215296397901293], [79.01500614995845, 14.21668272352145]]], [[[79.00747490830277, 14.230051900588844], [79.01101742986464, 14.228703800790413], [79.01351282258082, 14.225969310344441], [79.01494904214381, 14.223225989561525], [79.01497309107661, 14.220470930639348], [79.01354892739378, 14.221836726267629], [79.01245671009063, 14.22561612004942], [79.01102647029975, 14.227670656720127], [79.00747490830277, 14.230051900588844]]], [[[79.07942813276097, 14.238907356390781], [79.0811964193886, 14.23857715717962], [79.0819229262152, 14.236172061922813], [79.07980158751471, 14.236499429781176], [79.07942813276097, 14.238907356390781]]], [[[79.19427428641791, 14.272525310876325], [79.1932313118276, 14.270450778027909], [79.19217187032638, 14.270442741386429], [79.19286168415184, 14.272514598967744], [79.19427428641791, 14.272525310876325]]], [[[79.2262521118198, 14.293087676731504], [79.22485556971901, 14.291010607541837], [79.22344553254011, 14.290655641804392], [79.22238056745987, 14.29133657167617], [79.22236974361562, 14.29271425783638], [79.2230734139798, 14.293063956314636], [79.2262521118198, 14.293087676731504]]]]}}]}