{"type": "FeatureCollection", "features": [{"type": "Feature", "properties": {"depth_class": 1, "depth_lo_m": 0.3, "t_s": 37800.535441747}, "geometry": {"type": "MultiPolygon", "coordinates": [[[[79.00604157218194, 14.232450777375172], [79.01278265546523, 14.228718492511682], [79.01672924729412, 14.221518733124588], [79.01990356688542, 14.221889463281796], [79.02096866992005, 14.221209469120577], [79.02168672354301, 14.21983777971867], [79.02137562667045, 14.215013483734918], [79.01751935036573, 14.211881866481264], [79.0139921575822, 14.211508191486345], [79.01186201109948, 14.212868119406187], [79.01175966443833, 14.224577100415193], [79.00961731313096, 14.22731451377268], [79.00536267703627, 14.229345460044636], [79.00251410683971, 14.232076894298972], [79.00250805222703, 14.232765653187153], [79.00604157218194, 14.232450777375172]], [[79.0192094927494, 14.220506078856653], [79.01676828428329, 14.217041756548586], [79.01324101536012, 14.216668060368143], [79.01254398765876, 14.215629045399083], [79.01327409385694, 14.212879856043], [79.01610126561869, 14.2125589214722], [79.02030755945819, 14.21603786761961], [79.02027459039152, 14.219826087145787], [79.0192094927494, 14.220506078856653]]], [[[79.11892739814174, 14.244732677313422], [79.12036827828598, 14.241299773694987], [79.12038538053808, 14.239233353651114], [79.11899586030789, 14.236467004110674], [79.11688309375461, 14.235761499593597], [79.11545935402852, 14.237127966968828], [79.11400699720363, 14.241938444375828], [79.11680598822896, 14.245060370735448], [79.11892739814174, 14.244732677313422]]], [[[79.08311415852556, 14.262357471483723], [79.08383784518612, 14.260296777340203], [79.08279307445079, 14.258566284081496], [79.08067443677503, 14.258549238154322], [79.07818810437425, 14.260251299107352], [79.0781793482486, 14.261284481958343], [79.07993323293105, 14.262676287759614], [79.08311415852556, 14.262357471483723]]], [[[79.09362066821015, 14.272774343386336], [79.09396510694765, 14.273810360604513], [79.09502450498432, 14.273818835750749], [79.09503319233909, 14.272785643775364], [79.09362066821015, 14.272774343386336]]], [[[79.28408459066439, 14.30556763087238], [79.28586897036382, 14.303169342074884], [79.28590552396558, 14.29834728015339], [79.28768199770043, 14.296982268114936], [79.28593945439462, 14.293869649397106], [79.28599424027114, 14.28663654984047], [79.28214312888217, 14.282130913915438], [79.27826598297118, 14.281069553532452], [79.27123131635913, 14.277229629424273], [79.2691149129762, 14.276869807143289], [79.26701432763876, 14.274443385061513], [79.2620726297713, 14.274062931843703], [79.26031473406924, 14.273016754330294], [79.2599721497524, 14.27163645856773], [79.25716539847231, 14.269204806169213], [79.25683608028112, 14.266102364957488], [79.25579252181873, 14.2640280422006], [79.25687579988343, 14.260935933395643], [79.2569102106796, 14.256458357480172], [79.25409836430168, 14.254715548240464], [79.25234861029554, 14.252636046813922], [79.25022185799801, 14.253653796956733], [79.24984481305512, 14.256751055511932], [79.25265664408732, 14.258493913802539], [79.25228492491617, 14.260902321906292], [79.25085640983266, 14.262958528417832], [79.25083780926614, 14.265369521929108], [79.25293813170855, 14.26779605924938], [79.25291423606801, 14.270895910158476], [79.25044478075598, 14.270533341806066], [79.24764082028776, 14.267757163164616], [79.24304449032186, 14.268412210260506], [79.24126803176597, 14.269776887047046], [79.24125466653963, 14.271499015461007], [79.24441708135451, 14.27358901567632], [79.24508871876641, 14.27807176144759], [79.24789542179428, 14.280503552259525], [79.24788476168925, 14.281881258686905], [79.24397311990592, 14.285296894579197], [79.24114768055448, 14.285276033384404], [79.2383356467213, 14.283533014986226], [79.23409484882642, 14.283846038052713], [79.2319865521654, 14.282452614566429], [79.22951433955029, 14.282434241972473], [79.2263573676683, 14.279655201574345], [79.22494199643253, 14.27998909708719], [79.22492849711693, 14.281711208800852], [79.22702594735252, 14.284482379702208], [79.22914230860857, 14.284842576583891], [79.23230476367397, 14.286932744102023], [79.24041186847107, 14.28905948841181], [79.24465009835058, 14.289090788844113], [79.24890166284172, 14.28739988094032], [79.25104206016117, 14.28466004685159], [79.25423396749602, 14.282961241761514], [79.25318240397462, 14.281920186999516], [79.2531930318881, 14.280542476662738], [79.25568117260258, 14.27849403254607], [79.25921024695494, 14.278864304987936], [79.26024595180336, 14.281971908262244], [79.26130019671507, 14.282668506489252], [79.2694338708832, 14.281349971861037], [79.27576749502148, 14.28449597986577], [79.27859035780214, 14.284860861281302], [79.2814027737266, 14.286603440657967], [79.28315043238959, 14.2890272155471], [79.2827789432507, 14.291435696352083], [79.28415777310096, 14.295923515972698], [79.28413686940105, 14.298678978206583], [79.28269264572258, 14.302801969798846], [79.28267171368658, 14.305557428318608], [79.28408459066439, 14.30556763087238]], [[79.24827257155643, 14.277406310223386], [79.24794071456033, 14.274648298081386], [79.25040754680198, 14.275355324195994], [79.25003841602967, 14.277419292554914], [79.24827257155643, 14.277406310223386]], [[79.26029093021928, 14.27611661610403], [79.25782669561445, 14.275065259385757], [79.25748677423276, 14.273340533040523], [79.25924730312326, 14.27404230130891], [79.26029886547072, 14.2750833289399], [79.26029093021928, 14.27611661610403]]], [[[79.10238548855958, 14.280421605255716], [79.10451300586506, 14.279405286500827], [79.10417427745654, 14.277680479924284], [79.10240857494219, 14.277666416147708], [79.10168497371454, 14.279727178022263], [79.10238548855958, 14.280421605255716]]], [[[79.27607870734151, 14.290009443587417], [79.275034878355, 14.287935176778383], [79.27397530815362, 14.287927494593411], [79.27396742788262, 14.288960788151858], [79.2750191268468, 14.290001764958285], [79.27607870734151, 14.290009443587417]]], [[[79.18452103038055, 14.299661592862634], [79.18736036486241, 14.297961073685252], [79.18702650090111, 14.295547478649668], [79.18490462732784, 14.295875732075954], [79.1834780563013, 14.297587017525705], [79.18346975714817, 14.298620259477635], [79.18452103038055, 14.299661592862634]]], [[[79.18687620652646, 14.445719467484592], [79.1900681414926, 14.444366280163289], [79.1907972554721, 14.441616419168147], [79.18307804420894, 14.434668404975323], [79.18203740776593, 14.4322493638137], [79.1802732134294, 14.431891324952646], [79.17922141979732, 14.430849913278918], [79.18137534897858, 14.42673335739248], [79.18708253419435, 14.420233072502272], [79.191676490374, 14.420268320024492], [79.19238880852285, 14.419584910479994], [79.19241935333186, 14.41579637600594], [79.2002571806601, 14.40793426039848], [79.2023801253011, 14.407605993365134], [79.20448652782824, 14.409344195292542], [79.2069600987128, 14.40936298956789], [79.2083873215859, 14.407651639898946], [79.20839832203009, 14.406273977600101], [79.20664527069887, 14.404538492885205], [79.20630842666267, 14.402469318304766], [79.21058165620387, 14.398368479408418], [79.21237857302863, 14.394593268054164], [79.21664606903484, 14.391181121831993], [79.21773341506832, 14.387744936830806], [79.22163919139763, 14.385363267522402], [79.22378368585565, 14.382279426281071], [79.23193463264809, 14.379240518998927], [79.2337310182204, 14.375465080718804], [79.23904699727896, 14.37343804169246], [79.2404818192009, 14.370693171170162], [79.24582180192087, 14.365566146277338], [79.24868309103499, 14.361109549489473], [79.25186813998575, 14.360444186583242], [79.25578645200648, 14.356339723867253], [79.2671528202622, 14.348500828332796], [79.26859770772793, 14.344378011012473], [79.2703773087423, 14.342668756855096], [79.27145825959273, 14.3399210503151], [79.27148730041618, 14.336132328050313], [79.2700927328154, 14.333711025242874], [79.27046975812145, 14.330613736766837], [79.27189860962166, 14.328557451714449], [79.27262884181054, 14.325462725697143], [79.27687834426735, 14.324115806407734], [79.27830184044313, 14.322748332522101], [79.27831497320126, 14.321026177477385], [79.27761374316157, 14.32033219286643], [79.26842421138657, 14.320954267574395], [79.26810531077611, 14.316474111665814], [79.26497647226036, 14.309906765573336], [79.2604137474604, 14.306084488142375], [79.2575933336544, 14.305374937254824], [79.25299356989937, 14.306374517695723], [79.25121417162983, 14.308083663917207], [79.2494480867702, 14.308070663050568], [79.24700495473542, 14.304263756903948], [79.24524692403344, 14.3032174517754], [79.24139645996229, 14.298711221816026], [79.24035829551732, 14.295947986193505], [79.23228324257046, 14.2896881321309], [79.23087319638321, 14.28933321000269], [79.22877835225516, 14.28621764056204], [79.22667007372054, 14.284824171451744], [79.2185578818886, 14.283385832675895], [79.21575150405123, 14.280953728617355], [79.21540647889111, 14.27991782003543], [79.21682456873296, 14.279239561954478], [79.21577592575008, 14.277853942666063], [79.21259745992384, 14.277830107193394], [79.21084253035274, 14.276439167765346], [79.20625145602034, 14.276404633414955], [79.20449112146177, 14.27570249018098], [79.20379026814108, 14.275008327366463], [79.20347534400202, 14.27018380438493], [79.20137011915891, 14.268445726620982], [79.1978359267748, 14.268763461363775], [79.19081151442151, 14.26388810929669], [79.18870920426578, 14.261805521022124], [79.18663171470045, 14.25662317677206], [79.18278045425818, 14.252460625310375], [79.17961345386816, 14.251058733503125], [79.1743472200692, 14.247229704418816], [79.17082447517446, 14.246169421517601], [79.16871973665808, 14.244431108087793], [79.16378467247789, 14.243359887641686], [79.16098498266953, 14.240238436151824], [79.16104910559085, 14.232316973196028], [79.16141333288863, 14.230942045023951], [79.16389045643103, 14.230272232988817], [79.1639071493415, 14.228205759822576], [79.15898919719153, 14.225068015579426], [79.15722384841197, 14.225054407334662], [79.15543614648841, 14.227796071131706], [79.15367078007725, 14.227782434087485], [79.15189701514774, 14.228802013680765], [79.15187180994066, 14.23190170211306], [79.15291145065518, 14.234320765836308], [79.15537464555248, 14.235373101618972], [79.15607243006535, 14.236411787260387], [79.15673667969335, 14.241583397676939], [79.15990616656937, 14.242641150599843], [79.1606039916306, 14.24367982757731], [79.16058445917517, 14.24609070529875], [79.15454251708461, 14.250866094850593], [79.15206795038134, 14.251191369064856], [79.15136734336119, 14.250497078801777], [79.1517316705702, 14.249122177982104], [79.15103668130244, 14.247739069213939], [79.14856495808907, 14.247719901961547], [79.14714130061292, 14.249086571288665], [79.1471300535501, 14.250464204645253], [79.14605947809972, 14.25183360672251], [79.14146060543482, 14.252831105745285], [79.13791538070248, 14.25452559693478], [79.13156505853793, 14.253787075173806], [79.12308761363518, 14.254064936926243], [79.12168088552446, 14.253365010697653], [79.11602833302796, 14.253664852281767], [79.11109919574591, 14.25190374554997], [79.10371860300059, 14.247712112582565], [79.093493373519, 14.245908520106013], [79.08713488139492, 14.246202051801577], [79.0850279740415, 14.244807474433697], [79.0818560263402, 14.24409316138847], [79.0818647547422, 14.243059974816621], [79.08292981703418, 14.242379694261972], [79.0865099615131, 14.236553287030839], [79.085844435894, 14.23172607434666], [79.08267266156659, 14.231011794003475], [79.07770647126108, 14.23372722373996], [79.07592072179222, 14.236123768713764], [79.072392946014, 14.235750896739484], [79.07060127607897, 14.238836179260174], [79.06636147023266, 14.239146290981312], [79.06634680916814, 14.240868253350815], [79.06880369569855, 14.24261022724709], [79.07304064670703, 14.24264447371078], [79.07726885993392, 14.24371182887957], [79.076907026384, 14.244742167426105], [79.07407359372452, 14.245752568947767], [79.06839200945919, 14.249495224419332], [79.06556729676261, 14.249472336028267], [79.06275140788107, 14.248416239799171], [79.05283546700387, 14.25177965078831], [79.04932825633968, 14.248995690936557], [79.04404980248988, 14.246886000224263], [79.04479748557216, 14.242070357276154], [79.04374716771459, 14.241028514382489], [79.04233488414147, 14.241016935244177], [79.04020457232936, 14.242377099101851], [79.03809804103966, 14.240982147765802], [79.03491743611508, 14.241300393848569], [79.03348129751042, 14.24404384732591], [79.02992665718266, 14.246769804529306], [79.02955564208057, 14.248833196949914], [79.03166217704123, 14.250228225509378], [79.03269753979116, 14.252992045208616], [79.03445999389493, 14.253350986571649], [79.03658746519305, 14.252335278845585], [79.03622543609518, 14.253365529721323], [79.03053117875031, 14.258484715316278], [79.02876570278754, 14.258470124908133], [79.02702119820533, 14.256044834396468], [79.02526174085733, 14.255341453364995], [79.02243102396193, 14.256006810998295], [79.02171283037121, 14.257378484520803], [79.0220509053966, 14.259103327882938], [79.02485766719714, 14.26119304681498], [79.02484866756222, 14.262226196673481], [79.018815884071, 14.265620199886602], [79.01421648796438, 14.266615136326667], [79.01314811814869, 14.267639448318315], [79.00714835714238, 14.267244939318358], [79.00539799036694, 14.26550827158987], [79.00578744217054, 14.261378675884496], [79.01007897185012, 14.255215241057373], [79.01081835682506, 14.251432946340286], [79.0101303150653, 14.249360773055509], [79.00626765058954, 14.246917686548487], [79.00344307561706, 14.246894067027561], [79.0009594447376, 14.248250887288684], [78.99778178993203, 14.248224239873156], [78.9942784567595, 14.245095186439674], [78.99358449741264, 14.243711741116764], [78.99432408660287, 14.239929525154803], [78.99611065031932, 14.237533706262639], [78.99930938363781, 14.235149705785206], [79.00038975733973, 14.232747925550857], [78.99826843153002, 14.23307455768885], [78.99613799028634, 14.234434304328808], [78.99328316716527, 14.237854359184357], [78.99184049622602, 14.24128625402033], [78.99213873498064, 14.247488008732898], [78.99388886657735, 14.249224744883959], [78.99811056019182, 14.250982226970075], [79.00447201161971, 14.250346722204426], [79.00692540476128, 14.252433664331965], [79.00691330393614, 14.253811183439913], [79.00299604652987, 14.257566860814762], [78.99940136475159, 14.26476919849595], [78.99972407259182, 14.268215941156138], [79.00322780554235, 14.271344965338848], [79.01770536515338, 14.271465878094839], [79.02054230433069, 14.270111839901977], [79.02443253873476, 14.269455315279233], [79.02975316616492, 14.26674410363438], [79.03295803739637, 14.26367089488668], [79.03579480603298, 14.262316649838956], [79.0439815286656, 14.254806914458735], [79.04610008525285, 14.254824281861104], [79.0471475058946, 14.256210510867758], [79.04714157605929, 14.256899286980994], [79.045367191418, 14.25791798409843], [79.04462833266511, 14.261700455573635], [79.0463819812782, 14.263092482699516], [79.04779440563087, 14.263104055419756], [79.049565863039, 14.26242973281585], [79.05099604676798, 14.260374953901346], [79.05523033102746, 14.26075394814823], [79.0587495831085, 14.262160289832828], [79.06580880269694, 14.26256209159812], [79.06758608982193, 14.261198843447753], [79.0683069729779, 14.259482605879512], [79.07539831032945, 14.256095784377218], [79.0902431227401, 14.254493034692928], [79.0983442734686, 14.2569687209268], [79.10045426568908, 14.25801880467629], [79.10430392605706, 14.262182512768748], [79.11029543741436, 14.263607780628842], [79.11345919113904, 14.26535496286503], [79.12123077857424, 14.265071930698326], [79.12510945621258, 14.265791327512535], [79.12474208361697, 14.267510566340366], [79.11937941460339, 14.275390074035434], [79.11477139951415, 14.277420186872737], [79.11228218040489, 14.279467008038894], [79.11155291237586, 14.282216610801418], [79.11330717966256, 14.283608213989504], [79.11754214307307, 14.283986166381748], [79.12108225446607, 14.2829808618845], [79.12463375047895, 14.280597888770012], [79.12820794422625, 14.275459622368642], [79.1279031791275, 14.269601980460289], [79.13039215810502, 14.26755496376527], [79.13218335087828, 14.264469166135655], [79.150899125276, 14.264615105491563], [79.15371294630329, 14.266014643286216], [79.15689114231658, 14.266039244510235], [79.15970782216303, 14.267094307649757], [79.16359510671751, 14.266779863550067], [79.1730964832453, 14.270986102838743], [79.17624151596664, 14.275143413779086], [79.18360246404261, 14.282088376933629], [79.18608012879162, 14.2814183957851], [79.18890268009113, 14.281784320252068], [79.19034010831217, 14.278695320145294], [79.19245906698556, 14.278711414105743], [79.1952651358645, 14.281143760774789], [79.1962999354156, 14.284251541487986], [79.19770164521495, 14.285639909943944], [79.20685139280366, 14.289842288500397], [79.20930185026515, 14.29261625861808], [79.21106232928437, 14.293318382415407], [79.21211372302828, 14.294359606220555], [79.21210555658288, 14.2953928647974], [79.20785363927064, 14.297083064600393], [79.19619560740495, 14.297339373661458], [79.195141535173, 14.296642502919717], [79.19480483859245, 14.294573325265398], [79.19799996859263, 14.292530924419598], [79.1976659900465, 14.290117330862266], [79.1930884216523, 14.288360429596652], [79.18955667362884, 14.288333587468903], [79.18747348107742, 14.283840060844506], [79.18499855253276, 14.284165639053828], [79.18498750692457, 14.285543297684722], [79.18638362651906, 14.287620555129571], [79.18884756863415, 14.288672628052247], [79.19200413087887, 14.291452125151961], [79.19198486464256, 14.293863035552356], [79.18984922861989, 14.29591341246171], [79.1898354465101, 14.297635488669462], [79.19263618716545, 14.30075671828672], [79.19436089775739, 14.305936373216053], [79.19577096049689, 14.306291516850385], [79.1957847060995, 14.304569436230778], [79.19685529813921, 14.303199810079148], [79.19898272495982, 14.302182622559195], [79.20110191364107, 14.302198665402667], [79.20180009225199, 14.303237260869672], [79.20104983353048, 14.30874259088106], [79.20210123874783, 14.309783860695205], [79.20492692409087, 14.309805221008444], [79.20777173459824, 14.30741561961776], [79.20886137983184, 14.303635002484615], [79.21100512119091, 14.300551186938666], [79.21986490831083, 14.296828824340478], [79.22269045928662, 14.296849954785664], [79.2237419273028, 14.297891134987598], [79.2261899865722, 14.301009385398828], [79.22582327206955, 14.302728859889662], [79.22405454771335, 14.303060096784648], [79.22300576387555, 14.301674494074451], [79.21664271069561, 14.302315736500196], [79.21485766632085, 14.304713422633554], [79.21482502212181, 14.308846458996825], [79.21656933283981, 14.31161507714801], [79.21868863039957, 14.311630973538891], [79.22011234949703, 14.310263878375983], [79.22434281007678, 14.311328850275054], [79.22538622943075, 14.313403295131947], [79.22501135759542, 14.316156027709388], [79.22322897699381, 14.31820935077385], [79.2189766682471, 14.319899706423408], [79.21890601105764, 14.328854625380366], [79.2153190874765, 14.335716474042668], [79.2110718548637, 14.33671780425039], [79.20715320168271, 14.340821479624346], [79.20467215588783, 14.34183602510649], [79.20253062020818, 14.344575301218843], [79.20111481235688, 14.344909001616966], [79.19933472876247, 14.34661767312632], [79.198614427958, 14.348334383351776], [79.19928242873824, 14.353161567800331], [79.19818953128382, 14.357286494401412], [79.19640655985974, 14.359339542909176], [79.1946069813338, 14.363459059366232], [79.19140797406538, 14.36584569508399], [79.18890441024277, 14.369615337063943], [79.18571914478859, 14.370279815672923], [79.18429759833803, 14.371302217084741], [79.17863917855908, 14.371947612620575], [79.17402667212212, 14.374323097682465], [79.16872709094098, 14.374282151179958], [79.1652024749698, 14.373221562855816], [79.16201149750592, 14.374574523112123], [79.15737621828401, 14.37970490917436], [79.15418793791359, 14.38071334063525], [79.15098263443521, 14.383788157087395], [79.1491848519395, 14.387562793531288], [79.14634123058582, 14.38960707868123], [79.14454331559425, 14.393381663144957], [79.14452624251813, 14.395448085020796], [79.1494331742979, 14.40030852989249], [79.1557197494681, 14.409312801494254], [79.16132830309947, 14.414867391470548], [79.1630866760807, 14.415914366498475], [79.16520689273054, 14.41593085638158], [79.1680563610299, 14.413197552220206], [79.17092260870392, 14.408397754799948], [79.17519373218344, 14.40464205638594], [79.17913092051043, 14.398472668419393], [79.18129841158976, 14.39263401235614], [79.18556905188417, 14.388878065853685], [79.1934364777587, 14.37722753000178], [79.19521410739208, 14.375863354511958], [79.19875275382672, 14.375201443656264], [79.20584923325512, 14.371466543119757], [79.20832513220869, 14.371140858264953], [79.20866198336603, 14.373210031881943], [79.20687071516922, 14.376296401689311], [79.20612561332123, 14.381112869899253], [79.19966923178005, 14.393119067559931], [79.19254698988189, 14.399953399828537], [79.18968130291023, 14.404753530058967], [79.18505145279967, 14.409195625578228], [79.18150386678599, 14.410890493088843], [79.1765147601179, 14.41601848120746], [79.17013158801049, 14.418724522496472], [79.16442964793957, 14.424535531320481], [79.16089864750136, 14.424163603967246], [79.15984698655323, 14.42312212010215], [79.15951623187364, 14.420364117570754], [79.1581083902928, 14.41966427794903], [79.15421277150132, 14.420667121794912], [79.15206696636524, 14.423750166681042], [79.15204424404428, 14.426505400463194], [79.15274533244524, 14.427199744842412], [79.15627635134021, 14.427571798295444], [79.1580319564729, 14.428963224233204], [79.15729684554182, 14.432401754218086], [79.15551852984241, 14.433765558038237], [79.15408507282025, 14.436165325876306], [79.15442427680243, 14.437890114472706], [79.15547597030344, 14.438931626539107], [79.16854915147773, 14.439377998456678], [79.17067804006511, 14.43836124314034], [79.17421210497153, 14.438388643746581], [79.17667473368061, 14.43978542703607], [79.18090725656648, 14.44085142481337], [79.18687620652646, 14.445719467484592]], [[79.15903550287719, 14.435859609066068], [79.15868776751694, 14.435168038690149], [79.16154888784916, 14.431057232399708], [79.16192206344815, 14.42864914514122], [79.16617965221789, 14.426615713926271], [79.17153385200574, 14.42011311046035], [79.17756367904373, 14.417404305940801], [79.18255559001744, 14.411931886512225], [79.1871716320054, 14.409211910812537], [79.19144808830615, 14.404767063699852], [79.19395761918896, 14.400308620165868], [79.20000877051169, 14.394843830101061], [79.20216742687327, 14.390038157975873], [79.20502713689612, 14.385926648791], [79.20539696913286, 14.383862836311456], [79.20753890560844, 14.381123582287866], [79.2079224275364, 14.377337679891165], [79.20971369230445, 14.374251301664556], [79.20974384525371, 14.370462716504193], [79.20904271516669, 14.369768538289305], [79.2069228824233, 14.369752492412829], [79.19805440811749, 14.37416282079432], [79.19380639013647, 14.375163744940263], [79.19131382261794, 14.37755574940531], [79.18702128025036, 14.384067137326847], [79.18524353740868, 14.385431236906744], [79.18487908389436, 14.386806172339151], [79.17882785268539, 14.392270560653795], [79.17773990267254, 14.395706493443159], [79.17346340029697, 14.40015108389652], [79.17169947393306, 14.399793011299712], [79.16642461382501, 14.396652271510618], [79.16611627198786, 14.391139004174878], [79.16507878451945, 14.38837551729543], [79.16050246681233, 14.38627338771502], [79.15910610701994, 14.38419595004991], [79.16019707246174, 14.380415719914804], [79.16447338305154, 14.37597134911144], [79.17471930756751, 14.376050598613103], [79.17791583250373, 14.374008639081246], [79.18145168339852, 14.373691400886095], [79.18924662335706, 14.370995691548904], [79.19138305988538, 14.368945416529384], [79.19281839318776, 14.366200897962651], [79.19601739335093, 14.363814242089726], [79.197460905911, 14.360036439312728], [79.19924387499302, 14.357983382501533], [79.20069829134887, 14.352827884939304], [79.20001375160676, 14.350067194946195], [79.20038628022836, 14.347658967092235], [79.20393819125665, 14.345274841477266], [79.20537045249543, 14.342874623012975], [79.20785150804963, 14.341860071270139], [79.21212069566559, 14.33810346618549], [79.21599562317579, 14.339510396664663], [79.21808251461643, 14.343659360113575], [79.22684915679973, 14.351991657386801], [79.22752861698021, 14.355441149503426], [79.22538989906789, 14.357836226245745], [79.22537904112116, 14.359213906966108], [79.2267894982566, 14.359568909011307], [79.22788190377867, 14.355443791815897], [79.23108312754198, 14.352712177973888], [79.23359931594368, 14.347219871249427], [79.23545195969675, 14.336211503666126], [79.23793822232268, 14.33450776607063], [79.23938350278473, 14.330385172588015], [79.24260566822288, 14.324897946659764], [79.2430285932946, 14.315945522323515], [79.23991125925004, 14.308000231878854], [79.23149609584094, 14.300015578917685], [79.22867588754636, 14.299305703494136], [79.22340766861089, 14.295477545705957], [79.21740612654479, 14.29508820524186], [79.21600694603575, 14.29335551271749], [79.21248868099828, 14.291606903219837], [79.21003546570321, 14.289177381739995], [79.20511007645617, 14.286729209213354], [79.20231749946224, 14.282574869187101], [79.19528434932009, 14.278732843425638], [79.18897428107404, 14.272829513854235], [79.18157749165395, 14.270362116191947], [79.17592718346411, 14.270318923705513], [79.16396497948877, 14.264716117687419], [79.15690234289245, 14.264661605330904], [79.15161942426484, 14.262898539843976], [79.14773784219688, 14.262523978444646], [79.12231011918223, 14.262669458319767], [79.11773098810588, 14.261255643326598], [79.1134849830727, 14.262255351253904], [79.11209258049783, 14.259833360667109], [79.10892603972785, 14.258430570864475], [79.1064427580054, 14.259788553227317], [79.10503030544967, 14.259777330475792], [79.10223710165916, 14.25596646854985], [79.09907357546935, 14.254219162895842], [79.09307662297128, 14.253482446334026], [79.09096671293662, 14.252432306388249], [79.08036796065068, 14.253036077495375], [79.0814534593229, 14.249945044047065], [79.07899347159685, 14.24854757407677], [79.07652184254596, 14.248527659653874], [79.0743886962811, 14.25023253901062], [79.07437992927412, 14.251265720412409], [79.07719300568981, 14.252666084646366], [79.07718716856643, 14.253354873257281], [79.07222918323494, 14.255036934589432], [79.07045197268128, 14.256400227650426], [79.06656493568046, 14.256713158163793], [79.06300158324878, 14.260472805065803], [79.0591174291358, 14.260441213401275], [79.05277634624674, 14.258667435997365], [79.04647097042374, 14.252760846628659], [79.04116868483364, 14.253406181119665], [79.03724298593282, 14.25819565385956], [79.03476236078089, 14.25920844989636], [79.03975632646201, 14.25339457687369], [79.04157230020391, 14.247554500587192], [79.0493104951143, 14.251062023092596], [79.0556188657526, 14.256624151728639], [79.05808465555235, 14.257333074401247], [79.06126549725681, 14.257014544137053], [79.06410205319526, 14.25565992915172], [79.07263201259246, 14.249185100899856], [79.07936404640614, 14.246484047489599], [79.08324800816897, 14.246515279466593], [79.08888292574807, 14.248282579268828], [79.09911973541077, 14.24870878254996], [79.10122966024325, 14.249758851026584], [79.10370133844982, 14.249778511230131], [79.106867723987, 14.251181352486022], [79.109322207988, 14.253267360995189], [79.11284751999149, 14.253984129084692], [79.11565806414659, 14.255728474678603], [79.125189184759, 14.256148024182753], [79.13190398828345, 14.255511867261804], [79.13401416167977, 14.256561671411475], [79.13754530426336, 14.256589277386283], [79.1425086563053, 14.254216987142652], [79.14674881828856, 14.253905543708054], [79.14780253221694, 14.254602589611581], [79.1477912846312, 14.255980222850042], [79.14989874453315, 14.257374304402797], [79.15307961690455, 14.257054532588787], [79.15765058065487, 14.25950091549907], [79.16718771749794, 14.259229989906439], [79.17105264993542, 14.261670707647648], [79.17387491257118, 14.262036778742045], [79.17563225197522, 14.263083538805551], [79.17704478194436, 14.263094345860033], [79.17813461801644, 14.25931389144438], [79.18063137190472, 14.256233036088249], [79.18134313960962, 14.255549593736772], [79.18310599085257, 14.255907467138435], [79.18625931214183, 14.259031400953353], [79.18764154731291, 14.262830716499439], [79.19079502304879, 14.265954607361857], [79.19501350763086, 14.268397659879287], [79.19780853662232, 14.272207636582221], [79.20132637834513, 14.273956417363877], [79.20342345390132, 14.276727755983137], [79.20835406555676, 14.278487099252104], [79.21045671371138, 14.280569550684993], [79.21538204845731, 14.283017604824375], [79.21818844467923, 14.285449715353103], [79.22454021256343, 14.286186063754819], [79.22734135996686, 14.289306926700995], [79.22910188676468, 14.29000892063376], [79.23155533878341, 14.292438270022451], [79.23824180253966, 14.295587875439718], [79.23998097744115, 14.299045195158948], [79.24837775816279, 14.309440559847447], [79.2507462625092, 14.322891389443114], [79.25284704444526, 14.325317977115319], [79.2528203804159, 14.328762239066446], [79.25139670561657, 14.33012953772817], [79.24964113519407, 14.328738816487977], [79.24822813916379, 14.328728392801027], [79.2446581390852, 14.333524240796134], [79.24427271015101, 14.337654719807173], [79.24248223965864, 14.340741456373179], [79.23886075990622, 14.352081214269905], [79.23954848484325, 14.354497424224022], [79.24555438405135, 14.354541964572332], [79.24804348062298, 14.352493713277038], [79.2508697713443, 14.352514588245203], [79.25406003124084, 14.351160329539509], [79.25761952044252, 14.34774206172432], [79.25834205232309, 14.345680693571419], [79.25800474662393, 14.343611538567322], [79.26011109870551, 14.34534923461802], [79.26293731807804, 14.345369955634887], [79.26400245717905, 14.344688861887402], [79.26651247574851, 14.339884957545854], [79.26659453014656, 14.329207674089657], [79.26909372048344, 14.325781427700921], [79.26981869721779, 14.323375571796854], [79.27088370741511, 14.322694431919652], [79.27194080236329, 14.32304657599841], [79.27086523948547, 14.32510543909545], [79.27048823767939, 14.328202731212347], [79.26833700538745, 14.332320426611497], [79.27007688343427, 14.335777600073637], [79.27003989171581, 14.340599606548135], [79.26718459944047, 14.344367689130989], [79.26645420257833, 14.347462378416484], [79.26326139771548, 14.349161246223433], [79.26005524753486, 14.352582199403757], [79.25508787068472, 14.35530124425014], [79.25116956763394, 14.359405696352727], [79.2479845328041, 14.360071051348381], [79.24334328377294, 14.366236660208232], [79.2404979805891, 14.368626635119679], [79.2376364276575, 14.3730831009335], [79.23338852065822, 14.374084758717359], [79.23052675463228, 14.378541112555718], [79.22734141420769, 14.379206150810175], [79.22201977018223, 14.381921735839445], [79.22023131676312, 14.384663799390466], [79.21703767565366, 14.386361938600299], [79.21559151873022, 14.39048428885348], [79.21132402354007, 14.393896415897759], [79.20952709695543, 14.397671618036327], [79.20489775560765, 14.402114167962957], [79.20487847227177, 14.404525073082823], [79.2066287555302, 14.406604984582653], [79.20626713225602, 14.407635546783004], [79.20485367416016, 14.407624807478168], [79.20239116258094, 14.406228335613479], [79.19955874415518, 14.406895632057228], [79.1910114116159, 14.415096723811622], [79.19027964637867, 14.41819101350794], [79.1863869184989, 14.418849997799452], [79.18282800942642, 14.421922508531896], [79.18139212103938, 14.424666898098646], [79.17925780975075, 14.42637259126579], [79.1760408591785, 14.430825335238266], [79.17602403029098, 14.432891787282344], [79.1777798140674, 14.434283084919793], [79.17811920388385, 14.43600786086904], [79.17070055262847, 14.435605983185798], [79.16928131408274, 14.436283824815165], [79.16504331124766, 14.435906447325516], [79.1636240577778, 14.436584252613379], [79.15903550287719, 14.435859609066068]], [[79.16293066417015, 14.391803130682863], [79.16292221350199, 14.39283635255777], [79.16221272981092, 14.393175266955096], [79.16222118394928, 14.392142045522613], [79.16293066417015, 14.391803130682863]], [[79.22896613767598, 14.35235192675696], [79.22335708537123, 14.346798900500058], [79.22231900127113, 14.344035596566972], [79.21951190312602, 14.341603456775836], [79.2191749622837, 14.339534287289748], [79.22277541652666, 14.330950273540017], [79.22456062544482, 14.32855254717252], [79.22457146421284, 14.327174863512685], [79.22282423944176, 14.32475070302594], [79.22318832147661, 14.323375663749317], [79.22673691401077, 14.321335541215896], [79.22994571411942, 14.317570614702277], [79.23239674350715, 14.320344408117508], [79.23201923664568, 14.323441581192625], [79.23306546940009, 14.325171582283726], [79.23294136852925, 14.34101500998393], [79.2325556978101, 14.345145441461307], [79.23039279431889, 14.350640375461637], [79.22896613767598, 14.35235192675696]], [[79.25124979254036, 14.349072943125796], [79.2530562479848, 14.343919581967707], [79.254469342821, 14.343929987698745], [79.25586911277986, 14.345662516226348], [79.25513855827494, 14.348757152311064], [79.2530081884082, 14.350119243724325], [79.25194833890534, 14.35011143039113], [79.25124979254036, 14.349072943125796]], [[79.24809971688497, 14.345260794932003], [79.24605241479046, 14.335945662191085], [79.24678035140435, 14.33319548527676], [79.24820139803023, 14.332172645233868], [79.25165383969471, 14.342531465794412], [79.2491595413943, 14.345268622879415], [79.24809971688497, 14.345260794932003]], [[79.26153483398744, 14.343981890193907], [79.25664757690903, 14.336368197246504], [79.25564904340402, 14.328438596762227], [79.25147674954569, 14.319796757805426], [79.2511608535878, 14.314972190717645], [79.25011451043132, 14.313242257530135], [79.25083962640285, 14.310836475493074], [79.2536653997121, 14.310857257977204], [79.25612200441451, 14.312941978561316], [79.25930634579359, 14.31227643359933], [79.26142039740895, 14.312980806034231], [79.25998892014988, 14.31538145878278], [79.25996503818698, 14.318481309005291], [79.26239527463291, 14.324010260051075], [79.26520005251976, 14.326786351889591], [79.26446971467252, 14.329881042771875], [79.26509939718127, 14.339874626407191], [79.26295058981847, 14.34364781789101], [79.26153483398744, 14.343981890193907]], [[79.25730884935228, 14.342228641161029], [79.252403095137, 14.337025861510057], [79.25242444485117, 14.334270454562427], [79.2541854057984, 14.334972309009219], [79.25730884935228, 14.342228641161029]], [[79.23484244579758, 14.323807028451833], [79.23485860381469, 14.321740490545528], [79.23627961752003, 14.320717718901722], [79.236961878786, 14.323822775027677], [79.23625001856458, 14.324506374679407], [79.23484244579758, 14.323807028451833]], [[79.23741189171781, 14.311426147974428], [79.2374253252008, 14.30970402889596], [79.23707748214449, 14.30901256142262], [79.23847692166704, 14.310745157519287], [79.23845812408234, 14.313156125314643], [79.23741189171781, 14.311426147974428]], [[79.25720824863112, 14.309505478937027], [79.25792796519724, 14.30778851998619], [79.2603925388791, 14.308839913378893], [79.26038458449676, 14.309873197670276], [79.2593222665672, 14.31020986652796], [79.25720824863112, 14.309505478937027]], [[79.2165992338877, 14.307826457805124], [79.21696874680029, 14.305762587210037], [79.2180365136128, 14.304737271780214], [79.22015574839396, 14.304753147625547], [79.22473390743298, 14.306509588510858], [79.225785425507, 14.307550765147905], [79.22577190545908, 14.30927287367182], [79.22329940813685, 14.309254402702955], [79.22118826074092, 14.30820528749364], [79.21729478649507, 14.309209437677444], [79.2165992338877, 14.307826457805124]], [[79.20282135514648, 14.308067117116563], [79.20285695491792, 14.303589690203882], [79.20429984850692, 14.299811769213555], [79.20783180442128, 14.299838413526151], [79.20817135395602, 14.301563168147974], [79.20707624789078, 14.306032619085181], [79.20494060346236, 14.308083132198664], [79.20282135514648, 14.308067117116563]], [[79.20076789987552, 14.299785072508405], [79.20253934854536, 14.299109592246833], [79.20288706817962, 14.299801096818575], [79.20076789987552, 14.299785072508405]], [[79.12076054372842, 14.279189649614931], [79.12363992273161, 14.272668273923621], [79.12470788501145, 14.271643406639697], [79.12576729178973, 14.271651743860959], [79.12572740209676, 14.276473391899042], [79.12181712704009, 14.279542411204645], [79.12076054372842, 14.279189649614931]], [[79.18999520616553, 14.277659388567226], [79.1843557326723, 14.276238715091335], [79.17976749724517, 14.27585925688771], [79.17871911436652, 14.274473502466245], [79.17873018915783, 14.273095847370744], [79.17944202121457, 14.272412418589207], [79.18262035283453, 14.27243668743846], [79.1879038122174, 14.27419911914906], [79.19000621497227, 14.276281725193487], [79.18999520616553, 14.277659388567226]], [[79.02381937995807, 14.258773585480736], [79.02418747474859, 14.257054595714866], [79.0259529348097, 14.257069218591568], [79.02665312699128, 14.257763831658707], [79.0262850485052, 14.25948282740048], [79.0245195693085, 14.259468204560951], [79.02381937995807, 14.258773585480736]], [[79.17566827172271, 14.258606162587277], [79.16685964409811, 14.256127567525693], [79.16547501463239, 14.252672587594883], [79.16584483145779, 14.250608831694521], [79.16972905687948, 14.25063866488574], [79.17252899026651, 14.25376004092171], [79.17535116059015, 14.254126083298475], [79.1774588048889, 14.255519939597349], [79.17709184575868, 14.257239310447337], [79.17566827172271, 14.258606162587277]], [[79.15943017227634, 14.25779250041948], [79.16050629283012, 14.255734211059945], [79.16226909323144, 14.256092234827245], [79.16155169048808, 14.257464434984838], [79.15943017227634, 14.25779250041948]], [[79.05811413643586, 14.253889171041312], [79.06060051568707, 14.252187328892576], [79.06307216129818, 14.252207413243173], [79.0630633415145, 14.253240587552385], [79.06093006100139, 14.254945327468517], [79.05845544128725, 14.255269607574613], [79.0577521973505, 14.254919466646987], [79.05811413643586, 14.253889171041312]], [[79.15238740571853, 14.255327015493744], [79.15204831653004, 14.253602233641855], [79.15522633566731, 14.253626836104852], [79.15664438669121, 14.252948936772912], [79.1584043608601, 14.253651396277037], [79.15803726572582, 14.255370721109482], [79.15661920175467, 14.256048627276376], [79.15344114619968, 14.256024039281078], [79.15238740571853, 14.255327015493744]], [[79.0365934250746, 14.25164650683305], [79.03694353179168, 14.251993799094292], [79.03659044517362, 14.251990892844583], [79.0365934250746, 14.25164650683305]], [[79.03697034322175, 14.248894323953419], [79.03768246214766, 14.248211360910037], [79.03873872940582, 14.248564457541043], [79.03872384873371, 14.250286390159268], [79.03729959732019, 14.251652318664373], [79.03697034322175, 14.248894323953419]], [[79.0323832715939, 14.248512125332011], [79.03239819841795, 14.24679019903323], [79.03346638189649, 14.245765775144557], [79.035234744666, 14.245435932164284], [79.03524666630278, 14.2440583884246], [79.03631780248035, 14.24268956203885], [79.03737701901079, 14.242698274867282], [79.0384273105405, 14.243740142922137], [79.03876550960926, 14.24546497816485], [79.03557888034331, 14.246471997025438], [79.03484887165719, 14.249221268305698], [79.03308346315094, 14.249206719109035], [79.0323832715939, 14.248512125332011]], [[79.1651608842294, 14.247848105798527], [79.1641099214391, 14.246806721877286], [79.1651803706096, 14.245437222217978], [79.16729898886169, 14.245453502816419], [79.16905617290823, 14.246500293767195], [79.16904228274797, 14.248222357116816], [79.16833328773953, 14.248561348967147], [79.1651608842294, 14.247848105798527]], [[79.04122516325523, 14.246862827864506], [79.04053683999611, 14.244790707562487], [79.04266717482408, 14.243430543641121], [79.04193429327314, 14.246524236820203], [79.04122516325523, 14.246862827864506]], [[79.07764235178786, 14.241303910434366], [79.07733008837847, 14.236479540191871], [79.07804788499034, 14.235107645643266], [79.08266103869485, 14.232389378119018], [79.08407330246327, 14.232400712019327], [79.08512379435601, 14.23344239644641], [79.08510057294669, 14.236197567917097], [79.08295016826963, 14.239968923580472], [79.08081424100241, 14.242018273124474], [79.07764235178786, 14.241303910434366]], [[79.15890271052439, 14.235744762761133], [79.156100381072, 14.232967682060588], [79.1561087649173, 14.231934450296858], [79.1582244551067, 14.232295207249601], [79.15890271052439, 14.235744762761133]]]]}}, {"type": "Feature", "properties": {"depth_class": 2, "depth_lo_m": 1.0, "t_s": 37800.535441747}, "geometry": {"type": "MultiPolygon", "coordinates": [[[[79.0192094927494, 14.220506078856653], [79.02063361758911, 14.21914024383072], [79.02030755945819, 14.21603786761961], [79.01610126561869, 14.2125589214722], [79.01327409385694, 14.212879856043], [79.01255902867392, 14.213907135081932], [79.01324101536012, 14.216668060368143], [79.01676828428329, 14.217041756548586], [79.01815339219868, 14.220152915754356], [79.0192094927494, 14.220506078856653]], [[79.01360606965545, 14.215293465045868], [79.013974124304, 14.213574486052321], [79.01609225821912, 14.213592070037937], [79.01678929857849, 14.214631076117234], [79.01571821188715, 14.215999819776169], [79.01360606965545, 14.215293465045868]]], [[[79.15857195433291, 14.232986751943363], [79.1575210856344, 14.23194534967712], [79.1561087649173, 14.231934450296858], [79.156100381072, 14.232967682060588], [79.15890271052439, 14.235744762761133], [79.15857195433291, 14.232986751943363]]], [[[79.08081424100241, 14.242018273124474], [79.08510057294669, 14.236197567917097], [79.08512379435601, 14.23344239644641], [79.08407330246327, 14.232400712019327], [79.08266103869485, 14.232389378119018], [79.07911291601458, 14.234427378454674], [79.07733008837847, 14.236479540191871], [79.07764235178786, 14.241303910434366], [79.07869576021751, 14.24200122899025], [79.08081424100241, 14.242018273124474]], [[79.0790954445152, 14.236493749648208], [79.08158148744685, 14.234791642519715], [79.08334974019819, 14.234461422826612], [79.08333230717743, 14.236527799163847], [79.08047571598705, 14.240293457181005], [79.07906340615689, 14.24028209585478], [79.07871615581955, 14.239590464237615], [79.0790954445152, 14.236493749648208]]], [[[79.04157824288194, 14.24686572623549], [79.04265529874132, 14.244808093598232], [79.04266717482408, 14.243430543641121], [79.04053683999611, 14.244790707562487], [79.04052494980955, 14.246168255601196], [79.04157824288194, 14.24686572623549]]], [[[79.03484887165719, 14.249221268305698], [79.03593493786143, 14.246130517636882], [79.03876550960926, 14.24546497816485], [79.03877443491344, 14.244431818183282], [79.03737701901079, 14.242698274867282], [79.03560569957148, 14.243372523000222], [79.035234744666, 14.245435932164284], [79.03346638189649, 14.245765775144557], [79.03239819841795, 14.24679019903323], [79.0323832715939, 14.248512125332011], [79.03308346315094, 14.249206719109035], [79.03484887165719, 14.249221268305698]]], [[[79.15661920175467, 14.256048627276376], [79.15839597413478, 14.254684627505391], [79.15770372543479, 14.25295712151891], [79.15204831653004, 14.253602233641855], [79.15203709553893, 14.254979870312741], [79.15344114619968, 14.256024039281078], [79.15661920175467, 14.256048627276376]]], [[[79.02665312699128, 14.257763831658707], [79.0259529348097, 14.257069218591568], [79.02418747474859, 14.257054595714866], [79.02381937995807, 14.258773585480736], [79.0245195693085, 14.259468204560951], [79.0262850485052, 14.25948282740048], [79.02665312699128, 14.257763831658707]]], [[[79.12323542476969, 14.27886474404479], [79.12608624371362, 14.27578736402811], [79.12576729178973, 14.271651743860959], [79.12470788501145, 14.271643406639697], [79.12363992273161, 14.272668273923621], [79.12076625939925, 14.27850084500321], [79.12111083278968, 14.2795368388613], [79.12323542476969, 14.27886474404479]]], [[[79.1664569163525, 14.435917445871334], [79.17811920388385, 14.43600786086904], [79.1777798140674, 14.434283084919793], [79.17602403029098, 14.432891787282344], [79.1760408591785, 14.430825335238266], [79.17925780975075, 14.42637259126579], [79.18139212103938, 14.424666898098646], [79.18282800942642, 14.421922508531896], [79.1863869184989, 14.418849997799452], [79.19027964637867, 14.41819101350794], [79.1910114116159, 14.415096723811622], [79.19955874415518, 14.406895632057228], [79.20239116258094, 14.406228335613479], [79.20485367416016, 14.407624807478168], [79.20626713225602, 14.407635546783004], [79.2066287555302, 14.406604984582653], [79.20487847227177, 14.404525073082823], [79.20489775560765, 14.402114167962957], [79.20952709695543, 14.397671618036327], [79.21132402354007, 14.393896415897759], [79.21559151873022, 14.39048428885348], [79.21703767565366, 14.386361938600299], [79.22023131676312, 14.384663799390466], [79.22201977018223, 14.381921735839445], [79.22734141420769, 14.379206150810175], [79.23052675463228, 14.378541112555718], [79.23338852065822, 14.374084758717359], [79.2376364276575, 14.3730831009335], [79.2404979805891, 14.368626635119679], [79.24334328377294, 14.366236660208232], [79.2479845328041, 14.360071051348381], [79.25116956763394, 14.359405696352727], [79.25508787068472, 14.35530124425014], [79.26005524753486, 14.352582199403757], [79.26326139771548, 14.349161246223433], [79.26645420257833, 14.347462378416484], [79.26718459944047, 14.344367689130989], [79.27003989171581, 14.340599606548135], [79.27007688343427, 14.335777600073637], [79.26833700538745, 14.332320426611497], [79.27048823767939, 14.328202731212347], [79.27086523948547, 14.32510543909545], [79.27194080236329, 14.32304657599841], [79.27088370741511, 14.322694431919652], [79.26981869721779, 14.323375571796854], [79.26909372048344, 14.325781427700921], [79.26659453014656, 14.329207674089657], [79.26651247574851, 14.339884957545854], [79.26400245717905, 14.344688861887402], [79.26293731807804, 14.345369955634887], [79.26011109870551, 14.34534923461802], [79.25800474662393, 14.343611538567322], [79.25834205232309, 14.345680693571419], [79.25761952044252, 14.34774206172432], [79.25406003124084, 14.351160329539509], [79.2508697713443, 14.352514588245203], [79.24804348062298, 14.352493713277038], [79.24555438405135, 14.354541964572332], [79.23954848484325, 14.354497424224022], [79.23886075990622, 14.352081214269905], [79.24248223965864, 14.340741456373179], [79.24427271015101, 14.337654719807173], [79.2446581390852, 14.333524240796134], [79.24822813916379, 14.328728392801027], [79.24964113519407, 14.328738816487977], [79.25104345399332, 14.330126934958876], [79.2528203804159, 14.328762239066446], [79.25284704444526, 14.325317977115319], [79.2507462625092, 14.322891389443114], [79.24837775816279, 14.309440559847447], [79.23998097744115, 14.299045195158948], [79.23824180253966, 14.295587875439718], [79.23155533878341, 14.292438270022451], [79.22910188676468, 14.29000892063376], [79.22734135996686, 14.289306926700995], [79.22454021256343, 14.286186063754819], [79.21818844467923, 14.285449715353103], [79.21538204845731, 14.283017604824375], [79.21045671371138, 14.280569550684993], [79.20835406555676, 14.278487099252104], [79.20342345390132, 14.276727755983137], [79.20132637834513, 14.273956417363877], [79.19780853662232, 14.272207636582221], [79.19501350763086, 14.268397659879287], [79.19079502304879, 14.265954607361857], [79.18764154731291, 14.262830716499439], [79.18625931214183, 14.259031400953353], [79.18310599085257, 14.255907467138435], [79.18134313960962, 14.255549593736772], [79.18063137190472, 14.256233036088249], [79.17813461801644, 14.25931389144438], [79.17704478194436, 14.263094345860033], [79.17563225197522, 14.263083538805551], [79.17387491257118, 14.262036778742045], [79.17105264993542, 14.261670707647648], [79.16718771749794, 14.259229989906439], [79.15765058065487, 14.25950091549907], [79.15307961690455, 14.257054532588787], [79.14989874453315, 14.257374304402797], [79.1477912846312, 14.255980222850042], [79.14780253221694, 14.254602589611581], [79.14674881828856, 14.253905543708054], [79.1425086563053, 14.254216987142652], [79.13754530426336, 14.256589277386283], [79.13401416167977, 14.256561671411475], [79.13190398828345, 14.255511867261804], [79.125189184759, 14.256148024182753], [79.11565806414659, 14.255728474678603], [79.11284751999149, 14.253984129084692], [79.109322207988, 14.253267360995189], [79.106867723987, 14.251181352486022], [79.10370133844982, 14.249778511230131], [79.10122966024325, 14.249758851026584], [79.09911973541077, 14.24870878254996], [79.08888292574807, 14.248282579268828], [79.08324800816897, 14.246515279466593], [79.07936404640614, 14.246484047489599], [79.07263201259246, 14.249185100899856], [79.06410205319526, 14.25565992915172], [79.06126549725681, 14.257014544137053], [79.05808465555235, 14.257333074401247], [79.0556188657526, 14.256624151728639], [79.0493104951143, 14.251062023092596], [79.04157230020391, 14.247554500587192], [79.03975632646201, 14.25339457687369], [79.03476236078089, 14.25920844989636], [79.03724298593282, 14.25819565385956], [79.04116868483364, 14.253406181119665], [79.04647097042374, 14.252760846628659], [79.05277634624674, 14.258667435997365], [79.0591174291358, 14.260441213401275], [79.06300158324878, 14.260472805065803], [79.06656493568046, 14.256713158163793], [79.07045197268128, 14.256400227650426], [79.07222918323494, 14.255036934589432], [79.07718716856643, 14.253354873257281], [79.07719300568981, 14.252666084646366], [79.07437992927412, 14.251265720412409], [79.0743886962811, 14.25023253901062], [79.07652184254596, 14.248527659653874], [79.07899347159685, 14.24854757407677], [79.0814534593229, 14.249945044047065], [79.08036796065068, 14.253036077495375], [79.09096671293662, 14.252432306388249], [79.09307662297128, 14.253482446334026], [79.09907357546935, 14.254219162895842], [79.10223710165916, 14.25596646854985], [79.10503030544967, 14.259777330475792], [79.1064427580054, 14.259788553227317], [79.10892603972785, 14.258430570864475], [79.11209258049783, 14.259833360667109], [79.1134849830727, 14.262255351253904], [79.11667163480048, 14.26124727634538], [79.12231011918223, 14.262669458319767], [79.14773784219688, 14.262523978444646], [79.15161942426484, 14.262898539843976], [79.15690234289245, 14.264661605330904], [79.16396497948877, 14.264716117687419], [79.17592718346411, 14.270318923705513], [79.18157749165395, 14.270362116191947], [79.18897428107404, 14.272829513854235], [79.19528434932009, 14.278732843425638], [79.20231749946224, 14.282574869187101], [79.20511007645617, 14.286729209213354], [79.21003546570321, 14.289177381739995], [79.21248868099828, 14.291606903219837], [79.21600694603575, 14.29335551271749], [79.21740612654479, 14.29508820524186], [79.22340766861089, 14.295477545705957], [79.22867588754636, 14.299305703494136], [79.23149609584094, 14.300015578917685], [79.23991125925004, 14.308000231878854], [79.2430285932946, 14.315945522323515], [79.24260566822288, 14.324897946659764], [79.23938350278473, 14.330385172588015], [79.23793822232268, 14.33450776607063], [79.23545195969675, 14.336211503666126], [79.23359931594368, 14.347219871249427], [79.23108312754198, 14.352712177973888], [79.22788190377867, 14.355443791815897], [79.2267894982566, 14.359568909011307], [79.22537904112116, 14.359213906966108], [79.2257486166736, 14.357150031622028], [79.22752861698021, 14.355441149503426], [79.22684915679973, 14.351991657386801], [79.21808251461643, 14.343659360113575], [79.21599562317579, 14.339510396664663], [79.21212069566559, 14.33810346618549], [79.20785150804963, 14.341860071270139], [79.20537045249543, 14.342874623012975], [79.20393819125665, 14.345274841477266], [79.20038628022836, 14.347658967092235], [79.20001375160676, 14.350067194946195], [79.20069829134887, 14.352827884939304], [79.19924387499302, 14.357983382501533], [79.197460905911, 14.360036439312728], [79.19601739335093, 14.363814242089726], [79.19281839318776, 14.366200897962651], [79.19138305988538, 14.368945416529384], [79.18924662335706, 14.370995691548904], [79.18145168339852, 14.373691400886095], [79.17791583250373, 14.374008639081246], [79.17471930756751, 14.376050598613103], [79.16447338305154, 14.37597134911144], [79.16019707246174, 14.380415719914804], [79.15910610701994, 14.38419595004991], [79.16050246681233, 14.38627338771502], [79.16507878451945, 14.38837551729543], [79.16611627198786, 14.391139004174878], [79.16642461382501, 14.396652271510618], [79.17169947393306, 14.399793011299712], [79.17346340029697, 14.40015108389652], [79.17773990267254, 14.395706493443159], [79.17882785268539, 14.392270560653795], [79.18487908389436, 14.386806172339151], [79.18524353740868, 14.385431236906744], [79.18702128025036, 14.384067137326847], [79.19131382261794, 14.37755574940531], [79.19380639013647, 14.375163744940263], [79.19805440811749, 14.37416282079432], [79.2069228824233, 14.369752492412829], [79.20904271516669, 14.369768538289305], [79.20974384525371, 14.370462716504193], [79.20971369230445, 14.374251301664556], [79.2079224275364, 14.377337679891165], [79.20753890560844, 14.381123582287866], [79.20539696913286, 14.383862836311456], [79.20502713689612, 14.385926648791], [79.20216742687327, 14.390038157975873], [79.20000877051169, 14.394843830101061], [79.19395761918896, 14.400308620165868], [79.19144808830615, 14.404767063699852], [79.1871716320054, 14.409211910812537], [79.18255559001744, 14.411931886512225], [79.17756367904373, 14.417404305940801], [79.17153385200574, 14.42011311046035], [79.16617965221789, 14.426615713926271], [79.16192206344815, 14.42864914514122], [79.16154888784916, 14.431057232399708], [79.15868493532469, 14.435512443906713], [79.16291725409842, 14.436578745659629], [79.1664569163525, 14.435917445871334]], [[79.18857118055809, 14.410944815650687], [79.19285319710008, 14.405811119126232], [79.1946504706759, 14.402036086462077], [79.20177548803397, 14.394857277472683], [79.2032191714486, 14.391079460889815], [79.2050023742241, 14.389026388305425], [79.20644870501191, 14.384904123751106], [79.20895219906039, 14.381134286243963], [79.20933569749512, 14.37734837880244], [79.21112420481063, 14.374606404674084], [79.21081198342802, 14.369437478254623], [79.2097602886095, 14.368396214971463], [79.20764321150163, 14.368035760457378], [79.19842151201604, 14.372443437160566], [79.19346691133923, 14.373438979786219], [79.19133598353774, 14.374800443600732], [79.18921612410982, 14.374784233680229], [79.18958329552632, 14.373064871866035], [79.19136090895391, 14.371700723765354], [79.19351116252035, 14.367928359017785], [79.1977838632396, 14.363827690881623], [79.19922734757314, 14.36004987388576], [79.2006542644574, 14.358338534603806], [79.20067077673302, 14.356272041294858], [79.20211140183743, 14.352838609077775], [79.20179386115234, 14.348358521385903], [79.20392172211972, 14.34734134041945], [79.20713402802512, 14.343232400186816], [79.2085498205208, 14.342898661520481], [79.21210704119162, 14.339825557442325], [79.21492493742672, 14.340880098652974], [79.21560965104749, 14.343640765580153], [79.21382967529792, 14.345349560084008], [79.21346002524093, 14.347413408411422], [79.2222755310243, 14.349546315628148], [79.22578117539388, 14.35301698740834], [79.22576761052088, 14.354739089347676], [79.2232647244121, 14.358509179193788], [79.22325113488579, 14.360231277978441], [79.22535732176942, 14.361969267902984], [79.22712380559535, 14.361982496264448], [79.22819182909606, 14.360957165107358], [79.22892822149461, 14.357173820140718], [79.23107230844569, 14.354089863548229], [79.23284143814256, 14.353758620521397], [79.2353090390097, 14.354465892445083], [79.23812186320096, 14.35620903530423], [79.24518767736551, 14.356261468567375], [79.25475859688287, 14.352198810544587], [79.25974452383268, 14.347068776692618], [79.26292138966278, 14.347436520582141], [79.26042183406138, 14.350862658353952], [79.25332408371494, 14.3549438048257], [79.25118026797989, 14.358027996467412], [79.24693000289419, 14.35937436193324], [79.23944613571054, 14.367585488369272], [79.2369378937633, 14.37204457275578], [79.23198066744338, 14.373385363814453], [79.23018427489347, 14.377160787969125], [79.22167734154439, 14.380541404709348], [79.2191795105264, 14.383622566005737], [79.21740740101424, 14.384298094730006], [79.21527101011432, 14.386348612962365], [79.2141808992732, 14.390129200617377], [79.21027222536652, 14.392855143416378], [79.20847529253037, 14.396630336788203], [79.20348984654207, 14.401414594898267], [79.20240495753742, 14.40450626318674], [79.1981535930758, 14.405851612211457], [79.18997075012226, 14.412677714474537], [79.18820390389536, 14.412664162515572], [79.18857118055809, 14.410944815650687]], [[79.26795465554478, 14.336106565101812], [79.26865853992238, 14.336456150728095], [79.26829205121986, 14.338175716218142], [79.26759080841698, 14.337481700414513], [79.26795465554478, 14.336106565101812]], [[79.24723792855676, 14.319765513392094], [79.2486508677498, 14.319775936592327], [79.24828160010615, 14.321839884796569], [79.24687132273509, 14.321485032681805], [79.24723792855676, 14.319765513392094]], [[79.2451693673573, 14.31320578634617], [79.24484289920706, 14.309758925674313], [79.24625310089945, 14.310113781459979], [79.24695152327033, 14.311152270350995], [79.24657157039162, 14.314593918849788], [79.24586511764674, 14.314588703962166], [79.2451693673573, 14.31320578634617]], [[79.24238912222677, 14.307329678867259], [79.23327824519373, 14.29796216564092], [79.22060109747247, 14.29304547777492], [79.22025874670803, 14.291665151360315], [79.22168231695984, 14.290298028946692], [79.22240762202446, 14.287892355544011], [79.22346716273121, 14.287900267226592], [79.2255646416662, 14.290671454209331], [79.22732517146056, 14.29137346180847], [79.22977592011719, 14.29414725164082], [79.23752467742428, 14.296960339592511], [79.23960900728234, 14.301453552622354], [79.24276108048599, 14.304921315899739], [79.24344876543601, 14.3073375120246], [79.24238912222677, 14.307329678867259]], [[79.20550966186275, 14.280876756337202], [79.19600713002251, 14.276671693725252], [79.19461097017896, 14.274594488485425], [79.19145183212467, 14.27215946243907], [79.1904171364562, 14.269051672006308], [79.19323954944838, 14.26941752803612], [79.19743620454398, 14.274615886246362], [79.19990007809734, 14.275667835181522], [79.20340432986782, 14.279138684568169], [79.20622417851584, 14.279848822404075], [79.2076204797998, 14.281925974938215], [79.20656097623257, 14.281917995991261], [79.20550966186275, 14.280876756337202]]], [[[79.16905617290823, 14.246500293767195], [79.16729898886169, 14.245453502816419], [79.1651803706096, 14.245437222217978], [79.1641099214391, 14.246806721877286], [79.16621463925988, 14.248545074076127], [79.16833328773953, 14.248561348967147], [79.16904228274797, 14.248222357116816], [79.16905617290823, 14.246500293767195]]], [[[79.26029093021928, 14.27611661610403], [79.25889678448576, 14.273695291291004], [79.25748677423276, 14.273340533040523], [79.25852773404611, 14.27575928220231], [79.26029093021928, 14.27611661610403]]], [[[79.25040754680198, 14.275355324195994], [79.24794071456033, 14.274648298081386], [79.24757156368447, 14.276712260295444], [79.24827257155643, 14.277406310223386], [79.25003841602967, 14.277419292554914], [79.25040754680198, 14.275355324195994]]], [[[79.20288980531153, 14.299456679175274], [79.20147976750724, 14.299101581279428], [79.20076789987552, 14.299785072508405], [79.20217794017391, 14.300140174976478], [79.20288980531153, 14.299456679175274]]], [[[79.20494060346236, 14.308083132198664], [79.20707624789078, 14.306032619085181], [79.20818227126674, 14.300185493711167], [79.2046557782166, 14.29947001802468], [79.20285695491792, 14.303589690203882], [79.20247362611381, 14.30737561144083], [79.20282135514648, 14.308067117116563], [79.20494060346236, 14.308083132198664]]], [[[79.21729478649507, 14.309209437677444], [79.22118826074092, 14.30820528749364], [79.22329940813685, 14.309254402702955], [79.22577190545908, 14.30927287367182], [79.225785425507, 14.307550765147905], [79.22332648406473, 14.305810190022719], [79.2180365136128, 14.304737271780214], [79.21696874680029, 14.305762587210037], [79.2165992338877, 14.307826457805124], [79.21729478649507, 14.309209437677444]]], [[[79.2603925388791, 14.308839913378893], [79.25792796519724, 14.30778851998619], [79.25720824863112, 14.309505478937027], [79.2593222665672, 14.31020986652796], [79.26038458449676, 14.309873197670276], [79.2603925388791, 14.308839913378893]]], [[[79.236961878786, 14.323822775027677], [79.23697801742662, 14.32175623475574], [79.23557314954503, 14.320712471225919], [79.23484244579758, 14.323807028451833], [79.23554353874856, 14.32450112555794], [79.236961878786, 14.323822775027677]]], [[[79.25730884935228, 14.342228641161029], [79.25487060479955, 14.337732916814101], [79.2541854057984, 14.334972309009219], [79.25242444485117, 14.334270454562427], [79.25205784081805, 14.335989981682488], [79.25275102075804, 14.337717315243124], [79.25520787880706, 14.33980207300488], [79.25660230605057, 14.342223448406836], [79.25730884935228, 14.342228641161029]]]]}}, {"type": "Feature", "properties": {"depth_class": 3, "depth_lo_m": 2.0, "t_s": 37800.535441747}, "geometry": {"type": "MultiPolygon", "coordinates": [[[[79.0164272670522, 14.215661296171254], [79.01678929857849, 14.214631076117234], [79.01609225821912, 14.213592070037937], [79.01361809590493, 14.213915935883495], [79.01430610767282, 14.21598809505003], [79.0164272670522, 14.215661296171254]]], [[[79.08083170393309, 14.239951900794148], [79.08333230717743, 14.236527799163847], [79.08334974019819, 14.234461422826612], [79.07874237313216, 14.236490908799674], [79.07906340615689, 14.24028209585478], [79.08083170393309, 14.239951900794148]]], [[[79.2076204797998, 14.281925974938215], [79.20622417851584, 14.279848822404075], [79.20340432986782, 14.279138684568169], [79.19990007809734, 14.275667835181522], [79.19743620454398, 14.274615886246362], [79.19323954944838, 14.26941752803612], [79.1904171364562, 14.269051672006308], [79.19145183212467, 14.27215946243907], [79.19461097017896, 14.274594488485425], [79.19600713002251, 14.276671693725252], [79.19988091805318, 14.278078759297923], [79.20198621029387, 14.27981685806104], [79.20410246172523, 14.280177268089853], [79.20656097623257, 14.281917995991261], [79.2076204797998, 14.281925974938215]]], [[[79.24344876543601, 14.3073375120246], [79.24276108048599, 14.304921315899739], [79.23960900728234, 14.301453552622354], [79.23752467742428, 14.296960339592511], [79.22977592011719, 14.29414725164082], [79.22732517146056, 14.29137346180847], [79.2255646416662, 14.290671454209331], [79.22346716273121, 14.287900267226592], [79.22240762202446, 14.287892355544011], [79.22168231695984, 14.290298028946692], [79.22025874670803, 14.291665151360315], [79.22060109747247, 14.29304547777492], [79.23327824519373, 14.29796216564092], [79.2413348397241, 14.30663299169794], [79.24344876543601, 14.3073375120246]]], [[[79.24692746983077, 14.314252100038258], [79.24695152327033, 14.311152270350995], [79.24625310089945, 14.310113781459979], [79.24484289920706, 14.309758925674313], [79.2451693673573, 14.31320578634617], [79.24586511764674, 14.314588703962166], [79.24692746983077, 14.314252100038258]]], [[[79.24863751000265, 14.32149806462569], [79.2486508677498, 14.319775936592327], [79.24723792855676, 14.319765513392094], [79.24687132273509, 14.321485032681805], [79.24863751000265, 14.32149806462569]]], [[[79.26864796308055, 14.337833865957622], [79.26865853992238, 14.336456150728095], [79.26795465554478, 14.336106565101812], [79.26759080841698, 14.337481700414513], [79.2679387838156, 14.338173137171971], [79.26864796308055, 14.337833865957622]]], [[[79.18997075012226, 14.412677714474537], [79.1981535930758, 14.405851612211457], [79.20276107479681, 14.404164537314571], [79.20348984654207, 14.401414594898267], [79.20847529253037, 14.396630336788203], [79.21027222536652, 14.392855143416378], [79.2141808992732, 14.390129200617377], [79.21527101011432, 14.386348612962365], [79.21740740101424, 14.384298094730006], [79.2191795105264, 14.383622566005737], [79.22167734154439, 14.380541404709348], [79.23018427489347, 14.377160787969125], [79.23198066744338, 14.373385363814453], [79.2369378937633, 14.37204457275578], [79.23944613571054, 14.367585488369272], [79.24693000289419, 14.35937436193324], [79.25118026797989, 14.358027996467412], [79.25332408371494, 14.3549438048257], [79.26042183406138, 14.350862658353952], [79.26292138966278, 14.347436520582141], [79.25974452383268, 14.347068776692618], [79.25475859688287, 14.352198810544587], [79.24518767736551, 14.356261468567375], [79.23812186320096, 14.35620903530423], [79.2353090390097, 14.354465892445083], [79.23284143814256, 14.353758620521397], [79.23107230844569, 14.354089863548229], [79.22892822149461, 14.357173820140718], [79.22819182909606, 14.360957165107358], [79.22712380559535, 14.361982496264448], [79.22535732176942, 14.361969267902984], [79.22325113488579, 14.360231277978441], [79.2232647244121, 14.358509179193788], [79.22576761052088, 14.354739089347676], [79.22578117539388, 14.35301698740834], [79.2222755310243, 14.349546315628148], [79.21346002524093, 14.347413408411422], [79.21382967529792, 14.345349560084008], [79.21560965104749, 14.343640765580153], [79.21492493742672, 14.340880098652974], [79.21210704119162, 14.339825557442325], [79.2085498205208, 14.342898661520481], [79.20713402802512, 14.343232400186816], [79.20392172211972, 14.34734134041945], [79.20179386115234, 14.348358521385903], [79.20211140183743, 14.352838609077775], [79.20067077673302, 14.356272041294858], [79.2006542644574, 14.358338534603806], [79.19922734757314, 14.36004987388576], [79.1977838632396, 14.363827690881623], [79.19351116252035, 14.367928359017785], [79.19136090895391, 14.371700723765354], [79.18958329552632, 14.373064871866035], [79.18921612410982, 14.374784233680229], [79.19133598353774, 14.374800443600732], [79.19346691133923, 14.373438979786219], [79.19842151201604, 14.372443437160566], [79.20764321150163, 14.368035760457378], [79.2097602886095, 14.368396214971463], [79.21081198342802, 14.369437478254623], [79.21112420481063, 14.374606404674084], [79.20933569749512, 14.37734837880244], [79.20895219906039, 14.381134286243963], [79.20680753016401, 14.384217970996174], [79.2060788793569, 14.38696793862555], [79.20357801804148, 14.390393315667012], [79.20177548803397, 14.394857277472683], [79.1946504706759, 14.402036086462077], [79.19285319710008, 14.405811119126232], [79.18857118055809, 14.410944815650687], [79.18820390389536, 14.412664162515572], [79.18997075012226, 14.412677714474537]], [[79.23413030389054, 14.369612553514585], [79.23028452571097, 14.364417220895614], [79.23104525567821, 14.357534076749753], [79.23175724622939, 14.356850508297812], [79.23423027647105, 14.35686895109013], [79.23704581520299, 14.358267686543435], [79.24375302259187, 14.359006387803898], [79.24338629112138, 14.360725886001239], [79.23912247158599, 14.363794213253776], [79.23627176483915, 14.366872980263206], [79.23519293663213, 14.369276035281056], [79.23413030389054, 14.369612553514585]]]]}}, {"type": "Feature", "properties": {"depth_class": 4, "depth_lo_m": 3.0, "t_s": 37800.535441747}, "geometry": {"type": "Polygon", "coordinates": [[[79.23413030389054, 14.369612553514585], [79.23237457685654, 14.368221685806033], [79.23028452571097, 14.364417220895614], [79.23104525567821, 14.357534076749753], [79.23175724622939, 14.356850508297812], [79.23423027647105, 14.35686895109013], [79.23704581520299, 14.358267686543435], [79.24375302259187, 14.359006387803898], [79.24338629112138, 14.360725886001239], [79.24090244105658, 14.362085225893633], [79.23627176483915, 14.366872980263206], [79.23554894762509, 14.368934246877618], [79.23413030389054, 14.369612553514585]]]}}]}