{"type": "FeatureCollection", "features": [{"type": "Feature", "properties": {"depth_class": 1, "depth_lo_m": 0.3, "t_s": 9900.657205514912}, "geometry": {"type": "MultiPolygon", "coordinates": [[[[79.06734447203391, 14.248109075499272], [79.07300556939342, 14.246777198081992], [79.07407943704678, 14.245063781164223], [79.07337911495824, 14.244369293222983], [79.07090461329338, 14.244693719657988], [79.06699725085913, 14.247417430236402], [79.06734447203391, 14.248109075499272]]], [[[79.22576649693613, 14.30996171700815], [79.22648373999787, 14.308589302730242], [79.2254457350124, 14.30582601988645], [79.21874021087808, 14.305086986310283], [79.21660738719977, 14.306793197764524], [79.21659107992458, 14.308859717751526], [79.21729206936566, 14.309553857761003], [79.22153605138817, 14.308896772534661], [79.22294077739609, 14.309940604174006], [79.22576649693613, 14.30996171700815]]], [[[79.19460059500871, 14.40823552071131], [79.20062711683772, 14.405870468331276], [79.20486469627245, 14.4062471478523], [79.20417175341136, 14.404519701466409], [79.20454439993182, 14.402111482886973], [79.20952709695543, 14.397671618036327], [79.21132402354007, 14.393896415897759], [79.21523270645466, 14.391170456544717], [79.21596400327425, 14.388076032694546], [79.21739374116575, 14.386020184269764], [79.21987798556324, 14.384661140394163], [79.22237309748972, 14.381924391142743], [79.2262705731172, 14.380575885950941], [79.22804806240741, 14.37921144402065], [79.23052404403832, 14.378885533111788], [79.23303249767433, 14.374426542421599], [79.23798974407462, 14.373085731337742], [79.23941648906575, 14.371374135688948], [79.24121806105018, 14.366909770949741], [79.24656061154022, 14.361438291735784], [79.24798185253981, 14.360415475685615], [79.25152019043323, 14.359752729143999], [79.25508787068472, 14.35530124425014], [79.26040587621884, 14.352929219576172], [79.26361202720062, 14.349508261702308], [79.26502781712836, 14.349174180700885], [79.26716341444703, 14.347123115432964], [79.26753522906805, 14.344714698778823], [79.27039316331432, 14.340602182892619], [79.27042486487693, 14.336469033838132], [79.26867969023336, 14.333700719767096], [79.26978437407628, 14.327853153359902], [79.26837401121722, 14.327498421137278], [79.26658923835446, 14.329896531390062], [79.26655748169306, 14.334029674314278], [79.26583772027017, 14.33574665378684], [79.26616185451144, 14.339537947272342], [79.2643742979115, 14.342280453069833], [79.26400510990962, 14.34434443414455], [79.26187748528415, 14.345362189196512], [79.2604696923364, 14.344662972425633], [79.2552505138019, 14.33429125145314], [79.25349755336214, 14.332556126677575], [79.25423604470423, 14.328428209040892], [79.25390411350742, 14.325670199675441], [79.25146341332508, 14.32151888844619], [79.24908419576894, 14.309445765434564], [79.24069005881158, 14.298705997220182], [79.23965190338973, 14.295942759502976], [79.2378966562333, 14.294551986224098], [79.23190852779545, 14.292440895018686], [79.2308597329847, 14.291055325916195], [79.22664039128671, 14.288612818902761], [79.22489879228895, 14.285499853651745], [79.21890021560456, 14.284766159793742], [79.21503973816404, 14.28163727525273], [79.211165767369, 14.280230438696712], [79.20906311468946, 14.278147993078894], [79.20343164882311, 14.275694500718465], [79.20203268712838, 14.273961749801545], [79.19816442637493, 14.271865890414393], [79.19431819408226, 14.267014640941147], [79.19255797681058, 14.266312421873215], [79.18905133432163, 14.263185868288438], [79.18696832171645, 14.258692356769643], [79.18486609334883, 14.256609743603576], [79.18134866153773, 14.254860764110713], [79.17959963916805, 14.252780806370788], [79.17608231339389, 14.25103176051613], [79.17328235483811, 14.247910423720418], [79.1704658187216, 14.246855540408271], [79.16766043112094, 14.244422977012334], [79.16271980111476, 14.244040558368194], [79.16200802474756, 14.244723943354925], [79.16198850570575, 14.24713482277384], [79.16127671652681, 14.247818203979397], [79.15951118873208, 14.247804591367622], [79.15879100890615, 14.24952119589667], [79.15984754047345, 14.249873780008507], [79.16268077644649, 14.248862318902384], [79.16549450455281, 14.250261704560797], [79.16761316819431, 14.250277987763093], [79.16974016695245, 14.24926101397432], [79.17150294149609, 14.249618965357099], [79.17324077066927, 14.253076624616202], [79.17711952038147, 14.253795170557812], [79.17957753181166, 14.255536122415624], [79.17671103489427, 14.26068074878674], [79.1738860067263, 14.260659125943171], [79.17107764801335, 14.258570993420637], [79.16614505172907, 14.257155372995479], [79.16544716556965, 14.25611670532603], [79.16438780745392, 14.256108553193021], [79.16296138494879, 14.257819732452033], [79.16119019338157, 14.258494944638821], [79.15836801353247, 14.258128730919713], [79.15837919866902, 14.256751089679565], [79.16015876128078, 14.25504266553094], [79.16228025302142, 14.254714590321742], [79.16439338107347, 14.255419730140476], [79.16510797426082, 14.25439193007735], [79.16441845867911, 14.252320025886231], [79.16088732868086, 14.252292825691747], [79.15913573601422, 14.250557152865706], [79.15312167209446, 14.251888392055832], [79.1474719144982, 14.25184458049426], [79.13756226924073, 14.254522839625468], [79.13297749541691, 14.253798136226044], [79.11567808760867, 14.253317660716018], [79.11041019826163, 14.249831745729322], [79.10478076073468, 14.247376129261893], [79.09456131278186, 14.244883787039807], [79.08749667374065, 14.2451716923252], [79.08574576015029, 14.243435555089672], [79.08257673570787, 14.242376857934984], [79.08510347589437, 14.23585317151999], [79.08512379435601, 14.23344239644641], [79.08407330246327, 14.232400712019327], [79.08230797294688, 14.232386543340901], [79.07698576310455, 14.235443512475031], [79.07592655540078, 14.235434979625323], [79.07487610303635, 14.234393259017217], [79.07240463398355, 14.234373321346716], [79.07098359539829, 14.235395097622805], [79.07026283214263, 14.237111358755731], [79.06567292172134, 14.237074215747015], [79.06424890461173, 14.238440337842201], [79.06245122896192, 14.242214325115475], [79.05782293787259, 14.246654096783422], [79.05533955851999, 14.248011525772071], [79.05180576288863, 14.248327109142412], [79.04936377025436, 14.244863025487938], [79.04618606965943, 14.244837028593185], [79.04767239783934, 14.236238872517097], [79.04697811162136, 14.234855542996279], [79.04486566737192, 14.234149430736503], [79.042735437678, 14.235509628120402], [79.04022240510106, 14.240310776723705], [79.03775687382719, 14.23960169908553], [79.03457628864692, 14.239919943076055], [79.03244296693222, 14.241624418557075], [79.03065372434516, 14.244364939443443], [79.02746110500493, 14.246060615922659], [79.02672800903845, 14.249154233989644], [79.02812237564437, 14.251232217763699], [79.03058499577406, 14.252285791504548], [79.03091118110913, 14.25538816969255], [79.03019602849068, 14.256415491161167], [79.02913376029295, 14.256751122562717], [79.0256238218951, 14.25431122611828], [79.02315220890097, 14.254290750901035], [79.02101866537946, 14.255995093741658], [79.02132969231178, 14.260819380942845], [79.01885199713897, 14.26148761617472], [79.01320848117805, 14.260751832860155], [79.01143394569468, 14.261770253417012], [79.010712645339, 14.263486262460098], [79.00894715169137, 14.263471520297806], [79.00861220146247, 14.261402291121147], [79.01147622150674, 14.25694892570809], [79.01328690496855, 14.251797926453449], [79.01261391721899, 14.248003851807818], [79.01051055938736, 14.246264291790947], [79.00699193620343, 14.244857306220704], [78.99781216569518, 14.244780459435985], [78.99711210808827, 14.24408577762451], [78.99712729746314, 14.242363887650225], [79.00318388393764, 14.236215353525617], [79.01275555384487, 14.231817927484423], [79.01560401391428, 14.229086354471365], [79.0192004942173, 14.221539228688943], [79.02098065680697, 14.219831934473552], [79.02105255120036, 14.211566723056736], [79.01540723686763, 14.211175531691218], [79.01257707523628, 14.211840842354107], [79.01114694015935, 14.213895393393887], [79.01109575621612, 14.219749882365749], [79.00929744124946, 14.22352338030106], [79.00680505412316, 14.225913443570048], [79.00255950611927, 14.226911201293776], [79.00042005921523, 14.229304135152567], [78.9961653236785, 14.231334901540697], [78.99046482077333, 14.237141847302354], [78.98938736967327, 14.239199188781626], [78.98932027855749, 14.24677546862328], [78.9949146137877, 14.253021800288417], [79.00374161991634, 14.253095846957718], [79.00373252948688, 14.254128984235978], [78.9990908146403, 14.259944944111016], [78.99765108170351, 14.263032483722435], [78.99795855398976, 14.26820111282099], [79.00004678311956, 14.271662683726685], [79.00180321936735, 14.27271063456089], [79.00709081089946, 14.273788146359886], [79.01238753290995, 14.273832406194346], [79.01593075482268, 14.272484323052742], [79.02229583913267, 14.271504032845673], [79.02508773022545, 14.275315681801686], [79.02861594144663, 14.275689321450454], [79.0303965230503, 14.27398200989937], [79.03008831482643, 14.26881332817403], [79.03080650675116, 14.267441628769024], [79.03222791445992, 14.266420143222435], [79.03539992071364, 14.267135135386706], [79.03822778314941, 14.26681402311328], [79.03894294178167, 14.265786677911155], [79.03896975293033, 14.26268720261849], [79.04183027208458, 14.25857778481441], [79.04323672175349, 14.259278155270678], [79.04390727042914, 14.263416597525191], [79.04671728408138, 14.265161703176066], [79.0509575614115, 14.264852006629393], [79.0537972232415, 14.263153146241915], [79.05485654636462, 14.263161793657655], [79.05590405743494, 14.264547994969268], [79.05801681965437, 14.265254048134688], [79.0608505538263, 14.264243878879526], [79.0661472242219, 14.26428691548219], [79.06898678859679, 14.262587858602812], [79.07252081914204, 14.262272045900344], [79.07643132791289, 14.259203877868488], [79.07819394140193, 14.25956251048745], [79.07922700845465, 14.26267059780118], [79.08062487980594, 14.26440394912935], [79.08415312472938, 14.264776756084983], [79.08628054640572, 14.263760590916636], [79.08666562875283, 14.259975070299506], [79.08737765695345, 14.259291944825454], [79.0905614365025, 14.258628624972008], [79.09305056883066, 14.25658202343981], [79.09552230955593, 14.256601777602617], [79.10079583928827, 14.25939921320329], [79.10289146035055, 14.262171275505155], [79.10570488354318, 14.263571340745171], [79.10850397605435, 14.266693378107803], [79.11098732925612, 14.265335382813568], [79.1265191161941, 14.266146839742508], [79.12935834674762, 14.264447010062783], [79.14136464772703, 14.264540942427983], [79.14490156558736, 14.263879639672952], [79.15160819304215, 14.264276175108776], [79.156540809919, 14.265692103420745], [79.1625468667898, 14.265394053740883], [79.17626923973482, 14.271699280686693], [79.18191958341107, 14.271742469148661], [79.18896602195525, 14.273862761107193], [79.19352404157542, 14.278030621074], [79.20196159638188, 14.282916620033967], [79.20510734524095, 14.287073627645169], [79.20932638107945, 14.289516486650173], [79.21107594554323, 14.291596285420361], [79.21740884063746, 14.294743784718877], [79.22305177084698, 14.29581932910877], [79.22832268843811, 14.29930307246526], [79.23149609584094, 14.300015578917685], [79.23429480738123, 14.303480810717287], [79.23850645365442, 14.3069564928057], [79.24198231313166, 14.314215560023023], [79.24225510854686, 14.324550907439628], [79.2379489841094, 14.333130073108165], [79.23545195969675, 14.336211503666126], [79.23328113808194, 14.342739752340448], [79.23290086804533, 14.34618134031007], [79.23037926702897, 14.352362482058878], [79.22752590634343, 14.355785570169152], [79.22678136030122, 14.360602170202926], [79.22501488763189, 14.360588940531748], [79.22431644835913, 14.359550385176039], [79.22504475331857, 14.35680031933582], [79.22718075239052, 14.354749665434019], [79.2264985870759, 14.351644593573766], [79.22333807669509, 14.349209841222653], [79.21697911700949, 14.349162097492934], [79.2159247467343, 14.348465286272777], [79.21452256882901, 14.347076973841952], [79.21488948053619, 14.34535754120537], [79.21631345769217, 14.343990499834838], [79.21598199689234, 14.341232491370834], [79.21352553673545, 14.33914736713478], [79.2110527288083, 14.339128730831202], [79.20500621912237, 14.344249616539898], [79.20286191393726, 14.347333309206359], [79.20073404943014, 14.348350480106486], [79.20104881826803, 14.353174982512702], [79.19961368185704, 14.355919575269942], [79.19959991408109, 14.357641652100439], [79.19781419409712, 14.360039127279768], [79.19743884366518, 14.362791757884887], [79.19281286139052, 14.366889725541943], [79.190662608967, 14.370662084048556], [79.1881728421697, 14.372709645454975], [79.18815619538834, 14.374776121608576], [79.18955834315094, 14.376164588288727], [79.19132490366543, 14.376178096587235], [79.1948746171472, 14.374138590090242], [79.20266671487877, 14.371786837048255], [79.2065723226778, 14.369405399940932], [79.20869215174366, 14.369421448576347], [79.20974110443998, 14.370807133389523], [79.20971643384514, 14.373906884884363], [79.20791968256628, 14.377682096232517], [79.20753890560844, 14.381123582287866], [79.20503814063261, 14.384548986510909], [79.20466555146453, 14.386957213257707], [79.2025262744322, 14.389352014472887], [79.20036487384456, 14.394502106220585], [79.19502044099667, 14.399972307071357], [79.19322873943858, 14.403058520234964], [79.19319546299647, 14.407191473170894], [79.19460059500871, 14.40823552071131]], [[79.21531750260027, 14.380493514411747], [79.21322219587817, 14.377377757339902], [79.21468194901831, 14.371533323700348], [79.21682364676083, 14.368793956199823], [79.22176993297025, 14.368831157871885], [79.22319131954528, 14.367808509512528], [79.22428113008031, 14.364027843641543], [79.22675694254748, 14.363701953210944], [79.22853699395183, 14.361993069479801], [79.2289228037469, 14.357862661884807], [79.23107230844569, 14.354089863548229], [79.23248815303602, 14.353755985903224], [79.23776587811132, 14.356550830671004], [79.2423532837111, 14.357273790704049], [79.24588621197823, 14.35729997246963], [79.25085372397785, 14.354581138625441], [79.2522668839919, 14.354591565049125], [79.25082697268638, 14.358025388420801], [79.24728866175438, 14.358688127542507], [79.2408862910522, 14.364151763533567], [79.23838890808663, 14.367233182697088], [79.23694329255555, 14.371355728843989], [79.23198608193748, 14.372696521828475], [79.22912973585782, 14.376464017335833], [79.22665106488806, 14.377134336416772], [79.22558294945357, 14.378159649666435], [79.21956557554606, 14.379492204857753], [79.2174347152813, 14.380853914861708], [79.21531750260027, 14.380493514411747]], [[79.24131223426782, 14.354854963370576], [79.23990446392587, 14.354155625442182], [79.23992330217995, 14.351744664073262], [79.24174615689084, 14.344524880635793], [79.24390603684408, 14.339374226162445], [79.24461524772516, 14.339035031389749], [79.24571790648822, 14.333532077846701], [79.24785884327555, 14.330792336760295], [79.24892127274396, 14.330455732694313], [79.24994629369694, 14.334941080592795], [79.25168588911734, 14.338398358694299], [79.25728222066583, 14.345672906435075], [79.25726357637649, 14.348083891503972], [79.25441598501548, 14.350818505756598], [79.24590499051806, 14.354889003971413], [79.24131223426782, 14.354854963370576]], [[79.25616907868938, 14.352553638077385], [79.25938592342263, 14.347755036973863], [79.26221217186406, 14.347775770030696], [79.26077777878945, 14.350520823860341], [79.25900070619387, 14.35188556306197], [79.25616907868938, 14.352553638077385]], [[79.23608033043645, 14.346205015179788], [79.23753920688566, 14.34036033459809], [79.23967762045501, 14.337965111031844], [79.24149763389417, 14.331089733676373], [79.24328266202035, 14.328691843737156], [79.24619694913589, 14.317346713995152], [79.24479473360157, 14.315958577898169], [79.24377521301375, 14.310784372452035], [79.24203054976645, 14.308015916280146], [79.23957414073607, 14.305931070062115], [79.23853060975883, 14.303856675280976], [79.23502004220136, 14.301075090768125], [79.2336260630214, 14.29865363599925], [79.2283415750704, 14.296892115099862], [79.22377167836125, 14.294102496457437], [79.22130205753601, 14.293739602575249], [79.21813963440738, 14.291649290637956], [79.22133184043005, 14.289950967762671], [79.22241573698822, 14.286859090500574], [79.22347527286422, 14.28686700158749], [79.22486367535456, 14.289977341391207], [79.22767835800023, 14.291376092890715], [79.2294281200129, 14.293455777554211], [79.23717953319274, 14.295924449585913], [79.2399675738446, 14.300767318153724], [79.24347017818151, 14.304582111456655], [79.2480085162927, 14.311504510974869], [79.24797646226959, 14.315637619261016], [79.2500584694992, 14.320475203163186], [79.24932796022455, 14.323569827807255], [79.24755373447414, 14.324590075072944], [79.24467957792658, 14.330768844494287], [79.24217998300746, 14.33419478401554], [79.2421558236358, 14.337294599743306], [79.24035726509933, 14.341414587886446], [79.23608033043645, 14.346205015179788]], [[79.25001308009749, 14.32633044148869], [79.24896670409213, 14.324600499828323], [79.24932528911216, 14.323914253450253], [79.25073558681429, 14.324269093079009], [79.25178464385333, 14.325654602314865], [79.25142339402132, 14.326685278799868], [79.25001308009749, 14.32633044148869]], [[79.2177918748702, 14.290957803953201], [79.2174359775882, 14.291299578913915], [79.21743869088567, 14.290955158275908], [79.2177918748702, 14.290957803953201]], [[79.21673232313348, 14.290949865350518], [79.21251044606078, 14.288851545352705], [79.20444470225839, 14.281557605514784], [79.20197800631266, 14.280850112146128], [79.19952228159988, 14.278764924632032], [79.19494765781253, 14.276663666001951], [79.18969709134227, 14.2707683868948], [79.18758647375326, 14.269719030408933], [79.18830652974819, 14.268002323255185], [79.18901831854856, 14.267318860248906], [79.19184070598031, 14.267684730093789], [79.19464938905364, 14.269772652375298], [79.19744442549958, 14.27358263421147], [79.2013127055127, 14.275678507672325], [79.20341525832399, 14.27776101115373], [79.20728912507292, 14.27916796360372], [79.21219807142239, 14.283682595415113], [79.21323311994502, 14.286790330407511], [79.21605039142085, 14.287844786509217], [79.21638999827529, 14.28956953624278], [79.21744140411087, 14.290610737627453], [79.21673232313348, 14.290949865350518]], [[79.02580597635658, 14.273944004735007], [79.02301108125857, 14.270476747067725], [79.02053929602151, 14.270456222040847], [79.01911781724067, 14.2714776274255], [79.0145243349193, 14.271783792368968], [79.01239659698184, 14.272799265159088], [79.0035718118444, 14.272381060481687], [79.0014622587799, 14.271330159780586], [78.9986738840653, 14.267173912869037], [78.99871036827743, 14.263041380504223], [79.0019367827355, 14.257557986405274], [79.00478874974014, 14.254482227879606], [79.00515697343542, 14.252763284743247], [79.00445989775349, 14.251724239486554], [79.00162920012876, 14.25238934815967], [78.99598297685982, 14.251997570653202], [78.99072645554412, 14.247476119081263], [78.99003556322401, 14.245748289148985], [78.99008433965484, 14.240238265050909], [78.99116483684855, 14.237836543525466], [78.99757750750885, 14.231346745870312], [79.00041096950301, 14.23033727238274], [79.00361257843512, 14.22760881393552], [79.00679599567393, 14.22694658512981], [79.00964143385498, 14.22455946474122], [79.01215785955654, 14.2194143113454], [79.01220600642452, 14.213904200440556], [79.01292107304687, 14.212876922664377], [79.01504520700615, 14.212205749831476], [79.01821339437264, 14.213265252000868], [79.01996052664111, 14.21534617680958], [79.01992755346873, 14.219134395756436], [79.01778535083047, 14.221871903023532], [79.01561904659374, 14.227364442880006], [79.01383276344929, 14.229760447043938], [79.01099030420885, 14.231803232432426], [79.00248383053973, 14.235520688318175], [78.99607114764753, 14.242010618658526], [78.9960498712953, 14.244421263056168], [78.99744998521082, 14.24581063076728], [79.0073359368278, 14.245893395090432], [79.01190173370286, 14.248686730318667], [79.01222162756453, 14.252477863079552], [79.01005782375304, 14.257625903465932], [79.00683461707433, 14.262765053525092], [79.00682553430748, 14.263798191921815], [79.00787877803907, 14.264495807733814], [79.0114037390155, 14.26521405765671], [79.01319641114884, 14.26212935628958], [79.0188369514324, 14.263209526239343], [79.02308917374145, 14.26152279462134], [79.02345427959202, 14.260148190690895], [79.02205691235756, 14.258414562308824], [79.02207192835726, 14.256692648188968], [79.023496294977, 14.255326827106435], [79.02666810739882, 14.256041912651968], [79.0284185952044, 14.257778436996752], [79.0316024204356, 14.25711592408596], [79.03199435243143, 14.252641834193568], [79.03095302348217, 14.250566782446304], [79.02849041871593, 14.24951321454811], [79.02851135857252, 14.247102523523841], [79.03242207719096, 14.244035116407485], [79.03492041622309, 14.240956007876251], [79.03739487792105, 14.24063195605721], [79.03879823222832, 14.241676724435887], [79.04056358827168, 14.241691223859608], [79.04449482108816, 14.236212868516862], [79.04590411420368, 14.236568819444809], [79.0458655954516, 14.241045867445015], [79.04477672627256, 14.244481072944408], [79.04510904351088, 14.246894681250781], [79.04864281258358, 14.246579195446415], [79.05073763757717, 14.24935162404343], [79.05390950365455, 14.250066347682013], [79.05957952062533, 14.247701633101501], [79.06421074210668, 14.242917434111014], [79.0649168988594, 14.242923160776204], [79.06563185741773, 14.241895708586044], [79.06565239148951, 14.23948496242397], [79.06672040596743, 14.238460365487933], [79.07060127607897, 14.238836179260174], [79.07274601492497, 14.235753746829014], [79.07415829134953, 14.23576514197381], [79.07555598135427, 14.237498501008904], [79.07589154907252, 14.239567713525975], [79.07694785992152, 14.239920643592287], [79.07874819834545, 14.235802118586868], [79.0822847192004, 14.235141710497173], [79.08297632855181, 14.236869360519854], [79.0801080804296, 14.242012593832714], [79.08009643264292, 14.243390174604492], [79.08150003241568, 14.244434718571096], [79.08432470900495, 14.244457410526833], [79.08748506808163, 14.246549278712138], [79.09384357076875, 14.246255738844225], [79.1047692580686, 14.248753729291254], [79.11566664608851, 14.25469526875757], [79.13261304702871, 14.2551729931569], [79.1347232215598, 14.256222791071982], [79.13825436030046, 14.256250385908885], [79.14215272412552, 14.254558643920747], [79.14603696512143, 14.254588870941879], [79.14777722346007, 14.257702264162532], [79.1495343869519, 14.258749198576949], [79.15553184280691, 14.25948453348301], [79.15799251422378, 14.260881284637787], [79.16682067290668, 14.260949334416082], [79.16821927151179, 14.262682252553073], [79.17314645154995, 14.264786671270425], [79.17665286737117, 14.267913435529419], [79.17664732590721, 14.268602262597652], [79.17453125438831, 14.268241626102602], [79.17031303863713, 14.26579823729533], [79.1678438753907, 14.265434834243777], [79.16609213413939, 14.263699195801705], [79.16362858450489, 14.262646930140514], [79.16079517129886, 14.263658381235558], [79.15797013130582, 14.263636565397054], [79.15268722426092, 14.26187352532585], [79.12937255469868, 14.262724987820073], [79.12547397399267, 14.264416490862258], [79.11311466738984, 14.2643189637172], [79.11065429736074, 14.262921778552855], [79.10395944882937, 14.26114650588158], [79.10221404975759, 14.258721662387268], [79.09835004791354, 14.256279923981678], [79.0923588385383, 14.254854388228164], [79.07681363523417, 14.255762785599574], [79.07362403145419, 14.257114708856538], [79.07148492043592, 14.259508334154773], [79.07006956777171, 14.259841297253955], [79.06544981655477, 14.263248009247015], [79.06086233628204, 14.262866316191676], [79.05767846109926, 14.263529220476151], [79.0559306343773, 14.26144848788895], [79.05416510843803, 14.261434082563468], [79.04990712010088, 14.263810175684332], [79.04637604613502, 14.263781258100508], [79.04462536277244, 14.262044842957664], [79.04396371120717, 14.256873238995107], [79.04220120595826, 14.256514362586165], [79.038634522977, 14.26061798033862], [79.0375334897003, 14.265430664810514], [79.03117457297286, 14.265722624367305], [79.02903497107246, 14.268115799401919], [79.02898704195493, 14.273625941613346], [79.02792169059992, 14.274305940125245], [79.02580597635658, 14.273944004735007]], [[79.17876340644399, 14.268962881079705], [79.1794779902729, 14.26793503633747], [79.183006639492, 14.268306405065571], [79.18299835590358, 14.269339649281136], [79.17876340644399, 14.268962881079705]], [[79.08134859709565, 14.262343266533478], [79.08101588656072, 14.259929660059852], [79.0827843403741, 14.259599469877696], [79.08311707004823, 14.262013076241544], [79.08134859709565, 14.262343266533478]], [[79.15522073495657, 14.254315655698784], [79.15592976371755, 14.253976707515228], [79.15734222135066, 14.253987624466102], [79.15698071345741, 14.2550181263853], [79.15521513394681, 14.255004475250859], [79.15522073495657, 14.254315655698784]], [[79.16586988042765, 14.247509123662903], [79.16588101137076, 14.246131475377023], [79.1679968575194, 14.246492163029512], [79.16763263199815, 14.247867101349243], [79.16586988042765, 14.247509123662903]]]]}}, {"type": "Feature", "properties": {"depth_class": 2, "depth_lo_m": 1.0, "t_s": 9900.657205514912}, "geometry": {"type": "MultiPolygon", "coordinates": [[[[79.02863092656963, 14.273967402983153], [79.0293491472949, 14.272595711766897], [79.02903497107246, 14.268115799401919], [79.0297501725851, 14.267088487790675], [79.03188377677225, 14.26538407322689], [79.0375334897003, 14.265430664810514], [79.03791640247427, 14.261989712940725], [79.04220120595826, 14.256514362586165], [79.04396371120717, 14.256873238995107], [79.04462536277244, 14.262044842957664], [79.04637604613502, 14.263781258100508], [79.04990712010088, 14.263810175684332], [79.05416510843803, 14.261434082563468], [79.0559306343773, 14.26144848788895], [79.05767846109926, 14.263529220476151], [79.06086233628204, 14.262866316191676], [79.06544981655477, 14.263248009247015], [79.07006956777171, 14.259841297253955], [79.07148492043592, 14.259508334154773], [79.07362403145419, 14.257114708856538], [79.07681363523417, 14.255762785599574], [79.0923588385383, 14.254854388228164], [79.09835004791354, 14.256279923981678], [79.10221404975759, 14.258721662387268], [79.10395944882937, 14.26114650588158], [79.11065429736074, 14.262921778552855], [79.11311466738984, 14.2643189637172], [79.12547397399267, 14.264416490862258], [79.12937255469868, 14.262724987820073], [79.15268722426092, 14.26187352532585], [79.15797013130582, 14.263636565397054], [79.16079517129886, 14.263658381235558], [79.16362858450489, 14.262646930140514], [79.16609213413939, 14.263699195801705], [79.1678438753907, 14.265434834243777], [79.17031303863713, 14.26579823729533], [79.17453125438831, 14.268241626102602], [79.17664732590721, 14.268602262597652], [79.17665286737117, 14.267913435529419], [79.17314645154995, 14.264786671270425], [79.16821927151179, 14.262682252553073], [79.16682067290668, 14.260949334416082], [79.15799251422378, 14.260881284637787], [79.15553184280691, 14.25948453348301], [79.1495343869519, 14.258749198576949], [79.14777722346007, 14.257702264162532], [79.14603696512143, 14.254588870941879], [79.14215272412552, 14.254558643920747], [79.13825436030046, 14.256250385908885], [79.1347232215598, 14.256222791071982], [79.13261304702871, 14.2551729931569], [79.11566664608851, 14.25469526875757], [79.1047692580686, 14.248753729291254], [79.09384357076875, 14.246255738844225], [79.08748506808163, 14.246549278712138], [79.08432470900495, 14.244457410526833], [79.08150003241568, 14.244434718571096], [79.08009643264292, 14.243390174604492], [79.0801080804296, 14.242012593832714], [79.08297632855181, 14.236869360519854], [79.0822847192004, 14.235141710497173], [79.07874819834545, 14.235802118586868], [79.07694785992152, 14.239920643592287], [79.07589154907252, 14.239567713525975], [79.07555598135427, 14.237498501008904], [79.07415829134953, 14.23576514197381], [79.07274601492497, 14.235753746829014], [79.07060127607897, 14.238836179260174], [79.06672040596743, 14.238460365487933], [79.06565239148951, 14.23948496242397], [79.06563185741773, 14.241895708586044], [79.0649168988594, 14.242923160776204], [79.06421074210668, 14.242917434111014], [79.05957952062533, 14.247701633101501], [79.05390950365455, 14.250066347682013], [79.05073763757717, 14.24935162404343], [79.04864281258358, 14.246579195446415], [79.04510904351088, 14.246894681250781], [79.04477672627256, 14.244481072944408], [79.0458655954516, 14.241045867445015], [79.04590411420368, 14.236568819444809], [79.04449482108816, 14.236212868516862], [79.04056358827168, 14.241691223859608], [79.03879823222832, 14.241676724435887], [79.03739487792105, 14.24063195605721], [79.03492041622309, 14.240956007876251], [79.03242207719096, 14.244035116407485], [79.02851135857252, 14.247102523523841], [79.02849041871593, 14.24951321454811], [79.03095302348217, 14.250566782446304], [79.03199435243143, 14.252641834193568], [79.0316024204356, 14.25711592408596], [79.0284185952044, 14.257778436996752], [79.02666810739882, 14.256041912651968], [79.023496294977, 14.255326827106435], [79.02207192835726, 14.256692648188968], [79.02205691235756, 14.258414562308824], [79.02345427959202, 14.260148190690895], [79.02308917374145, 14.26152279462134], [79.0188369514324, 14.263209526239343], [79.01319641114884, 14.26212935628958], [79.0114037390155, 14.26521405765671], [79.00787877803907, 14.264495807733814], [79.00682553430748, 14.263798191921815], [79.00683461707433, 14.262765053525092], [79.01005782375304, 14.257625903465932], [79.01222162756453, 14.252477863079552], [79.01190173370286, 14.248686730318667], [79.0073359368278, 14.245893395090432], [78.99744998521082, 14.24581063076728], [78.9960498712953, 14.244421263056168], [78.99607114764753, 14.242010618658526], [79.00248383053973, 14.235520688318175], [79.01099030420885, 14.231803232432426], [79.01383276344929, 14.229760447043938], [79.01561904659374, 14.227364442880006], [79.01778535083047, 14.221871903023532], [79.01992755346873, 14.219134395756436], [79.01996052664111, 14.21534617680958], [79.01821339437264, 14.213265252000868], [79.01504520700615, 14.212205749831476], [79.01292107304687, 14.212876922664377], [79.01220600642452, 14.213904200440556], [79.01215785955654, 14.2194143113454], [79.00964143385498, 14.22455946474122], [79.00679599567393, 14.22694658512981], [79.00361257843512, 14.22760881393552], [79.00041096950301, 14.23033727238274], [78.99757750750885, 14.231346745870312], [78.99116483684855, 14.237836543525466], [78.99008433965484, 14.240238265050909], [78.99003556322401, 14.245748289148985], [78.99072645554412, 14.247476119081263], [78.99598297685982, 14.251997570653202], [79.00162920012876, 14.25238934815967], [79.00445989775349, 14.251724239486554], [79.00515697343542, 14.252763284743247], [79.00478874974014, 14.254482227879606], [79.0019367827355, 14.257557986405274], [78.99871036827743, 14.263041380504223], [78.9986738840653, 14.267173912869037], [79.0014622587799, 14.271330159780586], [79.0035718118444, 14.272381060481687], [79.01239659698184, 14.272799265159088], [79.0145243349193, 14.271783792368968], [79.01911781724067, 14.2714776274255], [79.02053929602151, 14.270456222040847], [79.02301108125857, 14.270476747067725], [79.02615609423678, 14.274291314545989], [79.02863092656963, 14.273967402983153]], [[79.02652421295222, 14.272572324232332], [79.02266698388415, 14.269440668714532], [79.01841761448581, 14.27078299046543], [79.01382414727546, 14.271089143614537], [79.01169641400274, 14.272104610640259], [79.0042841012926, 14.271698221094779], [79.00182144178602, 14.270644365562307], [78.99972711202525, 14.26787156332539], [78.99941352089829, 14.263391686984857], [79.00299604652987, 14.257566860814762], [79.00513274844276, 14.255518319736213], [79.00586918898902, 14.252080430910741], [79.00481903309814, 14.251038434459035], [79.00234748704787, 14.251017748353524], [79.00128218751564, 14.251697632333828], [78.99669521355781, 14.251314747488104], [78.99423585240983, 14.249916468162871], [78.99074169710617, 14.245754236356673], [78.99078740958196, 14.240588586599344], [78.99258314370114, 14.237159668319691], [78.99792448549188, 14.232038462644676], [79.00075795556451, 14.231028986020172], [79.00360350435626, 14.228641953332117], [79.00643389365553, 14.227976780584143], [79.01034449665323, 14.224909726696495], [79.0128609124135, 14.219764564465404], [79.01290904349517, 14.214254451361333], [79.01397713005143, 14.21323010365096], [79.01644828283301, 14.213250615962167], [79.01924547965814, 14.216373478580488], [79.01886545824634, 14.21947000299655], [79.01779735757374, 14.220494371115143], [79.0141978461471, 14.22838585449873], [79.00957810595015, 14.231791467010915], [79.00213683389126, 14.23482897584922], [78.99751376424702, 14.238578690644786], [78.99500283816998, 14.243034855704995], [78.99534069837848, 14.244759709673593], [78.99673777004095, 14.246493459042222], [79.00732989071497, 14.246582155214815], [79.01119256376643, 14.249025225320313], [79.01151848152496, 14.252127595930862], [79.01007292993985, 14.255904001798296], [79.0057753265204, 14.262756193003831], [79.0057601801393, 14.264478089165394], [79.00681039474715, 14.265520089038484], [79.01245096618707, 14.266600416951368], [79.01353743936671, 14.263509822759431], [79.01424665502266, 14.26317132658992], [79.0170594024848, 14.264572370898417], [79.01917801585031, 14.264589989174539], [79.02520476702769, 14.261884739002703], [79.02592295888992, 14.260513054555341], [79.0231191948902, 14.258078964858374], [79.02419347432493, 14.256365829130923], [79.02595593196169, 14.256724834937197], [79.02770342329296, 14.258805748366509], [79.03017509226991, 14.258826182761675], [79.03230263230158, 14.25781052279399], [79.03337386062802, 14.256441721742465], [79.03339774441557, 14.253686639718746], [79.03236834277676, 14.250234051367446], [79.02991171163829, 14.248491728262412], [79.02992067920437, 14.247458574054154], [79.03347831454698, 14.2443882329107], [79.0352675261025, 14.241647686474783], [79.03773901955564, 14.241668018523457], [79.04019862743692, 14.243065873143701], [79.04340596501935, 14.239648069377127], [79.04446220652206, 14.240001136930715], [79.04369375421783, 14.247227493123697], [79.04509717923256, 14.248272232826169], [79.04897517176116, 14.24899280360767], [79.05318560197792, 14.25212692239016], [79.0577787303585, 14.251819953658277], [79.05740205074464, 14.254572200394481], [79.05810234502677, 14.255266732511561], [79.06234244688986, 14.254956807593727], [79.0644757185836, 14.25325205370646], [79.06449628199749, 14.25084131148576], [79.06873630667896, 14.250531261138173], [79.07689535685405, 14.246119745286203], [79.08360691081994, 14.245829324002464], [79.08747346118275, 14.247926864931083], [79.09665096353147, 14.248344677976027], [79.10510797650277, 14.250478534180228], [79.10861600067207, 14.25326176169642], [79.11354514016702, 14.255022920855703], [79.11599687095587, 14.2574532746486], [79.11527347643685, 14.259514104326728], [79.11174520100154, 14.259141761979503], [79.10893178266598, 14.257741769766536], [79.10468582699059, 14.25874132448335], [79.10258732749575, 14.256313677759255], [79.09977689726736, 14.254569189633022], [79.08813902427059, 14.252754077173714], [79.08565861886227, 14.25376743978473], [79.07611911611565, 14.25437951299343], [79.07150249068218, 14.257441976214723], [79.06725059356171, 14.259129628286527], [79.06652676784955, 14.26119025374284], [79.06546157022014, 14.261870442682618], [79.05839942507087, 14.261813023632495], [79.05594244430316, 14.260070928912834], [79.05417692907271, 14.260056525035766], [79.0492127575077, 14.262426843176296], [79.04674102100309, 14.262406601074481], [79.04569357953199, 14.261020367622594], [79.0457143542093, 14.258609653963402], [79.0478536968138, 14.256216293275108], [79.0464531782946, 14.254827174601072], [79.04327534377046, 14.254801121148423], [79.03864941557062, 14.258896049300546], [79.03686007724804, 14.261636605186489], [79.03648609851284, 14.2640443966103], [79.0354208141054, 14.26472443786632], [79.0311835460874, 14.264689470860178], [79.02797564123058, 14.268107034291557], [79.02758656080408, 14.272236714930846], [79.02652421295222, 14.272572324232332]], [[79.12551383395903, 14.259594838660448], [79.12340368316816, 14.25854496084723], [79.1262399847746, 14.257189562505626], [79.12977112140989, 14.257217284757095], [79.13223441351096, 14.258269874812067], [79.13187278702772, 14.259300323631534], [79.12904500655704, 14.259622576237572], [79.12551383395903, 14.259594838660448]], [[79.06699725085913, 14.247417430236402], [79.07090461329338, 14.244693719657988], [79.07337911495824, 14.244369293222983], [79.07407943704678, 14.245063781164223], [79.07336157857351, 14.246435655712954], [79.0715873738788, 14.247454574168298], [79.06910990814042, 14.248123370172788], [79.06734447203391, 14.248109075499272], [79.06699725085913, 14.247417430236402]], [[79.07235787460868, 14.23988362190962], [79.07307863444355, 14.23816735393484], [79.07378478013852, 14.238173052511456], [79.07376433432697, 14.240583810538707], [79.07270218192923, 14.240919654131815], [79.07235787460868, 14.23988362190962]]], [[[79.16798851883074, 14.247525400456862], [79.16764653248764, 14.246145039311449], [79.165525124211, 14.246473173043482], [79.1662202042559, 14.247856249880241], [79.16798851883074, 14.247525400456862]]], [[[79.15733662691399, 14.254676444862966], [79.15734222135066, 14.253987624466102], [79.15522073495657, 14.254315655698784], [79.15521513394681, 14.255004475250859], [79.15733662691399, 14.254676444862966]]], [[[79.08313453755278, 14.259946704567724], [79.08101588656072, 14.259929660059852], [79.08134859709565, 14.262343266533478], [79.08311707004823, 14.262013076241544], [79.08313453755278, 14.259946704567724]]], [[[79.183006639492, 14.268306405065571], [79.1794779902729, 14.26793503633747], [79.17876340644399, 14.268962881079705], [79.18299835590358, 14.269339649281136], [79.183006639492, 14.268306405065571]]], [[[79.21778916210963, 14.29130222465759], [79.21743869088567, 14.290955158275908], [79.2174359775882, 14.291299578913915], [79.21778916210963, 14.29130222465759]]], [[[79.21743869088567, 14.290955158275908], [79.21605039142085, 14.287844786509217], [79.21323311994502, 14.286790330407511], [79.21219807142239, 14.283682595415113], [79.20728912507292, 14.27916796360372], [79.20341525832399, 14.27776101115373], [79.2013127055127, 14.275678507672325], [79.19744442549958, 14.27358263421147], [79.19464938905364, 14.269772652375298], [79.19184070598031, 14.267684730093789], [79.18901831854856, 14.267318860248906], [79.18830652974819, 14.268002323255185], [79.18758647375326, 14.269719030408933], [79.18969709134227, 14.2707683868948], [79.19494765781253, 14.276663666001951], [79.19952228159988, 14.278764924632032], [79.20197800631266, 14.280850112146128], [79.20444470225839, 14.281557605514784], [79.21251044606078, 14.288851545352705], [79.21743869088567, 14.290955158275908]]], [[[79.23608033043645, 14.346205015179788], [79.23750958676983, 14.344148986699631], [79.24035726509933, 14.341414587886446], [79.2421558236358, 14.337294599743306], [79.24217998300746, 14.33419478401554], [79.24467957792658, 14.330768844494287], [79.24755373447414, 14.324590075072944], [79.24932796022455, 14.323569827807255], [79.25005046109585, 14.321508480734371], [79.24797646226959, 14.315637619261016], [79.2480085162927, 14.311504510974869], [79.24347017818151, 14.304582111456655], [79.2399675738446, 14.300767318153724], [79.23717953319274, 14.295924449585913], [79.2294281200129, 14.293455777554211], [79.22767835800023, 14.291376092890715], [79.22486367535456, 14.289977341391207], [79.22347527286422, 14.28686700158749], [79.22241573698822, 14.286859090500574], [79.22133184043005, 14.289950967762671], [79.21813963440738, 14.291649290637956], [79.22130205753601, 14.293739602575249], [79.22377167836125, 14.294102496457437], [79.2283415750704, 14.296892115099862], [79.2336260630214, 14.29865363599925], [79.23502004220136, 14.301075090768125], [79.23853060975883, 14.303856675280976], [79.23957414073607, 14.305931070062115], [79.24203054976645, 14.308015916280146], [79.24377521301375, 14.310784372452035], [79.24479473360157, 14.315958577898169], [79.24619694913589, 14.317346713995152], [79.24328266202035, 14.328691843737156], [79.24149763389417, 14.331089733676373], [79.23967762045501, 14.337965111031844], [79.23753920688566, 14.34036033459809], [79.23610189388395, 14.343449634563875], [79.23608033043645, 14.346205015179788]]], [[[79.25177930824248, 14.326343454377234], [79.25073558681429, 14.324269093079009], [79.2489693758849, 14.324256074271467], [79.25036365551908, 14.326677470871276], [79.25177930824248, 14.326343454377234]]], [[[79.25616907868938, 14.352553638077385], [79.25900070619387, 14.35188556306197], [79.26077777878945, 14.350520823860341], [79.26220685952991, 14.348464624649527], [79.2618615471624, 14.347428752978576], [79.25938592342263, 14.347755036973863], [79.25795416118758, 14.350155643363717], [79.25617707713782, 14.351520359817917], [79.25616907868938, 14.352553638077385]]], [[[79.2174347152813, 14.380853914861708], [79.22558294945357, 14.378159649666435], [79.22665106488806, 14.377134336416772], [79.22912973585782, 14.376464017335833], [79.23198608193748, 14.372696521828475], [79.23694329255555, 14.371355728843989], [79.23838890808663, 14.367233182697088], [79.2408862910522, 14.364151763533567], [79.24728866175438, 14.358688127542507], [79.25082697268638, 14.358025388420801], [79.2522668839919, 14.354591565049125], [79.25085372397785, 14.354581138625441], [79.24588621197823, 14.35729997246963], [79.2423532837111, 14.357273790704049], [79.23776587811132, 14.356550830671004], [79.23248815303602, 14.353755985903224], [79.23107230844569, 14.354089863548229], [79.2289228037469, 14.357862661884807], [79.22853699395183, 14.361993069479801], [79.22675694254748, 14.363701953210944], [79.22428113008031, 14.364027843641543], [79.22319131954528, 14.367808509512528], [79.22176993297025, 14.368831157871885], [79.21682364676083, 14.368793956199823], [79.21468194901831, 14.371533323700348], [79.21322493266848, 14.377033339987992], [79.21356730516385, 14.378413677146993], [79.21566809263912, 14.380840597175942], [79.2174347152813, 14.380853914861708]]]]}}, {"type": "Feature", "properties": {"depth_class": 3, "depth_lo_m": 2.0, "t_s": 9900.657205514912}, "geometry": {"type": "MultiPolygon", "coordinates": [[[[79.07270218192923, 14.240919654131815], [79.07412325201496, 14.239897871448168], [79.07378478013852, 14.238173052511456], [79.07307863444355, 14.23816735393484], [79.07235787460868, 14.23988362190962], [79.07270218192923, 14.240919654131815]]], [[[79.02723344466702, 14.272233790778454], [79.02833474294248, 14.267421188844798], [79.03189274643393, 14.264350919248352], [79.03613000993771, 14.264385872838721], [79.03686007724804, 14.261636605186489], [79.03864941557062, 14.258896049300546], [79.04327534377046, 14.254801121148423], [79.0464531782946, 14.254827174601072], [79.0478536968138, 14.256216293275108], [79.0457143542093, 14.258609653963402], [79.04569357953199, 14.261020367622594], [79.04674102100309, 14.262406601074481], [79.0492127575077, 14.262426843176296], [79.05417692907271, 14.260056525035766], [79.05594244430316, 14.260070928912834], [79.05839942507087, 14.261813023632495], [79.06546157022014, 14.261870442682618], [79.06652676784955, 14.26119025374284], [79.06725059356171, 14.259129628286527], [79.07150249068218, 14.257441976214723], [79.07611911611565, 14.25437951299343], [79.08565861886227, 14.25376743978473], [79.08813902427059, 14.252754077173714], [79.09977689726736, 14.254569189633022], [79.10258732749575, 14.256313677759255], [79.10468582699059, 14.25874132448335], [79.10893178266598, 14.257741769766536], [79.11174520100154, 14.259141761979503], [79.11527347643685, 14.259514104326728], [79.11599687095587, 14.2574532746486], [79.11354514016702, 14.255022920855703], [79.10861600067207, 14.25326176169642], [79.10510797650277, 14.250478534180228], [79.09665096353147, 14.248344677976027], [79.08747346118275, 14.247926864931083], [79.08360691081994, 14.245829324002464], [79.07689535685405, 14.246119745286203], [79.06873630667896, 14.250531261138173], [79.06449628199749, 14.25084131148576], [79.0644757185836, 14.25325205370646], [79.06234244688986, 14.254956807593727], [79.05810234502677, 14.255266732511561], [79.05740205074464, 14.254572200394481], [79.0577787303585, 14.251819953658277], [79.05318560197792, 14.25212692239016], [79.04897517176116, 14.24899280360767], [79.04509717923256, 14.248272232826169], [79.04369375421783, 14.247227493123697], [79.04446220652206, 14.240001136930715], [79.04340596501935, 14.239648069377127], [79.04019862743692, 14.243065873143701], [79.03773901955564, 14.241668018523457], [79.0352675261025, 14.241647686474783], [79.03347831454698, 14.2443882329107], [79.02992067920437, 14.247458574054154], [79.02991171163829, 14.248491728262412], [79.03236834277676, 14.250234051367446], [79.03339774441557, 14.253686639718746], [79.03337386062802, 14.256441721742465], [79.03230263230158, 14.25781052279399], [79.03017509226991, 14.258826182761675], [79.02770342329296, 14.258805748366509], [79.02595593196169, 14.256724834937197], [79.02419347432493, 14.256365829130923], [79.0231191948902, 14.258078964858374], [79.02592295888992, 14.260513054555341], [79.02520476702769, 14.261884739002703], [79.01917801585031, 14.264589989174539], [79.0170594024848, 14.264572370898417], [79.01424665502266, 14.26317132658992], [79.01353743936671, 14.263509822759431], [79.01245096618707, 14.266600416951368], [79.00681039474715, 14.265520089038484], [79.0057601801393, 14.264478089165394], [79.0057753265204, 14.262756193003831], [79.01007292993985, 14.255904001798296], [79.01151848152496, 14.252127595930862], [79.01119256376643, 14.249025225320313], [79.00732989071497, 14.246582155214815], [78.99673777004095, 14.246493459042222], [78.99534069837848, 14.244759709673593], [78.99500283816998, 14.243034855704995], [78.99751376424702, 14.238578690644786], [79.00213683389126, 14.23482897584922], [79.00957810595015, 14.231791467010915], [79.0141978461471, 14.22838585449873], [79.01779735757374, 14.220494371115143], [79.01886545824634, 14.21947000299655], [79.01924547965814, 14.216373478580488], [79.01644828283301, 14.213250615962167], [79.01397713005143, 14.21323010365096], [79.01290904349517, 14.214254451361333], [79.0128609124135, 14.219764564465404], [79.01034449665323, 14.224909726696495], [79.00643389365553, 14.227976780584143], [79.00360350435626, 14.228641953332117], [79.00075795556451, 14.231028986020172], [78.99792448549188, 14.232038462644676], [78.99258314370114, 14.237159668319691], [78.99078740958196, 14.240588586599344], [78.99074169710617, 14.245754236356673], [78.99423585240983, 14.249916468162871], [78.99669521355781, 14.251314747488104], [79.00128218751564, 14.251697632333828], [79.00234748704787, 14.251017748353524], [79.00481903309814, 14.251038434459035], [79.00586918898902, 14.252080430910741], [79.00513274844276, 14.255518319736213], [79.00299604652987, 14.257566860814762], [78.99941352089829, 14.263391686984857], [78.99972711202525, 14.26787156332539], [79.00182144178602, 14.270644365562307], [79.0042841012926, 14.271698221094779], [79.01169641400274, 14.272104610640259], [79.01382414727546, 14.271089143614537], [79.01841761448581, 14.27078299046543], [79.02266698388415, 14.269440668714532], [79.02442653414411, 14.270144081208585], [79.02652421295222, 14.272572324232332], [79.02723344466702, 14.272233790778454]], [[79.0042901677688, 14.271009463699784], [79.00113041410829, 14.268916550645034], [79.00008933166025, 14.26684139357145], [79.00011667590428, 14.263741991663704], [79.00619503158883, 14.255182799152992], [79.00691632926356, 14.253466803678757], [79.00657837488464, 14.251741954104812], [79.00517816606036, 14.250352628570331], [78.99811056019182, 14.250982226970075], [78.99354188264059, 14.248533021339826], [78.99144478423383, 14.24610455819353], [78.99149657352903, 14.240250152592306], [78.99257401312902, 14.238192799899299], [78.99791841699013, 14.232727219597137], [79.00749302242542, 14.227985617053113], [79.01069452229017, 14.225257047687473], [79.01320792712816, 14.220456263419882], [79.01397111847616, 14.213918868443157], [79.01608925559194, 14.213936452872137], [79.01749234664743, 14.214981314741609], [79.01853642518216, 14.216712010787882], [79.01852142630352, 14.218433926963616], [79.01349175608958, 14.228379983689015], [79.01100236086151, 14.230425707363544], [79.00214289054347, 14.234140217236293], [78.99609545860761, 14.239255595856676], [78.99466194014705, 14.241654379222839], [78.99463456559015, 14.24475377647582], [78.99637862101454, 14.247179249887258], [79.00556150636147, 14.246911784798304], [79.00943322293135, 14.248321740460895], [79.01083345040534, 14.249711042982296], [79.01081231882875, 14.252121707609644], [79.0093697781821, 14.25555372745479], [79.00507216332653, 14.262405904262797], [79.00504792022542, 14.265160936890782], [79.00574503173763, 14.26619998506293], [79.0089199286758, 14.266570939018248], [79.01032327334943, 14.267615876733409], [79.01279501226678, 14.267636503698858], [79.01493476074303, 14.265243496060293], [79.02023130841458, 14.265287555718164], [79.02271805550261, 14.26358616286627], [79.02661416857529, 14.262240819842532], [79.02768844771707, 14.260527668053333], [79.03335893067076, 14.258163647664784], [79.03514827470632, 14.255423119237367], [79.03516915289583, 14.253012419720514], [79.03411585734962, 14.25231491997221], [79.03378067520445, 14.25024569682156], [79.03308644776479, 14.24886233374492], [79.03203019136096, 14.24850921303023], [79.03168905710542, 14.2471287597749], [79.03561463788162, 14.242339364802293], [79.03737999569461, 14.242353888425255], [79.03878038471889, 14.243743044809591], [79.04089883145738, 14.243760445180795], [79.04161389228491, 14.242733079241043], [79.04338222711712, 14.242403171214832], [79.04263154276924, 14.24756319300723], [79.04368188106436, 14.248605043491969], [79.0486132037949, 14.250023081446491], [79.05176437024808, 14.253148557658445], [79.05387701314106, 14.253854633038761], [79.05562476973769, 14.255935372111676], [79.05773450513676, 14.256985808165936], [79.06161859690116, 14.25701741486247], [79.0648053115782, 14.256010052851947], [79.06764770524175, 14.253966606709882], [79.068009599259, 14.25293629011809], [79.07120209180025, 14.251240045238427], [79.07331480114141, 14.251945953836707], [79.0733001790952, 14.253667921448567], [79.07081093108845, 14.255714298816677], [79.06939267131607, 14.256391653499087], [79.06550857233745, 14.256360174741502], [79.06406971956619, 14.259448235711492], [79.06264847793662, 14.2604699357076], [79.0591174291358, 14.260441213401275], [79.05630440259664, 14.25904063856177], [79.05206718768359, 14.25900605619804], [79.04857470054868, 14.254500131673042], [79.04611194912955, 14.253446730212588], [79.04328425464058, 14.253767959175123], [79.04008858963486, 14.255808185321756], [79.03472654358588, 14.263341074168986], [79.03119251848379, 14.263656317258144], [79.02727541679431, 14.267412421039987], [79.02619809558718, 14.269469948779983], [79.02055433676507, 14.268734311240948], [79.01842363761396, 14.2700942270832], [79.01524564296122, 14.270067772581255], [79.01170245813562, 14.271415850151113], [79.0042901677688, 14.271009463699784]], [[79.08463129786283, 14.249970580427757], [79.08464001738841, 14.248937392678668], [79.08604948138031, 14.249293123968682], [79.08568767371504, 14.250323479269946], [79.08463129786283, 14.249970580427757]]], [[[79.0383737412215, 14.249939100454707], [79.03873872940582, 14.248564457541043], [79.03732938125526, 14.248208456507921], [79.03696140679426, 14.249927482428504], [79.0383737412215, 14.249939100454707]]], [[[79.12551383395903, 14.259594838660448], [79.13187278702772, 14.259300323631534], [79.13223441351096, 14.258269874812067], [79.12977112140989, 14.257217284757095], [79.1262399847746, 14.257189562505626], [79.12340368316816, 14.25854496084723], [79.12551383395903, 14.259594838660448]]]]}}, {"type": "Feature", "properties": {"depth_class": 4, "depth_lo_m": 3.0, "t_s": 9900.657205514912}, "geometry": {"type": "MultiPolygon", "coordinates": [[[[79.01170245813562, 14.271415850151113], [79.01524564296122, 14.270067772581255], [79.01842363761396, 14.2700942270832], [79.02055433676507, 14.268734311240948], [79.02619809558718, 14.269469948779983], [79.02727541679431, 14.267412421039987], [79.03119251848379, 14.263656317258144], [79.03472654358588, 14.263341074168986], [79.03579480603298, 14.262316649838956], [79.03759012265024, 14.258887332431474], [79.04222201089283, 14.254103653066709], [79.04611194912955, 14.253446730212588], [79.04857470054868, 14.254500131673042], [79.05206718768359, 14.25900605619804], [79.05630440259664, 14.25904063856177], [79.0591174291358, 14.260441213401275], [79.06264847793662, 14.2604699357076], [79.06406971956619, 14.259448235711492], [79.06550857233745, 14.256360174741502], [79.06939267131607, 14.256391653499087], [79.07081093108845, 14.255714298816677], [79.0733001790952, 14.253667921448567], [79.07331480114141, 14.251945953836707], [79.07120209180025, 14.251240045238427], [79.068009599259, 14.25293629011809], [79.06764770524175, 14.253966606709882], [79.0648053115782, 14.256010052851947], [79.06161859690116, 14.25701741486247], [79.05773450513676, 14.256985808165936], [79.05562476973769, 14.255935372111676], [79.05387701314106, 14.253854633038761], [79.05176437024808, 14.253148557658445], [79.0486132037949, 14.250023081446491], [79.04368188106436, 14.248605043491969], [79.04263154276924, 14.24756319300723], [79.04338222711712, 14.242403171214832], [79.04161389228491, 14.242733079241043], [79.04089883145738, 14.243760445180795], [79.03878038471889, 14.243743044809591], [79.03737999569461, 14.242353888425255], [79.03561463788162, 14.242339364802293], [79.03168905710542, 14.2471287597749], [79.03203019136096, 14.24850921303023], [79.03308644776479, 14.24886233374492], [79.03378067520445, 14.25024569682156], [79.03411585734962, 14.25231491997221], [79.03516915289583, 14.253012419720514], [79.03514827470632, 14.255423119237367], [79.03335893067076, 14.258163647664784], [79.02768844771707, 14.260527668053333], [79.02661416857529, 14.262240819842532], [79.02271805550261, 14.26358616286627], [79.02023130841458, 14.265287555718164], [79.01493476074303, 14.265243496060293], [79.01279501226678, 14.267636503698858], [79.01032327334943, 14.267615876733409], [79.0089199286758, 14.266570939018248], [79.00574503173763, 14.26619998506293], [79.00504792022542, 14.265160936890782], [79.00507216332653, 14.262405904262797], [79.0093697781821, 14.25555372745479], [79.01081231882875, 14.252121707609644], [79.01083345040534, 14.249711042982296], [79.00943322293135, 14.248321740460895], [79.00556150636147, 14.246911784798304], [78.99637862101454, 14.247179249887258], [78.99463456559015, 14.24475377647582], [78.99466194014705, 14.241654379222839], [78.99609545860761, 14.239255595856676], [79.00214289054347, 14.234140217236293], [79.01100236086151, 14.230425707363544], [79.01349175608958, 14.228379983689015], [79.01852142630352, 14.218433926963616], [79.01853642518216, 14.216712010787882], [79.01749234664743, 14.214981314741609], [79.01608925559194, 14.213936452872137], [79.01397111847616, 14.213918868443157], [79.01320792712816, 14.220456263419882], [79.01069452229017, 14.225257047687473], [79.00749302242542, 14.227985617053113], [78.99791841699013, 14.232727219597137], [78.99257401312902, 14.238192799899299], [78.99149657352903, 14.240250152592306], [78.99144478423383, 14.24610455819353], [78.99354188264059, 14.248533021339826], [78.99811056019182, 14.250982226970075], [79.00517816606036, 14.250352628570331], [79.00657837488464, 14.251741954104812], [79.00691632926356, 14.253466803678757], [79.00619503158883, 14.255182799152992], [79.00011667590428, 14.263741991663704], [79.00008933166025, 14.26684139357145], [79.00113041410829, 14.268916550645034], [79.0042901677688, 14.271009463699784], [79.01170245813562, 14.271415850151113]], [[79.0373144902818, 14.249930387717798], [79.03697332187184, 14.248549937773994], [79.03873872940582, 14.248564457541043], [79.03837076439318, 14.250283486884262], [79.0373144902818, 14.249930387717798]]], [[[79.08568767371504, 14.250323479269946], [79.08604948138031, 14.249293123968682], [79.08464001738841, 14.248937392678668], [79.08463129786283, 14.249970580427757], [79.08568767371504, 14.250323479269946]]]]}}]}