{"type": "FeatureCollection", "features": [{"type": "Feature", "properties": {"depth_class": 1, "depth_lo_m": 0.3, "t_s": 14400.258268691743}, "geometry": {"type": "MultiPolygon", "coordinates": [[[[79.22576649693613, 14.30996171700815], [79.2264864429322, 14.308244880893316], [79.2254457350124, 14.30582601988645], [79.21874021087808, 14.305086986310283], [79.21660738719977, 14.306793197764524], [79.21659107992458, 14.308859717751526], [79.21729206936566, 14.309553857761003], [79.22153605138817, 14.308896772534661], [79.22399771462543, 14.310292946741193], [79.22576649693613, 14.30996171700815]]], [[[79.18783383686085, 14.414727919356464], [79.19279493267845, 14.413043782581543], [79.20026823123311, 14.406556604297517], [79.20309512800078, 14.406578127766453], [79.20450030981853, 14.407622121331853], [79.20626713225602, 14.407635546783004], [79.20628089888015, 14.405913470887041], [79.20487847227177, 14.404525073082823], [79.20489775560765, 14.402114167962957], [79.20952435039719, 14.39801603409042], [79.21203619546867, 14.393212928960915], [79.21558878289684, 14.390828706260837], [79.2166788756464, 14.387048109982699], [79.22023131676312, 14.384663799390466], [79.22201704589301, 14.382266154704345], [79.22840138661522, 14.379214089835411], [79.23052404403832, 14.378885533111788], [79.23159214346701, 14.377860195417842], [79.23267647360967, 14.374768325456863], [79.23798974407462, 14.373085731337742], [79.24013389456083, 14.370001699735118], [79.24050336714693, 14.36793778968556], [79.24620462852505, 14.361780100164076], [79.24833515104315, 14.36041808839866], [79.25152019043323, 14.359752729143999], [79.25508787068472, 14.35530124425014], [79.25934068622642, 14.353610291087008], [79.26325608805327, 14.349850101146846], [79.26644890332868, 14.348151234608123], [79.26825236891028, 14.343342145713942], [79.27039052106116, 14.340946611912514], [79.27042750621753, 14.336124604682285], [79.26868233370604, 14.333356290849919], [79.26978701473917, 14.327508724071595], [79.26872990420041, 14.327156568553098], [79.26659188428569, 14.329552102745087], [79.2665601284684, 14.333685245794767], [79.26584036847487, 14.335402225448796], [79.26616450295137, 14.339193518984755], [79.26400510990962, 14.34434443414455], [79.26187748528415, 14.345362189196512], [79.2604696923364, 14.344662972425633], [79.2552505138019, 14.33429125145314], [79.25349755336214, 14.332556126677575], [79.25390411350742, 14.325670199675441], [79.25146341332508, 14.32151888844619], [79.24908419576894, 14.309445765434564], [79.24069005881158, 14.298705997220182], [79.23965190338973, 14.295942759502976], [79.23719295327614, 14.294202328484033], [79.23155803081966, 14.292093846770674], [79.23015874748052, 14.290361226714799], [79.22699357338769, 14.28861545050393], [79.22454831678577, 14.285152797363688], [79.21925609945728, 14.28442438101431], [79.21609924534343, 14.28164521632616], [79.21152437354918, 14.279544252039159], [79.21012532389437, 14.27781153919902], [79.20413796384275, 14.275699827549813], [79.20133731529855, 14.272578744928976], [79.2006310110961, 14.272573410935545], [79.1985449555584, 14.268424384533535], [79.19397328419019, 14.265978714115342], [79.18871195534511, 14.261461104983113], [79.1873324592955, 14.257317378204013], [79.1838398062518, 14.252468693743415], [79.18102315147254, 14.251413922946345], [79.17786723891977, 14.248634353455133], [79.17259277386977, 14.245838535530387], [79.16449087125105, 14.243365319949206], [79.16274209437397, 14.241285265714373], [79.16062073082857, 14.241613360551185], [79.15917204808663, 14.246079813448361], [79.15669753502046, 14.246405142926942], [79.15421181588968, 14.248108085022748], [79.15175690947318, 14.24602249425539], [79.15069760664996, 14.246014287013807], [79.14679100786984, 14.248739420362433], [79.14571199775148, 14.251142045953038], [79.13933630074479, 14.253503400889183], [79.12450573921843, 14.253387240836087], [79.12240134783178, 14.251648554423005], [79.12171509358863, 14.249232171275732], [79.11961076121959, 14.247493467011934], [79.1181983744137, 14.247482331646898], [79.11745504371456, 14.251953993230883], [79.11603977149102, 14.25228724383373], [79.11463594224062, 14.251242878061639], [79.11464738712758, 14.249865270442804], [79.11749503768449, 14.24713235826789], [79.1171590807666, 14.245063156955982], [79.11326361788463, 14.246410086916985], [79.11112786070682, 14.248459733424788], [79.10794999417357, 14.248434552497397], [79.0991514589323, 14.244920394503739], [79.09173950866736, 14.244516818059342], [79.0878497604313, 14.245174521919418], [79.08468941484013, 14.243082660315228], [79.08399487329795, 14.241699408114417], [79.08756918102085, 14.236561773601716], [79.08795413632923, 14.232776234316644], [79.08727698768917, 14.229326609965684], [79.08516732111775, 14.228276448129106], [79.08268718840877, 14.229289813622982], [79.08126040758917, 14.231000452906313], [79.07842716709534, 14.232010931226023], [79.07628837278251, 14.234404640503591], [79.07240755578073, 14.23402892747227], [79.06955669121709, 14.23710565018185], [79.06531985223708, 14.237071354942872], [79.06425183964006, 14.238095945747963], [79.06244829031904, 14.242558716723067], [79.05781999125585, 14.246998487315377], [79.05427440116986, 14.248691669005865], [79.05144972218802, 14.248668614786853], [79.04935785205893, 14.24555180316793], [79.04582706332002, 14.245522913667214], [79.04661320487662, 14.236230209208877], [79.04450371430623, 14.235179704183093], [79.04272653620627, 14.236542791330036], [79.04021943317093, 14.240655163813043], [79.03528242357149, 14.239925756194793], [79.02816426452385, 14.24641083696419], [79.02743117607625, 14.249504458198379], [79.03093808157276, 14.252288706699924], [79.0312702491727, 14.254702315399028], [79.03054613051731, 14.256762792377797], [79.02877767506646, 14.257092588045708], [79.02562082476791, 14.254655609772945], [79.0231492080278, 14.25463513404079], [79.02136875095508, 14.25634240655772], [79.02134471647057, 14.25909746792875], [79.022044898115, 14.259792093414863], [79.02132368208694, 14.261508146074638], [79.01637429058722, 14.262155823708806], [79.01355855957875, 14.261099156424855], [79.01214013868591, 14.26177614379618], [79.01070660169994, 14.264175022990699], [79.00824095479706, 14.263465619776706], [79.00825910626837, 14.261399341044369], [79.01112011291426, 14.257290361316992], [79.01292779197527, 14.252483747373708], [79.01261090174141, 14.248348232923389], [79.00769505242133, 14.24520758308048], [78.9978091284839, 14.245124837527193], [78.99675600366385, 14.244427191932099], [78.99677727253115, 14.242016546490126], [78.99963210974714, 14.238596450895455], [79.00283082908274, 14.236212400521191], [79.00920997060298, 14.233510428599732], [79.01417979242568, 14.230452146413525], [79.01704023478689, 14.226343021058385], [79.01848842170888, 14.222222141624254], [79.02133369013492, 14.21983485735644], [79.02137862153631, 14.214669099825917], [79.01963447620543, 14.212243800653521], [79.0182283899003, 14.211543335405008], [79.01257707523628, 14.211840842354107], [79.01114694015935, 14.213895393393887], [79.01145179822542, 14.219408438132922], [79.0089353576386, 14.224553582016597], [79.00680203472082, 14.226257824100504], [78.99723053141908, 14.230655028830897], [78.99153311652061, 14.236117629155046], [78.98937822320623, 14.240232318151795], [78.98967029690108, 14.24712282006559], [78.9935175241884, 14.251288037681082], [78.997033090636, 14.2530396012374], [79.00409773066085, 14.252754422851549], [79.00372646879613, 14.254817742368703], [78.99908473727992, 14.260633699949977], [78.99763587333538, 14.264754371274634], [78.99796159610158, 14.267856735362807], [78.99969975420566, 14.270970963421659], [79.00321263030298, 14.273066857579279], [79.01239055434783, 14.273488025859821], [79.01451829919897, 14.272472554020721], [79.01804944067061, 14.27250196092087], [79.02088639217023, 14.271147920148788], [79.02300507190094, 14.271165512345044], [79.02474662134668, 14.273935221766882], [79.02615309354026, 14.274635697735832], [79.02862792970485, 14.274311786697723], [79.0296992695099, 14.272943016833587], [79.030097294917, 14.26778017561166], [79.03223090413057, 14.266075758531827], [79.03788063547286, 14.266122344098088], [79.03898166693001, 14.261309657769935], [79.04218931567883, 14.257891910651264], [79.04324563571608, 14.25824499370816], [79.04426037637957, 14.263419495217974], [79.04672025147366, 14.264817315450241], [79.05096052229747, 14.264507618021204], [79.0538001794483, 14.262808757000892], [79.05521260829468, 14.26282028555407], [79.0573135476388, 14.26490390234588], [79.06120660983262, 14.263902360914843], [79.06544100048251, 14.264281184059806], [79.06898972161869, 14.262243466236763], [79.07146148906415, 14.262263477485835], [79.07465117843984, 14.260911594461671], [79.07533985594326, 14.262983659328434], [79.07851494693112, 14.263353694327021], [79.08061904809628, 14.265092738456046], [79.08344106866508, 14.265459868255537], [79.08730792813282, 14.267557450288761], [79.08904159183865, 14.271359974739992], [79.09254387800698, 14.274832243480317], [79.09571629561988, 14.27554647035882], [79.1006370978548, 14.278341135930122], [79.10276171529125, 14.277669229948954], [79.10277613909938, 14.275947236061523], [79.09787270024455, 14.27108622978917], [79.09823739062945, 14.269711456833699], [79.10036481482484, 14.268695164140823], [79.10531146430367, 14.268390128457343], [79.11058827023189, 14.270842993116865], [79.11197496782827, 14.273953798162708], [79.11443259205116, 14.275695385361162], [79.11477139951415, 14.277420186872737], [79.11652279197916, 14.27915616618226], [79.11970682365009, 14.278492481626115], [79.12075768577873, 14.279534051905042], [79.12358286399841, 14.27955633290947], [79.12606914770103, 14.277853784530777], [79.12749881318325, 14.2757984742617], [79.1279031791275, 14.269601980460289], [79.13217200029563, 14.265846785968474], [79.13464673189398, 14.265521741618414], [79.14134488091858, 14.266951789653177], [79.14418403368784, 14.265251771032068], [79.14771533201149, 14.265279242826946], [79.15122135636385, 14.268406340198016], [79.15508903215797, 14.270502904101406], [79.1639119697378, 14.27125992832882], [79.16886432485298, 14.270264744900947], [79.17097761967327, 14.270969845243862], [79.17728157027368, 14.277562417815485], [79.18255403148018, 14.280702633889192], [79.18644156702705, 14.280387841092095], [79.18750656489038, 14.279707078147291], [79.18751759047647, 14.278329416913353], [79.1836521853791, 14.275888914760312], [79.18047933628695, 14.275175825814031], [79.17978686816248, 14.273448359229791], [79.18049869866519, 14.272764927060779], [79.18614356764562, 14.273496848819489], [79.18860460884608, 14.274893322757977], [79.19175549698465, 14.27836163541145], [79.19527062578909, 14.280454927298763], [79.19631639860486, 14.282185040289784], [79.20124431400379, 14.284288955293867], [79.204392797074, 14.28810155437074], [79.20791366112206, 14.289505851601684], [79.21071731450104, 14.292282468357573], [79.21881617667482, 14.295443208772944], [79.22269857826186, 14.295816690358935], [79.22796948940172, 14.299300440912454], [79.23184660352122, 14.300362628440144], [79.23324326220167, 14.30243966906863], [79.23850645365442, 14.3069564928057], [79.24198231313166, 14.314215560023023], [79.24225510854686, 14.324550907439628], [79.2379489841094, 14.333130073108165], [79.23545195969675, 14.336211503666126], [79.23328113808194, 14.342739752340448], [79.23326224112787, 14.34515070688004], [79.23037926702897, 14.352362482058878], [79.22753132754502, 14.355096728827204], [79.22719972760247, 14.352338720795514], [79.22404462921513, 14.349215135564927], [79.21663129406252, 14.34847060243399], [79.2152291112638, 14.347082293677511], [79.21524002167274, 14.345704619178736], [79.2170227155098, 14.343651394181496], [79.21633798406106, 14.3408907293321], [79.21388152350127, 14.33880560877791], [79.21105546131973, 14.3387843127797], [79.20607971907035, 14.342535551580736], [79.20215537551364, 14.347327952435611], [79.20073954957789, 14.347661648436189], [79.20069278901003, 14.353516716294466], [79.19637068718222, 14.363816932900829], [79.19246232990803, 14.366542615144233], [79.19209796406184, 14.367917572540158], [79.18960269881255, 14.3706539807256], [79.18570525632309, 14.372001877164863], [79.18144332887879, 14.37472463506077], [79.18142383241477, 14.377135514433053], [79.18386919660935, 14.38059862583616], [79.18527412715751, 14.381642706538411], [79.18704072649868, 14.38165625185239], [79.19415970135235, 14.375166441129837], [79.2037266380231, 14.371794882518575], [79.2069228824233, 14.369752492412829], [79.20868940952758, 14.369765865293058], [79.20939053838882, 14.370460044427736], [79.20935763734288, 14.374593045557297], [79.20792517243375, 14.376993263539292], [79.20754165184698, 14.380779166118492], [79.20504089138448, 14.384204570914571], [79.2039506288638, 14.387985093312995], [79.20252902999145, 14.389007599492405], [79.20001153102747, 14.394499415758224], [79.1936014969838, 14.400650332018197], [79.18894401072696, 14.408536643679277], [79.18645376787306, 14.410584129775184], [79.18643148946474, 14.413339419792141], [79.18783383686085, 14.414727919356464]], [[79.208532982961, 14.389397600760791], [79.20821260462537, 14.385261930134293], [79.20999845655187, 14.382864391702052], [79.2103846855447, 14.378734064624062], [79.21254019738306, 14.374272665182485], [79.21257577555522, 14.369795239288672], [79.21153228295589, 14.367720730859395], [79.20767064295337, 14.364591594294312], [79.20844027755989, 14.35667535168287], [79.21059829690711, 14.35186952446282], [79.21342725383076, 14.351546426782992], [79.21694640597536, 14.35329512321351], [79.22048738574621, 14.352288418224715], [79.22260435229398, 14.352648743593566], [79.22294404767472, 14.354373492087166], [79.22008783308831, 14.358140893334367], [79.22006877374784, 14.360551827459021], [79.22534374483294, 14.363691368147343], [79.22711295498794, 14.363360177802587], [79.22818098583049, 14.362334847563819], [79.22928692765969, 14.356487618760744], [79.23178158303818, 14.353750715088827], [79.23460246570639, 14.354460629783931], [79.23776587811132, 14.356550830671004], [79.24270657621693, 14.35727641124834], [79.24553291883082, 14.357297356660808], [79.24979117828451, 14.35491773811511], [79.2526201741728, 14.354594170339878], [79.25082697268638, 14.358025388420801], [79.24693268456436, 14.359029937760424], [79.24017160602676, 14.36517978232031], [79.23658727915405, 14.371697519083385], [79.23163005952779, 14.37303830346764], [79.22912702353314, 14.376808437691125], [79.21955739262556, 14.380525460249602], [79.21777165557954, 14.3829230852634], [79.2142192226065, 14.38530735938685], [79.21206635074708, 14.389424345032245], [79.208532982961, 14.389397600760791]], [[79.22501760305461, 14.360244520475511], [79.22503932384224, 14.357489159647724], [79.22752861698021, 14.355441149503426], [79.22714279138717, 14.359571553168568], [79.22642806562331, 14.360599525321227], [79.22501760305461, 14.360244520475511]], [[79.24413585924766, 14.35522034572975], [79.23990446392587, 14.354155625442182], [79.23992330217995, 14.351744664073262], [79.24174615689084, 14.344524880635793], [79.24390603684408, 14.339374226162445], [79.24461524772516, 14.339035031389749], [79.24571790648822, 14.333532077846701], [79.24785884327555, 14.330792336760295], [79.24892127274396, 14.330455732694313], [79.24994629369694, 14.334941080592795], [79.25168588911734, 14.338398358694299], [79.25728222066583, 14.345672906435075], [79.25726357637649, 14.348083891503972], [79.25370674617133, 14.351157727003558], [79.24839141032322, 14.353185173744736], [79.24661425075618, 14.354549808852079], [79.24413585924766, 14.35522034572975]], [[79.25545983608532, 14.35289286420658], [79.259741864067, 14.347413203574709], [79.26221482792532, 14.347431342705574], [79.26220420325704, 14.34880905194324], [79.26006588825446, 14.351204492181537], [79.25545983608532, 14.35289286420658]], [[79.23608033043645, 14.346205015179788], [79.23718055596854, 14.341046555178774], [79.24003625819064, 14.337278885075179], [79.24113632724452, 14.332120387703656], [79.24328266202035, 14.328691843737156], [79.24474922267865, 14.321813801887652], [79.2461835750436, 14.319068840109624], [79.24619694913589, 14.317346713995152], [79.24479473360157, 14.315958577898169], [79.24377521301375, 14.310784372452035], [79.24203054976645, 14.308015916280146], [79.23957414073607, 14.305931070062115], [79.23853060975883, 14.303856675280976], [79.23502004220136, 14.301075090768125], [79.2336260630214, 14.29865363599925], [79.22798837979443, 14.296889484009009], [79.22412216473272, 14.294449555108125], [79.21988930195994, 14.293729035547894], [79.21425732014994, 14.291275743658188], [79.21004363789568, 14.288144123797654], [79.20511826966519, 14.285695953855164], [79.20337427060387, 14.282927285595306], [79.19352678859737, 14.277686204583297], [79.18756443610103, 14.272474354801618], [79.1822782561592, 14.27105633493408], [79.17556572114711, 14.271349459487167], [79.17240408294268, 14.269258622427639], [79.16465730281567, 14.266443613909187], [79.154422015567, 14.265675704584599], [79.14949222896861, 14.26391532564279], [79.14348905633275, 14.263868641609898], [79.14171777554753, 14.264543696000796], [79.13218902571536, 14.263780356156335], [79.12898816631461, 14.266510664129637], [79.12722252550414, 14.266496794899485], [79.12405577730532, 14.265094184027495], [79.11522767246171, 14.265024531341625], [79.1113375827857, 14.2656825823472], [79.11202948725418, 14.267410182980976], [79.10884560640348, 14.268073781826866], [79.10638810774275, 14.266332151393962], [79.10215928176305, 14.265265245057904], [79.10463688908484, 14.264596117560723], [79.10536039836089, 14.262535334944413], [79.1039536893634, 14.261835304795303], [79.10080737503624, 14.25802161758364], [79.09553098372378, 14.255568583838375], [79.08776560682743, 14.255162021483018], [79.08599428511674, 14.25583665000154], [79.07575433286392, 14.255754240072477], [79.06971939328812, 14.259494045890849], [79.06580586477692, 14.262906483305981], [79.05733125392851, 14.262837562713557], [79.05593358697695, 14.261104098160715], [79.05346185496212, 14.26108392755606], [79.0516844978863, 14.262447059684426], [79.0484976539632, 14.263454226787799], [79.04532860188453, 14.262395022668189], [79.04502596694711, 14.25653753874117], [79.04467880871647, 14.255845868433443], [79.04256024439756, 14.255828487191318], [79.03756926121955, 14.261298034276958], [79.03647714997774, 14.265077553475178], [79.03224286201565, 14.264698219663943], [79.02868485647178, 14.267768494316478], [79.02758356273117, 14.272581098477902], [79.0258179801662, 14.272566472121888], [79.02372030982045, 14.270138223856074], [79.02054230433069, 14.270111839901977], [79.01912082793386, 14.271133245613239], [79.01452735265876, 14.271439411527249], [79.01027791564596, 14.272781576671267], [79.00357484635641, 14.272036681959253], [79.00006502015384, 14.269596416770932], [78.99869516794178, 14.264763269174464], [79.0001409763876, 14.260986967027332], [79.00513880517592, 14.254829561051297], [79.00551308174725, 14.252421858167473], [79.00446292634135, 14.251379860181855], [78.99774836722285, 14.252012397134916], [78.99387973388446, 14.250257876251862], [78.99038558144004, 14.246095639504855], [78.99044044530159, 14.239896861047683], [78.99258923034265, 14.236470913880535], [78.99757447292656, 14.231691124298363], [79.00572780821264, 14.227970887000057], [79.00999145780962, 14.224906786562178], [79.01251089034285, 14.219417247170686], [79.012202997849, 14.21424858245104], [79.01363012086742, 14.21253840655277], [79.0164542866189, 14.212561850093463], [79.01996052664111, 14.21534617680958], [79.02028058548883, 14.219137320053896], [79.0174323151022, 14.221868974491244], [79.01490694413032, 14.22804734105404], [79.01170243017243, 14.23112034920703], [79.00248685853383, 14.235176308963702], [79.00141558063238, 14.23654496239054], [78.9996442412527, 14.237218936175355], [78.9971515962436, 14.23960886314269], [78.99535590193143, 14.243037821669883], [78.99569376489445, 14.244762675490112], [78.99709387816064, 14.246152045245417], [79.00592365414288, 14.245881596654076], [79.00768598521964, 14.246240723537072], [79.01154865758345, 14.248683787681168], [79.01186854547997, 14.25247492014963], [79.00970473412487, 14.257622956293185], [79.00648454810509, 14.26241772112781], [79.00681947872567, 14.264486950800165], [79.00928815409058, 14.264851989608308], [79.0110415721037, 14.26624425178713], [79.01245700559872, 14.265911655828202], [79.01282822181028, 14.263848316533258], [79.01389657266046, 14.262824003541404], [79.01812171950026, 14.264236800585072], [79.02450156850725, 14.261534504058135], [79.02451056926813, 14.260501354357004], [79.02241300869512, 14.258073108478877], [79.02278111199902, 14.256354122020774], [79.024199473581, 14.255677062504796], [79.02666511147724, 14.256386296474403], [79.02841260783457, 14.258467205260068], [79.03053416926332, 14.258140330749663], [79.03231159509338, 14.256777367899806], [79.03268858123599, 14.254025200670347], [79.03200630001714, 14.251264293974362], [79.02920256195102, 14.248830280400625], [79.02921153296592, 14.247797126664162], [79.02992964605205, 14.24642541975108], [79.032416107976, 14.244723887127108], [79.03420831581627, 14.24163896491696], [79.03774497129747, 14.240979245419581], [79.03879525784205, 14.242021111191153], [79.04056061655861, 14.242035610979807], [79.04377089880383, 14.238273411625359], [79.04483009948665, 14.238282088755819], [79.04514462874212, 14.242762025514272], [79.0443999157305, 14.247233282185528], [79.04510311153014, 14.247583457059525], [79.04792776629478, 14.247606584671477], [79.05249124435207, 14.250743600170518], [79.05638111633048, 14.250086498409239], [79.06170391232854, 14.2470300709659], [79.06627640879499, 14.24913366906701], [79.06874802948198, 14.249153690426109], [79.071584447966, 14.247798967489478], [79.07301433977584, 14.245744017131031], [79.07196093627003, 14.245046673696317], [79.0680740947716, 14.245359653903808], [79.06596440029551, 14.244309316028238], [79.06528464878826, 14.241204062352386], [79.06565825766187, 14.23879617771166], [79.06672333725412, 14.238115972889508], [79.07060420156405, 14.23849178588127], [79.07274893650008, 14.235409352924808], [79.07451427955374, 14.235423595193856], [79.0762650426237, 14.237159797430396], [79.07734466151652, 14.234757566012298], [79.07912456212452, 14.233049797449057], [79.08409072348272, 14.230334334070442], [79.08620330194479, 14.231040110264935], [79.08651866394267, 14.235520096984269], [79.08508025014085, 14.238608342403019], [79.0818676640541, 14.242715579271671], [79.08220911018488, 14.244095999115713], [79.08467779392802, 14.24446024467376], [79.08783815691174, 14.24655210859117], [79.09314028452074, 14.245905698717205], [79.1047721338503, 14.248409329299648], [79.1156695065831, 14.254350866762913], [79.12273450589096, 14.254062157758117], [79.12484746041754, 14.254767632575053], [79.13261871670754, 14.254484182472467], [79.13685038971191, 14.255206135791864], [79.14818094372106, 14.25150565575944], [79.1502939834607, 14.252210911871732], [79.15842113229573, 14.251584933537838], [79.16017551844888, 14.252976200986552], [79.15980564455754, 14.25503994104787], [79.15696672300872, 14.25674017679889], [79.15695832784317, 14.25777340692145], [79.15836242051635, 14.258817551476994], [79.16260826334627, 14.25781701159902], [79.16613948272003, 14.25784419662663], [79.17037139932299, 14.25856557494486], [79.17388878008006, 14.260314712717305], [79.1763606757192, 14.260333634058139], [79.17957200423481, 14.256224951322311], [79.17959134946271, 14.253814049965985], [79.18171006298114, 14.253830211952263], [79.18591720271338, 14.257651051975985], [79.18869544776788, 14.263527601060408], [79.19185169555846, 14.266307064159616], [79.19466584989453, 14.267706150558006], [79.19815894868604, 14.272554725487776], [79.20167406485845, 14.274647920132873], [79.20342345390132, 14.276727755983137], [79.20800090284733, 14.278484441840183], [79.21922900379813, 14.287868592227813], [79.22347797609783, 14.286522579686892], [79.22452940592574, 14.287563752130051], [79.22486907875165, 14.289288497238537], [79.22803154461177, 14.291378723449334], [79.23013180599847, 14.293805456649094], [79.23717953319274, 14.295924449585913], [79.23926921241336, 14.299728815207574], [79.2473127593621, 14.310121598884097], [79.2480085162927, 14.311504510974869], [79.24797646226959, 14.315637619261016], [79.25005046109585, 14.321508480734371], [79.24932796022455, 14.323569827807255], [79.24755373447414, 14.324590075072944], [79.24467957792658, 14.330768844494287], [79.24217998300746, 14.33419478401554], [79.2421558236358, 14.337294599743306], [79.24071590763982, 14.340728361481675], [79.23608033043645, 14.346205015179788]], [[79.25142339402132, 14.326685278799868], [79.2493119324847, 14.32563638150834], [79.2489693758849, 14.324256074271467], [79.25073558681429, 14.324269093079009], [79.25178464385333, 14.325654602314865], [79.25142339402132, 14.326685278799868]], [[79.08802869634314, 14.265841137694288], [79.0848680857416, 14.263749245665505], [79.08098674036866, 14.263373608354298], [79.07993906569381, 14.261987498571635], [79.08031258544771, 14.25957957963479], [79.08279307445079, 14.258566284081496], [79.08523865134632, 14.261685708835277], [79.0912154694889, 14.264833423923081], [79.0901445096106, 14.266202523339091], [79.08802869634314, 14.265841137694288]], [[79.0979593954196, 14.260754286244778], [79.09655561595176, 14.259709818479921], [79.09692028674294, 14.258335045023113], [79.09903605599635, 14.258696344948065], [79.10079007095246, 14.26008801095011], [79.10078141787147, 14.261121207491588], [79.0979593954196, 14.260754286244778]], [[79.07679319528258, 14.258173544390381], [79.076434248909, 14.258859483890213], [79.07537200971659, 14.259195328625783], [79.07538077728951, 14.258162147304223], [79.07679319528258, 14.258173544390381]], [[79.17038806779806, 14.256499099140267], [79.170046059752, 14.255118739054724], [79.17146408747581, 14.254440747437375], [79.17499527186398, 14.25446779509098], [79.17675256317206, 14.255514541146935], [79.17497587688355, 14.256878690124413], [79.17038806779806, 14.256499099140267]], [[79.16758813795731, 14.25337769811381], [79.16688747174828, 14.25268344706305], [79.16689581859471, 14.251650210720328], [79.16760482545028, 14.251311224640773], [79.16901727578524, 14.251322070487552], [79.17042139674012, 14.252366146401659], [79.1704102882791, 14.253743797481835], [79.16758813795731, 14.25337769811381]], [[79.17396917514543, 14.250326724618606], [79.17115260622425, 14.249271845657153], [79.1662118566504, 14.248889486158388], [79.16055934065176, 14.249190404473422], [79.16021460806971, 14.248154448918461], [79.16163819011174, 14.246787691230212], [79.16201081288422, 14.244379531967548], [79.1637763165379, 14.244393122892646], [79.16871140251517, 14.245464346112506], [79.17397471733862, 14.249637897529103], [79.17396917514543, 14.250326724618606]]], [[[79.22250083233453, 14.320959431347683], [79.2217970814081, 14.320609722008857], [79.22179436888773, 14.320954142609045], [79.22250083233453, 14.320959431347683]]], [[[79.21965554472447, 14.368126389303914], [79.22212868254474, 14.368144972624835], [79.22319675874634, 14.367119670492183], [79.22356365707431, 14.365400223302277], [79.22251191294541, 14.364359011719152], [79.21968279256879, 14.364682200513355], [79.21861198889493, 14.366051905171243], [79.21860380957287, 14.367085161195524], [79.21965554472447, 14.368126389303914]]]]}}, {"type": "Feature", "properties": {"depth_class": 2, "depth_lo_m": 1.0, "t_s": 14400.258268691743}, "geometry": {"type": "MultiPolygon", "coordinates": [[[[79.17397471733862, 14.249637897529103], [79.16871140251517, 14.245464346112506], [79.1637763165379, 14.244393122892646], [79.16201081288422, 14.244379531967548], [79.16163819011174, 14.246787691230212], [79.16021460806971, 14.248154448918461], [79.16055934065176, 14.249190404473422], [79.17115260622425, 14.249271845657153], [79.17255672708143, 14.250315908822284], [79.17396917514543, 14.250326724618606], [79.17397471733862, 14.249637897529103]]], [[[79.08873203053744, 14.266191199082304], [79.0912125696648, 14.265177820719401], [79.09051503517718, 14.264138973203707], [79.08523865134632, 14.261685708835277], [79.08349637742069, 14.258916357298185], [79.08173375526307, 14.258557763467861], [79.08031258544771, 14.25957957963479], [79.07993906569381, 14.261987498571635], [79.08098674036866, 14.263373608354298], [79.0848680857416, 14.263749245665505], [79.08873203053744, 14.266191199082304]]], [[[79.23608033043645, 14.346205015179788], [79.23750958676983, 14.344148986699631], [79.24071590763982, 14.340728361481675], [79.2421558236358, 14.337294599743306], [79.24217998300746, 14.33419478401554], [79.24467957792658, 14.330768844494287], [79.24755373447414, 14.324590075072944], [79.24932796022455, 14.323569827807255], [79.25005046109585, 14.321508480734371], [79.24797646226959, 14.315637619261016], [79.2480085162927, 14.311504510974869], [79.2473127593621, 14.310121598884097], [79.23926921241336, 14.299728815207574], [79.23717953319274, 14.295924449585913], [79.23013180599847, 14.293805456649094], [79.22803154461177, 14.291378723449334], [79.22486907875165, 14.289288497238537], [79.22452940592574, 14.287563752130051], [79.22347797609783, 14.286522579686892], [79.21922900379813, 14.287868592227813], [79.20800090284733, 14.278484441840183], [79.20342345390132, 14.276727755983137], [79.20167406485845, 14.274647920132873], [79.19815894868604, 14.272554725487776], [79.19466584989453, 14.267706150558006], [79.19185169555846, 14.266307064159616], [79.18869544776788, 14.263527601060408], [79.18591720271338, 14.257651051975985], [79.18171006298114, 14.253830211952263], [79.17959134946271, 14.253814049965985], [79.17957200423481, 14.256224951322311], [79.1763606757192, 14.260333634058139], [79.17388878008006, 14.260314712717305], [79.17037139932299, 14.25856557494486], [79.16613948272003, 14.25784419662663], [79.16260826334627, 14.25781701159902], [79.15836242051635, 14.258817551476994], [79.15695832784317, 14.25777340692145], [79.15696672300872, 14.25674017679889], [79.1587379088204, 14.256064995774144], [79.16016434730173, 14.254353844057993], [79.16017551844888, 14.252976200986552], [79.15842113229573, 14.251584933537838], [79.15311886893906, 14.25223280149796], [79.14818094372106, 14.25150565575944], [79.13685038971191, 14.255206135791864], [79.13261871670754, 14.254484182472467], [79.12484746041754, 14.254767632575053], [79.12273450589096, 14.254062157758117], [79.1156695065831, 14.254350866762913], [79.1047721338503, 14.248409329299648], [79.09314028452074, 14.245905698717205], [79.08783815691174, 14.24655210859117], [79.08467779392802, 14.24446024467376], [79.08220911018488, 14.244095999115713], [79.0818676640541, 14.242715579271671], [79.08508025014085, 14.238608342403019], [79.08651866394267, 14.235520096984269], [79.08620330194479, 14.231040110264935], [79.08409072348272, 14.230334334070442], [79.07912456212452, 14.233049797449057], [79.07734466151652, 14.234757566012298], [79.0762650426237, 14.237159797430396], [79.07451427955374, 14.235423595193856], [79.07274893650008, 14.235409352924808], [79.07060420156405, 14.23849178588127], [79.06672333725412, 14.238115972889508], [79.06565825766187, 14.23879617771166], [79.06528464878826, 14.241204062352386], [79.06596440029551, 14.244309316028238], [79.0680740947716, 14.245359653903808], [79.07196093627003, 14.245046673696317], [79.07301433977584, 14.245744017131031], [79.071584447966, 14.247798967489478], [79.06874802948198, 14.249153690426109], [79.06627640879499, 14.24913366906701], [79.06170391232854, 14.2470300709659], [79.05638111633048, 14.250086498409239], [79.05249124435207, 14.250743600170518], [79.04792776629478, 14.247606584671477], [79.04510311153014, 14.247583457059525], [79.0443999157305, 14.247233282185528], [79.04514462874212, 14.242762025514272], [79.04483009948665, 14.238282088755819], [79.04377089880383, 14.238273411625359], [79.04056061655861, 14.242035610979807], [79.03879525784205, 14.242021111191153], [79.03774497129747, 14.240979245419581], [79.03420831581627, 14.24163896491696], [79.032416107976, 14.244723887127108], [79.02992964605205, 14.24642541975108], [79.02921153296592, 14.247797126664162], [79.02920256195102, 14.248830280400625], [79.03200630001714, 14.251264293974362], [79.03268858123599, 14.254025200670347], [79.03231159509338, 14.256777367899806], [79.03053416926332, 14.258140330749663], [79.02841260783457, 14.258467205260068], [79.02666511147724, 14.256386296474403], [79.024199473581, 14.255677062504796], [79.02278111199902, 14.256354122020774], [79.02241300869512, 14.258073108478877], [79.02451056926813, 14.260501354357004], [79.02450156850725, 14.261534504058135], [79.01812171950026, 14.264236800585072], [79.01389657266046, 14.262824003541404], [79.01282822181028, 14.263848316533258], [79.01245700559872, 14.265911655828202], [79.0110415721037, 14.26624425178713], [79.00928815409058, 14.264851989608308], [79.00681947872567, 14.264486950800165], [79.00648454810509, 14.26241772112781], [79.00970473412487, 14.257622956293185], [79.01186854547997, 14.25247492014963], [79.01154865758345, 14.248683787681168], [79.00768598521964, 14.246240723537072], [79.00592365414288, 14.245881596654076], [78.99709387816064, 14.246152045245417], [78.99569376489445, 14.244762675490112], [78.99535590193143, 14.243037821669883], [78.9971515962436, 14.23960886314269], [78.9996442412527, 14.237218936175355], [79.00141558063238, 14.23654496239054], [79.00248685853383, 14.235176308963702], [79.01170243017243, 14.23112034920703], [79.01490694413032, 14.22804734105404], [79.0174323151022, 14.221868974491244], [79.02028058548883, 14.219137320053896], [79.01996052664111, 14.21534617680958], [79.0164542866189, 14.212561850093463], [79.01363012086742, 14.21253840655277], [79.012202997849, 14.21424858245104], [79.01251089034285, 14.219417247170686], [79.00999145780962, 14.224906786562178], [79.00572780821264, 14.227970887000057], [78.99757447292656, 14.231691124298363], [78.99258923034265, 14.236470913880535], [78.99044044530159, 14.239896861047683], [78.99038558144004, 14.246095639504855], [78.99387973388446, 14.250257876251862], [78.99774836722285, 14.252012397134916], [79.00446292634135, 14.251379860181855], [79.00551308174725, 14.252421858167473], [79.00513880517592, 14.254829561051297], [79.0001409763876, 14.260986967027332], [78.99869516794178, 14.264763269174464], [79.00006502015384, 14.269596416770932], [79.00357484635641, 14.272036681959253], [79.01027791564596, 14.272781576671267], [79.01452735265876, 14.271439411527249], [79.01912082793386, 14.271133245613239], [79.02054230433069, 14.270111839901977], [79.02372030982045, 14.270138223856074], [79.0258179801662, 14.272566472121888], [79.02758356273117, 14.272581098477902], [79.02868485647178, 14.267768494316478], [79.03224286201565, 14.264698219663943], [79.03647714997774, 14.265077553475178], [79.03756926121955, 14.261298034276958], [79.04256024439756, 14.255828487191318], [79.04467880871647, 14.255845868433443], [79.04502596694711, 14.25653753874117], [79.04532860188453, 14.262395022668189], [79.0484976539632, 14.263454226787799], [79.0516844978863, 14.262447059684426], [79.05346185496212, 14.26108392755606], [79.05593358697695, 14.261104098160715], [79.05733125392851, 14.262837562713557], [79.06580586477692, 14.262906483305981], [79.06971939328812, 14.259494045890849], [79.07575433286392, 14.255754240072477], [79.08599428511674, 14.25583665000154], [79.08776560682743, 14.255162021483018], [79.09553098372378, 14.255568583838375], [79.10080737503624, 14.25802161758364], [79.1039536893634, 14.261835304795303], [79.10536039836089, 14.262535334944413], [79.10463688908484, 14.264596117560723], [79.10215928176305, 14.265265245057904], [79.10638810774275, 14.266332151393962], [79.10884560640348, 14.268073781826866], [79.11202948725418, 14.267410182980976], [79.1113375827857, 14.2656825823472], [79.11522767246171, 14.265024531341625], [79.12405577730532, 14.265094184027495], [79.12722252550414, 14.266496794899485], [79.12898816631461, 14.266510664129637], [79.13218902571536, 14.263780356156335], [79.13889275509372, 14.26452165278807], [79.14949222896861, 14.26391532564279], [79.154422015567, 14.265675704584599], [79.16465730281567, 14.266443613909187], [79.17240408294268, 14.269258622427639], [79.17556572114711, 14.271349459487167], [79.1822782561592, 14.27105633493408], [79.18756443610103, 14.272474354801618], [79.19352678859737, 14.277686204583297], [79.20337427060387, 14.282927285595306], [79.20511826966519, 14.285695953855164], [79.21004363789568, 14.288144123797654], [79.21425732014994, 14.291275743658188], [79.21988930195994, 14.293729035547894], [79.22412216473272, 14.294449555108125], [79.22798837979443, 14.296889484009009], [79.2336260630214, 14.29865363599925], [79.23502004220136, 14.301075090768125], [79.23853060975883, 14.303856675280976], [79.23957414073607, 14.305931070062115], [79.24272894590057, 14.30905441480485], [79.24446559592526, 14.312856142732358], [79.24479473360157, 14.315958577898169], [79.24619694913589, 14.317346713995152], [79.2461835750436, 14.319068840109624], [79.24474922267865, 14.321813801887652], [79.24328266202035, 14.328691843737156], [79.24113632724452, 14.332120387703656], [79.24003625819064, 14.337278885075179], [79.23610189388395, 14.343449634563875], [79.23608033043645, 14.346205015179788]], [[79.20586555665051, 14.280534999124988], [79.19565122896147, 14.277013435266017], [79.19355150849933, 14.274586455696339], [79.1914408354178, 14.273537127392913], [79.19004473655022, 14.271459902067495], [79.18758647375326, 14.269719030408933], [79.18795889415833, 14.267310806608469], [79.18937696245, 14.266632711726638], [79.19394858558799, 14.269078465960131], [79.19568963248885, 14.272191597357514], [79.19849292978093, 14.274968319303325], [79.20025323484175, 14.275670504088723], [79.2030538998638, 14.278791601427823], [79.20586555665051, 14.280534999124988]], [[79.01134632412077, 14.271757282803126], [79.00323084034743, 14.27100058685906], [79.00182447857233, 14.270299987358888], [78.99973926894832, 14.266494051896736], [79.0001227515114, 14.263053235567995], [79.0026308271534, 14.258941418109108], [79.0058389192583, 14.255524226242697], [79.006575349426, 14.25208633384452], [79.00447201161971, 14.250346722204426], [78.99951983185059, 14.251338454054208], [78.99740440685073, 14.250976299433972], [78.9935388381186, 14.248877398419442], [78.99109476416938, 14.245757209178096], [78.99113742223165, 14.240935935097962], [78.99257705673438, 14.237848422716649], [78.99792145128156, 14.232382841126178], [79.00430051936341, 14.229680993212499], [79.01033846893031, 14.22559848929283], [79.01321394389446, 14.219767499323385], [79.01290302823655, 14.214943215646677], [79.0143301516362, 14.213233035542341], [79.01714832523456, 14.213945238060811], [79.01923948264216, 14.217062245398393], [79.01922748764765, 14.218439778907957], [79.01744732599933, 14.22014705994845], [79.01420386341077, 14.227697090442883], [79.01029023554244, 14.231108588546759], [79.00249594203068, 14.234143170837006], [78.99858810882779, 14.236865680807098], [78.9946588988546, 14.241998756737608], [78.99498154888457, 14.245445498313819], [78.99708476210134, 14.24718517891339], [79.00697379514072, 14.246923586211961], [79.00978629803228, 14.248324686154781], [79.01118350994838, 14.250058367652207], [79.00972286451838, 14.255556674704955], [79.00542828888831, 14.26206448006216], [79.00540102058285, 14.265163892484622], [79.0064512360701, 14.266205894084207], [79.00892295377808, 14.266226559202666], [79.00997319184967, 14.267268547927914], [79.01279501226678, 14.267636503698858], [79.01493476074303, 14.265243496060293], [79.01810967624172, 14.265614327729935], [79.02058741934087, 14.264946106552374], [79.02590796793004, 14.262234972141764], [79.02769144299211, 14.260183284137055], [79.03265273984044, 14.258157821568824], [79.03408004642444, 14.256447545017743], [79.03445999389493, 14.253350986571649], [79.03340968439679, 14.25230909845399], [79.03273038168872, 14.24920380770431], [79.0313240311343, 14.248503386861358], [79.03133597917146, 14.24712584672275], [79.03561761715916, 14.24199497871526], [79.03773604356547, 14.2420124050596], [79.03913643322558, 14.2434015593998], [79.04054872891244, 14.24341315935535], [79.04339112942498, 14.241370008104608], [79.04371156157009, 14.245161167255505], [79.0429875930222, 14.247221701974931], [79.0436848494716, 14.248260655915693], [79.04861616502956, 14.249678692893845], [79.05282660090238, 14.25281281883807], [79.05564838252633, 14.253180253222837], [79.05633981555138, 14.25490795937536], [79.05774335159781, 14.25595263745382], [79.06127432765979, 14.255981371257322], [79.06411086981025, 14.254626754414492], [79.06625586685182, 14.251544414176951], [79.072278922828, 14.24918224801145], [79.07761319411176, 14.24474785725168], [79.0776219422324, 14.243714673316767], [79.07656853047017, 14.24301734952737], [79.06880955365712, 14.2419214414286], [79.06776497241947, 14.240190904857197], [79.07129572437343, 14.240219459409161], [79.07273140587836, 14.23747571619251], [79.07379354145864, 14.237139870342242], [79.07517372261759, 14.240939597690874], [79.07623003803333, 14.24129253156059], [79.07804497150944, 14.235452040632822], [79.08337007518963, 14.232050649955708], [79.08512959893261, 14.232753603473817], [79.08545944994269, 14.235511606362364], [79.08330615240506, 14.239627362961256], [79.07939026810347, 14.243384492654442], [79.07938152823805, 14.244417677694024], [79.08113821564815, 14.245465065746332], [79.08431308471188, 14.245834994432075], [79.0881796431998, 14.247932524736973], [79.09418509452075, 14.247636150924007], [79.10440753291492, 14.24978412373403], [79.1068705970957, 14.250836952144674], [79.10862174238153, 14.252572960424537], [79.11214417469762, 14.253634138632352], [79.11636142228626, 14.256078456170634], [79.13296048959222, 14.255864568696516], [79.13401416167977, 14.256561671411475], [79.13825153368627, 14.256594792314843], [79.14285894908409, 14.254564144441954], [79.14674319173434, 14.254594359976167], [79.1481359655455, 14.25701619031923], [79.15272369364979, 14.257396206466115], [79.15764498489953, 14.260189735698244], [79.16682624111131, 14.26026051070014], [79.16892831346281, 14.262343266723608], [79.17315200210277, 14.264097845331348], [79.17454512320028, 14.266519560339459], [79.17383052410783, 14.26754738826381], [79.16748795685545, 14.265776531044319], [79.16467682105552, 14.264032734761173], [79.15725827343499, 14.264319926023177], [79.14880003213061, 14.26218779983678], [79.12760978701273, 14.262366720904263], [79.12583563947693, 14.263386056725036], [79.11630707292323, 14.262622093944593], [79.11312326630797, 14.263285760057594], [79.10927053807801, 14.259466573088392], [79.10502742766887, 14.260121730191646], [79.1022284577729, 14.256999666317618], [79.09871469994586, 14.254905145368834], [79.09060781801779, 14.253118274050802], [79.07612203655565, 14.254035118939601], [79.0697340487397, 14.257772082763138], [79.06655319314287, 14.258090726223633], [79.06548213611602, 14.2594597007898], [79.0654703846459, 14.260837267648828], [79.06440518627248, 14.261517451692871], [79.05840532285235, 14.261124243173763], [79.05594539658766, 14.259726539142486], [79.05100196640724, 14.259686176400598], [79.05029872413051, 14.25933601331809], [79.04926607960141, 14.256227851824816], [79.04751542184198, 14.254491461501589], [79.04363437576743, 14.254115243280555], [79.04008263854837, 14.256496958542272], [79.03687200314428, 14.260259061964845], [79.03507666272205, 14.263688370803433], [79.0311895277648, 14.264000701802704], [79.02619809558718, 14.269469948779983], [79.02055132877682, 14.26907869342204], [79.01806751471581, 14.270435671406993], [79.01453640539427, 14.270406268938723], [79.01134632412077, 14.271757282803126]], [[79.18551171752965, 14.26419225873374], [79.18375983309859, 14.26245673508958], [79.17987537488516, 14.262427106265154], [79.17917464201824, 14.26173288401928], [79.1795443619238, 14.259669095228567], [79.18167417501324, 14.258307605062274], [79.18379017503017, 14.258668168717106], [79.18657112590995, 14.264200321526275], [79.18551171752965, 14.26419225873374]], [[79.04676475285848, 14.259651498298672], [79.04818308399875, 14.258974289640507], [79.04923645937826, 14.259671736330219], [79.04922757176975, 14.260704901476487], [79.0471030244137, 14.26137633069017], [79.04676475285848, 14.259651498298672]], [[79.02663814458457, 14.259485750401849], [79.0238253814057, 14.258084819149383], [79.02418747474859, 14.257054595714866], [79.02559984263743, 14.257066295060401], [79.02665013066988, 14.258108215428424], [79.02663814458457, 14.259485750401849]]], [[[79.25036365551908, 14.326677470871276], [79.25178464385333, 14.325654602314865], [79.25073558681429, 14.324269093079009], [79.2489693758849, 14.324256074271467], [79.25036365551908, 14.326677470871276]]], [[[79.25545983608532, 14.35289286420658], [79.26006588825446, 14.351204492181537], [79.26220420325704, 14.34880905194324], [79.26221482792532, 14.347431342705574], [79.259741864067, 14.347413203574709], [79.25902998169964, 14.34809686970704], [79.25545983608532, 14.35289286420658]]], [[[79.21206635074708, 14.389424345032245], [79.2142192226065, 14.38530735938685], [79.21777165557954, 14.3829230852634], [79.21955739262556, 14.380525460249602], [79.22912702353314, 14.376808437691125], [79.23163005952779, 14.37303830346764], [79.23658727915405, 14.371697519083385], [79.24017160602676, 14.36517978232031], [79.24693268456436, 14.359029937760424], [79.25082697268638, 14.358025388420801], [79.2526201741728, 14.354594170339878], [79.24979117828451, 14.35491773811511], [79.24553291883082, 14.357297356660808], [79.24270657621693, 14.35727641124834], [79.23776587811132, 14.356550830671004], [79.23460246570639, 14.354460629783931], [79.23178158303818, 14.353750715088827], [79.22928692765969, 14.356487618760744], [79.22818098583049, 14.362334847563819], [79.22711295498794, 14.363360177802587], [79.22534374483294, 14.363691368147343], [79.22006877374784, 14.360551827459021], [79.22008783308831, 14.358140893334367], [79.22294404767472, 14.354373492087166], [79.22260435229398, 14.352648743593566], [79.22048738574621, 14.352288418224715], [79.21694640597536, 14.35329512321351], [79.21342725383076, 14.351546426782992], [79.21059829690711, 14.35186952446282], [79.20844027755989, 14.35667535168287], [79.20767064295337, 14.364591594294312], [79.21153228295589, 14.367720730859395], [79.21257577555522, 14.369795239288672], [79.21254019738306, 14.374272665182485], [79.2103846855447, 14.378734064624062], [79.20999845655187, 14.382864391702052], [79.20821260462537, 14.385261930134293], [79.20818239348624, 14.38905050738286], [79.20888357351771, 14.389744693734341], [79.21206635074708, 14.389424345032245]], [[79.22071273693801, 14.36847877576382], [79.21860380957287, 14.367085161195524], [79.21968279256879, 14.364682200513355], [79.22321579367751, 14.364708733590163], [79.2235582196747, 14.366089062560022], [79.22212868254474, 14.368144972624835], [79.22071273693801, 14.36847877576382]]]]}}, {"type": "Feature", "properties": {"depth_class": 3, "depth_lo_m": 2.0, "t_s": 14400.258268691743}, "geometry": {"type": "MultiPolygon", "coordinates": [[[[79.00852143111402, 14.271733683205769], [79.01453640539427, 14.270406268938723], [79.01806751471581, 14.270435671406993], [79.02055132877682, 14.26907869342204], [79.02619809558718, 14.269469948779983], [79.0311895277648, 14.264000701802704], [79.03507666272205, 14.263688370803433], [79.03687200314428, 14.260259061964845], [79.04008263854837, 14.256496958542272], [79.04363437576743, 14.254115243280555], [79.04751542184198, 14.254491461501589], [79.04926607960141, 14.256227851824816], [79.0499515456376, 14.258644348248227], [79.05100196640724, 14.259686176400598], [79.05594539658766, 14.259726539142486], [79.05840532285235, 14.261124243173763], [79.06440518627248, 14.261517451692871], [79.0654703846459, 14.260837267648828], [79.06548213611602, 14.2594597007898], [79.06655319314287, 14.258090726223633], [79.0697340487397, 14.257772082763138], [79.07612203655565, 14.254035118939601], [79.09060781801779, 14.253118274050802], [79.09871469994586, 14.254905145368834], [79.1022284577729, 14.256999666317618], [79.10502742766887, 14.260121730191646], [79.10927053807801, 14.259466573088392], [79.11312326630797, 14.263285760057594], [79.11630707292323, 14.262622093944593], [79.12583563947693, 14.263386056725036], [79.12760978701273, 14.262366720904263], [79.14880003213061, 14.26218779983678], [79.15725827343499, 14.264319926023177], [79.16467682105552, 14.264032734761173], [79.16748795685545, 14.265776531044319], [79.17383052410783, 14.26754738826381], [79.17454512320028, 14.266519560339459], [79.17315200210277, 14.264097845331348], [79.16892831346281, 14.262343266723608], [79.16682624111131, 14.26026051070014], [79.15764498489953, 14.260189735698244], [79.15272369364979, 14.257396206466115], [79.1481359655455, 14.25701619031923], [79.14674319173434, 14.254594359976167], [79.14285894908409, 14.254564144441954], [79.13825153368627, 14.256594792314843], [79.13401416167977, 14.256561671411475], [79.13296048959222, 14.255864568696516], [79.11636142228626, 14.256078456170634], [79.11214417469762, 14.253634138632352], [79.10862174238153, 14.252572960424537], [79.1068705970957, 14.250836952144674], [79.10440753291492, 14.24978412373403], [79.09418509452075, 14.247636150924007], [79.0881796431998, 14.247932524736973], [79.08431308471188, 14.245834994432075], [79.08113821564815, 14.245465065746332], [79.07938152823805, 14.244417677694024], [79.07939026810347, 14.243384492654442], [79.08330615240506, 14.239627362961256], [79.08545944994269, 14.235511606362364], [79.08512959893261, 14.232753603473817], [79.08337007518963, 14.232050649955708], [79.07804497150944, 14.235452040632822], [79.07623003803333, 14.24129253156059], [79.07517372261759, 14.240939597690874], [79.07379354145864, 14.237139870342242], [79.07273140587836, 14.23747571619251], [79.07129572437343, 14.240219459409161], [79.06776497241947, 14.240190904857197], [79.06880955365712, 14.2419214414286], [79.07656853047017, 14.24301734952737], [79.0776219422324, 14.243714673316767], [79.07761319411176, 14.24474785725168], [79.072278922828, 14.24918224801145], [79.06625586685182, 14.251544414176951], [79.06411086981025, 14.254626754414492], [79.06127432765979, 14.255981371257322], [79.05774335159781, 14.25595263745382], [79.05633981555138, 14.25490795937536], [79.05564838252633, 14.253180253222837], [79.05282660090238, 14.25281281883807], [79.04861616502956, 14.249678692893845], [79.0436848494716, 14.248260655915693], [79.0429875930222, 14.247221701974931], [79.04371156157009, 14.245161167255505], [79.04339112942498, 14.241370008104608], [79.04054872891244, 14.24341315935535], [79.03913643322558, 14.2434015593998], [79.03773604356547, 14.2420124050596], [79.03561761715916, 14.24199497871526], [79.03133597917146, 14.24712584672275], [79.0313240311343, 14.248503386861358], [79.03273038168872, 14.24920380770431], [79.03340968439679, 14.25230909845399], [79.03445999389493, 14.253350986571649], [79.03408004642444, 14.256447545017743], [79.03265273984044, 14.258157821568824], [79.02769144299211, 14.260183284137055], [79.02590796793004, 14.262234972141764], [79.02058741934087, 14.264946106552374], [79.01810967624172, 14.265614327729935], [79.01493476074303, 14.265243496060293], [79.01279501226678, 14.267636503698858], [79.00997319184967, 14.267268547927914], [79.00892295377808, 14.266226559202666], [79.0064512360701, 14.266205894084207], [79.00540102058285, 14.265163892484622], [79.00542828888831, 14.26206448006216], [79.00972286451838, 14.255556674704955], [79.01118350994838, 14.250058367652207], [79.00978629803228, 14.248324686154781], [79.00697379514072, 14.246923586211961], [78.99708476210134, 14.24718517891339], [78.99498154888457, 14.245445498313819], [78.9946588988546, 14.241998756737608], [78.99858810882779, 14.236865680807098], [79.00249594203068, 14.234143170837006], [79.01029023554244, 14.231108588546759], [79.01420386341077, 14.227697090442883], [79.01744732599933, 14.22014705994845], [79.01922748764765, 14.218439778907957], [79.01889545106874, 14.216026169960106], [79.01749834803567, 14.21429254853517], [79.01609526076598, 14.21324768719321], [79.0143301516362, 14.213233035542341], [79.01290302823655, 14.214943215646677], [79.01321394389446, 14.219767499323385], [79.01033846893031, 14.22559848929283], [79.00430051936341, 14.229680993212499], [78.99792145128156, 14.232382841126178], [78.99257705673438, 14.237848422716649], [78.99113742223165, 14.240935935097962], [78.99109476416938, 14.245757209178096], [78.9935388381186, 14.248877398419442], [78.99740440685073, 14.250976299433972], [78.99951983185059, 14.251338454054208], [79.00447201161971, 14.250346722204426], [79.006575349426, 14.25208633384452], [79.0058389192583, 14.255524226242697], [79.0026308271534, 14.258941418109108], [78.9997605404426, 14.264083406489785], [78.99973926894832, 14.266494051896736], [79.00077730883008, 14.268913587964022], [79.00323084034743, 14.27100058685906], [79.00852143111402, 14.271733683205769]], [[79.00394312577164, 14.270317747986837], [79.00183662490771, 14.268922474439536], [79.00079857304786, 14.26650294151117], [79.00081679636025, 14.264436672710945], [79.00689515027562, 14.255877461785223], [79.00763156675289, 14.252439564282891], [79.0051842203686, 14.249663869568815], [79.00377494526268, 14.249307676124765], [79.00129432064077, 14.250320117728558], [78.99882278774726, 14.250299396137612], [78.99636646085405, 14.248556760700108], [78.99319794541226, 14.247496920493976], [78.99180699138658, 14.245074399643638], [78.99183440516924, 14.241975007865019], [78.9929209824524, 14.238884522951647], [78.99826843153002, 14.23307455768885], [79.00464751732076, 14.230372702647927], [79.01068548194496, 14.226290191756778], [79.01392000709777, 14.219773367477403], [79.01360907633848, 14.214949082771055], [79.01432414112782, 14.213921800482394], [79.01643927655175, 14.214283764686327], [79.01783036949503, 14.216706157498898], [79.01781236419662, 14.218772455992873], [79.0163852236825, 14.220482655042696], [79.01564910592471, 14.223920618907568], [79.01349777548937, 14.227691219928936], [79.0102962658442, 14.2304198262875], [79.00285807476467, 14.233112985471875], [78.9989472310216, 14.236179883069195], [78.99753198025775, 14.236512421183818], [78.99503628471979, 14.23924670198924], [78.9935966701354, 14.242334232101607], [78.994272371399, 14.245783941098239], [78.99671953349619, 14.248559725772381], [79.00661467408823, 14.247609396405343], [79.01012427589647, 14.250049534155153], [79.01010615645494, 14.2521158172009], [79.00903784787434, 14.253140118387165], [79.00866360575158, 14.25554783138843], [79.00581166959165, 14.258623641139007], [79.00401590722159, 14.262052657227123], [79.00398861963832, 14.265152066975038], [79.00538283807487, 14.267230166957662], [79.01384225796865, 14.26902285916641], [79.0159759827328, 14.267318605200787], [79.02092548905303, 14.266670950836545], [79.03087231347352, 14.259865170285803], [79.03477131328766, 14.25817529359104], [79.04049521878567, 14.249612124961013], [79.04051008529004, 14.247890190412711], [79.03910668716213, 14.246845426682555], [79.03628205682104, 14.246822195890669], [79.0348518535964, 14.248876882575576], [79.0330924167534, 14.248173562985087], [79.03346339853468, 14.246110160676693], [79.03631780248035, 14.24268956203885], [79.03912751024073, 14.244434719695164], [79.04089288806867, 14.244449219430262], [79.04266717482408, 14.243430543641121], [79.04192241005653, 14.247901785815253], [79.0429727460332, 14.248943639180427], [79.04860728108835, 14.250711858520212], [79.05140240522614, 14.254178840164808], [79.05386519604309, 14.25523219103458], [79.05561296145234, 14.2573129313035], [79.05701945727552, 14.258013224889622], [79.06302511428889, 14.257717675131614], [79.06230420064426, 14.259433892613563], [79.05877316869179, 14.259405167251145], [79.05736960783283, 14.25836049220998], [79.05313240293029, 14.258325930383249], [79.04998707326462, 14.25451168459341], [79.04470552206112, 14.252746379891663], [79.04116571149142, 14.25375056802779], [79.03367619260352, 14.262299181946647], [79.03084539721029, 14.262964631191283], [79.02515376595366, 14.267739254503677], [79.0202102526785, 14.267698230986982], [79.01772344096737, 14.269399588833735], [79.01313302235857, 14.269361351522997], [79.01135539156489, 14.270724142244001], [79.00394312577164, 14.270317747986837]], [[79.08356620103513, 14.250650864350005], [79.08287164967535, 14.249267607659727], [79.08288037675996, 14.248234420917871], [79.08358946563295, 14.247895698689195], [79.08570510290333, 14.248257102456911], [79.08781204446024, 14.24965167798838], [79.08745024366523, 14.250682036864934], [79.08638805423715, 14.251017937763713], [79.08356620103513, 14.250650864350005]], [[79.07835142340241, 14.240965201859341], [79.0780158324181, 14.238895989950967], [79.07874819834545, 14.235802118586868], [79.08265232072551, 14.233422566095502], [79.08371152324426, 14.233431067944856], [79.0844118516206, 14.234125525883544], [79.08439733270177, 14.235847507313405], [79.08224692125786, 14.239618855693516], [79.0804669830344, 14.241326643147532], [79.07835142340241, 14.240965201859341]]], [[[79.02665013066988, 14.258108215428424], [79.02559984263743, 14.257066295060401], [79.02418747474859, 14.257054595714866], [79.02382838200938, 14.257740435967893], [79.0252257607471, 14.2594740552633], [79.02663814458457, 14.259485750401849], [79.02665013066988, 14.258108215428424]]], [[[79.04675288756407, 14.261029049770848], [79.04922757176975, 14.260704901476487], [79.04923645937826, 14.259671736330219], [79.0474768843565, 14.25896850711432], [79.04675288756407, 14.261029049770848]]], [[[79.18657112590995, 14.264200321526275], [79.18379017503017, 14.258668168717106], [79.18167417501324, 14.258307605062274], [79.1795443619238, 14.259669095228567], [79.17917464201824, 14.26173288401928], [79.17987537488516, 14.262427106265154], [79.18375983309859, 14.26245673508958], [79.18551171752965, 14.26419225873374], [79.18657112590995, 14.264200321526275]]], [[[79.20586555665051, 14.280534999124988], [79.2030538998638, 14.278791601427823], [79.20025323484175, 14.275670504088723], [79.19849292978093, 14.274968319303325], [79.19568963248885, 14.272191597357514], [79.19394858558799, 14.269078465960131], [79.18937696245, 14.266632711726638], [79.18795889415833, 14.267310806608469], [79.18758647375326, 14.269719030408933], [79.19565122896147, 14.277013435266017], [79.20304296838793, 14.280169274449142], [79.20586555665051, 14.280534999124988]]]]}}, {"type": "Feature", "properties": {"depth_class": 4, "depth_lo_m": 3.0, "t_s": 14400.258268691743}, "geometry": {"type": "MultiPolygon", "coordinates": [[[[79.0804669830344, 14.241326643147532], [79.08439733270177, 14.235847507313405], [79.0844118516206, 14.234125525883544], [79.08371152324426, 14.233431067944856], [79.07946016181583, 14.235119008935623], [79.07838930182695, 14.236488067429772], [79.07800417460139, 14.24027356938424], [79.07870158792157, 14.241312439113432], [79.0804669830344, 14.241326643147532]]], [[[79.01135841388506, 14.270379762036502], [79.01313302235857, 14.269361351522997], [79.01772344096737, 14.269399588833735], [79.0202102526785, 14.267698230986982], [79.02515376595366, 14.267739254503677], [79.0265721982427, 14.267062189739411], [79.03084539721029, 14.262964631191283], [79.03367619260352, 14.262299181946647], [79.04116571149142, 14.25375056802779], [79.04470552206112, 14.252746379891663], [79.04998707326462, 14.25451168459341], [79.05313240293029, 14.258325930383249], [79.05736960783283, 14.25836049220998], [79.05877316869179, 14.259405167251145], [79.06230420064426, 14.259433892613563], [79.06301629073758, 14.258750848935852], [79.06302511428889, 14.257717675131614], [79.05701945727552, 14.258013224889622], [79.05386519604309, 14.25523219103458], [79.05140240522614, 14.254178840164808], [79.04860728108835, 14.250711858520212], [79.0429727460332, 14.248943639180427], [79.04192241005653, 14.247901785815253], [79.04266717482408, 14.243430543641121], [79.04089288806867, 14.244449219430262], [79.03912751024073, 14.244434719695164], [79.03631780248035, 14.24268956203885], [79.03346339853468, 14.246110160676693], [79.0330924167534, 14.248173562985087], [79.0348518535964, 14.248876882575576], [79.03628205682104, 14.246822195890669], [79.03910668716213, 14.246845426682555], [79.04051008529004, 14.247890190412711], [79.04049521878567, 14.249612124961013], [79.03477131328766, 14.25817529359104], [79.03087231347352, 14.259865170285803], [79.02092548905303, 14.266670950836545], [79.0159759827328, 14.267318605200787], [79.01384225796865, 14.26902285916641], [79.00538283807487, 14.267230166957662], [79.00398861963832, 14.265152066975038], [79.00401590722159, 14.262052657227123], [79.00581166959165, 14.258623641139007], [79.00866360575158, 14.25554783138843], [79.00903784787434, 14.253140118387165], [79.01010615645494, 14.2521158172009], [79.01012427589647, 14.250049534155153], [79.00661467408823, 14.247609396405343], [78.99671953349619, 14.248559725772381], [78.994272371399, 14.245783941098239], [78.9935966701354, 14.242334232101607], [78.99503628471979, 14.23924670198924], [78.99753198025775, 14.236512421183818], [78.9989472310216, 14.236179883069195], [79.00285807476467, 14.233112985471875], [79.0102962658442, 14.2304198262875], [79.01349777548937, 14.227691219928936], [79.01564910592471, 14.223920618907568], [79.0163852236825, 14.220482655042696], [79.01781236419662, 14.218772455992873], [79.01783036949503, 14.216706157498898], [79.01573623253837, 14.213933523435053], [79.01432414112782, 14.213921800482394], [79.01360907633848, 14.214949082771055], [79.01392000709777, 14.219773367477403], [79.01068548194496, 14.226290191756778], [79.00464751732076, 14.230372702647927], [78.99826843153002, 14.23307455768885], [78.9929209824524, 14.238884522951647], [78.99183440516924, 14.241975007865019], [78.99215091983663, 14.246110501377842], [78.99425107007745, 14.248194582070692], [78.99636646085405, 14.248556760700108], [78.99882278774726, 14.250299396137612], [79.00129432064077, 14.250320117728558], [79.00412802067609, 14.24931063038928], [79.00693750429426, 14.251056145055186], [79.00761342145157, 14.25450584377183], [79.00117900363131, 14.263406499658306], [79.00079857304786, 14.26650294151117], [79.00183662490771, 14.268922474439536], [79.00394312577164, 14.270317747986837], [79.01135841388506, 14.270379762036502]]], [[[79.08391638754257, 14.25099809655625], [79.08780624084095, 14.25034047107225], [79.08746185304396, 14.249304450982018], [79.08464873621551, 14.247904204835061], [79.08288037675996, 14.248234420917871], [79.08391638754257, 14.25099809655625]]]]}}]}