{"type": "FeatureCollection", "features": [{"type": "Feature", "properties": {"depth_class": 1, "depth_lo_m": 0.3, "t_s": 6300.454270161663}, "geometry": {"type": "MultiPolygon", "coordinates": [[[[79.08037378798578, 14.25234728757579], [79.082148003019, 14.251328303971723], [79.08216546570615, 14.249261931628391], [79.08146510446178, 14.248567462930165], [79.07758111167185, 14.24853619753749], [79.07580398413998, 14.249899541660659], [79.07614247745272, 14.251624360268528], [79.08037378798578, 14.25234728757579]]], [[[79.20277486485459, 14.402442464236781], [79.209173747371, 14.397668940689568], [79.21132676651973, 14.393551999383918], [79.21523544290156, 14.390826039214376], [79.21632554138432, 14.38704544524945], [79.22023404426174, 14.384319380930563], [79.22166371811706, 14.38226349880772], [79.2308800782623, 14.37854375454975], [79.23303249767433, 14.374426542421599], [79.23728041213398, 14.373424891976827], [79.23941648906575, 14.371374135688948], [79.24086206122452, 14.367251569285303], [79.24691659347567, 14.361096482640022], [79.25187616275191, 14.359410911388478], [79.25437861768734, 14.355640465904207], [79.26040587621884, 14.352929219576172], [79.26361202720062, 14.349508261702308], [79.26538375271146, 14.348832338153372], [79.26752463900951, 14.346092412229863], [79.26789644683197, 14.343683994184826], [79.27039316331432, 14.340602182892619], [79.27042486487693, 14.336469033838132], [79.268331717716, 14.333009284369128], [79.26942848128034, 14.328195007562833], [79.26837136840041, 14.327842850167663], [79.266583946281, 14.330585388648649], [79.26655483484735, 14.33437410282333], [79.2658350719951, 14.336091082114429], [79.26615920600113, 14.339882375549474], [79.26473287332806, 14.341594182245075], [79.26436103836346, 14.344002592316714], [79.26258404040955, 14.345367367347825], [79.2604696923364, 14.344662972425633], [79.2552505138019, 14.33429125145314], [79.25349755336214, 14.332556126677575], [79.25423338013624, 14.328772635449168], [79.25390411350742, 14.325670199675441], [79.25146341332508, 14.32151888844619], [79.24908419576894, 14.309445765434564], [79.24069005881158, 14.298705997220182], [79.23965190338973, 14.295942759502976], [79.2378966562333, 14.294551986224098], [79.23190852779545, 14.292440895018686], [79.2308597329847, 14.291055325916195], [79.22664039128671, 14.288612818902761], [79.22489879228895, 14.285499853651745], [79.21890021560456, 14.284766159793742], [79.21503973816404, 14.28163727525273], [79.211165767369, 14.280230438696712], [79.20906311468946, 14.278147993078894], [79.20343164882311, 14.275694500718465], [79.20203268712838, 14.273961749801545], [79.19816442637493, 14.271865890414393], [79.19431819408226, 14.267014640941147], [79.19255797681058, 14.266312421873215], [79.18905133432163, 14.263185868288438], [79.18627032866361, 14.257653738290067], [79.18134866153773, 14.254860764110713], [79.17959963916805, 14.252780806370788], [79.17608231339389, 14.25103176051613], [79.17293201882562, 14.247563306577891], [79.1704658187216, 14.246855540408271], [79.16766043112094, 14.244422977012334], [79.16271980111476, 14.244040558368194], [79.16200802474756, 14.244723943354925], [79.16198850570575, 14.24713482277384], [79.15879939066798, 14.248487963991847], [79.15914132330744, 14.249868331531932], [79.16197456129869, 14.248856879187944], [79.16549450455281, 14.250261704560797], [79.16761316819431, 14.250277987763093], [79.16974016695245, 14.24926101397432], [79.17150294149609, 14.249618965357099], [79.17324077066927, 14.253076624616202], [79.17711952038147, 14.253795170557812], [79.17957753181166, 14.255536122415624], [79.17671103489427, 14.26068074878674], [79.1738860067263, 14.260659125943171], [79.17002105388907, 14.258218452383684], [79.16614505172907, 14.257155372995479], [79.16544716556965, 14.25611670532603], [79.16438780745392, 14.256108553193021], [79.16225235131213, 14.25815870127163], [79.15871833884063, 14.258475868461039], [79.15802048615211, 14.257437182746576], [79.16015876128078, 14.25504266553094], [79.16228025302142, 14.254714590321742], [79.16439338107347, 14.255419730140476], [79.16510797426082, 14.25439193007735], [79.16441845867911, 14.252320025886231], [79.16088732868086, 14.252292825691747], [79.15913573601422, 14.250557152865706], [79.15560184484963, 14.250874287757515], [79.153474782581, 14.251891125841112], [79.1418108945421, 14.25317826416851], [79.13897189037411, 14.254878272326925], [79.13472888526864, 14.255533979616468], [79.13261871670754, 14.254484182472467], [79.11567236700132, 14.254006464757767], [79.11321208149525, 14.252609316711524], [79.11074322635515, 14.252245350137677], [79.10406594351173, 14.248403718404212], [79.09349048115838, 14.246252917906181], [79.08748506808163, 14.246549278712138], [79.0832625471402, 14.244793300734012], [79.07619794063271, 14.245080869851362], [79.06874802948198, 14.249153690426109], [79.06662949722961, 14.249136530826672], [79.0609977441534, 14.247024333179699], [79.05852321239026, 14.24734862515903], [79.05497762033549, 14.249041817232513], [79.05144676547009, 14.249013003951902], [79.04864577302759, 14.246234806788529], [79.04546805460389, 14.246208797886442], [79.04658654980629, 14.239329705571606], [79.04554808662454, 14.23691031781543], [79.04378572815898, 14.236551472060242], [79.04021646116142, 14.240999550891852], [79.0370477622756, 14.239940279866342], [79.03492637620023, 14.240267235900044], [79.03315208910747, 14.241285853069748], [79.03171593070988, 14.24402929318721], [79.02851734066977, 14.246413754564943], [79.02813733775612, 14.249510296286669], [79.02989377435088, 14.250558036394454], [79.03093808157276, 14.252288706699924], [79.03054912063129, 14.256418407758478], [79.02913376029295, 14.256751122562717], [79.0256238218951, 14.25431122611828], [79.02279912165069, 14.254287823782086], [79.02101866537946, 14.255995093741658], [79.02097659529221, 14.260816449814115], [79.01708651029875, 14.26147293629306], [79.01356459320054, 14.260410394519985], [79.01179308144793, 14.261084437745032], [79.01107178655606, 14.262800448604663], [79.00965334890844, 14.263477418729659], [79.00860615236574, 14.262091050889136], [79.01327785884712, 14.252831069864362], [79.01331102441706, 14.249042876893592], [79.01261693261601, 14.247659470681702], [79.00664189085856, 14.244509977133813], [78.99816523277929, 14.244783421601424], [78.99746517394075, 14.244088740683992], [78.99748036064244, 14.242366850336888], [79.00389301990863, 14.235876878339917], [79.0123994915288, 14.232159371053212], [79.0148888973004, 14.230113633919025], [79.01668118313434, 14.227028855699304], [79.01810236510866, 14.226007426635288], [79.02026259923477, 14.221203621203301], [79.02138461102768, 14.213980331976364], [79.025632860775, 14.212637811591492], [79.0263478674552, 14.211610485143595], [79.02424468698185, 14.209871071238208], [79.0210705175864, 14.209500419255985], [79.0178783694969, 14.211196026330047], [79.01257707523628, 14.211840842354107], [79.01114694015935, 14.213895393393887], [79.01110177906465, 14.219061119115185], [79.0082292817448, 14.224547697208662], [79.00609897492649, 14.22590755191848], [79.00256555798117, 14.22622244204726], [79.00006701569211, 14.229301179467061], [78.99723356629217, 14.23031065044577], [78.99046786734098, 14.2367974705367], [78.98902821454239, 14.23988496754883], [78.98931722802455, 14.247119844858304], [78.99420541097932, 14.253360239555315], [79.00338550810172, 14.253437270382774], [78.99765716448272, 14.262343728627593], [78.99795551179683, 14.268545490268608], [79.0003968532682, 14.27201002591183], [79.0032095950123, 14.27341123599566], [79.01274064835572, 14.273835352668316], [79.01486839553921, 14.27281987794668], [79.01910878467929, 14.27251077279895], [79.02194272526826, 14.271501101000625], [79.02334616793651, 14.27254597327099], [79.02473460982496, 14.27531275332873], [79.0264942117468, 14.276016156918446], [79.02932218515919, 14.27569516651909], [79.03075263615519, 14.273640545549076], [79.03044741197996, 14.268127478900556], [79.03116260770301, 14.267100162229152], [79.03222791445992, 14.266420143222435], [79.0350468108578, 14.267132223830556], [79.03822778314941, 14.26681402311328], [79.03893996236775, 14.26613106400208], [79.03896677423172, 14.263031588804283], [79.04040597807352, 14.259943726721623], [79.04254835689383, 14.257206035632244], [79.04432274538433, 14.256187360355197], [79.04644131529193, 14.256204726372093], [79.04714157605929, 14.256899286980994], [79.04746798919163, 14.26000167123374], [79.0492216463021, 14.261393678188009], [79.0555745758179, 14.261789997513747], [79.05768141149389, 14.263184830449308], [79.06156855369628, 14.262872060619108], [79.06297510482332, 14.26357232543671], [79.06615309953946, 14.263598131996098], [79.06828643706734, 14.26189335180325], [79.06936335623278, 14.259835579193465], [79.07610743357606, 14.255757089103605], [79.09095222429062, 14.254154291800457], [79.10081025878083, 14.257677218652479], [79.10465992145294, 14.26184092119642], [79.10995093034657, 14.262571778871566], [79.1134649232151, 14.264666160358253], [79.12299925374666, 14.264741439797268], [79.12830750126832, 14.263405480227268], [79.15055161462708, 14.263923548326773], [79.1568939425726, 14.26569483473111], [79.16290000017572, 14.265396776099056], [79.17626923973482, 14.271699280686693], [79.18191958341107, 14.271742469148661], [79.18755892595324, 14.273163185795205], [79.19001997432966, 14.27455964574096], [79.19352404157542, 14.278030621074], [79.20196159638188, 14.282916620033967], [79.20545779003089, 14.287420709401173], [79.20932638107945, 14.289516486650173], [79.21107594554323, 14.291596285420361], [79.21740884063746, 14.294743784718877], [79.22305177084698, 14.29581932910877], [79.22832268843811, 14.29930307246526], [79.23149609584094, 14.300015578917685], [79.23429480738123, 14.303480810717287], [79.23850645365442, 14.3069564928057], [79.24198231313166, 14.314215560023023], [79.24225510854686, 14.324550907439628], [79.2379489841094, 14.333130073108165], [79.23545195969675, 14.336211503666126], [79.23328113808194, 14.342739752340448], [79.23290086804533, 14.34618134031007], [79.23037926702897, 14.352362482058878], [79.22788461380391, 14.35509937107365], [79.22678136030122, 14.360602170202926], [79.22571876206834, 14.360938654156994], [79.22396315580488, 14.359547736808945], [79.2246914649377, 14.356797672550243], [79.22682746681514, 14.354747022201504], [79.22614530649989, 14.351641949883849], [79.2226315244635, 14.349204544777049], [79.21662311609744, 14.349503858869504], [79.21416110929978, 14.348107568300888], [79.21311221577542, 14.346721909652162], [79.21243845392497, 14.342583565902764], [79.20996834464935, 14.342220496153988], [79.2067752844512, 14.343918563393109], [79.20391897700841, 14.347685756873062], [79.20143784140038, 14.348700257438626], [79.2013965960661, 14.353866495479526], [79.19995044569333, 14.357988751842342], [79.19852352652109, 14.359700086564972], [79.19778662095612, 14.363483276061295], [79.1938699913156, 14.367242226400885], [79.19348903927711, 14.370683669738705], [79.19559505188639, 14.372421907764922], [79.20302552504009, 14.371100688219581], [79.20622176401258, 14.369058307065574], [79.20834158940093, 14.369074358459759], [79.20974384525371, 14.370462716504193], [79.20971369230445, 14.374251301664556], [79.2079169375234, 14.378026512563341], [79.2075361592971, 14.381467998446722], [79.20539421899464, 14.384207251985185], [79.20466279958856, 14.387301628702954], [79.20287960964463, 14.389354700237991], [79.20035935382226, 14.395190935029845], [79.19786107024295, 14.398271814668503], [79.19784448173584, 14.400338297456171], [79.19889348272437, 14.401724035966334], [79.20065197015893, 14.402770740694187], [79.20277486485459, 14.402442464236781]], [[79.22063644787671, 14.378122504063626], [79.21925861937983, 14.373634431255807], [79.21963646693227, 14.370537320832227], [79.22354462491343, 14.3678111605206], [79.2253410292295, 14.364035788164713], [79.22711024215614, 14.363704598160876], [79.22817827483426, 14.362679268151696], [79.2289228037469, 14.357862661884807], [79.23107230844569, 14.354089863548229], [79.23530634045899, 14.354810314591813], [79.23741258768506, 14.356548202891831], [79.24341047473145, 14.357626074329897], [79.24730206598332, 14.356966006142244], [79.25014446850805, 14.354920347153532], [79.25226421134062, 14.354935990336376], [79.25118294288887, 14.35768357146988], [79.24657938850476, 14.359027323203513], [79.24053029564958, 14.36449356188536], [79.23874760685032, 14.366546966069949], [79.23766071217571, 14.36998330210107], [79.23623396518448, 14.371694886834932], [79.23127674440104, 14.37303566358181], [79.22948847931002, 14.375777820167816], [79.2277137416927, 14.376797857334198], [79.22275365297806, 14.378482855367137], [79.22063644787671, 14.378122504063626]], [[79.24484243856811, 14.35522558024572], [79.23990446392587, 14.354155625442182], [79.23992330217995, 14.351744664073262], [79.24174615689084, 14.344524880635793], [79.24390603684408, 14.339374226162445], [79.24461524772516, 14.339035031389749], [79.24571790648822, 14.333532077846701], [79.24785884327555, 14.330792336760295], [79.24892127274396, 14.330455732694313], [79.24994629369694, 14.334941080592795], [79.25168588911734, 14.338398358694299], [79.25728222066583, 14.345672906435075], [79.25726357637649, 14.348083891503972], [79.25441598501548, 14.350818505756598], [79.24696753980018, 14.354552422559873], [79.24484243856811, 14.35522558024572]], [[79.25652503209336, 14.352211811050614], [79.26009514440638, 14.347415796456525], [79.26185889056184, 14.347773180238955], [79.26184826345407, 14.349150889175753], [79.25935665462741, 14.351543731157362], [79.25652503209336, 14.352211811050614]], [[79.23608033043645, 14.346205015179788], [79.23718055596854, 14.341046555178774], [79.23967762045501, 14.337965111031844], [79.24113632724452, 14.332120387703656], [79.24328266202035, 14.328691843737156], [79.24474922267865, 14.321813801887652], [79.2461835750436, 14.319068840109624], [79.24619694913589, 14.317346713995152], [79.24479473360157, 14.315958577898169], [79.24446559592526, 14.312856142732358], [79.24272894590057, 14.30905441480485], [79.23957414073607, 14.305931070062115], [79.23853060975883, 14.303856675280976], [79.23502004220136, 14.301075090768125], [79.2336260630214, 14.29865363599925], [79.21919105774386, 14.292690486170759], [79.21673503743244, 14.290605444834869], [79.21251044606078, 14.288851545352705], [79.20444470225839, 14.281557605514784], [79.20197800631266, 14.280850112146128], [79.19952228159988, 14.278764924632032], [79.19529807102185, 14.277010759291045], [79.19004748754121, 14.271115486051492], [79.18758647375326, 14.269719030408933], [79.18901831854856, 14.267318860248906], [79.1911371693107, 14.2673349534177], [79.19359818546305, 14.268731372154512], [79.19744442549958, 14.27358263421147], [79.2013127055127, 14.275678507672325], [79.20341525832399, 14.27776101115373], [79.20728912507292, 14.27916796360372], [79.21219807142239, 14.283682595415113], [79.21288538194052, 14.286098838892126], [79.21605039142085, 14.287844786509217], [79.21743869088567, 14.290955158275908], [79.21920190091794, 14.291312802396137], [79.22062005774028, 14.290634529276367], [79.2217039680472, 14.287542656933242], [79.22347527286422, 14.28686700158749], [79.22486367535456, 14.289977341391207], [79.22767835800023, 14.291376092890715], [79.2294281200129, 14.293455777554211], [79.23717953319274, 14.295924449585913], [79.2399675738446, 14.300767318153724], [79.2473127593621, 14.310121598884097], [79.2480085162927, 14.311504510974869], [79.24797646226959, 14.315637619261016], [79.25005046109585, 14.321508480734371], [79.24932796022455, 14.323569827807255], [79.24755373447414, 14.324590075072944], [79.24467957792658, 14.330768844494287], [79.24217998300746, 14.33419478401554], [79.2421558236358, 14.337294599743306], [79.24035726509933, 14.341414587886446], [79.23608033043645, 14.346205015179788]], [[79.25001308009749, 14.32633044148869], [79.24896670409213, 14.324600499828323], [79.24932528911216, 14.323914253450253], [79.25073558681429, 14.324269093079009], [79.25178464385333, 14.325654602314865], [79.25142339402132, 14.326685278799868], [79.25001308009749, 14.32633044148869]], [[79.02580297520412, 14.274288387861901], [79.0244115212662, 14.271865995847271], [79.02230485650425, 14.2704708853873], [79.01805546567368, 14.271813197791813], [79.01487744763284, 14.271786735263117], [79.01133423306676, 14.273134803400747], [79.00427500097163, 14.272731357108016], [79.00110914967036, 14.27132719710113], [78.99866780222771, 14.267862668115237], [78.99835423223128, 14.26338279311323], [78.99907865959518, 14.261322455746683], [79.00443566613988, 14.25447927354424], [79.0048038924297, 14.252760331301248], [79.00410378931086, 14.252065664443522], [78.999860766845, 14.25271892831422], [78.99492070042133, 14.25233304577462], [78.99037338588847, 14.247473145364156], [78.98969164517786, 14.24471218567471], [78.99009348291497, 14.239205135231686], [78.99223922111982, 14.236123568003016], [78.9968683797808, 14.231685203026574], [79.00005792437764, 14.230334316473886], [79.00290952095254, 14.2272585324936], [79.00679901523773, 14.226602204620422], [79.00928839570648, 14.224556523639322], [79.01180181845353, 14.219755756767553], [79.01220600642452, 14.213904200440556], [79.01433916679575, 14.212199888053355], [79.01751335010138, 14.212570632834975], [79.01996052664111, 14.21534617680958], [79.01992455542648, 14.219478779233931], [79.01740228728589, 14.225312802787428], [79.01205246643036, 14.231467669553437], [79.00283688424503, 14.235523641695144], [78.99785467813598, 14.239959165051133], [78.99642117134802, 14.242357960712415], [78.99640597662675, 14.244079849940885], [78.99745302311908, 14.245466252771728], [79.00733895976313, 14.245549015012418], [79.0119047503307, 14.248342349361659], [79.01259582314572, 14.250070138343046], [79.01221559336506, 14.253166624877903], [79.00719074097915, 14.262423626426715], [79.00752870494742, 14.26414847636265], [79.01140676004609, 14.264869677280247], [79.01319942877693, 14.261784975448053], [79.0188399607343, 14.262865144247522], [79.02273607525026, 14.261519865956506], [79.02345427959202, 14.260148190690895], [79.02205691235756, 14.258414562308824], [79.02207192835726, 14.256692648188968], [79.023496294977, 14.255326827106435], [79.02666810739882, 14.256041912651968], [79.0284185952044, 14.257778436996752], [79.0316024204356, 14.25711592408596], [79.03231756988919, 14.256088597917651], [79.03234743908423, 14.252644747374566], [79.03166516403404, 14.249883840469908], [79.02991171163829, 14.248491728262412], [79.02992366823341, 14.247114189297], [79.0320570630228, 14.245409746162219], [79.03456138583206, 14.241641872624413], [79.03668576254795, 14.240970535251984], [79.04020457232936, 14.242377099101851], [79.04340893190042, 14.239303681600061], [79.04481824099031, 14.239659641092324], [79.04404980248988, 14.246886000224263], [79.05354460067646, 14.251441025088274], [79.05955302019046, 14.250801150479125], [79.0595441852969, 14.251834322749], [79.05812003166828, 14.253200390243054], [79.05810529299708, 14.254922342159784], [79.05880853762639, 14.255272482115606], [79.06234244688986, 14.254956807593727], [79.06518190758878, 14.253257783651568], [79.06661189329492, 14.251202884241561], [79.06979558028185, 14.25053983475576], [79.07618042898439, 14.247147235656039], [79.08571091201222, 14.247568310101883], [79.09240226888714, 14.249688427255604], [79.09770158463061, 14.249386322114031], [79.10086791750994, 14.25078923782474], [79.10510222501117, 14.251167334168175], [79.10861025865606, 14.253950562926338], [79.10753945367092, 14.255319761128757], [79.10506483282897, 14.255644533066759], [79.10331657658516, 14.253564099958032], [79.09944398769797, 14.252155584374027], [79.08709134226838, 14.251367998345524], [79.07718424988785, 14.253699267546976], [79.07186730292732, 14.256067259412424], [79.0711523169446, 14.257094727082297], [79.06725646331583, 14.258440844052844], [79.06652970430667, 14.260845861838341], [79.06546157022014, 14.261870442682618], [79.05804926810426, 14.261465757043926], [79.05593949193987, 14.260415318672655], [79.05170521106248, 14.260036337673984], [79.04785962419166, 14.255527516828954], [79.04433462123207, 14.254809810330856], [79.04185108409828, 14.256167076247685], [79.038634522977, 14.26061798033862], [79.0375334897003, 14.265430664810514], [79.03117457297286, 14.265722624367305], [79.02902898105123, 14.26880456732606], [79.02934016063526, 14.273628863445941], [79.02791869258328, 14.274650323682419], [79.02580297520412, 14.274288387861901]], [[79.17876340644399, 14.268962881079705], [79.17876894162477, 14.268274053218052], [79.18089331768584, 14.267601409833471], [79.183006639492, 14.268306405065571], [79.18299835590358, 14.269339649281136], [79.17876340644399, 14.268962881079705]], [[79.17453125438831, 14.268241626102602], [79.1727766604315, 14.266850441360871], [79.16679004246872, 14.264737864105594], [79.16398171382846, 14.26264965038396], [79.15832326104379, 14.263639294205602], [79.1526928357597, 14.261184707154912], [79.14951190479415, 14.261504466638646], [79.14669816848522, 14.260104888613181], [79.14140699274375, 14.259374839502023], [79.13964704501771, 14.258672255784456], [79.13965269479253, 14.257983442533384], [79.1425001968651, 14.25525020901052], [79.14567822186116, 14.255274941453585], [79.14846940276725, 14.259429790956982], [79.15164188311421, 14.260143268811683], [79.15588216507682, 14.259831674886483], [79.15693313831301, 14.260873096723916], [79.16682067290668, 14.260949334416082], [79.16821927151179, 14.262682252553073], [79.17314645154995, 14.264786671270425], [79.17665286737117, 14.267913435529419], [79.17664732590721, 14.268602262597652], [79.17453125438831, 14.268241626102602]], [[79.13433044617635, 14.261041706758695], [79.13010152013047, 14.259975292028903], [79.12657033990124, 14.259947569423991], [79.12304771822163, 14.258886584632101], [79.1230534184792, 14.258197777942808], [79.12624282974275, 14.256845158485305], [79.12977680056285, 14.256528475311834], [79.13189547975857, 14.256545082761134], [79.1354124621876, 14.258294749165252], [79.13929675221486, 14.258325093703391], [79.13928827560697, 14.259358313325006], [79.13786731531113, 14.260380504123003], [79.13433044617635, 14.261041706758695]], [[79.11070020538457, 14.25741136514615], [79.10930785772543, 14.254989364695433], [79.11037291442578, 14.254308958913079], [79.11319203287609, 14.255020127380629], [79.11459015046859, 14.256753306858956], [79.11352222715429, 14.257778132981562], [79.11070020538457, 14.25741136514615]], [[79.15556824969947, 14.25500720652207], [79.15698910683032, 14.25398489601157], [79.15733662691399, 14.254676444862966], [79.15556824969947, 14.25500720652207]], [[79.16586988042765, 14.247509123662903], [79.16588101137076, 14.246131475377023], [79.1679968575194, 14.246492163029512], [79.16763263199815, 14.247867101349243], [79.16586988042765, 14.247509123662903]]], [[[79.22294077739609, 14.309940604174006], [79.22611971220266, 14.309964353752909], [79.22614674656243, 14.306520135991992], [79.22438881479835, 14.305473685789346], [79.21909341717631, 14.30508963261291], [79.21660466950142, 14.307137617788522], [79.21659379798464, 14.308515297779858], [79.21764528236324, 14.30955650702331], [79.2204791256004, 14.308544420173183], [79.22294077739609, 14.309940604174006]]]]}}, {"type": "Feature", "properties": {"depth_class": 2, "depth_lo_m": 1.0, "t_s": 6300.454270161663}, "geometry": {"type": "MultiPolygon", "coordinates": [[[[79.02862792970485, 14.274311786697723], [79.02934016063526, 14.273628863445941], [79.02902898105123, 14.26880456732606], [79.03010627428898, 14.266747022954354], [79.03188377677225, 14.26538407322689], [79.03717740003262, 14.265772142490864], [79.038634522977, 14.26061798033862], [79.04185108409828, 14.256167076247685], [79.04433462123207, 14.254809810330856], [79.04785962419166, 14.255527516828954], [79.05170521106248, 14.260036337673984], [79.05593949193987, 14.260415318672655], [79.05804926810426, 14.261465757043926], [79.06546157022014, 14.261870442682618], [79.06652970430667, 14.260845861838341], [79.06725646331583, 14.258440844052844], [79.0711523169446, 14.257094727082297], [79.07186730292732, 14.256067259412424], [79.07718424988785, 14.253699267546976], [79.08709134226838, 14.251367998345524], [79.09944398769797, 14.252155584374027], [79.10331657658516, 14.253564099958032], [79.10506483282897, 14.255644533066759], [79.10753945367092, 14.255319761128757], [79.10861025865606, 14.253950562926338], [79.10510222501117, 14.251167334168175], [79.10086791750994, 14.25078923782474], [79.09770158463061, 14.249386322114031], [79.09240226888714, 14.249688427255604], [79.08571091201222, 14.247568310101883], [79.07618042898439, 14.247147235656039], [79.06979558028185, 14.25053983475576], [79.06661189329492, 14.251202884241561], [79.06518190758878, 14.253257783651568], [79.06234244688986, 14.254956807593727], [79.05880853762639, 14.255272482115606], [79.05810529299708, 14.254922342159784], [79.05812003166828, 14.253200390243054], [79.0595441852969, 14.251834322749], [79.05955302019046, 14.250801150479125], [79.05354460067646, 14.251441025088274], [79.04404980248988, 14.246886000224263], [79.04481824099031, 14.239659641092324], [79.04340893190042, 14.239303681600061], [79.04020457232936, 14.242377099101851], [79.03668576254795, 14.240970535251984], [79.03456138583206, 14.241641872624413], [79.0320570630228, 14.245409746162219], [79.02992366823341, 14.247114189297], [79.02991171163829, 14.248491728262412], [79.03166516403404, 14.249883840469908], [79.03234743908423, 14.252644747374566], [79.03231756988919, 14.256088597917651], [79.0316024204356, 14.25711592408596], [79.0284185952044, 14.257778436996752], [79.02666810739882, 14.256041912651968], [79.023496294977, 14.255326827106435], [79.02207192835726, 14.256692648188968], [79.02205691235756, 14.258414562308824], [79.02345427959202, 14.260148190690895], [79.02273607525026, 14.261519865956506], [79.0188399607343, 14.262865144247522], [79.01319942877693, 14.261784975448053], [79.01140676004609, 14.264869677280247], [79.00752870494742, 14.26414847636265], [79.00719074097915, 14.262423626426715], [79.01221559336506, 14.253166624877903], [79.01259582314572, 14.250070138343046], [79.0119047503307, 14.248342349361659], [79.00733895976313, 14.245549015012418], [78.99745302311908, 14.245466252771728], [78.99640597662675, 14.244079849940885], [78.99642117134802, 14.242357960712415], [78.99785467813598, 14.239959165051133], [79.00283688424503, 14.235523641695144], [79.01205246643036, 14.231467669553437], [79.01740228728589, 14.225312802787428], [79.01992455542648, 14.219478779233931], [79.01996052664111, 14.21534617680958], [79.01751335010138, 14.212570632834975], [79.01433916679575, 14.212199888053355], [79.01220600642452, 14.213904200440556], [79.01180181845353, 14.219755756767553], [79.00928839570648, 14.224556523639322], [79.00679901523773, 14.226602204620422], [79.00290952095254, 14.2272585324936], [79.00005792437764, 14.230334316473886], [78.9968683797808, 14.231685203026574], [78.9908117820805, 14.23783357242439], [78.98972213579329, 14.24126842136177], [78.9900294647044, 14.246437041971214], [78.99562381469967, 14.252683358624765], [79.00269147102394, 14.252053841876082], [79.0048038924297, 14.252760331301248], [79.00443566613988, 14.25447927354424], [78.99907865959518, 14.261322455746683], [78.99835423223128, 14.26338279311323], [78.99866780222771, 14.267862668115237], [79.00110914967036, 14.27132719710113], [79.00427500097163, 14.272731357108016], [79.01133423306676, 14.273134803400747], [79.01487744763284, 14.271786735263117], [79.01805546567368, 14.271813197791813], [79.02230485650425, 14.2704708853873], [79.0244115212662, 14.271865995847271], [79.02580297520412, 14.274288387861901], [79.02862792970485, 14.274311786697723]], [[79.02616809622275, 14.272913781681067], [79.02337020172146, 14.269790911657292], [79.02054531255963, 14.269767457752558], [79.01912383854678, 14.270788863790417], [79.01453037031774, 14.271095030674966], [79.01098716577515, 14.272443094854482], [79.00463417884289, 14.272045557901064], [79.00181840491872, 14.27098874375516], [78.99937704856634, 14.26752422101098], [78.99905738514431, 14.263733100702403], [79.00228683733116, 14.2579053237325], [79.00513880517592, 14.254829561051297], [79.00551610889174, 14.252077478661038], [79.00481600512613, 14.251382813848583], [79.00057299602175, 14.252036092368895], [78.99598601836853, 14.251653193146003], [78.99177957101371, 14.248173790567163], [78.9903916787273, 14.245406886511857], [78.99115874528111, 14.238525297282113], [78.9979275196211, 14.23169408415263], [79.00076098517742, 14.230684606900637], [79.00290044391222, 14.228291671475796], [79.00679297602937, 14.227290965628661], [79.00963540415765, 14.22524822706228], [79.01250788101302, 14.21976162908677], [79.01290904349517, 14.214254451361333], [79.01468617790158, 14.212891584353601], [79.0175043491028, 14.213603782286652], [79.0192484780458, 14.216029095155752], [79.0192214896691, 14.219128545599615], [79.01634015974236, 14.225648394401532], [79.01241455186278, 14.230437463262986], [79.00177772337186, 14.235514780000528], [78.99750769159448, 14.239267447047391], [78.99571808532747, 14.24200765396051], [78.9956968052328, 14.24441829783585], [78.99709387816064, 14.246152045245417], [79.00697984248461, 14.24623482625707], [79.01154564034016, 14.249028168553604], [79.01187458042732, 14.251786158457117], [79.01042903743287, 14.255562567639256], [79.00612842329092, 14.262759147033199], [79.00646335066847, 14.264828376793368], [79.01174777885727, 14.26625014513594], [79.01245700559872, 14.265911655828202], [79.01354347411554, 14.26282106100233], [79.01530896764488, 14.262835768474778], [79.01706241478558, 14.264227989317817], [79.01918102493781, 14.264245607151167], [79.02414246771721, 14.262220343749878], [79.02591996085795, 14.260857438093721], [79.0231191948902, 14.258078964858374], [79.02419347432493, 14.256365829130923], [79.02595593196169, 14.256724834937197], [79.02805651862143, 14.25880866913229], [79.03230263230158, 14.25781052279399], [79.03372993870353, 14.25610024835184], [79.03375978649267, 14.252656394879267], [79.03308346315094, 14.249206719109035], [79.03203019136096, 14.24850921303023], [79.03204512085934, 14.246787287097776], [79.03597068802802, 14.2419978844098], [79.0380861393765, 14.242359694223659], [79.03983960773077, 14.243751747342378], [79.04232597725978, 14.242050097730154], [79.04338519463235, 14.242058783521946], [79.04371749672009, 14.244472391881905], [79.04298462378298, 14.247566089437083], [79.0436848494716, 14.248260655915693], [79.04966950263638, 14.250376132846924], [79.0517673273784, 14.252804168547138], [79.05387996721839, 14.253510243513492], [79.05562476973769, 14.255935372111676], [79.05738140635744, 14.256982931697138], [79.06444339688267, 14.257040361869116], [79.06336057079959, 14.259786891337097], [79.05841416893439, 14.260091072406706], [79.05242324589426, 14.25866455185635], [79.04927496412684, 14.255194686267867], [79.04681516623081, 14.253796902661994], [79.04292819317152, 14.254109449217623], [79.04115084358969, 14.255472502410417], [79.03721914096911, 14.260950741224823], [79.03648609851284, 14.2640443966103], [79.03577392029143, 14.26472734838797], [79.0311835460874, 14.264689470860178], [79.02833174706018, 14.267765572686436], [79.02793368186713, 14.272928405791012], [79.02616809622275, 14.272913781681067]], [[79.07825521138429, 14.252330227439757], [79.07579230351408, 14.251277118030828], [79.07580398413998, 14.249899541660659], [79.07758111167185, 14.24853619753749], [79.08146510446178, 14.248567462930165], [79.08216546570615, 14.249261931628391], [79.082148003019, 14.251328303971723], [79.08143598928237, 14.25201141540725], [79.07825521138429, 14.252330227439757]]], [[[79.03873872940582, 14.248564457541043], [79.03732938125526, 14.248208456507921], [79.03696736449213, 14.249238710122311], [79.03837671797037, 14.249594714014629], [79.03873872940582, 14.248564457541043]]], [[[79.15733942416966, 14.254332034669766], [79.15592976371755, 14.253976707515228], [79.15556824969947, 14.25500720652207], [79.15698071345741, 14.2550181263853], [79.15733942416966, 14.254332034669766]]], [[[79.11423131385425, 14.257439317869599], [79.11459015046859, 14.256753306858956], [79.11319203287609, 14.255020127380629], [79.11143223148042, 14.254317349880594], [79.10931072793117, 14.25464496397637], [79.11070020538457, 14.25741136514615], [79.11423131385425, 14.257439317869599]]], [[[79.13327108376551, 14.261033413639824], [79.13857638357351, 14.260041613172332], [79.13929675221486, 14.258325093703391], [79.1354124621876, 14.258294749165252], [79.13189547975857, 14.256545082761134], [79.12624282974275, 14.256845158485305], [79.1230534184792, 14.258197777942808], [79.12304771822163, 14.258886584632101], [79.12657033990124, 14.259947569423991], [79.13010152013047, 14.259975292028903], [79.13327108376551, 14.261033413639824]]], [[[79.17664732590721, 14.268602262597652], [79.17314645154995, 14.264786671270425], [79.16821927151179, 14.262682252553073], [79.16682067290668, 14.260949334416082], [79.15693313831301, 14.260873096723916], [79.15588216507682, 14.259831674886483], [79.15164188311421, 14.260143268811683], [79.14846940276725, 14.259429790956982], [79.14567822186116, 14.255274941453585], [79.1425001968651, 14.25525020901052], [79.13965269479253, 14.257983442533384], [79.13964704501771, 14.258672255784456], [79.14140699274375, 14.259374839502023], [79.14669816848522, 14.260104888613181], [79.14951190479415, 14.261504466638646], [79.1526928357597, 14.261184707154912], [79.15832326104379, 14.263639294205602], [79.16398171382846, 14.26264965038396], [79.16679004246872, 14.264737864105594], [79.1727766604315, 14.266850441360871], [79.17453125438831, 14.268241626102602], [79.17664732590721, 14.268602262597652]]], [[[79.16798851883074, 14.247525400456862], [79.16764653248764, 14.246145039311449], [79.165525124211, 14.246473173043482], [79.1662202042559, 14.247856249880241], [79.16798851883074, 14.247525400456862]]], [[[79.183006639492, 14.268306405065571], [79.1794779902729, 14.26793503633747], [79.17876340644399, 14.268962881079705], [79.18299835590358, 14.269339649281136], [79.183006639492, 14.268306405065571]]], [[[79.23608033043645, 14.346205015179788], [79.24035726509933, 14.341414587886446], [79.2421558236358, 14.337294599743306], [79.24217998300746, 14.33419478401554], [79.24467957792658, 14.330768844494287], [79.24755373447414, 14.324590075072944], [79.24932796022455, 14.323569827807255], [79.25005046109585, 14.321508480734371], [79.24797646226959, 14.315637619261016], [79.2480085162927, 14.311504510974869], [79.2473127593621, 14.310121598884097], [79.2399675738446, 14.300767318153724], [79.23717953319274, 14.295924449585913], [79.2294281200129, 14.293455777554211], [79.22767835800023, 14.291376092890715], [79.22486367535456, 14.289977341391207], [79.22347527286422, 14.28686700158749], [79.2217039680472, 14.287542656933242], [79.22062005774028, 14.290634529276367], [79.21920190091794, 14.291312802396137], [79.21743869088567, 14.290955158275908], [79.21605039142085, 14.287844786509217], [79.21393675556921, 14.287140052306988], [79.21288538194052, 14.286098838892126], [79.21219807142239, 14.283682595415113], [79.20728912507292, 14.27916796360372], [79.20341525832399, 14.27776101115373], [79.2013127055127, 14.275678507672325], [79.19744442549958, 14.27358263421147], [79.19359818546305, 14.268731372154512], [79.1911371693107, 14.2673349534177], [79.18901831854856, 14.267318860248906], [79.18758647375326, 14.269719030408933], [79.19004748754121, 14.271115486051492], [79.19529807102185, 14.277010759291045], [79.19952228159988, 14.278764924632032], [79.20197800631266, 14.280850112146128], [79.20444470225839, 14.281557605514784], [79.21251044606078, 14.288851545352705], [79.21673503743244, 14.290605444834869], [79.21919105774386, 14.292690486170759], [79.2336260630214, 14.29865363599925], [79.23502004220136, 14.301075090768125], [79.23853060975883, 14.303856675280976], [79.23957414073607, 14.305931070062115], [79.24272894590057, 14.30905441480485], [79.24446559592526, 14.312856142732358], [79.24479473360157, 14.315958577898169], [79.24619694913589, 14.317346713995152], [79.2461835750436, 14.319068840109624], [79.24474922267865, 14.321813801887652], [79.24328266202035, 14.328691843737156], [79.24113632724452, 14.332120387703656], [79.23967762045501, 14.337965111031844], [79.23646324702221, 14.342418993849668], [79.23608033043645, 14.346205015179788]]], [[[79.25177930824248, 14.326343454377234], [79.25073558681429, 14.324269093079009], [79.2489693758849, 14.324256074271467], [79.25036365551908, 14.326677470871276], [79.25177930824248, 14.326343454377234]]], [[[79.25865008135696, 14.351538541208084], [79.26184826345407, 14.349150889175753], [79.26150826647003, 14.347426162725776], [79.26009514440638, 14.347415796456525], [79.25831543274147, 14.349124959745607], [79.25652503209336, 14.352211811050614], [79.25865008135696, 14.351538541208084]]], [[[79.2213403655169, 14.378472235749559], [79.22913244811059, 14.376119596970028], [79.23127674440104, 14.37303566358181], [79.23623396518448, 14.371694886834932], [79.23766071217571, 14.36998330210107], [79.23874760685032, 14.366546966069949], [79.24053029564958, 14.36449356188536], [79.24657938850476, 14.359027323203513], [79.25118294288887, 14.35768357146988], [79.25226421134062, 14.354935990336376], [79.25014446850805, 14.354920347153532], [79.24730206598332, 14.356966006142244], [79.24341047473145, 14.357626074329897], [79.23741258768506, 14.356548202891831], [79.23530634045899, 14.354810314591813], [79.23107230844569, 14.354089863548229], [79.2289228037469, 14.357862661884807], [79.22817827483426, 14.362679268151696], [79.22462899614175, 14.364719332081064], [79.22354462491343, 14.3678111605206], [79.22212051812447, 14.3691782304491], [79.21999522597834, 14.369851139976642], [79.21927497913563, 14.371567919514204], [79.22028585300231, 14.377775428194603], [79.2213403655169, 14.378472235749559]]]]}}, {"type": "Feature", "properties": {"depth_class": 3, "depth_lo_m": 2.0, "t_s": 6300.454270161663}, "geometry": {"type": "Polygon", "coordinates": [[[79.02616809622275, 14.272913781681067], [79.02337020172146, 14.269790911657292], [79.02054531255963, 14.269767457752558], [79.01912383854678, 14.270788863790417], [79.01453037031774, 14.271095030674966], [79.01098716577515, 14.272443094854482], [79.00463417884289, 14.272045557901064], [79.00181840491872, 14.27098874375516], [78.99937704856634, 14.26752422101098], [78.99905738514431, 14.263733100702403], [79.00228683733116, 14.2579053237325], [79.00513880517592, 14.254829561051297], [79.00551610889174, 14.252077478661038], [79.00481600512613, 14.251382813848583], [79.00057299602175, 14.252036092368895], [78.99598601836853, 14.251653193146003], [78.99177957101371, 14.248173790567163], [78.9903916787273, 14.245406886511857], [78.99115874528111, 14.238525297282113], [78.9979275196211, 14.23169408415263], [79.00076098517742, 14.230684606900637], [79.00290044391222, 14.228291671475796], [79.00679297602937, 14.227290965628661], [79.00963540415765, 14.22524822706228], [79.01250788101302, 14.21976162908677], [79.01290904349517, 14.214254451361333], [79.01468617790158, 14.212891584353601], [79.0175043491028, 14.213603782286652], [79.0192484780458, 14.216029095155752], [79.0192214896691, 14.219128545599615], [79.01634015974236, 14.225648394401532], [79.01241455186278, 14.230437463262986], [79.00177772337186, 14.235514780000528], [78.99750769159448, 14.239267447047391], [78.99571808532747, 14.24200765396051], [78.9956968052328, 14.24441829783585], [78.99709387816064, 14.246152045245417], [79.00697984248461, 14.24623482625707], [79.01154564034016, 14.249028168553604], [79.01187458042732, 14.251786158457117], [79.01042903743287, 14.255562567639256], [79.00612842329092, 14.262759147033199], [79.00646335066847, 14.264828376793368], [79.01174777885727, 14.26625014513594], [79.01245700559872, 14.265911655828202], [79.01354347411554, 14.26282106100233], [79.01530896764488, 14.262835768474778], [79.01706241478558, 14.264227989317817], [79.01918102493781, 14.264245607151167], [79.02414246771721, 14.262220343749878], [79.02591996085795, 14.260857438093721], [79.0231191948902, 14.258078964858374], [79.02419347432493, 14.256365829130923], [79.02595593196169, 14.256724834937197], [79.02805651862143, 14.25880866913229], [79.03230263230158, 14.25781052279399], [79.03372993870353, 14.25610024835184], [79.03375978649267, 14.252656394879267], [79.03308346315094, 14.249206719109035], [79.03203019136096, 14.24850921303023], [79.03204512085934, 14.246787287097776], [79.03597068802802, 14.2419978844098], [79.0380861393765, 14.242359694223659], [79.03983960773077, 14.243751747342378], [79.04232597725978, 14.242050097730154], [79.04338519463235, 14.242058783521946], [79.04371749672009, 14.244472391881905], [79.04298462378298, 14.247566089437083], [79.0436848494716, 14.248260655915693], [79.04966950263638, 14.250376132846924], [79.0517673273784, 14.252804168547138], [79.05387996721839, 14.253510243513492], [79.05562476973769, 14.255935372111676], [79.05738140635744, 14.256982931697138], [79.06444339688267, 14.257040361869116], [79.06336057079959, 14.259786891337097], [79.05841416893439, 14.260091072406706], [79.05242324589426, 14.25866455185635], [79.04927496412684, 14.255194686267867], [79.04681516623081, 14.253796902661994], [79.04292819317152, 14.254109449217623], [79.04115084358969, 14.255472502410417], [79.03721914096911, 14.260950741224823], [79.03577392029143, 14.26472734838797], [79.03189274643393, 14.264350919248352], [79.02904695015636, 14.266738263427046], [79.02796964799498, 14.268795801775237], [79.02793368186713, 14.272928405791012], [79.02616809622275, 14.272913781681067]], [[79.00781520866926, 14.271727778080166], [79.01169943610948, 14.271760230400972], [79.01453640539427, 14.270406268938723], [79.01806751471581, 14.270435671406993], [79.020198219064, 14.269075759479824], [79.0237293198009, 14.269105075387667], [79.02654520903643, 14.270161640724071], [79.02762852543044, 14.267415344164075], [79.03083642368607, 14.263997784636645], [79.03543573556796, 14.263002510749743], [79.03615983936626, 14.260942016773852], [79.04187486449575, 14.253411980110855], [79.04399934327058, 14.252740589543242], [79.0499959533934, 14.25347851844282], [79.04965470290719, 14.252098076489222], [79.04790110697684, 14.2507060805267], [79.04121624751455, 14.247895989157495], [79.04013023834528, 14.250986771598408], [79.03621649335471, 14.25439868734697], [79.03478324884841, 14.256797751703068], [79.03335893067076, 14.258163647664784], [79.02804454046199, 14.26018620519656], [79.02626106821268, 14.26223789625329], [79.01917199743444, 14.265278753189623], [79.01423760575021, 14.264204469621784], [79.01351329715114, 14.266264869365592], [79.01209182126806, 14.267286232441908], [79.00575109134077, 14.2655112267356], [79.00542222983073, 14.262753238452184], [79.00971984298775, 14.255901054996043], [79.01116238155252, 14.252469032724102], [79.01118652796832, 14.249713986885457], [79.01013937321383, 14.248327631326934], [79.00627067537145, 14.246573306724748], [78.99708780086893, 14.246840801034622], [78.99533765742423, 14.245104087242675], [78.99500892009189, 14.242346100578919], [78.99680157493874, 14.239261522494782], [79.0017837814164, 14.23482602157855], [79.01170845620108, 14.230431586355374], [79.01420085481915, 14.228041472476074], [79.01887445693548, 14.21843685319609], [79.01854542354643, 14.21567886095619], [79.01609225821912, 14.213592070037937], [79.01432714642222, 14.213577418017632], [79.01325605224729, 14.214946149469098], [79.0128579035369, 14.220108946444942], [79.0099854290189, 14.225595549010356], [79.00714299869338, 14.227638291532436], [79.00360350435626, 14.228641953332117], [79.0011110019201, 14.231031941035798], [78.9982775328017, 14.232041422052383], [78.99258010025842, 14.237504045523446], [78.9911465611697, 14.239902804668777], [78.99109171655452, 14.246101585818929], [78.99458892670421, 14.249919436664177], [78.99704829056047, 14.251317712635288], [79.00163829897498, 14.251356212061651], [79.00270359591327, 14.25067632612279], [79.00587524196554, 14.251391671717705], [79.0062041115087, 14.254149660409832], [79.00012882679432, 14.26236447943002], [78.99973622983917, 14.266838429769749], [79.00182447857233, 14.270299987358888], [79.00781520866926, 14.271727778080166]], [[79.02488466177954, 14.258093596669966], [79.02558785108837, 14.258443829278416], [79.02559084909565, 14.25809944573973], [79.02488466177954, 14.258093596669966]], [[79.03731746863555, 14.249586001496885], [79.03837671797037, 14.249594714014629], [79.03873872940582, 14.248564457541043], [79.03732938125526, 14.248208456507921], [79.03731746863555, 14.249586001496885]], [[79.03380156001244, 14.24783499824767], [79.03450771921536, 14.247840816818986], [79.03558186057592, 14.246127611064756], [79.03911263701039, 14.246156653310226], [79.04122219142104, 14.247207214972693], [79.04195211571805, 14.24445791301183], [79.03912156118695, 14.245123493172775], [79.03772413880982, 14.24338995109893], [79.03631482411299, 14.243033948251075], [79.03524368601299, 14.244402774375315], [79.03523176405778, 14.245780318072883], [79.03381050944942, 14.246801841558003], [79.03380156001244, 14.24783499824767]]]}}, {"type": "Feature", "properties": {"depth_class": 4, "depth_lo_m": 3.0, "t_s": 6300.454270161663}, "geometry": {"type": "MultiPolygon", "coordinates": [[[[79.01169943610948, 14.271760230400972], [79.01453640539427, 14.270406268938723], [79.01806751471581, 14.270435671406993], [79.020198219064, 14.269075759479824], [79.0237293198009, 14.269105075387667], [79.02654520903643, 14.270161640724071], [79.02762852543044, 14.267415344164075], [79.03083642368607, 14.263997784636645], [79.03543573556796, 14.263002510749743], [79.03615983936626, 14.260942016773852], [79.04187486449575, 14.253411980110855], [79.04399934327058, 14.252740589543242], [79.0499959533934, 14.25347851844282], [79.04965470290719, 14.252098076489222], [79.04790110697684, 14.2507060805267], [79.04121624751455, 14.247895989157495], [79.04013023834528, 14.250986771598408], [79.03621649335471, 14.25439868734697], [79.03478324884841, 14.256797751703068], [79.03335893067076, 14.258163647664784], [79.02804454046199, 14.26018620519656], [79.02626106821268, 14.26223789625329], [79.01917199743444, 14.265278753189623], [79.01423760575021, 14.264204469621784], [79.01351329715114, 14.266264869365592], [79.01209182126806, 14.267286232441908], [79.00575109134077, 14.2655112267356], [79.00542222983073, 14.262753238452184], [79.00971984298775, 14.255901054996043], [79.01116238155252, 14.252469032724102], [79.01118652796832, 14.249713986885457], [79.01013937321383, 14.248327631326934], [79.00627067537145, 14.246573306724748], [78.99708780086893, 14.246840801034622], [78.99533765742423, 14.245104087242675], [78.99500892009189, 14.242346100578919], [78.99680157493874, 14.239261522494782], [79.0017837814164, 14.23482602157855], [79.01170845620108, 14.230431586355374], [79.01420085481915, 14.228041472476074], [79.01887445693548, 14.21843685319609], [79.01854542354643, 14.21567886095619], [79.01609225821912, 14.213592070037937], [79.01432714642222, 14.213577418017632], [79.01325605224729, 14.214946149469098], [79.0128579035369, 14.220108946444942], [79.0099854290189, 14.225595549010356], [79.00714299869338, 14.227638291532436], [79.00360350435626, 14.228641953332117], [79.0011110019201, 14.231031941035798], [78.9982775328017, 14.232041422052383], [78.99258010025842, 14.237504045523446], [78.9911465611697, 14.239902804668777], [78.99109171655452, 14.246101585818929], [78.99458892670421, 14.249919436664177], [78.99704829056047, 14.251317712635288], [79.0048220609893, 14.250694055058938], [79.00622226916711, 14.252083382638567], [79.00548583381011, 14.255521273250457], [79.00334913462319, 14.257569817907102], [78.99976661728279, 14.26339465056414], [78.99973622983917, 14.266838429769749], [79.00112433895967, 14.269605306828188], [79.00428713457116, 14.271353842402561], [79.01169943610948, 14.271760230400972]]], [[[79.03380156001244, 14.24783499824767], [79.03558186057592, 14.246127611064756], [79.03911263701039, 14.246156653310226], [79.04122219142104, 14.247207214972693], [79.04195211571805, 14.24445791301183], [79.03912156118695, 14.245123493172775], [79.03772413880982, 14.24338995109893], [79.03631482411299, 14.243033948251075], [79.03524368601299, 14.244402774375315], [79.03523176405778, 14.245780318072883], [79.03381050944942, 14.246801841558003], [79.03380156001244, 14.24783499824767]]], [[[79.02558785108837, 14.258443829278416], [79.02488466177954, 14.258093596669966], [79.02488166270166, 14.258437980061599], [79.02558785108837, 14.258443829278416]]]]}}]}