{"type": "FeatureCollection", "features": [{"type": "Feature", "properties": {"depth_class": 1, "depth_lo_m": 0.3, "t_s": 11700.246145371226}, "geometry": {"type": "MultiPolygon", "coordinates": [[[[79.06875389041396, 14.248464905007], [79.07194338611204, 14.247113034337923], [79.0726641791219, 14.245396771882453], [79.06594092797235, 14.247064453856124], [79.06698845202416, 14.248450607364799], [79.06875389041396, 14.248464905007]]], [[[79.22576649693613, 14.30996171700815], [79.2264864429322, 14.308244880893316], [79.2254457350124, 14.30582601988645], [79.21874021087808, 14.305086986310283], [79.21660738719977, 14.306793197764524], [79.21659107992458, 14.308859717751526], [79.21729206936566, 14.309553857761003], [79.22153605138817, 14.308896772534661], [79.22399771462543, 14.310292946741193], [79.22576649693613, 14.30996171700815]]], [[[79.1938744583785, 14.410641006227717], [79.20062435499206, 14.40621488246047], [79.20309788612784, 14.406233713178791], [79.2055631576163, 14.407285763162257], [79.20592478323458, 14.406255202320546], [79.20452786832774, 14.404177972619964], [79.20490051007819, 14.401769752903686], [79.20845605525489, 14.399041247765402], [79.21132402354007, 14.393896415897759], [79.21523270645466, 14.391170456544717], [79.21632280735753, 14.387389862894974], [79.21881526266337, 14.384997578426201], [79.22058737499313, 14.384322039333378], [79.22237309748972, 14.381924391142743], [79.22556120271874, 14.380915006510609], [79.22804806240741, 14.37921144402065], [79.23052404403832, 14.378885533111788], [79.23159214346701, 14.377860195417842], [79.23267647360967, 14.374768325456863], [79.23798974407462, 14.373085731337742], [79.24013389456083, 14.370001699735118], [79.24050336714693, 14.36793778968556], [79.24656061154022, 14.361438291735784], [79.25152019043323, 14.359752729143999], [79.25508787068472, 14.35530124425014], [79.25934068622642, 14.353610291087008], [79.26361202720062, 14.349508261702308], [79.26644890332868, 14.348151234608123], [79.26789380017294, 14.344028422659202], [79.27039316331432, 14.340602182892619], [79.27042750621753, 14.336124604682285], [79.26868233370604, 14.333356290849919], [79.26978701473917, 14.327508724071595], [79.26837401121722, 14.327498421137278], [79.26658923835446, 14.329896531390062], [79.2665601284684, 14.333685245794767], [79.26584036847487, 14.335402225448796], [79.26616185451144, 14.339537947272342], [79.2643742979115, 14.342280453069833], [79.26400510990962, 14.34434443414455], [79.26187748528415, 14.345362189196512], [79.2604696923364, 14.344662972425633], [79.2552505138019, 14.33429125145314], [79.25349755336214, 14.332556126677575], [79.25423604470423, 14.328428209040892], [79.25390411350742, 14.325670199675441], [79.25146341332508, 14.32151888844619], [79.24908419576894, 14.309445765434564], [79.24069005881158, 14.298705997220182], [79.23965190338973, 14.295942759502976], [79.2378966562333, 14.294551986224098], [79.23190852779545, 14.292440895018686], [79.22664039128671, 14.288612818902761], [79.22489879228895, 14.285499853651745], [79.21890021560456, 14.284766159793742], [79.21503973816404, 14.28163727525273], [79.211165767369, 14.280230438696712], [79.20906311468946, 14.278147993078894], [79.20343164882311, 14.275694500718465], [79.20203268712838, 14.273961749801545], [79.19816442637493, 14.271865890414393], [79.19431819408226, 14.267014640941147], [79.1894017191274, 14.263532967102345], [79.18556958679837, 14.25695953401548], [79.18099830229023, 14.254513656265386], [79.17959963916805, 14.252780806370788], [79.17608231339389, 14.25103176051613], [79.17293201882562, 14.247563306577891], [79.1704658187216, 14.246855540408271], [79.16766043112094, 14.244422977012334], [79.16201360094638, 14.244035120569709], [79.16128787558773, 14.246440559291177], [79.15881056530588, 14.247110321305657], [79.15277697230546, 14.25085242956568], [79.15030240554684, 14.251177685165736], [79.14889839886156, 14.250133502676901], [79.14713286542843, 14.250119796321808], [79.14464704290327, 14.25182262459828], [79.14217246445831, 14.252147793086714], [79.13862725502939, 14.253842296900295], [79.12344641851278, 14.253378908449642], [79.12203969300471, 14.252678984686813], [79.11638429798414, 14.253323239132914], [79.1135795005124, 14.25089010140816], [79.11359667655717, 14.248823691118062], [79.1128962081938, 14.24812930294209], [79.1118311890304, 14.248809724846325], [79.10865331630352, 14.248784552679114], [79.09738601656314, 14.244906325144097], [79.09456420322901, 14.244539388984764], [79.0878497604313, 14.245174521919418], [79.08398615545325, 14.242732596097088], [79.08435666940755, 14.240669053921202], [79.08721320787818, 14.2369033420698], [79.08726249557063, 14.231048594980626], [79.08586474036068, 14.229315297393894], [79.0840994329447, 14.229301144954375], [79.07842425484944, 14.232355326381601], [79.07593238869757, 14.234746190494889], [79.07240755578073, 14.23402892747227], [79.07026575777135, 14.236766965396152], [79.06602892332631, 14.236732683533328], [79.06461077924507, 14.237410023968291], [79.06245122896192, 14.242214325115475], [79.05746690799383, 14.246995612943957], [79.05463043822213, 14.248350158607137], [79.05145267882703, 14.248324225611276], [79.05041117491973, 14.246249237919029], [79.04865761401301, 14.244857252051757], [79.04618310578822, 14.245181416784261], [79.04732229364933, 14.235891596586244], [79.04592188757698, 14.234502488999023], [79.04450964272219, 14.234490927907993], [79.04273247060004, 14.235854015867465], [79.03986636348667, 14.240652264668737], [79.03740380630278, 14.239598796510073], [79.0349293560694, 14.239922849896148], [79.03279901994496, 14.2412829433495], [79.03029766307306, 14.24470641032756], [79.02781418045625, 14.246063534493338], [79.02707809535617, 14.249501538371534], [79.02812536822651, 14.250887833489367], [79.03023788919849, 14.251594106410735], [79.03093210425047, 14.252977476327608], [79.03090819176978, 14.255732554416817], [79.03019303784147, 14.25675987570715], [79.02878066793649, 14.256748203803747], [79.02527073408439, 14.254308302653188], [79.02350529623136, 14.254293677498008], [79.02101566089449, 14.256339476386819], [79.02169480675744, 14.259444780864506], [79.02132668723945, 14.26116376351402], [79.01849589009413, 14.261829063203137], [79.01285236808484, 14.2610932705196], [79.01143092538942, 14.262114633888489], [79.01070962355978, 14.263830642730678], [79.00859405320386, 14.263468570298413], [79.00861522588978, 14.26105791122132], [79.01111709312136, 14.257634741851628], [79.01292477598591, 14.252828128426154], [79.01329896533679, 14.250420401757895], [79.01261391721899, 14.248003851807818], [79.00910431226193, 14.245563750950197], [79.00628579806937, 14.244851407447824], [78.99816219610271, 14.245127799767166], [78.99710906996987, 14.244430155587713], [78.99677119611769, 14.242705302383449], [78.99856079741637, 14.239965086773607], [79.00353996542633, 14.235873926452346], [79.01382373438294, 14.230793592700525], [79.0159630726982, 14.228400522405881], [79.01884445849689, 14.221880685495984], [79.02133968203013, 14.219146089822466], [79.02137562667045, 14.215013483734918], [79.02034051882437, 14.212249646820602], [79.01893442974412, 14.211549185440008], [79.01257707523628, 14.211840842354107], [79.01114694015935, 14.213895393393887], [79.01109274467105, 14.220094263975241], [79.0089383734341, 14.224209200988495], [79.00644899454817, 14.22625487846095], [79.00291254647087, 14.226914152811792], [79.0014852464693, 14.228624240430417], [78.99758661076908, 14.230313610522908], [78.99082092042448, 14.236800441934664], [78.98938432093237, 14.239543565248903], [78.98932332900898, 14.246431092377692], [78.99246438917203, 14.250590371445556], [78.99597385184643, 14.253030703111444], [79.0037446498977, 14.252751467843852], [79.00372949918196, 14.254473363307618], [79.00016223505565, 14.258576319915976], [78.99764499859971, 14.263721238775014], [78.99761762061564, 14.266820635988584], [78.99934968665498, 14.270623620531982], [79.0028595181093, 14.273063897141043], [79.01168130226013, 14.273826511678276], [79.01522452684992, 14.272478439582056], [79.01875566992943, 14.272507836028925], [79.02053027061258, 14.271489368394112], [79.02264895307721, 14.271506964168088], [79.02474061574596, 14.27462398756892], [79.02861893863106, 14.275344937778101], [79.03040550512617, 14.272948857591738], [79.03009430163333, 14.268124559809667], [79.03187480639268, 14.266417227110514], [79.03823076379362, 14.26646963718951], [79.0389459211161, 14.26544229180969], [79.03897571008912, 14.261998430215291], [79.04183027208458, 14.25857778481441], [79.04323969315365, 14.258933768093707], [79.04356307976887, 14.262380537908257], [79.04566092576945, 14.264808630901234], [79.0506044518152, 14.264849118571068], [79.0537972232415, 14.263153146241915], [79.05520965423, 14.26316467508486], [79.05660732568556, 14.264898144513888], [79.05978532695457, 14.26492403830145], [79.0608505538263, 14.264243878879526], [79.065794112313, 14.264284050032206], [79.06898678859679, 14.262587858602812], [79.0742892957449, 14.261941922690706], [79.07498674414353, 14.262980807748011], [79.07816767232394, 14.26266205894579], [79.08026884834369, 14.264745499695795], [79.08379418608233, 14.265462707798385], [79.08766104961794, 14.267560284511632], [79.09010678094307, 14.270679677551932], [79.09187531634367, 14.270349428966703], [79.09295498342388, 14.26794713221445], [79.09684223539568, 14.26763379088556], [79.09791316662752, 14.266264657311854], [79.09759183535, 14.262473459486268], [79.09514317201672, 14.259698537233136], [79.09480741945956, 14.257629329411019], [79.09692606608746, 14.257646248728689], [79.10044272779945, 14.259396400013035], [79.1039421695093, 14.26321290249674], [79.10464840588344, 14.263218519462574], [79.10602635118343, 14.267362544302108], [79.10812785352022, 14.269445775757502], [79.11165627434919, 14.269818190428543], [79.11411098846385, 14.271904176851953], [79.11587952183535, 14.271573746830917], [79.11765949500202, 14.269865695319032], [79.11732925103226, 14.26710768973205], [79.12122221547347, 14.266105139038253], [79.12369124957817, 14.266469017246687], [79.12684947381398, 14.268904846328931], [79.13003618645212, 14.267896597307763], [79.13253080266693, 14.265160743370018], [79.14170930611739, 14.26557691651067], [79.14383372419796, 14.26490461372702], [79.14913066533693, 14.264945808626758], [79.15794214593885, 14.267080665403833], [79.16465172550616, 14.267132436428696], [79.17485665677069, 14.271688462658249], [79.18086014253282, 14.271734381507162], [79.18896602195525, 14.273862761107193], [79.1924700616558, 14.277333748971412], [79.20196159638188, 14.282916620033967], [79.20510734524095, 14.287073627645169], [79.20932638107945, 14.289516486650173], [79.21072548543182, 14.291249210297693], [79.21740884063746, 14.294743784718877], [79.22305177084698, 14.29581932910877], [79.22832268843811, 14.29930307246526], [79.23149609584094, 14.300015578917685], [79.23429480738123, 14.303480810717287], [79.23850645365442, 14.3069564928057], [79.24198231313166, 14.314215560023023], [79.24225510854686, 14.324550907439628], [79.2379489841094, 14.333130073108165], [79.23545195969675, 14.336211503666126], [79.23328113808194, 14.342739752340448], [79.23326224112787, 14.34515070688004], [79.23073795959942, 14.35167627683019], [79.22752861698021, 14.355441149503426], [79.22678136030122, 14.360602170202926], [79.22536818202168, 14.360591587518524], [79.22431644835913, 14.359550385176039], [79.22504203861644, 14.357144739497022], [79.22753674845882, 14.354407887443282], [79.22684915679973, 14.351991657386801], [79.22439519138764, 14.349562202207087], [79.22263424128364, 14.34886012483769], [79.21768566692919, 14.349167410765007], [79.21627802036221, 14.348467944616281], [79.21487584001017, 14.347079634022604], [79.21524274909387, 14.345360200527812], [79.21666672438305, 14.34399315678881], [79.21633525919852, 14.341235148318809], [79.21387879530089, 14.339150027362118], [79.21140871883847, 14.338786976618453], [79.20643298149972, 14.342538223510337], [79.20250864468898, 14.347330631083857], [79.20073679954054, 14.348006064276587], [79.20069003773105, 14.353861131956295], [79.19636792723291, 14.364161347441968], [79.1924595634327, 14.366887028861282], [79.19138029127598, 14.36928982997071], [79.18924385106585, 14.371340104522561], [79.18640908888848, 14.37235170443481], [79.18533805872549, 14.373721229831633], [79.18532416387471, 14.375443290459168], [79.18637020548465, 14.377173476956887], [79.18777513003586, 14.378217541936484], [79.18918838980059, 14.378228361785181], [79.19345307899395, 14.375161048223895], [79.20337333023537, 14.371792201221805], [79.20621627209114, 14.369747139574548], [79.20904271516669, 14.369768538289305], [79.20973836355357, 14.37115155026434], [79.20971917531314, 14.373562468093661], [79.2079224275364, 14.377337679891165], [79.20753890560844, 14.381123582287866], [79.20504089138448, 14.384204570914571], [79.20430671476707, 14.387643361343779], [79.2025262744322, 14.389352014472887], [79.20000877051169, 14.394843830101061], [79.19431096996303, 14.40031132074011], [79.1907302663208, 14.406139300877376], [79.1906969364445, 14.410272247015138], [79.19139811431683, 14.410966485522874], [79.1938744583785, 14.410641006227717]], [[79.21211019728386, 14.383913675226502], [79.21106391848741, 14.382183576813599], [79.21108584485513, 14.379428242079118], [79.21324956051613, 14.373933583347673], [79.21400540533851, 14.367739398488087], [79.21613887881878, 14.366033287781274], [79.21719878270284, 14.366041269821492], [79.21894620830685, 14.368465493733284], [79.2221259611435, 14.368489391910096], [79.22391424061054, 14.365747293020867], [79.22357724931109, 14.363678124974138], [79.22640364301081, 14.363699307734628], [79.22818098583049, 14.362334847563819], [79.2289255126567, 14.357518241018008], [79.23107230844569, 14.354089863548229], [79.23248815303602, 14.353755985903224], [79.23776587811132, 14.356550830671004], [79.2423532837111, 14.357273790704049], [79.24588621197823, 14.35729997246963], [79.25085372397785, 14.354581138625441], [79.2522668839919, 14.354591565049125], [79.25225619296111, 14.35596926613525], [79.25082697268638, 14.358025388420801], [79.24693268456436, 14.359029937760424], [79.2408862910522, 14.364151763533567], [79.23874491119257, 14.366891388506303], [79.23658727915405, 14.371697519083385], [79.23163005952779, 14.37303830346764], [79.22877370296511, 14.376805793392231], [79.21920679631182, 14.380178382607967], [79.21600228265693, 14.383254185925017], [79.21352077411622, 14.384268771115597], [79.21211019728386, 14.383913675226502]], [[79.22110960255864, 14.36297072394596], [79.22181347652291, 14.363320449275275], [79.22110688062051, 14.363315143189995], [79.22110960255864, 14.36297072394596]], [[79.24448914887226, 14.355222963250775], [79.23990446392587, 14.354155625442182], [79.23992330217995, 14.351744664073262], [79.24174615689084, 14.344524880635793], [79.24390603684408, 14.339374226162445], [79.24461524772516, 14.339035031389749], [79.24571790648822, 14.333532077846701], [79.24785884327555, 14.330792336760295], [79.24892127274396, 14.330455732694313], [79.24994629369694, 14.334941080592795], [79.25168588911734, 14.338398358694299], [79.25728222066583, 14.345672906435075], [79.25726357637649, 14.348083891503972], [79.25370674617133, 14.351157727003558], [79.24661425075618, 14.354549808852079], [79.24448914887226, 14.355222963250775]], [[79.25581579103698, 14.352551038437188], [79.259741864067, 14.347413203574709], [79.26221217186406, 14.347775770030696], [79.26220420325704, 14.34880905194324], [79.26006588825446, 14.351204492181537], [79.25687565420657, 14.352558835779792], [79.25581579103698, 14.352551038437188]], [[79.23608033043645, 14.346205015179788], [79.23753920688566, 14.34036033459809], [79.23967762045501, 14.337965111031844], [79.24149763389417, 14.331089733676373], [79.24328266202035, 14.328691843737156], [79.24619694913589, 14.317346713995152], [79.24479473360157, 14.315958577898169], [79.24377521301375, 14.310784372452035], [79.24203054976645, 14.308015916280146], [79.23957414073607, 14.305931070062115], [79.23853060975883, 14.303856675280976], [79.23502004220136, 14.301075090768125], [79.2336260630214, 14.29865363599925], [79.2283415750704, 14.296892115099862], [79.22377167836125, 14.294102496457437], [79.22130205753601, 14.293739602575249], [79.21813963440738, 14.291649290637956], [79.22133184043005, 14.289950967762671], [79.22241573698822, 14.286859090500574], [79.22347527286422, 14.28686700158749], [79.22486367535456, 14.289977341391207], [79.22767835800023, 14.291376092890715], [79.2294281200129, 14.293455777554211], [79.23717953319274, 14.295924449585913], [79.2399675738446, 14.300767318153724], [79.24347017818151, 14.304582111456655], [79.2480085162927, 14.311504510974869], [79.24797646226959, 14.315637619261016], [79.2500584694992, 14.320475203163186], [79.24932796022455, 14.323569827807255], [79.24755373447414, 14.324590075072944], [79.24467957792658, 14.330768844494287], [79.24217998300746, 14.33419478401554], [79.2421558236358, 14.337294599743306], [79.24035726509933, 14.341414587886446], [79.23608033043645, 14.346205015179788]], [[79.25001308009749, 14.32633044148869], [79.24896670409213, 14.324600499828323], [79.24932528911216, 14.323914253450253], [79.25073558681429, 14.324269093079009], [79.25178464385333, 14.325654602314865], [79.25142339402132, 14.326685278799868], [79.25001308009749, 14.32633044148869]], [[79.2177918748702, 14.290957803953201], [79.2174359775882, 14.291299578913915], [79.21743869088567, 14.290955158275908], [79.2177918748702, 14.290957803953201]], [[79.21673232313348, 14.290949865350518], [79.21251044606078, 14.288851545352705], [79.20444470225839, 14.281557605514784], [79.20197800631266, 14.280850112146128], [79.19952228159988, 14.278764924632032], [79.19529807102185, 14.277010759291045], [79.18934394429914, 14.270765703241771], [79.18828450361016, 14.270757649145885], [79.18652979497394, 14.269366553685092], [79.18937421134109, 14.266977127743736], [79.19359818546305, 14.268731372154512], [79.19744442549958, 14.27358263421147], [79.2013127055127, 14.275678507672325], [79.20341525832399, 14.27776101115373], [79.20728912507292, 14.27916796360372], [79.21044582584234, 14.281947229107189], [79.21219807142239, 14.283682595415113], [79.21288266267796, 14.286443258812323], [79.21605039142085, 14.287844786509217], [79.21638999827529, 14.28956953624278], [79.21744140411087, 14.290610737627453], [79.21673232313348, 14.290949865350518]], [[79.02545886107663, 14.273252311463283], [79.0244175266576, 14.27117723002346], [79.02230786213447, 14.270126502880064], [79.01169036954748, 14.272793371087158], [79.00427803449286, 14.272386978447503], [79.0014622587799, 14.271330159780586], [78.99902090541248, 14.267865633707757], [78.99870732837252, 14.263385758259398], [79.00193374894539, 14.257902364999541], [79.00478572095969, 14.254826607163611], [79.00516302887526, 14.252074525889467], [78.99668913276153, 14.252003502811466], [78.99107647725936, 14.24782346886473], [78.99003861236166, 14.245403912722033], [78.99080568944422, 14.238522326031447], [78.9943727382854, 14.234419483834154], [78.99828663334364, 14.231008286321027], [79.00714903699523, 14.22694953039687], [79.00963841904664, 14.224903845907019], [79.01215183974902, 14.220103075019047], [79.01220600642452, 14.213904200440556], [79.01363012086742, 14.21253840655277], [79.0175103498488, 14.212915015996048], [79.02030156580398, 14.216726634900871], [79.01992755346873, 14.219134395756436], [79.0177883526367, 14.221527520062223], [79.01490393652632, 14.228391723224536], [79.0120554790313, 14.231123288069394], [79.00283991170483, 14.235179262266309], [78.99750465514653, 14.239611825232869], [78.99571504555755, 14.242352031688647], [78.99639381938863, 14.245457361133704], [78.99780001636336, 14.246157971737501], [79.00698286603543, 14.245890446263799], [79.01155167474617, 14.248339406798186], [79.01222766144183, 14.251789101239005], [79.01077910408594, 14.255909893836733], [79.00683764450173, 14.262420674038394], [79.00717257841605, 14.264489903633729], [79.00893807807908, 14.264504659966322], [79.0103414113503, 14.2655495960929], [79.0117538202502, 14.26556138428773], [79.01248116002328, 14.263156610913232], [79.01425570357083, 14.26213818346306], [79.01671533880624, 14.263536288138841], [79.01883394205024, 14.26355390822061], [79.02344227231276, 14.261525722763922], [79.02380737610181, 14.260151118016868], [79.02240700296508, 14.258761874221367], [79.02242802161781, 14.256351193938093], [79.02314020492764, 14.255668283396787], [79.0256118329063, 14.255688760673689], [79.02876869597709, 14.25812574070834], [79.03124633778206, 14.257457393653137], [79.03231756988919, 14.256088597917651], [79.03233847916292, 14.253677902648139], [79.03130610668553, 14.250569696753228], [79.02884349975561, 14.249516132287754], [79.02886443586796, 14.2471054407497], [79.03170697355945, 14.24506244881123], [79.03314015718666, 14.242663395389794], [79.03527348532889, 14.24095891439437], [79.03704180887246, 14.240629052741088], [79.04020754465647, 14.24203271206514], [79.04413582712363, 14.23689875260121], [79.04554512350497, 14.237254706102974], [79.04588337499963, 14.238979537819668], [79.04475596309132, 14.246891788096999], [79.04828677084953, 14.246920696157249], [79.0517909815789, 14.250049055277776], [79.05461567831077, 14.25007210764193], [79.058158343007, 14.248723314028593], [79.06171273429246, 14.24599689695453], [79.06171861520906, 14.24530811422771], [79.06491983383786, 14.242578768674464], [79.06530225192351, 14.239137708836765], [79.06637026593133, 14.23811311343353], [79.07060420156405, 14.23849178588127], [79.07274893650008, 14.235409352924808], [79.07451427955374, 14.235423595193856], [79.07626212600316, 14.237504191999003], [79.07734174704468, 14.235101960869208], [79.07912165071376, 14.233394192716206], [79.08302282018796, 14.23135902409086], [79.085141207155, 14.231376017402733], [79.08584153494576, 14.232070471012241], [79.08616269126503, 14.23586166391974], [79.08151458242617, 14.24271274130847], [79.08150585265307, 14.243745927697546], [79.08467779392802, 14.24446024467376], [79.0867817932547, 14.246199220950256], [79.09525592998249, 14.24626701737883], [79.10547544978434, 14.248759338240395], [79.11637286074587, 14.254700847735679], [79.13826283969036, 14.25521716662816], [79.14676007049576, 14.252527911046192], [79.15841274691375, 14.252618164954516], [79.15910220598849, 14.254690079989574], [79.15626048562666, 14.256734717225171], [79.1569527306927, 14.258462226950828], [79.15835962389635, 14.259161961739933], [79.16330892875189, 14.258511275278607], [79.16860021678839, 14.259240844117796], [79.17175890856232, 14.26167612525985], [79.17633574661592, 14.26343335699567], [79.17807926988064, 14.266202170903739], [79.18160512468411, 14.266917971462098], [79.18476959162548, 14.268664277874482], [79.18476131585533, 14.269697523073154], [79.18405226730721, 14.270036555921731], [79.1762830988465, 14.269977213748044], [79.16466566822196, 14.265410380051414], [79.15724987494647, 14.265353155660682], [79.15055442407726, 14.263579139722358], [79.1325449872705, 14.263438718100184], [79.12865493928608, 14.264097061531414], [79.12688078090267, 14.265116403916009], [79.11381518011171, 14.265013356606831], [79.10465992145294, 14.26184092119642], [79.10186093903184, 14.258718851427426], [79.0962371928426, 14.255574222760112], [79.09200283935014, 14.255195960670322], [79.07539831032945, 14.256095784377218], [79.07184095413436, 14.259166797205342], [79.06936042429413, 14.26017997170505], [79.06793332843728, 14.261890489991295], [79.06509670640942, 14.263245142968334], [79.06015611918215, 14.26286056967484], [79.05803157013035, 14.263532097796816], [79.0548742727833, 14.261095456749517], [79.05132547204892, 14.263132950656182], [79.04708226029523, 14.263787045796237], [79.04497549730291, 14.26239212676083], [79.04431680698498, 14.256876135304173], [79.04291036703077, 14.256175772569064], [79.04149204298277, 14.256852950212792], [79.0386375016547, 14.26027359415208], [79.03756031941344, 14.262331192052647], [79.03753945241552, 14.264741893160336], [79.03576496806524, 14.265760504750835], [79.03223987266401, 14.265042604396731], [79.0304653672704, 14.26606117311424], [79.02867886553886, 14.268457262114925], [79.02863991668453, 14.272934251776128], [79.0279276863934, 14.273617172979234], [79.02545886107663, 14.273252311463283]], [[79.08944407531114, 14.26550806942674], [79.08451788046064, 14.263402012561153], [79.08063654229176, 14.263026370349769], [79.07994198195844, 14.261643103961877], [79.08031258544771, 14.25957957963479], [79.08173375526307, 14.258557763467861], [79.08349637742069, 14.258916357298185], [79.08558594778998, 14.262377336475017], [79.08945278281836, 14.264474880104434], [79.08944407531114, 14.26550806942674]], [[79.17917187640299, 14.262077298221874], [79.17989472566013, 14.26001620575153], [79.181663130056, 14.259685264125366], [79.18271699540979, 14.260382171396758], [79.18270871529626, 14.261415416130825], [79.18128790411276, 14.262437887697773], [79.17917187640299, 14.262077298221874]], [[79.174603352011, 14.259286881278337], [79.17249569631265, 14.257892998060933], [79.16756031952823, 14.256821819732235], [79.16651209154962, 14.255436028886784], [79.16513860961953, 14.25060340069184], [79.1707994962951, 14.249269138519384], [79.17220361525054, 14.250313203568195], [79.17324077066927, 14.253076624616202], [79.17711952038147, 14.253795170557812], [79.17957753181166, 14.255536122415624], [79.17707523743884, 14.259305793879236], [79.174603352011, 14.259286881278337]], [[79.1615600645485, 14.256431202157627], [79.16120136168236, 14.257117301247709], [79.16049512143856, 14.257111854070589], [79.16050070728345, 14.256423032586193], [79.1615600645485, 14.256431202157627]], [[79.16586988042765, 14.247509123662903], [79.16552790737029, 14.246128761024632], [79.1679968575194, 14.246492163029512], [79.16798573911937, 14.24786981291174], [79.16586988042765, 14.247509123662903]]]]}}, {"type": "Feature", "properties": {"depth_class": 2, "depth_lo_m": 1.0, "t_s": 11700.246145371226}, "geometry": {"type": "MultiPolygon", "coordinates": [[[[79.02828380207488, 14.273275712717732], [79.02867886553886, 14.268457262114925], [79.0301092672533, 14.266402638714158], [79.03223987266401, 14.265042604396731], [79.03682727446957, 14.265424848176403], [79.0386375016547, 14.26027359415208], [79.04149204298277, 14.256852950212792], [79.04291036703077, 14.256175772569064], [79.04431680698498, 14.256876135304173], [79.04497549730291, 14.26239212676083], [79.04708226029523, 14.263787045796237], [79.05132547204892, 14.263132950656182], [79.0548742727833, 14.261095456749517], [79.05803157013035, 14.263532097796816], [79.06015611918215, 14.26286056967484], [79.06509670640942, 14.263245142968334], [79.06793332843728, 14.261890489991295], [79.06936042429413, 14.26017997170505], [79.07184095413436, 14.259166797205342], [79.07539831032945, 14.256095784377218], [79.09200283935014, 14.255195960670322], [79.0962371928426, 14.255574222760112], [79.10186093903184, 14.258718851427426], [79.10465992145294, 14.26184092119642], [79.11381518011171, 14.265013356606831], [79.12688078090267, 14.265116403916009], [79.12865493928608, 14.264097061531414], [79.1325449872705, 14.263438718100184], [79.15055442407726, 14.263579139722358], [79.15724987494647, 14.265353155660682], [79.16466566822196, 14.265410380051414], [79.1762830988465, 14.269977213748044], [79.18405226730721, 14.270036555921731], [79.18476131585533, 14.269697523073154], [79.18476959162548, 14.268664277874482], [79.18160512468411, 14.266917971462098], [79.17807926988064, 14.266202170903739], [79.17633574661592, 14.26343335699567], [79.17175890856232, 14.26167612525985], [79.16860021678839, 14.259240844117796], [79.16366205157422, 14.258513995223845], [79.15835962389635, 14.259161961739933], [79.1569527306927, 14.258462226950828], [79.15626048562666, 14.256734717225171], [79.15910220598849, 14.254690079989574], [79.15841274691375, 14.252618164954516], [79.14676007049576, 14.252527911046192], [79.13826283969036, 14.25521716662816], [79.11637286074587, 14.254700847735679], [79.10547544978434, 14.248759338240395], [79.09525592998249, 14.24626701737883], [79.0867817932547, 14.246199220950256], [79.08467779392802, 14.24446024467376], [79.08150585265307, 14.243745927697546], [79.08151458242617, 14.24271274130847], [79.08616269126503, 14.23586166391974], [79.08584153494576, 14.232070471012241], [79.085141207155, 14.231376017402733], [79.08302282018796, 14.23135902409086], [79.07912165071376, 14.233394192716206], [79.07734174704468, 14.235101960869208], [79.07626212600316, 14.237504191999003], [79.07451427955374, 14.235423595193856], [79.07274893650008, 14.235409352924808], [79.07060420156405, 14.23849178588127], [79.06637026593133, 14.23811311343353], [79.06530225192351, 14.239137708836765], [79.06491983383786, 14.242578768674464], [79.06171861520906, 14.24530811422771], [79.06171273429246, 14.24599689695453], [79.058158343007, 14.248723314028593], [79.05461567831077, 14.25007210764193], [79.0517909815789, 14.250049055277776], [79.04828677084953, 14.246920696157249], [79.04475596309132, 14.246891788096999], [79.04588337499963, 14.238979537819668], [79.04554512350497, 14.237254706102974], [79.04413582712363, 14.23689875260121], [79.04020754465647, 14.24203271206514], [79.03704180887246, 14.240629052741088], [79.03527348532889, 14.24095891439437], [79.03314015718666, 14.242663395389794], [79.03170697355945, 14.24506244881123], [79.02886443586796, 14.2471054407497], [79.02884349975561, 14.249516132287754], [79.03130610668553, 14.250569696753228], [79.03233847916292, 14.253677902648139], [79.03231756988919, 14.256088597917651], [79.03124633778206, 14.257457393653137], [79.02876869597709, 14.25812574070834], [79.0256118329063, 14.255688760673689], [79.02314020492764, 14.255668283396787], [79.02242802161781, 14.256351193938093], [79.02240700296508, 14.258761874221367], [79.02380737610181, 14.260151118016868], [79.02344227231276, 14.261525722763922], [79.01883394205024, 14.26355390822061], [79.01671533880624, 14.263536288138841], [79.01425570357083, 14.26213818346306], [79.01248116002328, 14.263156610913232], [79.0117538202502, 14.26556138428773], [79.0103414113503, 14.2655495960929], [79.00893807807908, 14.264504659966322], [79.00717257841605, 14.264489903633729], [79.00683764450173, 14.262420674038394], [79.01077910408594, 14.255909893836733], [79.01222766144183, 14.251789101239005], [79.01155167474617, 14.248339406798186], [79.00698286603543, 14.245890446263799], [78.99780001636336, 14.246157971737501], [78.99639381938863, 14.245457361133704], [78.99571504555755, 14.242352031688647], [78.99750465514653, 14.239611825232869], [79.00283991170483, 14.235179262266309], [79.0120554790313, 14.231123288069394], [79.01490393652632, 14.228391723224536], [79.0177883526367, 14.221527520062223], [79.01992755346873, 14.219134395756436], [79.02030156580398, 14.216726634900871], [79.0175103498488, 14.212915015996048], [79.01363012086742, 14.21253840655277], [79.01220600642452, 14.213904200440556], [79.01215183974902, 14.220103075019047], [79.00963841904664, 14.224903845907019], [79.00714903699523, 14.22694953039687], [78.99828663334364, 14.231008286321027], [78.9943727382854, 14.234419483834154], [78.99080568944422, 14.238522326031447], [78.99003861236166, 14.245403912722033], [78.99107647725936, 14.24782346886473], [78.99668913276153, 14.252003502811466], [79.00516302887526, 14.252074525889467], [79.00478572095969, 14.254826607163611], [79.00193374894539, 14.257902364999541], [78.99870732837252, 14.263385758259398], [78.99902090541248, 14.267865633707757], [79.0014622587799, 14.271330159780586], [79.00427803449286, 14.272386978447503], [79.01169036954748, 14.272793371087158], [79.02230786213447, 14.270126502880064], [79.0244175266576, 14.27117723002346], [79.02580897742902, 14.273599621597558], [79.02828380207488, 14.273275712717732]], [[79.01099018903422, 14.272098714773849], [79.0035809151377, 14.27134792488269], [79.00147137098917, 14.270297025425258], [78.99938920730763, 14.266146709837995], [78.9997696555813, 14.263050272585474], [79.00584497385087, 14.254835467260735], [79.00622226916711, 14.252083382638567], [79.0048220609893, 14.250694055058938], [78.99740136764427, 14.251320677260635], [78.99458892670421, 14.249919436664177], [78.99108866885827, 14.24644596244921], [78.99077826855198, 14.241621716740807], [78.99222400164089, 14.237845453700821], [78.99721232047705, 14.232721298920227], [79.0067869364981, 14.227979726594754], [79.01034148283206, 14.225254107999934], [79.0128579035369, 14.220108946444942], [79.0129060359061, 14.214598833509266], [79.01397713005143, 14.21323010365096], [79.01679830350034, 14.213597927203132], [79.01923948264216, 14.217062245398393], [79.01886845788962, 14.219125619740252], [79.01744432398047, 14.220491442878057], [79.0149159664598, 14.227014194479382], [79.01312967987616, 14.229410192841925], [79.01064328407908, 14.231111529493448], [79.00249291427932, 14.234487550223111], [78.99822898425325, 14.237551477683486], [78.995011960931, 14.242001723000053], [78.99533461638877, 14.2454484648012], [78.99708780086893, 14.246840801034622], [79.00662374707187, 14.2465762567431], [79.01118954590765, 14.249369606108157], [79.01116238155252, 14.252469032724102], [79.00971682137649, 14.256245435276579], [79.00577835555417, 14.262411813739837], [79.0057541210211, 14.265166847556094], [79.00927908111669, 14.265885129372505], [79.01032931967228, 14.26692711656215], [79.01280105109045, 14.266947742491043], [79.01459372256721, 14.263863030338005], [79.01670328762171, 14.264913814186999], [79.01917500668252, 14.264934371187357], [79.02591096628203, 14.26189058864557], [79.02627905391199, 14.26017159467696], [79.02346928688883, 14.2584262753623], [79.02383738333995, 14.256707286360145], [79.02560284032465, 14.256721911479538], [79.02770042833764, 14.25915013232496], [79.02981900471886, 14.25916764952768], [79.03265572706187, 14.257813436551919], [79.03373292384099, 14.255755863052004], [79.03375083299252, 14.253689551031679], [79.03237431454279, 14.249545280984876], [79.03026778012622, 14.248150258895901], [79.03062982354285, 14.247120019053302], [79.03311927325736, 14.245074094044474], [79.03491147566027, 14.24198916576161], [79.03738594882373, 14.241665115509615], [79.03913940739498, 14.243057172613625], [79.04055170094307, 14.243068772277253], [79.04304696115565, 14.240333950521563], [79.04410617098466, 14.240342632091512], [79.04406760615772, 14.24481967385593], [79.04334957921773, 14.246191435141986], [79.0440408995861, 14.247919163266337], [79.04756579684005, 14.248636860707848], [79.0535357380221, 14.252474193604533], [79.0570696000666, 14.252158592598006], [79.05704895579068, 14.254569323909932], [79.05845249377346, 14.25561399798817], [79.0626955435583, 14.254959676319904], [79.06447278063932, 14.253596445410205], [79.06555555438597, 14.250849904107437], [79.06908939780169, 14.250534119532592], [79.07512116721301, 14.247138692370367], [79.07619210372839, 14.245769658494943], [79.07937861479394, 14.244762072686212], [79.08431308471188, 14.245834994432075], [79.0881796431998, 14.247932524736973], [79.09383200269347, 14.247633330223849], [79.10405443564395, 14.24978131774303], [79.11635856248054, 14.256422858253156], [79.13154803986626, 14.255853505975125], [79.13718653299804, 14.257275331503108], [79.14320924293347, 14.25491130134696], [79.14532792327807, 14.254927787661254], [79.14673193772465, 14.255971992386742], [79.1474241050725, 14.257699520852064], [79.14918126658279, 14.258746457671023], [79.15447527747713, 14.259131925926173], [79.1572862635419, 14.260875826550928], [79.16187131481033, 14.261600088524713], [79.16079796513945, 14.263313970628957], [79.15656041336948, 14.26328123515416], [79.15304035019925, 14.261876261627823], [79.14951190479415, 14.261504466638646], [79.12832171611623, 14.261683458872428], [79.12584133314243, 14.262697249190968], [79.11666877438518, 14.261591678340672], [79.11489459465446, 14.262610927444543], [79.11312899853768, 14.262596957565373], [79.11068299217276, 14.25947777048851], [79.1075078460629, 14.259108164356524], [79.10679587133622, 14.25979135760948], [79.10503030544967, 14.259777330475792], [79.10293179372277, 14.257349685340275], [79.09836448267727, 14.254557931435135], [79.08778302326436, 14.253095642987635], [79.0867179181299, 14.253775940172247], [79.07753442947913, 14.254046508410944], [79.07505689851241, 14.254715359021962], [79.07079335676323, 14.257780656210377], [79.06725352847795, 14.258785236174944], [79.06652970430667, 14.260845861838341], [79.0651084622169, 14.261867576692103], [79.05804926810426, 14.261465757043926], [79.05629554758566, 14.260073808121536], [79.05347072353244, 14.260050759829284], [79.04921572051823, 14.2620824548574], [79.04674398776207, 14.262062213264372], [79.04604371453776, 14.261367649890499], [79.04606745305973, 14.258612548025754], [79.04678254842545, 14.257585170774426], [79.04819493882819, 14.257596736752326], [79.04855988804947, 14.256222073594126], [79.04645614384735, 14.254482786631995], [79.04398449796459, 14.254462526999149], [79.04186000234245, 14.255133915275369], [79.0386523938509, 14.258551663061315], [79.03650697564287, 14.26163369688996], [79.03577988804419, 14.26403857742668], [79.03224884047968, 14.26400945016673], [79.02833773874487, 14.26707680499261], [79.02688932556411, 14.271197715839653], [79.02372631655419, 14.269449458221024], [79.02054832070834, 14.269423075592574], [79.01912684907941, 14.270444481957036], [79.01453338789625, 14.270750649812127], [79.01099018903422, 14.272098714773849]], [[79.06698845202416, 14.248450607364799], [79.06629694689885, 14.246722923441887], [79.06876854137452, 14.246742941275276], [79.07018966601578, 14.245721189331094], [79.0726641791219, 14.245396771882453], [79.07194338611204, 14.247113034337923], [79.06875389041396, 14.248464905007], [79.06698845202416, 14.248450607364799]], [[79.06916263140845, 14.241924298025525], [79.06740603620126, 14.240876831881902], [79.06741482826351, 14.23984365384395], [79.07094264882618, 14.240216606300702], [79.07308739897071, 14.237134172196004], [79.07449384559466, 14.237834354813065], [79.07516204582242, 14.242317174580446], [79.07304064670703, 14.24264447371078], [79.06916263140845, 14.241924298025525]], [[79.0772805251433, 14.242334250438969], [79.07804205795068, 14.23579643561188], [79.08265813278273, 14.232733774121671], [79.08442346535888, 14.23274794055078], [79.08510637876446, 14.235508775112384], [79.08188220944793, 14.240993601389416], [79.07974917545268, 14.242698543668377], [79.0772805251433, 14.242334250438969]]], [[[79.16764375253824, 14.246489451739913], [79.16552790737029, 14.246128761024632], [79.16551955766946, 14.247161997049817], [79.1662202042559, 14.247856249880241], [79.16798573911937, 14.24786981291174], [79.16764375253824, 14.246489451739913]]], [[[79.18199693057271, 14.262098860545079], [79.18270871529626, 14.261415416130825], [79.18236662633736, 14.260035064453717], [79.18095687371698, 14.259679876582574], [79.17953883257623, 14.260357923884365], [79.17917187640299, 14.262077298221874], [79.18199693057271, 14.262098860545079]]], [[[79.08910256865033, 14.264127652744083], [79.08558594778998, 14.262377336475017], [79.08279307445079, 14.258566284081496], [79.0810246289018, 14.258896475366516], [79.07995364623885, 14.260265525417692], [79.07994198195844, 14.261643103961877], [79.0813398540281, 14.263376451125769], [79.08451788046064, 14.263402012561153], [79.08944407531114, 14.26550806942674], [79.08910256865033, 14.264127652744083]]], [[[79.2177918748702, 14.290957803953201], [79.2174359775882, 14.291299578913915], [79.21778916210963, 14.29130222465759], [79.2177918748702, 14.290957803953201]]], [[[79.21743869088567, 14.290955158275908], [79.21605039142085, 14.287844786509217], [79.21288266267796, 14.286443258812323], [79.21219807142239, 14.283682595415113], [79.21044582584234, 14.281947229107189], [79.20728912507292, 14.27916796360372], [79.20341525832399, 14.27776101115373], [79.2013127055127, 14.275678507672325], [79.19744442549958, 14.27358263421147], [79.19359818546305, 14.268731372154512], [79.18937421134109, 14.266977127743736], [79.18652979497394, 14.269366553685092], [79.18828450361016, 14.270757649145885], [79.18934394429914, 14.270765703241771], [79.19529807102185, 14.277010759291045], [79.19952228159988, 14.278764924632032], [79.20197800631266, 14.280850112146128], [79.20444470225839, 14.281557605514784], [79.21251044606078, 14.288851545352705], [79.21743869088567, 14.290955158275908]]], [[[79.23608033043645, 14.346205015179788], [79.23750958676983, 14.344148986699631], [79.24035726509933, 14.341414587886446], [79.2421558236358, 14.337294599743306], [79.24217998300746, 14.33419478401554], [79.24467957792658, 14.330768844494287], [79.24755373447414, 14.324590075072944], [79.24932796022455, 14.323569827807255], [79.25005046109585, 14.321508480734371], [79.24797646226959, 14.315637619261016], [79.2480085162927, 14.311504510974869], [79.24347017818151, 14.304582111456655], [79.2399675738446, 14.300767318153724], [79.23717953319274, 14.295924449585913], [79.2294281200129, 14.293455777554211], [79.22767835800023, 14.291376092890715], [79.22486367535456, 14.289977341391207], [79.22347527286422, 14.28686700158749], [79.22241573698822, 14.286859090500574], [79.22133184043005, 14.289950967762671], [79.21813963440738, 14.291649290637956], [79.22130205753601, 14.293739602575249], [79.22377167836125, 14.294102496457437], [79.2283415750704, 14.296892115099862], [79.2336260630214, 14.29865363599925], [79.23502004220136, 14.301075090768125], [79.23853060975883, 14.303856675280976], [79.23957414073607, 14.305931070062115], [79.24203054976645, 14.308015916280146], [79.24377521301375, 14.310784372452035], [79.24479473360157, 14.315958577898169], [79.24619694913589, 14.317346713995152], [79.24328266202035, 14.328691843737156], [79.24149763389417, 14.331089733676373], [79.23967762045501, 14.337965111031844], [79.23753920688566, 14.34036033459809], [79.23610189388395, 14.343449634563875], [79.23608033043645, 14.346205015179788]]], [[[79.25177930824248, 14.326343454377234], [79.25073558681429, 14.324269093079009], [79.2489693758849, 14.324256074271467], [79.25036365551908, 14.326677470871276], [79.25177930824248, 14.326343454377234]]], [[[79.2579381815358, 14.352222201987752], [79.26113372243867, 14.350178988700751], [79.26220420325704, 14.34880905194324], [79.2618615471624, 14.347428752978576], [79.259741864067, 14.347413203574709], [79.25795416118758, 14.350155643363717], [79.25582112448568, 14.35186218640463], [79.25581579103698, 14.352551038437188], [79.2579381815358, 14.352222201987752]]], [[[79.22110960255864, 14.36297072394596], [79.22181347652291, 14.363320449275275], [79.22181619738126, 14.362976029898714], [79.22110960255864, 14.36297072394596]]], [[[79.21352077411622, 14.384268771115597], [79.21706773167614, 14.382573342112117], [79.21920679631182, 14.380178382607967], [79.22877370296511, 14.376805793392231], [79.23163005952779, 14.37303830346764], [79.23658727915405, 14.371697519083385], [79.23874491119257, 14.366891388506303], [79.2408862910522, 14.364151763533567], [79.24693268456436, 14.359029937760424], [79.25082697268638, 14.358025388420801], [79.25225619296111, 14.35596926613525], [79.2522668839919, 14.354591565049125], [79.25085372397785, 14.354581138625441], [79.24588621197823, 14.35729997246963], [79.2423532837111, 14.357273790704049], [79.23776587811132, 14.356550830671004], [79.23248815303602, 14.353755985903224], [79.23107230844569, 14.354089863548229], [79.2289255126567, 14.357518241018008], [79.22818098583049, 14.362334847563819], [79.22640364301081, 14.363699307734628], [79.22357724931109, 14.363678124974138], [79.22391424061054, 14.365747293020867], [79.2221259611435, 14.368489391910096], [79.21894620830685, 14.368465493733284], [79.21719878270284, 14.366041269821492], [79.21613887881878, 14.366033287781274], [79.21400540533851, 14.367739398488087], [79.21324956051613, 14.373933583347673], [79.21108584485513, 14.379428242079118], [79.21106391848741, 14.382183576813599], [79.21211019728386, 14.383913675226502], [79.21352077411622, 14.384268771115597]]]]}}, {"type": "Feature", "properties": {"depth_class": 3, "depth_lo_m": 2.0, "t_s": 11700.246145371226}, "geometry": {"type": "MultiPolygon", "coordinates": [[[[79.07974917545268, 14.242698543668377], [79.08188220944793, 14.240993601389416], [79.08474459721744, 14.236539132318489], [79.08511798946911, 14.234131189377038], [79.08442346535888, 14.23274794055078], [79.08265813278273, 14.232733774121671], [79.07804205795068, 14.23579643561188], [79.07693619475478, 14.241298222040573], [79.07798377042418, 14.242684332988171], [79.07974917545268, 14.242698543668377]], [[79.07906340615689, 14.24028209585478], [79.07874237313216, 14.236490908799674], [79.0833526454299, 14.234117026733674], [79.08368828473411, 14.236186237133245], [79.08261162762558, 14.23824410873694], [79.08047280508059, 14.24063785251368], [79.07906340615689, 14.24028209585478]]], [[[79.06915970300297, 14.242268691011922], [79.07516204582242, 14.242317174580446], [79.07517372261759, 14.240939597690874], [79.07379354145864, 14.237139870342242], [79.07273140587836, 14.23747571619251], [79.07094264882618, 14.240216606300702], [79.06741482826351, 14.23984365384395], [79.06740603620126, 14.240876831881902], [79.06915970300297, 14.242268691011922]]], [[[79.01099321221264, 14.271754334682658], [79.01912684907941, 14.270444481957036], [79.02054832070834, 14.269423075592574], [79.02372631655419, 14.269449458221024], [79.02688932556411, 14.271197715839653], [79.02833773874487, 14.26707680499261], [79.03224884047968, 14.26400945016673], [79.03577988804419, 14.26403857742668], [79.03650697564287, 14.26163369688996], [79.0386523938509, 14.258551663061315], [79.04186000234245, 14.255133915275369], [79.04398449796459, 14.254462526999149], [79.04645614384735, 14.254482786631995], [79.04855988804947, 14.256222073594126], [79.04819493882819, 14.257596736752326], [79.04678254842545, 14.257585170774426], [79.04606745305973, 14.258612548025754], [79.04604371453776, 14.261367649890499], [79.04674398776207, 14.262062213264372], [79.04921572051823, 14.2620824548574], [79.05347072353244, 14.260050759829284], [79.05629554758566, 14.260073808121536], [79.05804926810426, 14.261465757043926], [79.0651084622169, 14.261867576692103], [79.06652970430667, 14.260845861838341], [79.06725352847795, 14.258785236174944], [79.07079335676323, 14.257780656210377], [79.07505689851241, 14.254715359021962], [79.07753442947913, 14.254046508410944], [79.0867179181299, 14.253775940172247], [79.08778302326436, 14.253095642987635], [79.09836448267727, 14.254557931435135], [79.10293179372277, 14.257349685340275], [79.10503030544967, 14.259777330475792], [79.10679587133622, 14.25979135760948], [79.1075078460629, 14.259108164356524], [79.11068299217276, 14.25947777048851], [79.11312899853768, 14.262596957565373], [79.11489459465446, 14.262610927444543], [79.11666877438518, 14.261591678340672], [79.12584133314243, 14.262697249190968], [79.12832171611623, 14.261683458872428], [79.14951190479415, 14.261504466638646], [79.15304035019925, 14.261876261627823], [79.15656041336948, 14.26328123515416], [79.16079796513945, 14.263313970628957], [79.16187131481033, 14.261600088524713], [79.1572862635419, 14.260875826550928], [79.15447527747713, 14.259131925926173], [79.14918126658279, 14.258746457671023], [79.1474241050725, 14.257699520852064], [79.14673193772465, 14.255971992386742], [79.14532792327807, 14.254927787661254], [79.14320924293347, 14.25491130134696], [79.13718653299804, 14.257275331503108], [79.13154803986626, 14.255853505975125], [79.11635856248054, 14.256422858253156], [79.10405443564395, 14.24978131774303], [79.09383200269347, 14.247633330223849], [79.0881796431998, 14.247932524736973], [79.08431308471188, 14.245834994432075], [79.07937861479394, 14.244762072686212], [79.07619210372839, 14.245769658494943], [79.07512116721301, 14.247138692370367], [79.06908939780169, 14.250534119532592], [79.06555555438597, 14.250849904107437], [79.06447278063932, 14.253596445410205], [79.0626955435583, 14.254959676319904], [79.05845249377346, 14.25561399798817], [79.05704895579068, 14.254569323909932], [79.0570696000666, 14.252158592598006], [79.0535357380221, 14.252474193604533], [79.04756579684005, 14.248636860707848], [79.0440408995861, 14.247919163266337], [79.04334364220543, 14.24688021026464], [79.04406760615772, 14.24481967385593], [79.04410617098466, 14.240342632091512], [79.04304696115565, 14.240333950521563], [79.04055170094307, 14.243068772277253], [79.03913940739498, 14.243057172613625], [79.03738594882373, 14.241665115509615], [79.03491147566027, 14.24198916576161], [79.03311927325736, 14.245074094044474], [79.03062982354285, 14.247120019053302], [79.03026778012622, 14.248150258895901], [79.03237431454279, 14.249545280984876], [79.03375083299252, 14.253689551031679], [79.03373292384099, 14.255755863052004], [79.03265572706187, 14.257813436551919], [79.02981900471886, 14.25916764952768], [79.02770042833764, 14.25915013232496], [79.02560284032465, 14.256721911479538], [79.02383738333995, 14.256707286360145], [79.02346928688883, 14.2584262753623], [79.02627905391199, 14.26017159467696], [79.02591096628203, 14.26189058864557], [79.01917500668252, 14.264934371187357], [79.01670328762171, 14.264913814186999], [79.01459372256721, 14.263863030338005], [79.01280105109045, 14.266947742491043], [79.01032931967228, 14.26692711656215], [79.00927908111669, 14.265885129372505], [79.0057541210211, 14.265166847556094], [79.00577835555417, 14.262411813739837], [79.00971682137649, 14.256245435276579], [79.01116238155252, 14.252469032724102], [79.01118954590765, 14.249369606108157], [79.00662374707187, 14.2465762567431], [78.99708780086893, 14.246840801034622], [78.99533461638877, 14.2454484648012], [78.995011960931, 14.242001723000053], [78.99822898425325, 14.237551477683486], [79.00249291427932, 14.234487550223111], [79.01064328407908, 14.231111529493448], [79.01312967987616, 14.229410192841925], [79.0149159664598, 14.227014194479382], [79.01744432398047, 14.220491442878057], [79.01886845788962, 14.219125619740252], [79.01923948264216, 14.217062245398393], [79.01679830350034, 14.213597927203132], [79.01397713005143, 14.21323010365096], [79.0129060359061, 14.214598833509266], [79.0128579035369, 14.220108946444942], [79.01034148283206, 14.225254107999934], [79.0067869364981, 14.227979726594754], [78.99721232047705, 14.232721298920227], [78.99222400164089, 14.237845453700821], [78.99077826855198, 14.241621716740807], [78.99108866885827, 14.24644596244921], [78.99458892670421, 14.249919436664177], [78.99740136764427, 14.251320677260635], [79.0048220609893, 14.250694055058938], [79.00622226916711, 14.252083382638567], [79.00584497385087, 14.254835467260735], [78.9997696555813, 14.263050272585474], [78.99938920730763, 14.266146709837995], [79.00112130126385, 14.26994968490391], [79.0035809151377, 14.27134792488269], [79.01099321221264, 14.271754334682658]], [[79.00394009219998, 14.270662126636436], [79.00183055190199, 14.269611230920347], [79.00043939544341, 14.267188734862101], [79.00046977298638, 14.26374495427285], [79.00333700754128, 14.25894733341071], [79.00618897790494, 14.255871558262323], [79.00726941182417, 14.253469754137765], [79.00693145468928, 14.251744904714682], [79.00482811652908, 14.25000529622708], [78.99811359824722, 14.250637848983759], [78.99354492708127, 14.248188644249653], [78.99145392523005, 14.245071428014988], [78.99148743595042, 14.241283283214177], [78.99257096944233, 14.238537177071393], [78.99827146536832, 14.232730179153904], [79.0067808966439, 14.228668487518709], [79.01069150892233, 14.225601429054441], [79.01356396764666, 14.22011481578819], [79.01361208294107, 14.214604700485722], [79.01432414112782, 14.213921800482394], [79.01608925559194, 14.213936452872137], [79.01783937106059, 14.215673008109876], [79.0181653952017, 14.218775383340347], [79.01385081940984, 14.227694155446386], [79.01135842191864, 14.230084265752383], [79.00497637625527, 14.233130691666474], [79.00285504779028, 14.233457364963968], [79.0007185632272, 14.235505913614787], [78.99788199916733, 14.236859760426107], [78.99430887868648, 14.241651412513589], [78.99428149931785, 14.24475080909456], [78.99637558109617, 14.247523627606304], [79.00661769849687, 14.247265016528479], [79.01048037292296, 14.249708098557344], [79.01045621794745, 14.252463143210996], [79.00901366932553, 14.255895159825464], [79.00471906733398, 14.262402948740876], [79.00469481994885, 14.26515798077457], [79.00609207500827, 14.266891698268346], [79.01349820564982, 14.267986773151325], [79.0152788174578, 14.266279580534675], [79.02129062011684, 14.26529635354516], [79.02661117121426, 14.262585203475151], [79.02910383335109, 14.260194965241816], [79.03335594444022, 14.25850803281763], [79.03478026507769, 14.257142137190868], [79.03658448513293, 14.252679664836053], [79.03943001765317, 14.250292195143748], [79.03944786780198, 14.248225875094155], [79.03698225734487, 14.247516779172535], [79.03591109805095, 14.248885605612541], [79.03588725314727, 14.251640692914146], [79.03447491024771, 14.251629058813633], [79.03378962631444, 14.249212540353094], [79.03238625711815, 14.248167740093324], [79.03275724515821, 14.246104339707234], [79.0359677092851, 14.242342270569965], [79.03773009134663, 14.242701178100319], [79.03913048464845, 14.244090332940575], [79.04054278461305, 14.244101933479973], [79.04196696557383, 14.242735976215398], [79.0430261859165, 14.242744664009086], [79.04262857291585, 14.247907580385982], [79.04931345551613, 14.250717634426234], [79.05176141303883, 14.25349294675923], [79.05387405898486, 14.254199022553504], [79.05667520903494, 14.25697717719318], [79.06090945353093, 14.25735606375618], [79.06444927426148, 14.25635157866149], [79.06407559911392, 14.258759452795317], [79.06300452490353, 14.260128413860862], [79.058767272768, 14.260093947959724], [79.05701060618559, 14.259046394978288], [79.05277338938035, 14.259011825147283], [79.04787444125189, 14.253805575529313], [79.04364031503935, 14.253426468454396], [79.04009156505897, 14.255463798695693], [79.03473251391483, 14.262652303562298], [79.03083941494062, 14.263653400165397], [79.02549787366196, 14.268775330534547], [79.02055734467311, 14.268389929049306], [79.01842664905756, 14.269749845376255], [79.01383320298432, 14.270056001437993], [79.01205859107883, 14.271074416817848], [79.00394009219998, 14.270662126636436]], [[79.06657374176095, 14.255679982008466], [79.06942783908883, 14.252258941277612], [79.07084607129572, 14.251581582893635], [79.07296170694046, 14.251943101418028], [79.07259105970623, 14.254006608719065], [79.07045783154749, 14.255711441954142], [79.06657374176095, 14.255679982008466]], [[79.08356620103513, 14.250650864350005], [79.08358946563295, 14.247895698689195], [79.08570510290333, 14.248257102456911], [79.08781204446024, 14.24965167798838], [79.08780624084095, 14.25034047107225], [79.08638805423715, 14.251017937763713], [79.08356620103513, 14.250650864350005]]]]}}, {"type": "Feature", "properties": {"depth_class": 4, "depth_lo_m": 3.0, "t_s": 11700.246145371226}, "geometry": {"type": "MultiPolygon", "coordinates": [[[[79.08047571598705, 14.240293457181005], [79.08189675289896, 14.23927162324468], [79.08368828473411, 14.236186237133245], [79.0833526454299, 14.234117026733674], [79.07874237313216, 14.236490908799674], [79.07871032889388, 14.240279254219443], [79.08047571598705, 14.240293457181005]]], [[[79.01206161240799, 14.270730036472843], [79.01842664905756, 14.269749845376255], [79.02055734467311, 14.268389929049306], [79.02620709383646, 14.268436798703883], [79.03083941494062, 14.263653400165397], [79.03473251391483, 14.262652303562298], [79.04009156505897, 14.255463798695693], [79.04364031503935, 14.253426468454396], [79.04787444125189, 14.253805575529313], [79.05277338938035, 14.259011825147283], [79.06300452490353, 14.260128413860862], [79.06443751919011, 14.257729145034665], [79.06444927426148, 14.25635157866149], [79.06090945353093, 14.25735606375618], [79.05667520903494, 14.25697717719318], [79.05387405898486, 14.254199022553504], [79.05176141303883, 14.25349294675923], [79.04931345551613, 14.250717634426234], [79.04262857291585, 14.247907580385982], [79.0430261859165, 14.242744664009086], [79.04196696557383, 14.242735976215398], [79.04054278461305, 14.244101933479973], [79.03913048464845, 14.244090332940575], [79.03773009134663, 14.242701178100319], [79.0359677092851, 14.242342270569965], [79.03275724515821, 14.246104339707234], [79.03238625711815, 14.248167740093324], [79.03378962631444, 14.249212540353094], [79.03447491024771, 14.251629058813633], [79.03588725314727, 14.251640692914146], [79.03591109805095, 14.248885605612541], [79.03698225734487, 14.247516779172535], [79.03944786780198, 14.248225875094155], [79.03943001765317, 14.250292195143748], [79.03658448513293, 14.252679664836053], [79.03478026507769, 14.257142137190868], [79.03335594444022, 14.25850803281763], [79.02910383335109, 14.260194965241816], [79.02661117121426, 14.262585203475151], [79.02129062011684, 14.26529635354516], [79.0152788174578, 14.266279580534675], [79.01349820564982, 14.267986773151325], [79.00609207500827, 14.266891698268346], [79.00469481994885, 14.26515798077457], [79.00471906733398, 14.262402948740876], [79.00901366932553, 14.255895159825464], [79.01045621794745, 14.252463143210996], [79.01048037292296, 14.249708098557344], [79.00661769849687, 14.247265016528479], [78.99637558109617, 14.247523627606304], [78.99428149931785, 14.24475080909456], [78.99430887868648, 14.241651412513589], [78.99788199916733, 14.236859760426107], [79.0007185632272, 14.235505913614787], [79.00285504779028, 14.233457364963968], [79.00497637625527, 14.233130691666474], [79.01135842191864, 14.230084265752383], [79.01385081940984, 14.227694155446386], [79.0181653952017, 14.218775383340347], [79.01818639736703, 14.21636470121072], [79.01608925559194, 14.213936452872137], [79.01432414112782, 14.213921800482394], [79.01361208294107, 14.214604700485722], [79.01356396764666, 14.22011481578819], [79.01069150892233, 14.225601429054441], [79.0067808966439, 14.228668487518709], [78.99827146536832, 14.232730179153904], [78.99257096944233, 14.238537177071393], [78.99148743595042, 14.241283283214177], [78.99145392523005, 14.245071428014988], [78.99354492708127, 14.248188644249653], [78.99811359824722, 14.250637848983759], [79.00482811652908, 14.25000529622708], [79.00693145468928, 14.251744904714682], [79.00726941182417, 14.253469754137765], [79.00618897790494, 14.255871558262323], [79.00333700754128, 14.25894733341071], [79.00046977298638, 14.26374495427285], [79.00043939544341, 14.267188734862101], [79.00183055190199, 14.269611230920347], [79.00394009219998, 14.270662126636436], [79.01206161240799, 14.270730036472843]]], [[[79.08391638754257, 14.25099809655625], [79.08780624084095, 14.25034047107225], [79.08781204446024, 14.24965167798838], [79.08464873621551, 14.247904204835061], [79.08323346725614, 14.248237257936626], [79.08391638754257, 14.25099809655625]]], [[[79.0697516327002, 14.255705726662804], [79.07259105970623, 14.254006608719065], [79.0726115380628, 14.251595855066999], [79.06942783908883, 14.252258941277612], [79.06657961208953, 14.254991197852323], [79.06657374176095, 14.255679982008466], [79.06763010436, 14.256032960536892], [79.0697516327002, 14.255705726662804]]]]}}]}