{"type": "FeatureCollection", "features": [{"type": "Feature", "properties": {"depth_class": 1, "depth_lo_m": 0.3, "t_s": 34200.7627761659}, "geometry": {"type": "MultiPolygon", "coordinates": [[[[79.11680598822896, 14.245060370735448], [79.11892739814174, 14.244732677313422], [79.1196449922694, 14.243360630490233], [79.12038538053808, 14.239233353651114], [79.11899586030789, 14.236467004110674], [79.11688309375461, 14.235761499593597], [79.11545935402852, 14.237127966968828], [79.11400699720363, 14.241938444375828], [79.11575242771096, 14.24436320435647], [79.11680598822896, 14.245060370735448]]], [[[79.07967633910386, 14.251308418422418], [79.08003817503992, 14.250278075942678], [79.07933781840538, 14.249583601473912], [79.07686617757466, 14.249563689201029], [79.07615415625025, 14.250246783653834], [79.07684866626666, 14.251630055045561], [79.07967633910386, 14.251308418422418]]], [[[79.08311415852556, 14.262357471483723], [79.08383784518612, 14.260296777340203], [79.08279307445079, 14.258566284081496], [79.08067443677503, 14.258549238154322], [79.0778320770688, 14.260592846501076], [79.07817642938427, 14.26162887622098], [79.07993323293105, 14.262676287759614], [79.08311415852556, 14.262357471483723]]], [[[79.09538632356441, 14.272788467565697], [79.09397669636493, 14.272432772134467], [79.0936148724295, 14.273463137479396], [79.09537763781768, 14.273821659753878], [79.09538632356441, 14.272788467565697]]], [[[79.10415409590989, 14.28009127290273], [79.10452453587872, 14.278027690209745], [79.10382402010676, 14.277333269246544], [79.10205543467004, 14.277663601823498], [79.10203234399737, 14.280418790366129], [79.10415409590989, 14.28009127290273]]], [[[79.18409914461199, 14.439498313969258], [79.1844637282745, 14.43812339614474], [79.18271346053768, 14.436043320700021], [79.18202622452499, 14.433627002997259], [79.17885962279105, 14.431880412200726], [79.17923261803813, 14.429472275926669], [79.18280008212108, 14.425366610698518], [79.18387978500026, 14.422963901914647], [79.18743869990352, 14.419891375814435], [79.19132310868808, 14.42026561184767], [79.19239158569096, 14.419240498307849], [79.19242212969196, 14.415451963717706], [79.2002571806601, 14.40793426039848], [79.20273348920482, 14.407608682679687], [79.20483989487872, 14.409346881773345], [79.20731621848316, 14.409021257046053], [79.20804770959725, 14.405926881466991], [79.20629466368234, 14.40419139472762], [79.20631117904013, 14.402124902988582], [79.21022555969762, 14.398710219677724], [79.21202248561882, 14.394935012143804], [79.21628999338489, 14.391522873820577], [79.21773614700395, 14.387400518930079], [79.22092979969493, 14.385702371515931], [79.22378368585565, 14.382279426281071], [79.22803991862621, 14.380244704208836], [79.23122527321011, 14.379579658048995], [79.23264940476868, 14.378212535653613], [79.2337310182204, 14.375465080718804], [79.23869098301876, 14.373779835029305], [79.2404818192009, 14.370693171170162], [79.24546581063427, 14.365907952612101], [79.24868309103499, 14.361109549489473], [79.25222411305715, 14.360102368387542], [79.25578645200648, 14.356339723867253], [79.2671528202622, 14.348500828332796], [79.26859770772793, 14.344378011012473], [79.27109442430152, 14.341296192291946], [79.27147938103343, 14.33716561606619], [79.2700927328154, 14.333711025242874], [79.2701085796692, 14.331644450035736], [79.27189860962166, 14.328557451714449], [79.27262884181054, 14.325462725697143], [79.27616922006017, 14.324455108827848], [79.27830184044313, 14.322748332522101], [79.27831497320126, 14.321026177477385], [79.27761374316157, 14.32033219286643], [79.26877745193335, 14.320956842870112], [79.26811323367421, 14.315440823702504], [79.26568027405237, 14.310256351047217], [79.26076696325889, 14.30608707272231], [79.25935940515333, 14.305387875232563], [79.25370532168097, 14.305690854553118], [79.25121683678704, 14.307739237467468], [79.24874699109358, 14.307376607036533], [79.24735816515486, 14.304266361077707], [79.24139645996229, 14.298711221816026], [79.24001045907193, 14.29525652365106], [79.23193005778204, 14.289685508185098], [79.23087858124043, 14.28864436356416], [79.23088665798822, 14.287611093828017], [79.23371211081503, 14.287632080139936], [79.2400533260266, 14.289745726474388], [79.2453538005405, 14.289440424157505], [79.24925218310354, 14.28774690597246], [79.25210160213557, 14.284667829367324], [79.25776840641704, 14.282642686425646], [79.25566790843428, 14.280216173029197], [79.25673538612817, 14.27919064775618], [79.25850125250952, 14.279203568934884], [79.25955283217618, 14.280244601763796], [79.25954489053147, 14.28127788807005], [79.25812158512919, 14.282645270786997], [79.26271027200023, 14.283023249150435], [79.2694338708832, 14.281349971861037], [79.27612068000076, 14.284498537857765], [79.2803510560117, 14.285562490270886], [79.28281030536608, 14.287302503194068], [79.28420479014207, 14.289723723507917], [79.28491117962193, 14.289728815760824], [79.28563322383204, 14.287667306147707], [79.28284165745407, 14.283169308536028], [79.28038244900101, 14.281429300364099], [79.27791280293893, 14.281066999322311], [79.27334247724139, 14.278278296385205], [79.26841120245629, 14.276520242026217], [79.26666116003962, 14.274440815332767], [79.26101577540814, 14.273710770079328], [79.25962163316072, 14.271289449846899], [79.25681488999244, 14.268857794165523], [79.25683078313293, 14.266791222321997], [79.25543937255641, 14.264025457684246], [79.25652530317477, 14.260588922242274], [79.25655177872729, 14.257144633777783], [79.25479933449711, 14.255409574693472], [79.25126267118794, 14.256072562528253], [79.2533655766776, 14.258154660315348], [79.25335496717489, 14.25953237336163], [79.25120955656719, 14.262961119532758], [79.2511909597514, 14.265372113499971], [79.25329128637037, 14.267798648139657], [79.2532727051201, 14.270209643819529], [79.25256107665268, 14.2708933201598], [79.25044743979217, 14.27018891441432], [79.24834712755478, 14.26776235610504], [79.24198770098741, 14.26805997026267], [79.24092022296762, 14.269085428682692], [79.24090150839741, 14.271496408076692], [79.24441441249341, 14.273933441854219], [79.24508338126805, 14.27876061378327], [79.24753958289963, 14.28084537967063], [79.24468749226287, 14.284268826915389], [79.24326943246069, 14.28494725678357], [79.24150353572749, 14.284934217555591], [79.23833832669774, 14.283188590213902], [79.2341002217293, 14.283157190095062], [79.23234510337849, 14.281766389746373], [79.22951972583043, 14.281745395643489], [79.2253113583435, 14.277925194855738], [79.2171858680225, 14.278208943577614], [79.21648496437305, 14.277514812837309], [79.21260289582622, 14.277141266953102], [79.21120113003775, 14.275752980801425], [79.20554786640533, 14.276054893769658], [79.20379572969436, 14.274319490295477], [79.20417345365591, 14.271222385243378], [79.20313311820497, 14.268803467021622], [79.20137831848348, 14.267412471808877], [79.19678471090418, 14.267722193953196], [79.19046387548488, 14.263196595922466], [79.18871195534511, 14.261461104983113], [79.1873324592955, 14.257317378204013], [79.18383704958734, 14.252813109108548], [79.1725900014842, 14.24618294892324], [79.17047414573022, 14.245822301486609], [79.16801631186145, 14.244081275333194], [79.16448808708184, 14.243709731846698], [79.16133249991084, 14.2409299788654], [79.16105746654459, 14.23128373848995], [79.1614161191154, 14.230597633355456], [79.16353737747015, 14.230269518650742], [79.1635512910862, 14.228547458046839], [79.15863612728641, 14.225065294972518], [79.15686798690155, 14.225396095067225], [79.15543614648841, 14.227796071131706], [79.15260876214182, 14.228118655644048], [79.15189701514774, 14.228802013680765], [79.15187180994066, 14.23190170211306], [79.15291145065518, 14.234320765836308], [79.15537464555248, 14.235373101618972], [79.15607243006535, 14.236411787260387], [79.15673388413074, 14.241927808119907], [79.15955306918342, 14.242638428061577], [79.16059562102546, 14.244713060949229], [79.15880777175832, 14.24745473199289], [79.15597174458246, 14.248810557323157], [79.1538362989485, 14.250860630302633], [79.15207075491769, 14.250846959797709], [79.1517400842119, 14.248088950167366], [79.15103948669501, 14.247394660048638], [79.14927397241419, 14.247380972107864], [79.14714411219093, 14.24874216292335], [79.14641540033568, 14.251491942804932], [79.13720915785443, 14.254520081794034], [79.13262438608365, 14.253795371746117], [79.11673454462652, 14.253670429794838], [79.11145229776099, 14.251906541524763], [79.10442479104562, 14.247717724239324], [79.09243700064401, 14.245555656776727], [79.08748796961264, 14.246204882131153], [79.08221492812771, 14.24340720793549], [79.0865099615131, 14.236553287030839], [79.08619460093547, 14.23207330050692], [79.08514410901668, 14.231031620858733], [79.08231959795569, 14.231008959510925], [79.07770647126108, 14.23372722373996], [79.07592072179222, 14.236123768713764], [79.07274893650008, 14.235409352924808], [79.07168388516983, 14.23608958867481], [79.07060420156405, 14.23849178588127], [79.06707347790307, 14.23846322449447], [79.06600839738459, 14.239143430787916], [79.06634094419397, 14.241557038225057], [79.06809460812579, 14.242948904950529], [79.0726846438118, 14.24298601639119], [79.0751474480738, 14.244039145456076], [79.07336157857351, 14.246435655712954], [79.06839494057753, 14.24915083179746], [79.06169803062657, 14.247718853587575], [79.0528413773437, 14.25109087203585], [79.04862800917756, 14.248301138578004], [79.0447529966057, 14.247236175933843], [79.04515055850517, 14.242073249410865], [79.04410320493497, 14.24068701998268], [79.04198478278296, 14.240669651712382], [79.04020754465647, 14.24203271206514], [79.03774794704916, 14.240634858851857], [79.03492041622309, 14.240956007876251], [79.03277216651819, 14.244382412673554], [79.02921452314452, 14.247452742064274], [79.02920256195102, 14.248830280400625], [79.03165620281634, 14.25091699555671], [79.03268858123599, 14.254025200670347], [79.03231458253114, 14.256432982914001], [79.0301810744464, 14.258137413785667], [79.02876869597709, 14.25812574070834], [79.02561483027353, 14.255344377050646], [79.02243102396193, 14.256006810998295], [79.02170682282063, 14.258067250010889], [79.02415147056479, 14.261187194332722], [79.02378936791483, 14.262217416504654], [79.01918102493781, 14.264245607151167], [79.0152938935568, 14.264557674636668], [79.01351329715114, 14.266264869365592], [79.01103552824591, 14.266933012296917], [79.00928512984662, 14.265196369540268], [79.00646335066847, 14.264828376793368], [79.00648757598715, 14.262073341704781], [79.01041997581017, 14.25659570892541], [79.0115124453464, 14.252816357454217], [79.01153960561187, 14.24971693026683], [79.00662677123822, 14.246231876834589], [79.00238992258507, 14.246196443076226], [79.00026240100725, 14.247211833707997], [78.99708780086893, 14.246840801034622], [78.99499067335141, 14.244412365830504], [78.99502108296097, 14.240968590200133], [78.99716678034441, 14.23788697248261], [79.00108070667902, 14.23447573239559], [79.0049703286365, 14.233819451531884], [79.01206451635106, 14.23009014355406], [79.01420386341077, 14.227697090442883], [79.01707927945424, 14.221866045438217], [79.01990356688542, 14.221889463281796], [79.02096866992005, 14.221209469120577], [79.02168672354301, 14.21983777971867], [79.02137562667045, 14.215013483734918], [79.01751935036573, 14.211881866481264], [79.01293009436576, 14.211843776031177], [79.01150297172912, 14.213553947723556], [79.01148190310485, 14.215964620613429], [79.01217892634699, 14.21700363815606], [79.01145480907574, 14.21906405642834], [79.01177171005314, 14.223199573869303], [79.01033545494799, 14.225942870575203], [79.00465961113905, 14.228995182750491], [79.00252318815194, 14.23104375588765], [78.99969578568736, 14.231364496732558], [78.99685927234219, 14.232718337800083], [78.99365447280853, 14.235791061973885], [78.99078131564337, 14.241277340037543], [78.99073560072557, 14.246442989478183], [78.99317967531512, 14.249563182555066], [78.99775140605661, 14.251668019254812], [79.00057299602175, 14.252036092368895], [79.00481600512613, 14.251382813848583], [79.00586616237956, 14.252424810491426], [79.0054949171832, 14.25448813498445], [79.00228987058601, 14.257560945063847], [78.99869516794178, 14.264763269174464], [78.9986738840653, 14.267173912869037], [78.99971495380505, 14.26924907458497], [79.00286862510333, 14.272030762051562], [79.0106310290004, 14.272784526059242], [79.01381810973369, 14.271777905012762], [79.01805546567368, 14.271813197791813], [79.02089240795766, 14.270459155755322], [79.02584198394443, 14.269811406389048], [79.03259596748458, 14.26470113488709], [79.03542379855715, 14.264380052464091], [79.03970870920637, 14.258904761470061], [79.04397558982984, 14.255495689346322], [79.04573809194581, 14.255854552006653], [79.04462833266511, 14.261700455573635], [79.04602887538793, 14.263089588213601], [79.0492097944181, 14.262771231484654], [79.05134619007893, 14.260722229301043], [79.06580292677853, 14.263250875003324], [79.06901025058067, 14.259832719379856], [79.07504228672441, 14.256437328006006], [79.090240223631, 14.254837431591163], [79.09623141228239, 14.256263018897052], [79.10045138133215, 14.258363203526226], [79.10395080951514, 14.262179704236415], [79.10782072476351, 14.263932570288588], [79.11029256682323, 14.26395218128619], [79.11275294450425, 14.265349371177146], [79.12440320347424, 14.265785770171034], [79.1240329751356, 14.26784941053165], [79.1218970758021, 14.26989913723591], [79.1200999849993, 14.273673638443189], [79.11831999424622, 14.275381706273597], [79.11477999910906, 14.27638698335663], [79.11015468836683, 14.280483400489148], [79.10978429167932, 14.28254699738332], [79.11153854869907, 14.283938612554008], [79.11753927922827, 14.2843305678944], [79.12427489524008, 14.281283912718877], [79.12820225244505, 14.27614843010278], [79.128259156599, 14.26926035087249], [79.13110409819598, 14.266871694663303], [79.13253647673542, 14.264471933293537], [79.13889275509372, 14.26452165278807], [79.1399464856299, 14.265218735903055], [79.14277715946088, 14.264551953584176], [79.1491334771549, 14.264601400329356], [79.15441640747925, 14.266364523170836], [79.15724147578572, 14.26638638520394], [79.15899875410963, 14.267433262468083], [79.16394545270634, 14.267126995731859], [79.17274056187495, 14.271327807244017], [79.17553521361435, 14.275138004451893], [79.18395010261304, 14.282779900239735], [79.18428393128455, 14.285193495942304], [79.18672024208976, 14.289689735556365], [79.1916481984987, 14.291793856853864], [79.19163168114027, 14.293860351047304], [79.18985198482162, 14.295568997188738], [79.18843372550025, 14.296247072105082], [79.18632841493147, 14.294508849920193], [79.18348082253834, 14.297242603520772], [79.18346699061645, 14.298964673440654], [79.18416783929072, 14.299658896210737], [79.18593379547607, 14.299672374231243], [79.18807226165039, 14.297277626603753], [79.18913182628715, 14.297285696282254], [79.19192979845586, 14.300751348154593], [79.19435264328706, 14.306969620686798], [79.19647461974915, 14.306641293832408], [79.19649110824214, 14.304574796314066], [79.19791764105632, 14.302863427295156], [79.20074871534504, 14.30219599290545], [79.20145237214565, 14.30254575466756], [79.20142771008317, 14.305645509821566], [79.20071033555641, 14.307017832160101], [79.20139755953751, 14.309434098302107], [79.20280492032755, 14.310133621248475], [79.20492692409087, 14.309805221008444], [79.20812767308487, 14.30707386422029], [79.20922003840036, 14.302948825724055], [79.21100512119091, 14.300551186938666], [79.21808808705464, 14.298193283097012], [79.22021810193027, 14.296831467479533], [79.22303824154686, 14.297541436765318], [79.22338061430122, 14.298921761523987], [79.22124246556277, 14.301316868405044], [79.21841686102418, 14.30129571430178], [79.21593630778231, 14.302310437095816], [79.21450174093891, 14.30505518979575], [79.21448269548712, 14.307466127318753], [79.21551512546809, 14.31091828248568], [79.2169198307456, 14.31196214780134], [79.2183326979365, 14.31197274566082], [79.2208187788711, 14.31026916825239], [79.22398959301938, 14.311326210644033], [79.22503842104427, 14.312711813814804], [79.22501406426436, 14.31581160636703], [79.22287574939483, 14.31820670824593], [79.2203977298144, 14.318877036666809], [79.21862072160494, 14.320241477292491], [79.21854732937025, 14.329540813993548], [79.21532181279707, 14.335372055087545], [79.21071586803593, 14.337059558333895], [79.20821845605865, 14.340140653163457], [79.20538141979688, 14.34149695547753], [79.2028838851432, 14.344577978805715], [79.19933472876247, 14.34661767312632], [79.19927967537444, 14.353505983204432], [79.1981867754239, 14.3576309094781], [79.19676260513131, 14.358997817564966], [79.19496303629452, 14.363117337922219], [79.1917640375181, 14.365503979528038], [79.19068476677784, 14.367906777638355], [79.1881950337582, 14.369954343327366], [79.18181890989885, 14.371972057734903], [79.17828308618765, 14.372289304707957], [79.1729639566683, 14.374659327614319], [79.16907759200828, 14.37462929363554], [79.16661287814111, 14.373576922315747], [79.16271810561462, 14.37458000964569], [79.15772670712447, 14.380052067224952], [79.15382614021883, 14.38174380128859], [79.15060947848413, 14.386196230609846], [79.1509344550268, 14.389643044225997], [79.1537412463992, 14.392075971425086], [79.15831477152507, 14.394522643853394], [79.1593747756435, 14.394530900600708], [79.16044324358566, 14.393505932322393], [79.16152861498942, 14.390414515703524], [79.16329525979305, 14.390428246466499], [79.16362324738317, 14.393530657988567], [79.16219018215732, 14.395930523643939], [79.16217608744758, 14.397652558731378], [79.16039245459272, 14.399705252566408], [79.16037551954787, 14.401771691887452], [79.16316846703852, 14.405926569593749], [79.1666823068369, 14.408364875464878], [79.1687996452433, 14.408725732594132], [79.17413086866783, 14.40497827402962], [79.17985436247629, 14.396411650237935], [79.18094507544711, 14.392631293746474], [79.18592794478138, 14.388191953194816], [79.18700738786404, 14.385789198063991], [79.18842902377999, 14.384766790848708], [79.19022338282551, 14.381336187354488], [79.19450471721754, 14.376202378334511], [79.19946213581191, 14.374862405949626], [79.20655859466461, 14.371127481416053], [79.20832513220869, 14.371140858264953], [79.2086592403498, 14.373554448483], [79.20686796879612, 14.376640817861853], [79.20648443193176, 14.380426716838498], [79.20398090899145, 14.384196524539837], [79.20325222473888, 14.386946479453831], [79.20182787393081, 14.38831339678954], [79.19931036858951, 14.39380520480194], [79.19183196758934, 14.400981230862387], [79.1911086112263, 14.403042296140518], [79.18861011194986, 14.40612305097067], [79.18433915191568, 14.409879014782756], [79.18221338788022, 14.410551524374416], [79.17651195921803, 14.416362890430259], [79.17048496309219, 14.418727262110213], [79.16442400547676, 14.425224344591276], [79.16159410893314, 14.425546736687751], [79.15912608093942, 14.424838635029857], [79.15770688834192, 14.425516411471895], [79.15943419269634, 14.430351881729218], [79.15692077497033, 14.43515423167382], [79.15725716602503, 14.437223423628359], [79.16749456871511, 14.438680944182757], [79.1706836686521, 14.437672428215183], [79.17421772269942, 14.437699827459321], [79.17809117571079, 14.439451949887424], [79.18409914461199, 14.439498313969258]], [[79.17501434294067, 14.426684230255558], [79.17185351859492, 14.424248746074298], [79.17187599375598, 14.4214934810158], [79.17436648432904, 14.41944618043526], [79.17720190408804, 14.418434805084933], [79.18255279921875, 14.412276297014921], [79.18752499546424, 14.409214623169975], [79.19108917850696, 14.405453182708483], [79.19359872540593, 14.400994744961967], [79.1996499048932, 14.395529967564011], [79.20753890560844, 14.381123582287866], [79.2082839777693, 14.376307106121878], [79.21007248711301, 14.373565140243725], [79.21009167157156, 14.371154221947549], [79.20939602087853, 14.369771210758952], [79.20727893207528, 14.36941075159241], [79.1977010977168, 14.374160130600883], [79.1941624668874, 14.374822027328765], [79.19131659298999, 14.377211336216583], [79.18452853884119, 14.386459048532158], [79.17848568919365, 14.390890197152247], [79.17636848918731, 14.390529444366937], [79.1725126589064, 14.386710932155383], [79.17007303755328, 14.382558899875642], [79.1690439403116, 14.378762200833144], [79.17046839849819, 14.377395496272479], [79.17542313088349, 14.376400457939921], [79.17826634908121, 14.374355769553475], [79.18144889863245, 14.37403581228819], [79.18995600212388, 14.370656682359867], [79.1924595634327, 14.366887028861282], [79.19565857746137, 14.364500379555203], [79.1978169510088, 14.359694712343794], [79.1992411206058, 14.358327797758516], [79.20069278901003, 14.353516716294466], [79.20074229954223, 14.347317232585286], [79.20251413900652, 14.3466417986806], [79.20607971907035, 14.342535551580736], [79.2089167659931, 14.341179242052982], [79.21141145073842, 14.338442558489826], [79.21529183028737, 14.3391606630171], [79.2173895998431, 14.341931954350114], [79.21772380153223, 14.344345543654944], [79.2261480184309, 14.35129752935645], [79.22719430647317, 14.35302756217326], [79.2271753302537, 14.355438506664878], [79.225036608996, 14.357833579787934], [79.2250230336839, 14.35955568033155], [79.22714279138717, 14.359571553168568], [79.22787648351236, 14.356132633268915], [79.23108312754198, 14.352712177973888], [79.23396068819734, 14.346189236664866], [79.2351013968072, 14.335864453436022], [79.23758496640417, 14.334505142493212], [79.23867162592269, 14.331068777616776], [79.24224974429139, 14.325239756038597], [79.24268340433292, 14.314909635676962], [79.23990857681736, 14.308344656226977], [79.23781076891177, 14.305573560629123], [79.23359108515145, 14.30313114001057], [79.23184391030095, 14.300707051506963], [79.22902369204816, 14.299997179130434], [79.2230544764908, 14.295474907546092], [79.21704750671243, 14.295774399125985], [79.21530057134504, 14.293350214672898], [79.21213277552982, 14.291948669175149], [79.20827502146469, 14.28847525423862], [79.20475416977249, 14.28707096385392], [79.20090756496852, 14.282219779849653], [79.19387720075797, 14.278033299866003], [79.1879175854573, 14.272477041406095], [79.1822810188693, 14.270711920393678], [79.17627755542362, 14.270666040554897], [79.16396219017169, 14.265060528868029], [79.15760580624882, 14.265011475919975], [79.14914753511947, 14.262879358685245], [79.12725382085421, 14.262708350911685], [79.12618876236222, 14.263388833078412], [79.12336378140765, 14.26336660762289], [79.1163099341031, 14.262277692050915], [79.11312613246105, 14.26294135881673], [79.10997676497219, 14.25947217283301], [79.10785808520932, 14.259455367331817], [79.10749922419554, 14.260141365016414], [79.10537766390603, 14.26046893650942], [79.09977112787509, 14.255257987249397], [79.0902576171248, 14.252771050044203], [79.07647513466961, 14.254037967090488], [79.07044611350229, 14.257089013304647], [79.06655612889479, 14.257746334224453], [79.06476711098674, 14.260487144022877], [79.06299569970373, 14.261161587444123], [79.06017085083855, 14.261138616800364], [79.05312353393718, 14.259359098050501], [79.04751838571009, 14.254147073303823], [79.04399340538596, 14.253429364557194], [79.04151285596565, 14.254442241787807], [79.04043573291823, 14.256499860521465], [79.03545065504005, 14.261280583369611], [79.03119251848379, 14.263656317258144], [79.02869983240583, 14.266046574635755], [79.02479765602261, 14.268080710744945], [79.02055433676507, 14.268734311240948], [79.01665507002242, 14.270423916690705], [79.01383320298432, 14.270056001437993], [79.00923370535493, 14.271050826767736], [79.0074742109079, 14.270347307228104], [79.00394009219998, 14.270662126636436], [79.00253372961544, 14.269961531295694], [79.00079249796221, 14.267191697693388], [79.00224132879349, 14.263071002495112], [79.00330365139058, 14.262735500174461], [79.00362945373602, 14.265837866748637], [79.00537980737393, 14.267574545999526], [79.01031117973604, 14.268993396949204], [79.0131390609162, 14.268672590272802], [79.01526977083311, 14.2673127239468], [79.01915995963935, 14.266656281093145], [79.02305914458103, 14.264966623329448], [79.03123438017201, 14.25883493252722], [79.03371501182103, 14.257822174692953], [79.03942109150633, 14.25132535502638], [79.04013916104384, 14.24995361124627], [79.03980987156858, 14.247195615979765], [79.03663513533535, 14.24682510156564], [79.0348399253618, 14.25025442543286], [79.03378067520445, 14.25024569682156], [79.03203019136096, 14.24850921303023], [79.03204512085934, 14.246787287097776], [79.03453455574879, 14.244741345148167], [79.0349025343809, 14.243022323552218], [79.03632375897642, 14.242000789582812], [79.0380861393765, 14.242359694223659], [79.03913345897674, 14.243745946175451], [79.04054575680246, 14.243757546422922], [79.04302915404566, 14.24240027639958], [79.04372936606897, 14.243094841008418], [79.04300243802888, 14.245499764506262], [79.04298462378298, 14.247566089437083], [79.0436848494716, 14.248260655915693], [79.04931641583893, 14.250373245749348], [79.0524705535887, 14.253154325186081], [79.05458615257596, 14.253516004922368], [79.05528053002902, 14.254899323440196], [79.05773745403582, 14.256641417939086], [79.06233362201104, 14.255989981217668], [79.06517309673164, 14.254290959163582], [79.06802426065708, 14.251214327788931], [79.0758302609871, 14.246799994213037], [79.07936987399472, 14.245795257599754], [79.08431017844457, 14.246179390382135], [79.08853273432452, 14.24793535385719], [79.09277272767511, 14.247624864992513], [79.10370421606704, 14.249434111481765], [79.10862174238153, 14.252572960424537], [79.11355373128538, 14.253989716135415], [79.11530781658557, 14.25538128230286], [79.12589825308686, 14.25580917154324], [79.13120060188811, 14.255161928903336], [79.13401699471831, 14.256217265838373], [79.13754813194828, 14.256244871119002], [79.14180243256786, 14.254211485715548], [79.14851719127017, 14.253574847971981], [79.14849751627756, 14.255985707214622], [79.1491981282638, 14.25668000659841], [79.15096371479619, 14.25669370383845], [79.15202867900923, 14.256013097705992], [79.15098336460767, 14.254282841366347], [79.15169800926263, 14.253255088299259], [79.15805683849867, 14.25295984872341], [79.15875747514376, 14.253654122574497], [79.1583931784104, 14.255029037893914], [79.15732543714456, 14.256054085531115], [79.15449489347941, 14.25672105915189], [79.15659681006436, 14.258803907012245], [79.15870995058708, 14.259509099455576], [79.1671905007304, 14.258885577933132], [79.17176168535181, 14.261331712473615], [79.1756377942882, 14.262394711810092], [79.17669995787877, 14.262058403760012], [79.1802892998499, 14.25485268329111], [79.18170454256592, 14.254519041776456], [79.1855640768367, 14.25764836513961], [79.18764430021953, 14.262486300694201], [79.19079777179425, 14.265610191043793], [79.19501625045865, 14.268053242826836], [79.1985121002399, 14.272557396406098], [79.20097869375773, 14.273264914298077], [79.20412704142485, 14.277077501750293], [79.2090603911935, 14.278492412506587], [79.21045943549723, 14.280225131053314], [79.2153847632394, 14.28267318433407], [79.2181911556746, 14.285105294404651], [79.22454291404287, 14.28584164163489], [79.23155803081966, 14.292093846770674], [79.23612800413598, 14.294883322582693], [79.23789129041974, 14.295240834937873], [79.23929334534485, 14.296628994527023], [79.24033149833608, 14.299392233517628], [79.24838042790529, 14.309096133961036], [79.2507489312555, 14.322546963507994], [79.25284971045828, 14.324973550862676], [79.25317629642315, 14.328420412736632], [79.25174461985551, 14.330820991762714], [79.24928521390196, 14.329080636839938], [79.24822546537031, 14.329072818091397], [79.24501675387538, 14.332838004528162], [79.24426734694086, 14.338343568395873], [79.2428381905719, 14.340399649820817], [79.24029272660508, 14.349680748133173], [79.23921942762033, 14.351394993175244], [79.2391978898411, 14.354150376589457], [79.24555438405135, 14.354541964572332], [79.24804348062298, 14.352493713277038], [79.25051648475548, 14.352511980715137], [79.25406003124084, 14.351160329539509], [79.25761952044252, 14.34774206172432], [79.2579967611468, 14.344644818523289], [79.2552025481581, 14.340490925510458], [79.25309628008253, 14.338753194578922], [79.25170724972263, 14.335642953123433], [79.25172593652728, 14.333231972699453], [79.25453866560106, 14.334974907962675], [79.25591974220625, 14.339118416246684], [79.25976048094346, 14.345002215180246], [79.26293731807804, 14.345369955634887], [79.26400245717905, 14.344688861887402], [79.26651247574851, 14.339884957545854], [79.26659453014656, 14.329207674089657], [79.26909636180187, 14.32543699847885], [79.26946281233384, 14.323717426973595], [79.27053046375592, 14.322691859450677], [79.271590194944, 14.322699575282988], [79.27193552925226, 14.323735435609183], [79.27086523948547, 14.32510543909545], [79.27084940709517, 14.327172016267214], [79.26833700538745, 14.332320426611497], [79.27007688343427, 14.335777600073637], [79.27003989171581, 14.340599606548135], [79.26718459944047, 14.344367689130989], [79.26645420257833, 14.347462378416484], [79.26326139771548, 14.349161246223433], [79.26005524753486, 14.352582199403757], [79.25508787068472, 14.35530124425014], [79.25116956763394, 14.359405696352727], [79.2479845328041, 14.360071051348381], [79.23692709531967, 14.373422260453381], [79.23409785927117, 14.37374561067435], [79.23232315556577, 14.374765686822027], [79.23159485222386, 14.377515774632535], [79.23052675463228, 14.378541112555718], [79.22805077685722, 14.378867023936904], [79.22237582116607, 14.381579972201086], [79.21987798556324, 14.384661140394163], [79.21632554138432, 14.38704544524945], [79.21523544290156, 14.390826039214376], [79.21132676651973, 14.393551999383918], [79.20881490250478, 14.398355094645876], [79.20454164484683, 14.402455897868816], [79.20452786832774, 14.404177972619964], [79.20592753695531, 14.405910787187118], [79.205916521635, 14.40728844765759], [79.20450306599773, 14.407277706508093], [79.20309788612784, 14.406233713178791], [79.19920538199273, 14.406892938124543], [79.19065803820897, 14.415094015589025], [79.1899290489093, 14.4178438918792], [79.18709924577999, 14.418166605508816], [79.18496782825419, 14.419527952812588], [79.17712907132216, 14.4273894430542], [79.17501434294067, 14.426684230255558]], [[79.2282595734308, 14.352346645950252], [79.22300381299428, 14.346796253003523], [79.22231628492187, 14.344380016586964], [79.21950918296974, 14.341947876339043], [79.21917224202207, 14.339878706849545], [79.22455791557273, 14.328896968061292], [79.22457417372473, 14.326830442571534], [79.223172054728, 14.32544218827972], [79.22318561053207, 14.323720084530574], [79.22460939082393, 14.32235296938346], [79.22673420888049, 14.321679962721172], [79.22994031505411, 14.318259459120528], [79.23204351081009, 14.32034177883552], [79.23294946668959, 14.33998174363572], [79.23256109945497, 14.344456597622866], [79.23039279431889, 14.350640375461637], [79.22931941990643, 14.352354566371378], [79.2282595734308, 14.352346645950252]], [[79.25195368322916, 14.349422579643031], [79.25161643578657, 14.347353422172171], [79.2530509091664, 14.344608433441556], [79.25517055831565, 14.344624039664618], [79.2558664473653, 14.346006942436375], [79.25549717282185, 14.348070900155255], [79.2530081884082, 14.350119243724325], [79.25195368322916, 14.349422579643031]], [[79.24810507108386, 14.34457194532486], [79.24637889156998, 14.339392520392941], [79.24641906341064, 14.33422614954514], [79.24749221408852, 14.332511853989725], [79.24855197835122, 14.332519677846697], [79.25130056860307, 14.342528861205407], [79.24916489235817, 14.344579772880806], [79.24810507108386, 14.34457194532486]], [[79.26188810928761, 14.34398447979912], [79.25630496567659, 14.334987894850094], [79.25599430741721, 14.32947447254831], [79.25426801399455, 14.32429509132579], [79.25251779648642, 14.32221554129339], [79.251479416577, 14.319452331645904], [79.25150608298824, 14.316008069475687], [79.25046240066247, 14.313933710975078], [79.25083696006942, 14.311180901783626], [79.25330951523127, 14.311199088748396], [79.25470910230233, 14.312931604638104], [79.25611934572312, 14.313286405765005], [79.25930369208417, 14.312620861407996], [79.26106451955374, 14.31332264931926], [79.25963038228828, 14.316067726952804], [79.25961711184102, 14.317789865641208], [79.26239262336715, 14.324354688087507], [79.26484680352485, 14.32678377024719], [79.26444056923594, 14.333669752912131], [79.2651338433431, 14.335397060508434], [79.26509939718127, 14.339874626407191], [79.26295058981847, 14.34364781789101], [79.26188810928761, 14.34398447979912]], [[79.23550583975143, 14.329323047421397], [79.23553815403669, 14.325189971664058], [79.23448920721675, 14.323804402185463], [79.23521991566493, 14.320709846600877], [79.23455114465807, 14.315882673011085], [79.23733394226394, 14.321414433473032], [79.23731511786787, 14.323825397619913], [79.23624194461937, 14.325539644217159], [79.23621233464287, 14.32932829838286], [79.23550583975143, 14.329323047421397]], [[79.2638400356896, 14.319887455742679], [79.2627882712807, 14.31884642207941], [79.26280151857415, 14.317124280633122], [79.26421710009903, 14.316790180828873], [79.26490239653661, 14.319550771315697], [79.2638400356896, 14.319887455742679]], [[79.25720027930659, 14.310538761414604], [79.25650977967902, 14.308467015287874], [79.25757740268465, 14.307441503257433], [79.25934349031102, 14.307454443181225], [79.26109632883389, 14.309189511288212], [79.2600260585048, 14.310559467865705], [79.25720027930659, 14.310538761414604]], [[79.22470685156843, 14.309953803627856], [79.22012591363776, 14.308541775304255], [79.21870492178974, 14.309564451664354], [79.2169388564404, 14.309551207974383], [79.21624602379525, 14.30782380730205], [79.21661825726977, 14.305415517563864], [79.21768602364845, 14.304390203675066], [79.22051166572352, 14.304411370938181], [79.22508982176022, 14.306167804532093], [79.22614134026612, 14.307208979627866], [79.22647563076325, 14.309622568178252], [79.22470685156843, 14.309953803627856]], [[79.20317182460032, 14.308414205055957], [79.20249006065869, 14.305309107207817], [79.2035879858641, 14.300495269586794], [79.19935512246538, 14.299774379156538], [79.20077612072255, 14.298751820752615], [79.20818772948606, 14.299496656429966], [79.20853273918671, 14.300532573495248], [79.20671757716342, 14.306718791110885], [79.2042314502618, 14.308422213584084], [79.20317182460032, 14.308414205055957]], [[79.22442398083503, 14.300996205025063], [79.22548088102573, 14.301348536679653], [79.22512227197902, 14.302034744091918], [79.22441857146774, 14.301685048334615], [79.22442398083503, 14.300996205025063]], [[79.19690198712802, 14.297344729875357], [79.19514703168414, 14.2959536703856], [79.19515527590193, 14.294920421505896], [79.19764129846362, 14.293217082769676], [79.19801642620725, 14.290464422713871], [79.19626151106824, 14.28907337615233], [79.18956493877937, 14.287300341129754], [79.18818257157645, 14.283501022682527], [79.18536276189413, 14.282790672547504], [79.18607736969808, 14.281762810744988], [79.1874845101909, 14.282462400112884], [79.18960900842399, 14.281789692396645], [79.19104367658043, 14.279045102879264], [79.19315989150044, 14.279405607347993], [79.19421113631859, 14.280446894218654], [79.19524591882346, 14.283554677611363], [79.19699530170794, 14.285634560390834], [79.20684866361756, 14.290186707172158], [79.2117578122195, 14.294701370969216], [79.21104326347496, 14.295729317769144], [79.20750044764942, 14.29708040306086], [79.20185212976655, 14.296693329662308], [79.19690198712802, 14.297344729875357]], [[79.22490689446938, 14.28446658699958], [79.21856059191391, 14.283041411598392], [79.21681372064774, 14.280617245333973], [79.21964448019202, 14.27994954581178], [79.22282028505256, 14.280317712669856], [79.22562134345566, 14.283438586184483], [79.22490689446938, 14.28446658699958]], [[79.11651419859449, 14.280189370498855], [79.11722908317445, 14.279161751984772], [79.1204188305119, 14.277809253220108], [79.12364847891735, 14.271635064713587], [79.12471643568904, 14.270610196706524], [79.12577583764367, 14.270618533299462], [79.12647356335513, 14.271657299394652], [79.1264393859671, 14.275790142370887], [79.12394171778831, 14.278870309831907], [79.11968394626669, 14.281247698140884], [79.11685875330002, 14.281225368304483], [79.11651419859449, 14.280189370498855]], [[79.25038626401482, 14.278110741787053], [79.24721573100666, 14.277054087950779], [79.24723705070461, 14.274298674805264], [79.24900819383086, 14.273622808004427], [79.2511165377506, 14.27501608426265], [79.25110058294719, 14.277082648362835], [79.25038626401482, 14.278110741787053]], [[79.18823217269379, 14.277301545453696], [79.18012341730226, 14.275517541685362], [79.17942264809398, 14.274823315992334], [79.17943925384732, 14.272756832535332], [79.1819140564029, 14.272431298020837], [79.1875506601805, 14.274196432207134], [79.18930540976429, 14.275587524772893], [79.18964755394843, 14.276967872557636], [79.18823217269379, 14.277301545453696]], [[79.25958723863093, 14.275767026685976], [79.25818515877516, 14.274378984936213], [79.25959253087319, 14.275078168825356], [79.25958723863093, 14.275767026685976]], [[79.00403106415891, 14.260330762553084], [79.00689515027562, 14.255877461785223], [79.00795743364382, 14.255541933234037], [79.00794836078218, 14.256575072963582], [79.00403106415891, 14.260330762553084]], [[79.0245195693085, 14.259468204560951], [79.02418747474859, 14.257054595714866], [79.0259529348097, 14.257069218591568], [79.02665312699128, 14.257763831658707], [79.0262850485052, 14.25948282740048], [79.0245195693085, 14.259468204560951]], [[79.17249569631265, 14.257892998060933], [79.167212763916, 14.256130281770067], [79.16548058355279, 14.251983763923146], [79.16584204786729, 14.250953243645752], [79.1697262791758, 14.25098307758746], [79.17113040201681, 14.252027149492806], [79.17182275597432, 14.25375462853028], [79.17464492404306, 14.25412067912529], [79.17710568399355, 14.255517240633246], [79.17673872226015, 14.257236610621588], [79.17567381211323, 14.25791733531991], [79.17249569631265, 14.257892998060933]], [[79.15979446947946, 14.25641758359413], [79.16156285575296, 14.2560867911943], [79.16155448191606, 14.257120024052895], [79.15978608738784, 14.257450815393955], [79.15979446947946, 14.25641758359413]], [[79.05952356779319, 14.254245057677169], [79.06023859114471, 14.253217630188919], [79.06165390784814, 14.25288472190923], [79.0609359481429, 14.254256545577347], [79.05952356779319, 14.254245057677169]], [[79.00869081034577, 14.252448410295111], [79.00554032313829, 14.249322442229678], [79.00554637589181, 14.248633683016322], [79.00695867536787, 14.248645485914594], [79.00941509948971, 14.250388022933905], [79.00869081034577, 14.252448410295111]], [[79.16797739953986, 14.248903050213649], [79.16340371211626, 14.246801287158837], [79.16412106248706, 14.245429074874345], [79.16765209216369, 14.245456214423161], [79.16975682983691, 14.247194537293586], [79.16974849872842, 14.248227775680991], [79.16797739953986, 14.248903050213649]], [[79.0786928462487, 14.242345623912906], [79.07694785992152, 14.239920643592287], [79.07769190196328, 14.235449198434882], [79.08266103869485, 14.232389378119018], [79.08442636859944, 14.232403544191364], [79.08512379435601, 14.23344239644641], [79.08509766992145, 14.236541964303713], [79.08402102264031, 14.238599843599518], [79.08116732140547, 14.242021111987984], [79.0786928462487, 14.242345623912906]], [[79.073064025337, 14.239889323289509], [79.07308155603067, 14.237822960032398], [79.07413785310305, 14.238175901017629], [79.07412325201496, 14.239897871448168], [79.073064025337, 14.239889323289509]], [[79.15819932974183, 14.235394905869878], [79.156100381072, 14.232967682060588], [79.1561087649173, 14.231934450296858], [79.1575210856344, 14.23194534967712], [79.15857195433291, 14.232986751943363], [79.15890550153563, 14.235400351718445], [79.15819932974183, 14.235394905869878]], [[79.01390496991574, 14.2214952783792], [79.01356998318468, 14.219426051522726], [79.01427604548148, 14.219431918487565], [79.01461404530778, 14.221156762882702], [79.01390496991574, 14.2214952783792]], [[79.01815339219868, 14.220152915754356], [79.01712131237943, 14.217044685088787], [79.01324101536012, 14.216668060368143], [79.01254398765876, 14.215629045399083], [79.01327409385694, 14.212879856043], [79.01610126561869, 14.2125589214722], [79.02030755945819, 14.21603786761961], [79.02027459039152, 14.219826087145787], [79.01815339219868, 14.220152915754356]]]]}}, {"type": "Feature", "properties": {"depth_class": 2, "depth_lo_m": 1.0, "t_s": 34200.7627761659}, "geometry": {"type": "MultiPolygon", "coordinates": [[[[79.01991855910141, 14.220167546157368], [79.02030755945819, 14.21603786761961], [79.01680430638004, 14.212909161207792], [79.01398314130499, 14.212541338816678], [79.01291806577964, 14.213221304854397], [79.01254398765876, 14.215629045399083], [79.01324101536012, 14.216668060368143], [79.01712131237943, 14.217044685088787], [79.01815339219868, 14.220152915754356], [79.01991855910141, 14.220167546157368]], [[79.01360606965545, 14.215293465045868], [79.013974124304, 14.213574486052321], [79.01609225821912, 14.213592070037937], [79.01678929857849, 14.214631076117234], [79.01571821188715, 14.215999819776169], [79.01360606965545, 14.215293465045868]]], [[[79.01462607062277, 14.219779233548815], [79.01356998318468, 14.219426051522726], [79.01321093555154, 14.220111881376898], [79.01390496991574, 14.2214952783792], [79.01461404530778, 14.221156762882702], [79.01462607062277, 14.219779233548815]]], [[[79.08045824938183, 14.242359829019556], [79.08259127536635, 14.240654879286183], [79.08509766992145, 14.236541964303713], [79.08512379435601, 14.23344239644641], [79.08442636859944, 14.232403544191364], [79.08124295999274, 14.233066827302784], [79.07733300316185, 14.236135145376954], [79.07728927323237, 14.24130106649824], [79.0786928462487, 14.242345623912906], [79.08045824938183, 14.242359829019556]], [[79.07871324239564, 14.239934859233783], [79.07838347523338, 14.237176857457499], [79.0791012686596, 14.235804959292352], [79.0833526454299, 14.234117026733674], [79.08369118981958, 14.235841841021424], [79.08189675289896, 14.23927162324468], [79.08011972697174, 14.240635012892916], [79.07871324239564, 14.239934859233783]]], [[[79.0737877006566, 14.237828658465554], [79.07272263951344, 14.238508897684582], [79.073064025337, 14.239889323289509], [79.07412325201496, 14.239897871448168], [79.0737877006566, 14.237828658465554]]], [[[79.00833772906743, 14.252445462146259], [79.00941509948971, 14.250388022933905], [79.00871498672052, 14.249693368605776], [79.00554637589181, 14.248633683016322], [79.00833772906743, 14.252445462146259]]], [[[79.00403106415891, 14.260330762553084], [79.00794836078218, 14.256575072963582], [79.00795743364382, 14.255541933234037], [79.00511457630319, 14.257584595537606], [79.00403106415891, 14.260330762553084]]], [[[79.02665312699128, 14.257763831658707], [79.0259529348097, 14.257069218591568], [79.02418747474859, 14.257054595714866], [79.02381937995807, 14.258773585480736], [79.0245195693085, 14.259468204560951], [79.0262850485052, 14.25948282740048], [79.02665312699128, 14.257763831658707]]], [[[79.11968394626669, 14.281247698140884], [79.12287371417875, 14.27989516849599], [79.1264393859671, 14.275790142370887], [79.12647356335513, 14.271657299394652], [79.12577583764367, 14.270618533299462], [79.12471643568904, 14.270610196706524], [79.12364847891735, 14.271635064713587], [79.1204188305119, 14.277809253220108], [79.11722908317445, 14.279161751984772], [79.1165084692896, 14.280878173324057], [79.11968394626669, 14.281247698140884]]], [[[79.17784145377338, 14.426706085688226], [79.18496782825419, 14.419527952812588], [79.18709924577999, 14.418166605508816], [79.1899290489093, 14.4178438918792], [79.19065803820897, 14.415094015589025], [79.19920538199273, 14.406892938124543], [79.20309788612784, 14.406233713178791], [79.20450306599773, 14.407277706508093], [79.205916521635, 14.40728844765759], [79.20592753695531, 14.405910787187118], [79.20452786832774, 14.404177972619964], [79.20454164484683, 14.402455897868816], [79.20881490250478, 14.398355094645876], [79.21132676651973, 14.393551999383918], [79.21523544290156, 14.390826039214376], [79.21632554138432, 14.38704544524945], [79.21987798556324, 14.384661140394163], [79.22237582116607, 14.381579972201086], [79.22805077685722, 14.378867023936904], [79.23052675463228, 14.378541112555718], [79.23159485222386, 14.377515774632535], [79.23232315556577, 14.374765686822027], [79.23409785927117, 14.37374561067435], [79.23692709531967, 14.373422260453381], [79.2479845328041, 14.360071051348381], [79.25116956763394, 14.359405696352727], [79.25508787068472, 14.35530124425014], [79.26005524753486, 14.352582199403757], [79.26326139771548, 14.349161246223433], [79.26645420257833, 14.347462378416484], [79.26718459944047, 14.344367689130989], [79.27003989171581, 14.340599606548135], [79.27007688343427, 14.335777600073637], [79.26833700538745, 14.332320426611497], [79.27084940709517, 14.327172016267214], [79.27086523948547, 14.32510543909545], [79.27193552925226, 14.323735435609183], [79.271590194944, 14.322699575282988], [79.27053046375592, 14.322691859450677], [79.26946281233384, 14.323717426973595], [79.26909636180187, 14.32543699847885], [79.26659453014656, 14.329207674089657], [79.26651247574851, 14.339884957545854], [79.26400245717905, 14.344688861887402], [79.26293731807804, 14.345369955634887], [79.25976048094346, 14.345002215180246], [79.25591974220625, 14.339118416246684], [79.25453866560106, 14.334974907962675], [79.25172593652728, 14.333231972699453], [79.25170724972263, 14.335642953123433], [79.25309628008253, 14.338753194578922], [79.2552025481581, 14.340490925510458], [79.2579967611468, 14.344644818523289], [79.25761952044252, 14.34774206172432], [79.25406003124084, 14.351160329539509], [79.25051648475548, 14.352511980715137], [79.24804348062298, 14.352493713277038], [79.24555438405135, 14.354541964572332], [79.2391978898411, 14.354150376589457], [79.23921942762033, 14.351394993175244], [79.24029272660508, 14.349680748133173], [79.2428381905719, 14.340399649820817], [79.24426734694086, 14.338343568395873], [79.24501675387538, 14.332838004528162], [79.24822546537031, 14.329072818091397], [79.24928521390196, 14.329080636839938], [79.25174461985551, 14.330820991762714], [79.25317629642315, 14.328420412736632], [79.25284971045828, 14.324973550862676], [79.2507489312555, 14.322546963507994], [79.24838042790529, 14.309096133961036], [79.24033149833608, 14.299392233517628], [79.23929334534485, 14.296628994527023], [79.23789129041974, 14.295240834937873], [79.23612800413598, 14.294883322582693], [79.23155803081966, 14.292093846770674], [79.22454291404287, 14.28584164163489], [79.2181911556746, 14.285105294404651], [79.2153847632394, 14.28267318433407], [79.21045943549723, 14.280225131053314], [79.2090603911935, 14.278492412506587], [79.20412704142485, 14.277077501750293], [79.20097869375773, 14.273264914298077], [79.1985121002399, 14.272557396406098], [79.19501625045865, 14.268053242826836], [79.19079777179425, 14.265610191043793], [79.18764430021953, 14.262486300694201], [79.1855640768367, 14.25764836513961], [79.18170454256592, 14.254519041776456], [79.1802892998499, 14.25485268329111], [79.17669995787877, 14.262058403760012], [79.1756377942882, 14.262394711810092], [79.17176168535181, 14.261331712473615], [79.1671905007304, 14.258885577933132], [79.16189364701653, 14.258844801233161], [79.15976932119092, 14.259517278711048], [79.15659681006436, 14.258803907012245], [79.15449489347941, 14.25672105915189], [79.15732543714456, 14.256054085531115], [79.1583931784104, 14.255029037893914], [79.15875747514376, 14.253654122574497], [79.15805683849867, 14.25295984872341], [79.15169800926263, 14.253255088299259], [79.15098336460767, 14.254282841366347], [79.15202867900923, 14.256013097705992], [79.15096371479619, 14.25669370383845], [79.1491981282638, 14.25668000659841], [79.14849751627756, 14.255985707214622], [79.14851719127017, 14.253574847971981], [79.14180243256786, 14.254211485715548], [79.13754813194828, 14.256244871119002], [79.13401699471831, 14.256217265838373], [79.13120060188811, 14.255161928903336], [79.12589825308686, 14.25580917154324], [79.11530781658557, 14.25538128230286], [79.11355373128538, 14.253989716135415], [79.10862174238153, 14.252572960424537], [79.10370421606704, 14.249434111481765], [79.09277272767511, 14.247624864992513], [79.08853273432452, 14.24793535385719], [79.08431017844457, 14.246179390382135], [79.07936987399472, 14.245795257599754], [79.0758302609871, 14.246799994213037], [79.06802426065708, 14.251214327788931], [79.06517309673164, 14.254290959163582], [79.06233362201104, 14.255989981217668], [79.05773745403582, 14.256641417939086], [79.05528053002902, 14.254899323440196], [79.05458615257596, 14.253516004922368], [79.0524705535887, 14.253154325186081], [79.04931641583893, 14.250373245749348], [79.0436848494716, 14.248260655915693], [79.04298462378298, 14.247566089437083], [79.04372936606897, 14.243094841008418], [79.04302915404566, 14.24240027639958], [79.04054575680246, 14.243757546422922], [79.03913345897674, 14.243745946175451], [79.0380861393765, 14.242359694223659], [79.03632375897642, 14.242000789582812], [79.0349025343809, 14.243022323552218], [79.03453455574879, 14.244741345148167], [79.03204512085934, 14.246787287097776], [79.03203019136096, 14.24850921303023], [79.03378067520445, 14.25024569682156], [79.0348399253618, 14.25025442543286], [79.03663513533535, 14.24682510156564], [79.03980987156858, 14.247195615979765], [79.04013916104384, 14.24995361124627], [79.03942109150633, 14.25132535502638], [79.03371501182103, 14.257822174692953], [79.03123438017201, 14.25883493252722], [79.02305914458103, 14.264966623329448], [79.01915995963935, 14.266656281093145], [79.01526977083311, 14.2673127239468], [79.0131390609162, 14.268672590272802], [79.01031117973604, 14.268993396949204], [79.00537980737393, 14.267574545999526], [79.00362945373602, 14.265837866748637], [79.00330365139058, 14.262735500174461], [79.00224132879349, 14.263071002495112], [79.00079249796221, 14.267191697693388], [79.00253372961544, 14.269961531295694], [79.00394009219998, 14.270662126636436], [79.0074742109079, 14.270347307228104], [79.00923370535493, 14.271050826767736], [79.01383320298432, 14.270056001437993], [79.01665507002242, 14.270423916690705], [79.02055433676507, 14.268734311240948], [79.02479765602261, 14.268080710744945], [79.02869983240583, 14.266046574635755], [79.03119251848379, 14.263656317258144], [79.03545065504005, 14.261280583369611], [79.04043573291823, 14.256499860521465], [79.04151285596565, 14.254442241787807], [79.04399340538596, 14.253429364557194], [79.04751838571009, 14.254147073303823], [79.05312353393718, 14.259359098050501], [79.06017085083855, 14.261138616800364], [79.06299569970373, 14.261161587444123], [79.06476711098674, 14.260487144022877], [79.06655612889479, 14.257746334224453], [79.07044611350229, 14.257089013304647], [79.07647513466961, 14.254037967090488], [79.0902576171248, 14.252771050044203], [79.09977112787509, 14.255257987249397], [79.10537766390603, 14.26046893650942], [79.10749922419554, 14.260141365016414], [79.10785808520932, 14.259455367331817], [79.10997676497219, 14.25947217283301], [79.11312613246105, 14.26294135881673], [79.1163099341031, 14.262277692050915], [79.12336378140765, 14.26336660762289], [79.12618876236222, 14.263388833078412], [79.12725382085421, 14.262708350911685], [79.14914753511947, 14.262879358685245], [79.15760580624882, 14.265011475919975], [79.16396219017169, 14.265060528868029], [79.17627755542362, 14.270666040554897], [79.1822810188693, 14.270711920393678], [79.1879175854573, 14.272477041406095], [79.19387720075797, 14.278033299866003], [79.20090756496852, 14.282219779849653], [79.20475416977249, 14.28707096385392], [79.20827502146469, 14.28847525423862], [79.21213277552982, 14.291948669175149], [79.21530057134504, 14.293350214672898], [79.21704750671243, 14.295774399125985], [79.2230544764908, 14.295474907546092], [79.22902369204816, 14.299997179130434], [79.23184391030095, 14.300707051506963], [79.23359108515145, 14.30313114001057], [79.23781076891177, 14.305573560629123], [79.23990857681736, 14.308344656226977], [79.24268340433292, 14.314909635676962], [79.24224974429139, 14.325239756038597], [79.23867162592269, 14.331068777616776], [79.23758496640417, 14.334505142493212], [79.2351013968072, 14.335864453436022], [79.23396068819734, 14.346189236664866], [79.23108312754198, 14.352712177973888], [79.22787648351236, 14.356132633268915], [79.22714279138717, 14.359571553168568], [79.2250230336839, 14.35955568033155], [79.225036608996, 14.357833579787934], [79.2271753302537, 14.355438506664878], [79.22719430647317, 14.35302756217326], [79.2261480184309, 14.35129752935645], [79.21772380153223, 14.344345543654944], [79.2173895998431, 14.341931954350114], [79.21529183028737, 14.3391606630171], [79.21141145073842, 14.338442558489826], [79.2089167659931, 14.341179242052982], [79.20607971907035, 14.342535551580736], [79.20251413900652, 14.3466417986806], [79.20074229954223, 14.347317232585286], [79.20069278901003, 14.353516716294466], [79.1992411206058, 14.358327797758516], [79.1978169510088, 14.359694712343794], [79.19565857746137, 14.364500379555203], [79.1924595634327, 14.366887028861282], [79.18995600212388, 14.370656682359867], [79.18144889863245, 14.37403581228819], [79.17826634908121, 14.374355769553475], [79.17542313088349, 14.376400457939921], [79.17046839849819, 14.377395496272479], [79.1690439403116, 14.378762200833144], [79.17007303755328, 14.382558899875642], [79.1725126589064, 14.386710932155383], [79.17636848918731, 14.390529444366937], [79.17848568919365, 14.390890197152247], [79.18452853884119, 14.386459048532158], [79.19131659298999, 14.377211336216583], [79.1941624668874, 14.374822027328765], [79.1977010977168, 14.374160130600883], [79.20727893207528, 14.36941075159241], [79.20939602087853, 14.369771210758952], [79.21009167157156, 14.371154221947549], [79.21007248711301, 14.373565140243725], [79.2082839777693, 14.376307106121878], [79.20753890560844, 14.381123582287866], [79.1996499048932, 14.395529967564011], [79.19359872540593, 14.400994744961967], [79.19108917850696, 14.405453182708483], [79.18752499546424, 14.409214623169975], [79.18255279921875, 14.412276297014921], [79.17720190408804, 14.418434805084933], [79.17436648432904, 14.41944618043526], [79.17187599375598, 14.4214934810158], [79.17150575486043, 14.423557191419272], [79.17395698452225, 14.426331617314323], [79.17571551156566, 14.427378514794231], [79.17784145377338, 14.426706085688226]], [[79.19318991589508, 14.407880298512572], [79.19571330032903, 14.40169977112801], [79.20176997219512, 14.395546106797095], [79.2039313550958, 14.390396000050863], [79.2060733798591, 14.387656770040442], [79.20644320747006, 14.385592955425963], [79.2089467106901, 14.38182311908521], [79.20969175736165, 14.377006635527492], [79.2114802574338, 14.374264657814072], [79.21151311870844, 14.370131651757879], [79.20940972583044, 14.368049126403028], [79.20587395274634, 14.368366797572856], [79.19629890469926, 14.372771707552134], [79.1913498317256, 14.37307837713077], [79.19386446231839, 14.36793105432091], [79.1981371574369, 14.36383037906092], [79.19886579277826, 14.361080433372518], [79.20065151215579, 14.358682950118517], [79.2021031546932, 14.353871856898813], [79.20214438384605, 14.34870561684822], [79.20498701772699, 14.346660533560824], [79.20713128864013, 14.343576817368042], [79.20890308399848, 14.342901329837893], [79.21175105025964, 14.340167312607871], [79.21316408997296, 14.340177961672401], [79.21527001932104, 14.341916013441484], [79.21525638511292, 14.34363810711579], [79.21311767745019, 14.3460330732011], [79.21310402271928, 14.347755164250048], [79.21768294248639, 14.349511829765603], [79.22227281352053, 14.349890735480303], [79.22508003788921, 14.352322856285257], [79.2254143252335, 14.354736444010978], [79.22327287726232, 14.357475919797025], [79.22289784146837, 14.360228627900266], [79.22535460652622, 14.36231368797285], [79.22712109305148, 14.362326916664728], [79.22818911838758, 14.361301585737221], [79.2289255126567, 14.357518241018008], [79.23142559380467, 14.354092500336353], [79.23389859332701, 14.354110943124459], [79.23953233131537, 14.356563961674935], [79.24412511800342, 14.356598040727771], [79.25475859688287, 14.352198810544587], [79.25974452383268, 14.347068776692618], [79.26292404457492, 14.3470920931171], [79.26291607962693, 14.348125375480823], [79.26042183406138, 14.350862658353952], [79.25368004514114, 14.354601983055714], [79.25118026797989, 14.358027996467412], [79.24728598069512, 14.359032551791108], [79.23980483213131, 14.3668992698555], [79.23658457918184, 14.37204194096834], [79.2316273517045, 14.373382724389494], [79.22983095356928, 14.37715814518496], [79.22132401654395, 14.38053874861695], [79.21882618116578, 14.383619905626967], [79.21705407093395, 14.384295431582693], [79.21491767722385, 14.386345946253053], [79.21382756065005, 14.39012653159436], [79.20991888321373, 14.39285246805865], [79.20776584807223, 14.396969394553569], [79.20313924927306, 14.401067493099108], [79.20170099955435, 14.404156469796453], [79.19851524824135, 14.404821066283487], [79.19566899474592, 14.407210382914995], [79.19318991589508, 14.407880298512572]], [[79.26795465554478, 14.336106565101812], [79.26865853992238, 14.336456150728095], [79.26829205121986, 14.338175716218142], [79.26759080841698, 14.337481700414513], [79.26795465554478, 14.336106565101812]], [[79.2465261100435, 14.320449149104972], [79.2475965090785, 14.319079269084249], [79.24865353908606, 14.319431510954283], [79.24863216640638, 14.322186915765831], [79.24721653808678, 14.322520916031527], [79.2465261100435, 14.320449149104972]], [[79.24621032144934, 14.31562458761925], [79.24308751839358, 14.308368176340641], [79.23818276997089, 14.303165209746851], [79.23537055736831, 14.30142213587468], [79.2329223561949, 14.29830396502395], [79.22939846506613, 14.297244427939402], [79.22377167836125, 14.294102496457437], [79.22059567960366, 14.293734320108992], [79.21883787078566, 14.292687842256223], [79.21849281961026, 14.291651935400756], [79.22097865733407, 14.289948327520182], [79.2217039680472, 14.287542656933242], [79.2234725695586, 14.287211423477642], [79.2248663770891, 14.2896329193201], [79.22803154461177, 14.291378723449334], [79.23013180599847, 14.293805456649094], [79.23787787463525, 14.296962956539494], [79.23856549169273, 14.299379159584023], [79.24730474444223, 14.31115487583054], [79.24691677756408, 14.315629801849687], [79.24621032144934, 14.31562458761925]], [[79.21006815055372, 14.285044349405975], [79.20655006359503, 14.283295671310501], [79.20480059965571, 14.281215850227339], [79.19565122896147, 14.277013435266017], [79.19109318329153, 14.272845613493738], [79.18899905446597, 14.26972977153062], [79.18901281489201, 14.268007692095956], [79.19078127822146, 14.267676688795374], [79.19359544034512, 14.269075788917078], [79.19779209902403, 14.274274141211547], [79.19990555173887, 14.274978999625601], [79.20376022439129, 14.278796930509529], [79.20728367220865, 14.279856801718628], [79.2107853856382, 14.283671981649455], [79.21077721949597, 14.284705240399472], [79.21006815055372, 14.285044349405975]], [[79.04225766745108, 14.24997100697563], [79.04437320898043, 14.250332771588157], [79.04471739259871, 14.251368829154876], [79.04224281194007, 14.251692943031193], [79.04225766745108, 14.24997100697563]], [[79.07615415625025, 14.250246783653834], [79.07686617757466, 14.249563689201029], [79.07933781840538, 14.249583601473912], [79.08003234756815, 14.250966865845381], [79.07932032956941, 14.251649970324008], [79.07684866626666, 14.251630055045561], [79.07615415625025, 14.250246783653834]]], [[[79.15857195433291, 14.232986751943363], [79.1575210856344, 14.23194534967712], [79.1561087649173, 14.231934450296858], [79.156100381072, 14.232967682060588], [79.15819932974183, 14.235394905869878], [79.15890550153563, 14.235400351718445], [79.15857195433291, 14.232986751943363]]], [[[79.16797739953986, 14.248903050213649], [79.16974849872842, 14.248227775680991], [79.16975682983691, 14.247194537293586], [79.16765209216369, 14.245456214423161], [79.16412106248706, 14.245429074874345], [79.16340928492895, 14.246112463951775], [79.16375403075752, 14.247148416435222], [79.16586153143994, 14.248542359767542], [79.16797739953986, 14.248903050213649]]], [[[79.25958723863093, 14.275767026685976], [79.25889149066302, 14.274384148975665], [79.25818515877516, 14.274378984936213], [79.25853038181144, 14.275414853471725], [79.25958723863093, 14.275767026685976]]], [[[79.25038626401482, 14.278110741787053], [79.2511165377506, 14.27501608426265], [79.25041552667676, 14.27432204242731], [79.24900819383086, 14.273622808004427], [79.24723705070461, 14.274298674805264], [79.24756623426418, 14.27740111362894], [79.25038626401482, 14.278110741787053]]], [[[79.20317182460032, 14.308414205055957], [79.20671757716342, 14.306718791110885], [79.20743491624994, 14.30534644622631], [79.20853819647685, 14.299843736101518], [79.20395485965791, 14.298775848337161], [79.200066993811, 14.299090892655027], [79.19935237988811, 14.300118796119374], [79.2035879858641, 14.300495269586794], [79.20247088676781, 14.307720028776341], [79.20317182460032, 14.308414205055957]], [[79.20532662838464, 14.303952784530244], [79.2053156906778, 14.305330456369097], [79.20460928273597, 14.305325122223591], [79.20461748935001, 14.304291868761304], [79.20532662838464, 14.303952784530244]]], [[[79.2264864429322, 14.308244880893316], [79.22508982176022, 14.306167804532093], [79.22051166572352, 14.304411370938181], [79.21768602364845, 14.304390203675066], [79.21625689688358, 14.306446127492714], [79.2169388564404, 14.309551207974383], [79.22153876192138, 14.308552351634308], [79.22611971220266, 14.309964353752909], [79.2264864429322, 14.308244880893316]]], [[[79.2600260585048, 14.310559467865705], [79.26074840976061, 14.308498070294341], [79.25934349031102, 14.307454443181225], [79.25757740268465, 14.307441503257433], [79.25650977967902, 14.308467015287874], [79.25720027930659, 14.310538761414604], [79.2600260585048, 14.310559467865705]]], [[[79.26490239653661, 14.319550771315697], [79.26421710009903, 14.316790180828873], [79.26280151857415, 14.317124280633122], [79.2627882712807, 14.31884642207941], [79.2638400356896, 14.319887455742679], [79.26490239653661, 14.319550771315697]]], [[[79.23623387003005, 14.326572913660705], [79.23731511786787, 14.323825397619913], [79.23733394226394, 14.321414433473032], [79.23455114465807, 14.315882673011085], [79.2352279914477, 14.319676577215015], [79.23448920721675, 14.323804402185463], [79.23553815403669, 14.325189971664058], [79.23550583975143, 14.329323047421397], [79.23657096539517, 14.328642076826847], [79.23623387003005, 14.326572913660705]]]]}}, {"type": "Feature", "properties": {"depth_class": 3, "depth_lo_m": 2.0, "t_s": 34200.7627761659}, "geometry": {"type": "MultiPolygon", "coordinates": [[[[79.0164272670522, 14.215661296171254], [79.01678929857849, 14.214631076117234], [79.01609225821912, 14.213592070037937], [79.01361809590493, 14.213915935883495], [79.01430610767282, 14.21598809505003], [79.0164272670522, 14.215661296171254]]], [[[79.08082879363903, 14.240296296208783], [79.08332940140221, 14.23687219518332], [79.0833526454299, 14.234117026733674], [79.0791012686596, 14.235804959292352], [79.07838347523338, 14.237176857457499], [79.07871324239564, 14.239934859233783], [79.07941357098738, 14.240629332086813], [79.08082879363903, 14.240296296208783]]], [[[79.04471739259871, 14.251368829154876], [79.04367000664261, 14.249982593691804], [79.04225766745108, 14.24997100697563], [79.04189863981507, 14.250656883300001], [79.04224281194007, 14.251692943031193], [79.04471739259871, 14.251368829154876]]], [[[79.21077721949597, 14.284705240399472], [79.2107853856382, 14.283671981649455], [79.20728367220865, 14.279856801718628], [79.20376022439129, 14.278796930509529], [79.19990555173887, 14.274978999625601], [79.19779209902403, 14.274274141211547], [79.19359544034512, 14.269075788917078], [79.19078127822146, 14.267676688795374], [79.18901281489201, 14.268007692095956], [79.18899905446597, 14.26972977153062], [79.19109318329153, 14.272845613493738], [79.19565122896147, 14.277013435266017], [79.20480059965571, 14.281215850227339], [79.20760412006506, 14.283992489056264], [79.21006815055372, 14.285044349405975], [79.21077721949597, 14.284705240399472]]], [[[79.24691677756408, 14.315629801849687], [79.24695686769684, 14.310463419194397], [79.24520146703566, 14.309072683451893], [79.24241590357207, 14.303885430016201], [79.23996221190629, 14.301456167278495], [79.23787787463525, 14.296962956539494], [79.23013180599847, 14.293805456649094], [79.22803154461177, 14.291378723449334], [79.2248663770891, 14.2896329193201], [79.2234725695586, 14.287211423477642], [79.2217039680472, 14.287542656933242], [79.22097865733407, 14.289948327520182], [79.21849281961026, 14.291651935400756], [79.21883787078566, 14.292687842256223], [79.22059567960366, 14.293734320108992], [79.22377167836125, 14.294102496457437], [79.22939846506613, 14.297244427939402], [79.2329223561949, 14.29830396502395], [79.23537055736831, 14.30142213587468], [79.23818276997089, 14.303165209746851], [79.24308751839358, 14.308368176340641], [79.24448165307216, 14.31078959219518], [79.24550921619827, 14.314930520928328], [79.24691677756408, 14.315629801849687]]], [[[79.2049734265271, 14.303950117986966], [79.20461748935001, 14.304291868761304], [79.20460928273597, 14.305325122223591], [79.2053156906778, 14.305330456369097], [79.2049734265271, 14.303950117986966]]], [[[79.24863216640638, 14.322186915765831], [79.24900143185656, 14.320122966773361], [79.2475965090785, 14.319079269084249], [79.2465261100435, 14.320449149104972], [79.24651541050308, 14.32182684990226], [79.24721653808678, 14.322520916031527], [79.24863216640638, 14.322186915765831]]], [[[79.26865853992238, 14.336456150728095], [79.26759874579272, 14.336448414557335], [79.2679387838156, 14.338173137171971], [79.26864796308055, 14.337833865957622], [79.26865853992238, 14.336456150728095]]], [[[79.19318991589508, 14.407880298512572], [79.19851524824135, 14.404821066283487], [79.2024132336349, 14.403473019604224], [79.20313924927306, 14.401067493099108], [79.20776584807223, 14.396969394553569], [79.20991888321373, 14.39285246805865], [79.21382756065005, 14.39012653159436], [79.21491767722385, 14.386345946253053], [79.21705407093395, 14.384295431582693], [79.21882618116578, 14.383619905626967], [79.22132401654395, 14.38053874861695], [79.22983095356928, 14.37715814518496], [79.2316273517045, 14.373382724389494], [79.23658457918184, 14.37204194096834], [79.23980483213131, 14.3668992698555], [79.24728598069512, 14.359032551791108], [79.25118026797989, 14.358027996467412], [79.25368004514114, 14.354601983055714], [79.26042183406138, 14.350862658353952], [79.26291607962693, 14.348125375480823], [79.26292404457492, 14.3470920931171], [79.25974452383268, 14.347068776692618], [79.25475859688287, 14.352198810544587], [79.24412511800342, 14.356598040727771], [79.23953233131537, 14.356563961674935], [79.23389859332701, 14.354110943124459], [79.23142559380467, 14.354092500336353], [79.2289255126567, 14.357518241018008], [79.22818911838758, 14.361301585737221], [79.22712109305148, 14.362326916664728], [79.22535460652622, 14.36231368797285], [79.22289784146837, 14.360228627900266], [79.22327287726232, 14.357475919797025], [79.2254143252335, 14.354736444010978], [79.22508003788921, 14.352322856285257], [79.22227281352053, 14.349890735480303], [79.21768294248639, 14.349511829765603], [79.21310402271928, 14.347755164250048], [79.21311767745019, 14.3460330732011], [79.21525638511292, 14.34363810711579], [79.21527001932104, 14.341916013441484], [79.21316408997296, 14.340177961672401], [79.21175105025964, 14.340167312607871], [79.20890308399848, 14.342901329837893], [79.20713128864013, 14.343576817368042], [79.20498701772699, 14.346660533560824], [79.20214438384605, 14.34870561684822], [79.2021031546932, 14.353871856898813], [79.20065151215579, 14.358682950118517], [79.19886579277826, 14.361080433372518], [79.1981371574369, 14.36383037906092], [79.19386446231839, 14.36793105432091], [79.19135537048665, 14.372389550469103], [79.19170037023545, 14.373425489986015], [79.19629890469926, 14.372771707552134], [79.20693660627946, 14.368030410393386], [79.20940972583044, 14.368049126403028], [79.21151311870844, 14.370131651757879], [79.2114802574338, 14.374264657814072], [79.20969175736165, 14.377006635527492], [79.2089467106901, 14.38182311908521], [79.20716085813847, 14.384220649431045], [79.2060733798591, 14.387656770040442], [79.2039313550958, 14.390396000050863], [79.20176997219512, 14.395546106797095], [79.19499828481966, 14.40272761264805], [79.19318991589508, 14.407880298512572]], [[79.2373586592351, 14.363436650459384], [79.2317356086291, 14.35960587932573], [79.23210512815865, 14.357541987512501], [79.2345781664577, 14.357560427543309], [79.23739371598356, 14.35895916001777], [79.24304374421884, 14.359345572145292], [79.24232370815348, 14.361062447253188], [79.24019853421362, 14.361735554336338], [79.2387745594948, 14.363102741129275], [79.2373586592351, 14.363436650459384]]]]}}, {"type": "Feature", "properties": {"depth_class": 4, "depth_lo_m": 3.0, "t_s": 34200.7627761659}, "geometry": {"type": "Polygon", "coordinates": [[[79.2373586592351, 14.363436650459384], [79.2317356086291, 14.35960587932573], [79.23210512815865, 14.357541987512501], [79.2345781664577, 14.357560427543309], [79.23739371598356, 14.35895916001777], [79.24304374421884, 14.359345572145292], [79.24232370815348, 14.361062447253188], [79.2373586592351, 14.363436650459384]]]}}]}