{"type": "FeatureCollection", "features": [{"type": "Feature", "properties": {"depth_class": 1, "depth_lo_m": 0.3, "t_s": 53100.530813527286}, "geometry": {"type": "MultiPolygon", "coordinates": [[[[79.01353388512965, 14.223558636483885], [79.01637921620154, 14.22117142042738], [79.0195505306757, 14.221886537873932], [79.02168672354301, 14.21983777971867], [79.02171966913033, 14.216049556950844], [79.02102559621225, 14.214666178048029], [79.01646329169536, 14.211528701211513], [79.01293009436576, 14.211843776031177], [79.01150297172912, 14.213553947723556], [79.01148190310485, 14.215964620613429], [79.01217892634699, 14.21700363815606], [79.01145480907574, 14.21906405642834], [79.01178676525986, 14.221477665450031], [79.01353388512965, 14.223558636483885]], [[79.01815339219868, 14.220152915754356], [79.01641525626744, 14.217038827487833], [79.01324101536012, 14.216668060368143], [79.01254398765876, 14.215629045399083], [79.01291806577964, 14.213221304854397], [79.01610126561869, 14.2125589214722], [79.01819839683871, 14.214987168333762], [79.02030755945819, 14.21603786761961], [79.02027459039152, 14.219826087145787], [79.01815339219868, 14.220152915754356]]], [[[79.16062352043404, 14.241268949343576], [79.16141054658739, 14.231286456682], [79.16388767401897, 14.23061664514664], [79.16425466223365, 14.228897297796511], [79.16320934656169, 14.227167095131888], [79.16074340297509, 14.226459257530584], [79.15898919719153, 14.225068015579426], [79.15722384841197, 14.225054407334662], [79.15543614648841, 14.227796071131706], [79.15331770701934, 14.227779705115275], [79.15189701514774, 14.228802013680765], [79.15187180994066, 14.23190170211306], [79.15291145065518, 14.234320765836308], [79.15572493499282, 14.235720239400475], [79.15673947518127, 14.24123898722351], [79.15814347395816, 14.242283121995076], [79.15990895746806, 14.242296739560603], [79.16062352043404, 14.241268949343576]], [[79.15890271052439, 14.235744762761133], [79.156100381072, 14.232967682060588], [79.1561087649173, 14.231934450296858], [79.1582244551067, 14.232295207249601], [79.15890271052439, 14.235744762761133]]], [[[79.08080259749353, 14.243395854468023], [79.08293272458654, 14.242035298481827], [79.08615688849888, 14.236550457131123], [79.08618589922843, 14.233106490654498], [79.0847881424665, 14.231373186487032], [79.08231669182003, 14.231353355484158], [79.07805953813532, 14.233730065580076], [79.07591488787189, 14.236812557760208], [79.07274309327181, 14.236098140722714], [79.07095434940977, 14.23883903260281], [79.07128987468195, 14.240908246338718], [79.07269633620243, 14.241608441593625], [79.07587695978953, 14.241289685538279], [79.07868410387526, 14.243378808617868], [79.08080259749353, 14.243395854468023]], [[79.07799834522582, 14.240962359037873], [79.07730676730729, 14.239234698333235], [79.07804497150944, 14.235452040632822], [79.08265813278273, 14.232733774121671], [79.0840703986884, 14.232745108307421], [79.08477072646167, 14.233439565102909], [79.08474750077714, 14.236194736003176], [79.08295307527833, 14.239624527726834], [79.08081715168525, 14.241673877762336], [79.07799834522582, 14.240962359037873]]], [[[79.11821835883717, 14.245071512487145], [79.12036827828598, 14.241299773694987], [79.1203882306469, 14.238888950273804], [79.11829540661789, 14.235772633775452], [79.11653001572947, 14.235758714744671], [79.11401843811802, 14.240560836186502], [79.11400413678402, 14.242282846396957], [79.11680598822896, 14.245060370735448], [79.11821835883717, 14.245071512487145]]], [[[79.04293710517128, 14.253076287399722], [79.04507047997257, 14.251371723254984], [79.0450793804388, 14.250338559873459], [79.0422784618348, 14.247560296055628], [79.04302321770804, 14.243089051608068], [79.03983366113368, 14.244440521154072], [79.03773901955564, 14.241668018523457], [79.03597366669133, 14.241653498239108], [79.02991769009549, 14.247802958800772], [79.03061189458985, 14.249186328318268], [79.03236834277676, 14.250234051367446], [79.03270948341536, 14.251614504445456], [79.0341188410756, 14.251970534483263], [79.03625226001962, 14.250266056275514], [79.0373412926026, 14.246830911350461], [79.0401688982107, 14.246509742721383], [79.04086911133884, 14.247204316007057], [79.04082154263816, 14.25271450713916], [79.04293710517128, 14.253076287399722]], [[79.03310435377429, 14.246796021339028], [79.0345196473599, 14.24646327395949], [79.03485781723595, 14.248188111083739], [79.03308943229895, 14.248517948370273], [79.03310435377429, 14.246796021339028]]], [[[79.02697625901483, 14.261210591727911], [79.0283976380118, 14.260189125733856], [79.02876570278754, 14.258470124908133], [79.02702119820533, 14.256044834396468], [79.02455556226504, 14.255335604427632], [79.02207192835726, 14.256692648188968], [79.0220509053966, 14.259103327882938], [79.02345127789235, 14.260492573724974], [79.0252107656334, 14.261195972272752], [79.02697625901483, 14.261210591727911]], [[79.02381937995807, 14.258773585480736], [79.02418747474859, 14.257054595714866], [79.02559984263743, 14.257066295060401], [79.02665013066988, 14.258108215428424], [79.02593195250584, 14.259479903876935], [79.02381937995807, 14.258773585480736]]], [[[79.04956882551404, 14.262085344424321], [79.05029280250766, 14.260024790549565], [79.04889520938893, 14.258291293364268], [79.04607338689839, 14.25792377245424], [79.04536125543804, 14.258606759378878], [79.04463427221272, 14.26101168077398], [79.04567873810072, 14.262742305634553], [79.04850358252169, 14.262765450493285], [79.04956882551404, 14.262085344424321]]], [[[79.08311707004823, 14.262013076241544], [79.08349346713261, 14.259260752706338], [79.08279307445079, 14.258566284081496], [79.08067443677503, 14.258549238154322], [79.0785441306088, 14.259909751037718], [79.0785324580722, 14.261287328479622], [79.080286345286, 14.262679131955288], [79.08311707004823, 14.262013076241544]]], [[[79.1279230926934, 14.267191152299581], [79.13040636143134, 14.265832940949894], [79.13041772272837, 14.264455322508812], [79.1282932845239, 14.265127501319938], [79.1279230926934, 14.267191152299581]]], [[[79.09396800441786, 14.273465963502773], [79.09467716494729, 14.273127216726959], [79.0939709018108, 14.273121566390515], [79.09396800441786, 14.273465963502773]]], [[[79.12180284419388, 14.281264423547109], [79.12357715645156, 14.280245138577072], [79.12749881318325, 14.2757984742617], [79.12753012518282, 14.272010032622791], [79.12614036304518, 14.26924369661028], [79.12330104852019, 14.27094347697329], [79.11970968297997, 14.278148079514503], [79.11651992759397, 14.279500567631631], [79.1165056045226, 14.281222574720898], [79.1179124746183, 14.281922549239617], [79.12180284419388, 14.281264423547109]]], [[[79.10417139460901, 14.278024878952735], [79.1024056894136, 14.278010814823002], [79.10203523060076, 14.280074391835095], [79.10380095149947, 14.2800884606991], [79.10417139460901, 14.278024878952735]]], [[[79.18785421334655, 14.28039859685828], [79.18716718882723, 14.277982313371297], [79.18504824319882, 14.277966173142277], [79.18432812264312, 14.27968286240978], [79.185028921884, 14.280377076955276], [79.18785421334655, 14.28039859685828]]], [[[79.19764678599365, 14.29252824908574], [79.1976605035397, 14.290806164692729], [79.19660919871704, 14.289764886399414], [79.19413695417299, 14.289746137167953], [79.19342510000325, 14.290429607771392], [79.19410946575748, 14.293190299287081], [79.19693493133721, 14.293211730262472], [79.19764678599365, 14.29252824908574]]], [[[79.27957660071428, 14.294512622261415], [79.2788754390737, 14.293818648679363], [79.27781321721189, 14.294155412227022], [79.27815068758524, 14.296224559394753], [79.27921029896723, 14.296232227347893], [79.27957660071428, 14.294512622261415]]], [[[79.18664846377723, 14.298644518089409], [79.18631184571842, 14.296575337540437], [79.18454591333692, 14.296561865180681], [79.18383400972073, 14.297245300746917], [79.18417060489539, 14.29931448213339], [79.18593655839467, 14.29932795981591], [79.18664846377723, 14.298644518089409]]], [[[79.26072455018294, 14.31159792356362], [79.2624986190092, 14.310577558479604], [79.26216128871337, 14.308508405185004], [79.26075901218293, 14.30712035745869], [79.25793858425874, 14.306410809141749], [79.25509690524713, 14.308456646840996], [79.25507562818719, 14.311212063705105], [79.26072455018294, 14.31159792356362]]], [[[79.23311129437037, 14.31931639687397], [79.23418445439765, 14.317602162912502], [79.23313015745406, 14.31690543729668], [79.23136132367065, 14.317236716678046], [79.23169836989608, 14.319305881585604], [79.23311129437037, 14.31931639687397]]], [[[79.26594359356821, 14.321969512109872], [79.26701124990213, 14.320943961143513], [79.2663417881508, 14.316116799898797], [79.26459150326686, 14.31403733211842], [79.26247213067263, 14.314021842448671], [79.26069007625873, 14.316075487903339], [79.26101943901709, 14.31917792562154], [79.26346560532718, 14.322640299848901], [79.26594359356821, 14.321969512109872]]], [[[79.23656827383134, 14.328986499956638], [79.23659518624972, 14.325542268187617], [79.23766835702125, 14.323828019687271], [79.2376871776497, 14.321417055080822], [79.23557853239556, 14.320023624847678], [79.23379889797536, 14.321732611355667], [79.23378542506676, 14.323454725317193], [79.23553546157336, 14.325534394701416], [79.23481551003935, 14.327251257458263], [79.23514720461947, 14.33000926683454], [79.23656827383134, 14.328986499956638]]], [[[79.20078023113243, 14.47475849361315], [79.20538918200329, 14.473071538578079], [79.21001463409374, 14.469318000727464], [79.21287815600775, 14.464862108075073], [79.21325915052209, 14.461420643530227], [79.2097549888102, 14.457605229067523], [79.20092445050972, 14.456849047211527], [79.19846146430376, 14.455452479957165], [79.1967192693943, 14.45233924447338], [79.19638805507248, 14.449581241871124], [79.19464036828099, 14.447156821828326], [79.19465982144033, 14.444745939018537], [79.19821067297813, 14.442706516444696], [79.1978738939245, 14.440637338542603], [79.19505768456511, 14.439238054385337], [79.19081674222846, 14.439205540360456], [79.18694595695862, 14.437109205382724], [79.18483947501502, 14.435370836111364], [79.18310319217898, 14.431568715031252], [79.18028440604613, 14.430513686913267], [79.18065458517047, 14.428449955724691], [79.1831506775797, 14.425713742801301], [79.18387420294104, 14.423652722775278], [79.1874359149973, 14.420235787021166], [79.19132032967286, 14.420610023786008], [79.19274218934473, 14.41958761693658], [79.19277550400834, 14.415454669366092], [79.19990105335842, 14.408275981252423], [79.2023801253011, 14.407605993365134], [79.20554387420697, 14.409696668111792], [79.20766958557495, 14.409023939235194], [79.20840107195914, 14.405929561999042], [79.20629741642416, 14.403846979464118], [79.20630567421236, 14.402813733610408], [79.21058165620387, 14.398368479408418], [79.21237857302863, 14.394593268054164], [79.21664606903484, 14.391181121831993], [79.21773341506832, 14.387744936830806], [79.21915767669051, 14.386377911966797], [79.22057373948113, 14.386044131859256], [79.22378368585565, 14.382279426281071], [79.22803991862621, 14.380244704208836], [79.23122527321011, 14.379579658048995], [79.23264940476868, 14.378212535653613], [79.2337310182204, 14.375465080718804], [79.23798164956811, 14.374118997623205], [79.23976171780997, 14.372410030558614], [79.24155252709873, 14.369323355339336], [79.24618047608762, 14.364879915411011], [79.24797381132018, 14.361448748634414], [79.25258008504893, 14.359760549524854], [79.25543315848955, 14.356337122986204], [79.26040055637306, 14.35361807323313], [79.26325077810907, 14.350538956028371], [79.26573173436635, 14.34952377873026], [79.26751139985409, 14.347814553808215], [79.26860035337896, 14.344033582419529], [79.27073586770534, 14.341982474986086], [79.27146090001835, 14.339576621070588], [79.27148730041618, 14.336132328050313], [79.2700927328154, 14.333711025242874], [79.27011122056578, 14.331300020797956], [79.27225977360507, 14.327526733992055], [79.27227032047813, 14.326149014930953], [79.27334060815905, 14.324779004819998], [79.27616922006017, 14.324455108827848], [79.27971744619796, 14.32241414181509], [79.28115140294847, 14.319668921316628], [79.2832813231727, 14.318306522346594], [79.28472043815148, 14.31487240693638], [79.28477534697248, 14.307639324757115], [79.28657540244056, 14.303174434070348], [79.28625873244589, 14.298349825519429], [79.28767939014502, 14.297326701537834], [79.28768981994999, 14.295948967783723], [79.28593945439462, 14.293869649397106], [79.28564365874298, 14.28628957275838], [79.2814393782925, 14.281781383369172], [79.27791280293893, 14.281066999322311], [79.274046202247, 14.278627848347256], [79.2687617412015, 14.276867240101414], [79.26666116003962, 14.274440815332767], [79.26136629768624, 14.274057777348032], [79.25927111764132, 14.270942440722392], [79.25681488999244, 14.268857794165523], [79.25683343174236, 14.26644679364495], [79.25578722230347, 14.264716899300485], [79.2558057693696, 14.262305899268613], [79.25687844729165, 14.260591504541546], [79.25655972001509, 14.256111347035416], [79.2533920954789, 14.254710376970767], [79.25234330473891, 14.253324903300681], [79.25128390909795, 14.253317138560107], [79.25021654559163, 14.25434265259957], [79.2501979499354, 14.25675364702149], [79.25300713133645, 14.258840929660463], [79.25084312406824, 14.264680666692266], [79.25328863211847, 14.268143076125186], [79.25325943067416, 14.271931783278228], [79.25113780685123, 14.272260664878573], [79.24797533635356, 14.270170748735337], [79.24656270737945, 14.270160356844794], [79.24513941080681, 14.271527662177885], [79.24544989205694, 14.27704108502108], [79.2461455594325, 14.278423993301145], [79.25072081185826, 14.280524326591975], [79.25393124517299, 14.276414524115628], [79.25640342460488, 14.276432635763305], [79.25957136021059, 14.2778336000177], [79.26166659716905, 14.280948939986441], [79.26343248190092, 14.280961826158817], [79.26414675679588, 14.279933688102657], [79.26873277991642, 14.28065597573539], [79.27612068000076, 14.284498537857765], [79.27894354387695, 14.284863415150035], [79.28315304525788, 14.288682782704347], [79.28312168624333, 14.292815976129704], [79.28415516038204, 14.296267948788413], [79.2816277658051, 14.303483178223368], [79.28155967482593, 14.312438410438478], [79.28012840148234, 14.314839209143319], [79.27728677696282, 14.316885321662475], [79.27584753774991, 14.320319377382717], [79.27442931022514, 14.320997976228044], [79.27054365572063, 14.320969711476637], [79.26841628673029, 14.321987555229834], [79.26445646780326, 14.331603183901569], [79.26509674698364, 14.340219054480023], [79.26367040456208, 14.341930853588478], [79.26330386486163, 14.34365040532882], [79.26117890178448, 14.344323727298539], [79.25699019139077, 14.337748499469663], [79.25490791300629, 14.332910948133845], [79.25425469469656, 14.326017223890103], [79.25146874802616, 14.320830036221256], [79.25114751964314, 14.316694321764551], [79.24975861702039, 14.313584081876595], [79.24978796599648, 14.309795395061148], [79.24139110317863, 14.299400071590401], [79.23965458378957, 14.29559833484421], [79.23191121929473, 14.29209647170105], [79.23086242580789, 14.29071090275439], [79.22734405779966, 14.288962504146511], [79.22454831678577, 14.285152797363688], [79.21890021560456, 14.284766159793742], [79.21609381828713, 14.282334057624828], [79.21046215721053, 14.279880711411185], [79.20835951462148, 14.277798260653105], [79.20378207526501, 14.276041582894553], [79.2023831088172, 14.274308833519465], [79.20240496927367, 14.271553486958892], [79.20134551724797, 14.271545490493057], [79.20098689775301, 14.27223166012584], [79.19816442637493, 14.271865890414393], [79.19466859311189, 14.267361733551871], [79.18974935501859, 14.264224481686268], [79.18521370658661, 14.25730126229167], [79.18099277943884, 14.25520248577689], [79.1788961692884, 14.252431000854648], [79.17502574236833, 14.250679244717809], [79.17292924660484, 14.24790771998653], [79.17081614954844, 14.247202660612263], [79.16766043112094, 14.244422977012334], [79.16271701412236, 14.244384969902878], [79.16233603409786, 14.247826365283736], [79.16338420492761, 14.249212168054196], [79.16584761497397, 14.25026441973283], [79.17150571622751, 14.249274552272961], [79.17359388700396, 14.253079328848415], [79.17641605229232, 14.253445357831263], [79.17993341636614, 14.255194403187469], [79.17992236335402, 14.256572061271978], [79.17742836422418, 14.25930849358997], [79.1763495968569, 14.26171128880162], [79.1724679432039, 14.261337127859942], [79.17036584257141, 14.259254400129382], [79.16543602386281, 14.257494352125606], [79.16083427828362, 14.258836631790599], [79.15765617611154, 14.258812095258023], [79.15696112630638, 14.257428996891061], [79.16051746302891, 14.254356567881889], [79.1601811035751, 14.252287379388065], [79.15807081681135, 14.251237796705187], [79.15630526561894, 14.251224157177367], [79.15453131347493, 14.252243733781812], [79.15100020438082, 14.252216387410591], [79.15102826467518, 14.248772296647056], [79.15032766775767, 14.248078004482615], [79.14820623550241, 14.248405978891922], [79.14749159442616, 14.24943372182049], [79.14781659001027, 14.252880547827932], [79.14180525330124, 14.253867078543673], [79.13719501788538, 14.256242112940779], [79.133663881411, 14.256214502438295], [79.131906824307, 14.2551674620744], [79.12483892022853, 14.255800843955683], [79.12202258898716, 14.254745404377086], [79.1149604317366, 14.254689687691044], [79.11320635370063, 14.253298119812287], [79.10932794755672, 14.252578559441652], [79.10300090158984, 14.249084097413885], [79.08747636302373, 14.247582468392096], [79.08431017844457, 14.246179390382135], [79.07866078745423, 14.246133967368962], [79.07547425439218, 14.247141540654024], [79.07263786175521, 14.248496313900366], [79.06729460908112, 14.253963745508349], [79.06197463909972, 14.25667589397202], [79.0587908545751, 14.25733882487281], [79.05526281533508, 14.25696566191981], [79.04895444630993, 14.251403523911081], [79.04719196956977, 14.251044688676041], [79.04718011433063, 14.25242224149212], [79.05277930303423, 14.258323046836917], [79.05666045532915, 14.258699127084453], [79.05877022076922, 14.259749557610698], [79.06336057079959, 14.259786891337097], [79.0662088994208, 14.257054686778966], [79.06974284107196, 14.256738904760297], [79.0729412317832, 14.254353855498819], [79.07647805449646, 14.253693572954523], [79.07648389391632, 14.253004784651065], [79.0736620479064, 14.252637592953187], [79.07403268172864, 14.250574082255717], [79.07687493217666, 14.248530506136905], [79.07969965202642, 14.248553259215452], [79.08181237383813, 14.249259092829938], [79.08215091366114, 14.250983908607429], [79.0793144993348, 14.252338759856645], [79.07860247460344, 14.253021861305179], [79.0793028379316, 14.25371633879582], [79.0814214287773, 14.253733391251803], [79.08496695348593, 14.252039790836395], [79.08744153581745, 14.251715226166848], [79.09377703745909, 14.25417688698331], [79.09907068981826, 14.254563561578237], [79.10223998280077, 14.255622069272933], [79.10364089073725, 14.257010903521762], [79.1036236137375, 14.259077300469203], [79.10467143579336, 14.260463322762266], [79.10679012105263, 14.260480157735985], [79.10821694385123, 14.258769368801131], [79.10998250515749, 14.258783371375658], [79.11350503918375, 14.259844541635312], [79.1141998130934, 14.261227735106802], [79.11702475249264, 14.261250065861473], [79.12160387730296, 14.262663893876525], [79.12549675293965, 14.261661261284354], [79.12902795766924, 14.261689003045607], [79.1300787999202, 14.262730529276801], [79.14632252345464, 14.262857406013712], [79.1590127400626, 14.26571121161929], [79.16325592409912, 14.26505508690129], [79.17521534948341, 14.271002341613137], [79.18156920030751, 14.271395359406922], [79.18896877506826, 14.273518345366664], [79.19422761399122, 14.278380394749693], [79.2019643315526, 14.282572202078805], [79.20510734524095, 14.287073627645169], [79.20651731870134, 14.287428696264401], [79.21177959109288, 14.291946014920496], [79.21564832560486, 14.29404170441196], [79.2156401754881, 14.295074965015905], [79.21279832959284, 14.297120271151952], [79.20891321457033, 14.297091046076037], [79.20713906535458, 14.298110996522581], [79.20078434091285, 14.297718568902598], [79.19582318405412, 14.29974760910264], [79.19581493998551, 14.300780857945782], [79.19651858321173, 14.30113063294546], [79.20181104970614, 14.301859591455907], [79.20175351005261, 14.309092354008751], [79.20457644972556, 14.309458135130223], [79.20635070355114, 14.308438216485474], [79.2081331342113, 14.306385027357825], [79.20922822252827, 14.301915569437293], [79.2106546490017, 14.30020411035546], [79.21207016111185, 14.299870317542393], [79.21420566192873, 14.297819722430283], [79.21844942164016, 14.297162667205331], [79.21987304017695, 14.295795561503727], [79.22269857826186, 14.295816690358935], [79.22691799387268, 14.298259276523005], [79.2279667904867, 14.299644863285412], [79.23184391030095, 14.300707051506963], [79.23289005732468, 14.30243704425862], [79.2381532407167, 14.306953875003593], [79.24162640715913, 14.314557370575605], [79.2415486263013, 14.324545676164988], [79.23724247665349, 14.333124825953254], [79.2340551076351, 14.334134455326272], [79.23290896943313, 14.34514807443352], [79.23074607413965, 14.350643012642625], [79.22931941990643, 14.352354566371378], [79.22790900079389, 14.351999583921293], [79.22686542126509, 14.349925133335153], [79.22265597324756, 14.346104764945181], [79.22196573342389, 14.344032948023065], [79.21846299922443, 14.340217820783836], [79.2188434658955, 14.336776278552554], [79.22098473557136, 14.33403682178109], [79.22207434978756, 14.330256141274793], [79.22314222561454, 14.329230815606012], [79.22315578538395, 14.327508712433021], [79.22175367242454, 14.326120450355088], [79.2221286146798, 14.323367731612457], [79.22391105072981, 14.321314423514824], [79.22639179742231, 14.320299638959485], [79.22817687320055, 14.317901869202327], [79.22819308524339, 14.315835337738129], [79.22714422398212, 14.314449744942232], [79.22822550156606, 14.311702273679495], [79.2278911916852, 14.309288685482757], [79.22615485546729, 14.305486870459724], [79.22087029257631, 14.303725172669347], [79.21804465852243, 14.303704010660272], [79.2159118446828, 14.305410216963613], [79.2158764987462, 14.309887675276048], [79.21692798504877, 14.310928887938314], [79.21798763049382, 14.310936836521972], [79.21976456186654, 14.30957239158658], [79.22153063010532, 14.309585614303973], [79.22505195006849, 14.310989706475048], [79.22679640867565, 14.313758265451284], [79.22642425724064, 14.316166580495402], [79.22534834410094, 14.318225194923723], [79.21967769602851, 14.320593843596573], [79.21996302480225, 14.329206994888988], [79.21637340068648, 14.336413281550465], [79.21566144116463, 14.337096806959579], [79.21071586803593, 14.337059558333895], [79.20715320168271, 14.340821479624346], [79.20431615149472, 14.34217776737137], [79.20253062020818, 14.344575301218843], [79.19933472876247, 14.34661767312632], [79.198614427958, 14.348334383351776], [79.19928242873824, 14.353161567800331], [79.1981867754239, 14.3576309094781], [79.19640655985974, 14.359339542909176], [79.1946069813338, 14.363459059366232], [79.19247616118379, 14.364820546401162], [79.18997262740434, 14.368590203424397], [79.18784173189489, 14.369951639195056], [79.18536584290052, 14.370277107786938], [79.18394429512425, 14.371299506889436], [79.17757926944321, 14.371939454769425], [79.1743827737739, 14.373981413201555], [79.1690831995835, 14.373940475621724], [79.16697179511841, 14.372890841535432], [79.16485198252765, 14.372874415588685], [79.16130488969576, 14.374569034471634], [79.15702573052458, 14.379357750723596], [79.15490304231808, 14.379685634569974], [79.1527718601626, 14.381046715592044], [79.14956369866307, 14.384465914802108], [79.14884004236076, 14.38652681378699], [79.1449307771952, 14.38925159056368], [79.14456607547524, 14.390626433385519], [79.14064528413546, 14.394728735366252], [79.14026913372751, 14.397481177719971], [79.1391948546837, 14.399194846080128], [79.13986442780696, 14.40367764289678], [79.13771291659705, 14.40744936120551], [79.1373195294757, 14.4122681996586], [79.13554414958723, 14.413287458249762], [79.12600346916695, 14.413211919013579], [79.12278865663006, 14.417319438810347], [79.12066559113244, 14.417646964735182], [79.11675834593942, 14.420026764129666], [79.11425001075243, 14.424139773448116], [79.1106901558034, 14.427211065892966], [79.11066401413859, 14.430310629480234], [79.11345335251079, 14.434810414643128], [79.119744940206, 14.44312676844737], [79.12606006143062, 14.448687818090024], [79.13137565607205, 14.447007934161824], [79.13457359517027, 14.444966740872731], [79.14278775871684, 14.434698897288094], [79.14917449438589, 14.431649289504684], [79.15059943490989, 14.430282764903927], [79.15661840195855, 14.42895218038993], [79.15730817985022, 14.43102413400552], [79.15338111475347, 14.435815386324464], [79.15406519492618, 14.438576155695698], [79.15688107946342, 14.439975898936883], [79.16960655746028, 14.439730641544552], [79.17138203913285, 14.438711135078037], [79.17350248133481, 14.438727575850427], [79.18089885881608, 14.441884652813961], [79.18265474106792, 14.443275924929086], [79.18404604612005, 14.446042102084714], [79.18437151519468, 14.449488924057343], [79.18717938843753, 14.451921572839362], [79.1885568418251, 14.456409786074557], [79.19101976328021, 14.457806450940165], [79.1924140316941, 14.460228187023688], [79.19239731837472, 14.462294652755553], [79.1913202483376, 14.464352970874035], [79.19448461351227, 14.466443865649493], [79.19654416535074, 14.474037181859984], [79.19724553922647, 14.474731424725707], [79.20078023113243, 14.47475849361315]], [[79.19526661942196, 14.457150179026852], [79.1910420568734, 14.455051164269062], [79.18895490996955, 14.450901936817116], [79.18614702625102, 14.448469308255426], [79.18581873659818, 14.445366895599175], [79.18442741150513, 14.442600726697329], [79.18056504267017, 14.439471059503015], [79.17668314964853, 14.438752201288391], [79.17422053145204, 14.437355419299838], [79.17068648283407, 14.43732802073674], [79.16855760468974, 14.438344777376093], [79.15618845184972, 14.438248347406262], [79.15514527121023, 14.43617362498902], [79.1590751402072, 14.431037934258566], [79.15909212314479, 14.428971501563227], [79.15733934301947, 14.427235677547875], [79.15451225808935, 14.427213575688397], [79.15273681314004, 14.428232957685681], [79.14990687873535, 14.428555202893701], [79.13890328324297, 14.43432384191332], [79.13678292422242, 14.43430709498697], [79.13048510452968, 14.426679943725963], [79.12666702447957, 14.418383520389227], [79.12774437843201, 14.416325534583873], [79.13552410528938, 14.415698267313124], [79.13907774895814, 14.413315338032183], [79.13947681555896, 14.407807688227908], [79.14162830333063, 14.404035950802207], [79.14132058743277, 14.39852272577825], [79.14240909309008, 14.395087029404827], [79.14597085103622, 14.391670732641419], [79.14740404442132, 14.38927098197991], [79.1498886598085, 14.38791272811565], [79.15132745167541, 14.384824134611442], [79.1545327675859, 14.381749314939738], [79.15807437512564, 14.380743631566228], [79.1627096645164, 14.375613232897496], [79.1648379317308, 14.374596456604806], [79.17330887052363, 14.375695284210073], [79.17862802324088, 14.373325256206632], [79.18428647818537, 14.372679865091113], [79.18960269881255, 14.3706539807256], [79.19138305988538, 14.368945416529384], [79.19246232990803, 14.366542615144233], [79.19601739335093, 14.363814242089726], [79.197460905911, 14.360036439312728], [79.19924387499302, 14.357983382501533], [79.20069829134887, 14.352827884939304], [79.20001375160676, 14.350067194946195], [79.20038628022836, 14.347658967092235], [79.20322616728824, 14.345958321419042], [79.20607971907035, 14.342535551580736], [79.20785150804963, 14.341860071270139], [79.21070220387361, 14.33878164841553], [79.21353099414148, 14.338458530088957], [79.21564236363673, 14.339507739523487], [79.2180797918702, 14.344003779348435], [79.21948741911801, 14.344703232467102], [79.22263695803163, 14.348515704887843], [79.22580016319114, 14.350606044252606], [79.22719701707379, 14.35268314148963], [79.2275340380379, 14.354752308140489], [79.22539261337447, 14.357491806039418], [79.22537632645437, 14.35955832711996], [79.22714279138717, 14.359571553168568], [79.22823519064907, 14.355446433602292], [79.23286575457185, 14.35065882468475], [79.23323523938377, 14.348594926759846], [79.23466453741382, 14.34653892053963], [79.23541153085813, 14.34137784309999], [79.2375526677134, 14.338638219587386], [79.24043519422902, 14.331426302871005], [79.24293745937227, 14.327655956158702], [79.24402667399579, 14.323875127145005], [79.24443347393984, 14.316989242677545], [79.24375914941338, 14.312850922204367], [79.2416746547575, 14.30835772819972], [79.23256915783722, 14.298301340479773], [79.22939576873102, 14.297588850638986], [79.22447535545771, 14.294452191498232], [79.2184846838997, 14.292685197818015], [79.21778916210963, 14.29130222465759], [79.21991098029461, 14.290973667021285], [79.2213345475331, 14.289606546353358], [79.2217039680472, 14.287542656933242], [79.22347527286422, 14.28686700158749], [79.22451589600873, 14.289285862363998], [79.22803154461177, 14.291378723449334], [79.22943081548631, 14.293111354729215], [79.23753272872081, 14.295927066859795], [79.23858426927158, 14.296968188861893], [79.24032077746526, 14.300769932154742], [79.24312499822386, 14.303546226262812], [79.24801385763485, 14.310815659447513], [79.24833236166849, 14.315295798317363], [79.25006380807974, 14.31978635139678], [79.25003711233691, 14.323230609810526], [79.25214055577905, 14.325312777075384], [79.25176863616957, 14.32772115837645], [79.24789360866696, 14.32631480869785], [79.24573933240235, 14.330776679976003], [79.24395967117113, 14.332485740327204], [79.24285429484694, 14.338333105876423], [79.23711051309705, 14.350001546759271], [79.23674105921904, 14.35206545429402], [79.23743415105059, 14.353792822690059], [79.23954310061983, 14.35518627008294], [79.24555170114807, 14.354886388620082], [79.25441331638122, 14.351162931549524], [79.25725824880001, 14.348772744286558], [79.25869266858277, 14.34602771496147], [79.26364387362653, 14.34537513063183], [79.26650982770683, 14.340229385877105], [79.26658923835446, 14.329896531390062], [79.26980285724218, 14.325442148122317], [79.27017194181322, 14.323378145444456], [79.27123431361758, 14.32304143355605], [79.27049351692145, 14.327513872388433], [79.2683422927778, 14.331631568812051], [79.26832907377486, 14.333353713232254], [79.27007424162501, 14.336122029175506], [79.27004517708954, 14.33991074860585], [79.26718724724815, 14.344023260796149], [79.26645685209762, 14.347117950304966], [79.26219623401515, 14.349842333761565], [79.2593460093094, 14.352921437819019], [79.25473457892834, 14.355298642511858], [79.25152553981066, 14.359063879112973], [79.24763123491168, 14.36006843817433], [79.23692709531967, 14.373422260453381], [79.23267918009904, 14.374423904379418], [79.23159485222386, 14.377515774632535], [79.23052675463228, 14.378541112555718], [79.22734141420769, 14.379206150810175], [79.22308519743908, 14.3812408620094], [79.22023131676312, 14.384663799390466], [79.21703767565366, 14.386361938600299], [79.21559151873022, 14.39048428885348], [79.21132402354007, 14.393896415897759], [79.20952709695543, 14.397671618036327], [79.20489500106416, 14.402458583011693], [79.20488122725283, 14.404180658097316], [79.20663150824048, 14.40626056932609], [79.20662324989108, 14.407293815064158], [79.20520428340609, 14.407971908043441], [79.20344849042542, 14.40658081582408], [79.19955874415518, 14.406895632057228], [79.19100863316113, 14.41544113584089], [79.19098362376023, 14.418540843629314], [79.1863841321871, 14.419194408835168], [79.17996179000872, 14.426722455055687], [79.177813440169, 14.430150176882297], [79.17780223265352, 14.43152781306395], [79.17991141879148, 14.432921825773162], [79.18132501683026, 14.432932732991391], [79.18237683000069, 14.433974137394083], [79.18271625589028, 14.435698910858513], [79.18798387725396, 14.439872643495027], [79.19433141136717, 14.441643524196197], [79.19255320645689, 14.443007624446961], [79.19218587680666, 14.44472697052062], [79.19286489926802, 14.448176507514084], [79.19425914169447, 14.450598229888335], [79.19526661942196, 14.457150179026852]], [[79.24168165474289, 14.352791044909639], [79.24134181350071, 14.351066306906885], [79.24317803722671, 14.342124386624443], [79.24532981678358, 14.338006985283076], [79.24607116243165, 14.333534689146378], [79.24856267378753, 14.331141976779996], [79.25167520711179, 14.339776061228513], [79.25622771918356, 14.344976261985723], [79.25620906456066, 14.347387245837401], [79.25300551775806, 14.350463669277968], [79.2508804681685, 14.351136887782156], [79.24805687305378, 14.350771590280653], [79.24450257112593, 14.35350084394034], [79.24168165474289, 14.352791044909639]], [[79.28081651670885, 14.317255343711706], [79.2804580348013, 14.317941650012106], [79.27975155884332, 14.317936534686558], [79.28011004276362, 14.317250229691773], [79.28081651670885, 14.317255343711706]], [[79.20356061982518, 14.30393944657301], [79.20463663556735, 14.301880943649492], [79.20640262909767, 14.301894271740341], [79.20710083321877, 14.302932854394106], [79.20672577497614, 14.305685536571271], [79.20494607470127, 14.307394296601439], [79.2031827778296, 14.307036535199352], [79.20356061982518, 14.30393944657301]], [[79.21286634558076, 14.288509778113973], [79.21217086987522, 14.287126793547019], [79.20795183853235, 14.28468398614844], [79.20550147331979, 14.2819100123351], [79.19565397254604, 14.276669018340518], [79.19426056142979, 14.274247394682208], [79.1917994846175, 14.272850975857187], [79.19006674242362, 14.268704573646671], [79.19324229517548, 14.269073111351283], [79.19814251386629, 14.274621230457036], [79.20025597116278, 14.27532608624896], [79.2027089371603, 14.27775568142731], [79.20799000170064, 14.279862118645823], [79.20833499154206, 14.280898034019351], [79.21149444921443, 14.283332869841429], [79.21252404686908, 14.287129446345915], [79.21534131804262, 14.288183910924737], [79.21533317000578, 14.289217171862571], [79.21286634558076, 14.288509778113973]], [[79.15026871315452, 14.255310591424488], [79.1506134052159, 14.25634655661056], [79.14920093828145, 14.256335598049663], [79.1495624828994, 14.255305112557393], [79.15026871315452, 14.255310591424488]], [[79.16587266327491, 14.247164711607114], [79.16623411544555, 14.24613418920758], [79.16799407803074, 14.246836575515749], [79.16763263199815, 14.247867101349243], [79.16587266327491, 14.247164711607114]]], [[[79.16182838638849, 14.396960996747023], [79.16432710069114, 14.39388055430214], [79.16435243321816, 14.390780886214312], [79.1636542196226, 14.389742176042896], [79.16188757985529, 14.38972844860112], [79.16117528625266, 14.390411767968924], [79.16113299009294, 14.395577871890804], [79.16182838638849, 14.396960996747023]]], [[[79.16584036179718, 14.424890931987376], [79.17012034255806, 14.420102154085399], [79.17367095360858, 14.418063077634352], [79.17650355607387, 14.417396118035297], [79.18220222325652, 14.411929166219869], [79.1857498226898, 14.410234289658602], [79.19180699571851, 14.404080943851568], [79.19324537369579, 14.400992043197602], [79.20000877051169, 14.394843830101061], [79.2025262744322, 14.389352014472887], [79.20466830326758, 14.386612797801936], [79.20539696913286, 14.383862836311456], [79.20753890560844, 14.381123582287866], [79.2079224275364, 14.377337679891165], [79.20971369230445, 14.374251301664556], [79.20974384525371, 14.370462716504193], [79.20904271516669, 14.369768538289305], [79.2065695772208, 14.369749816256984], [79.19805440811749, 14.37416282079432], [79.1934503123048, 14.375505461879857], [79.18952506405354, 14.380297542192427], [79.18773070524674, 14.383728140394602], [79.18595296899285, 14.385092246166431], [79.18415851163248, 14.388522805052721], [79.17988785838135, 14.392278724190904], [79.17915326450594, 14.39571738614832], [79.1769968685823, 14.400178371977933], [79.17342135703916, 14.405317219234977], [79.16986253223294, 14.408389542094584], [79.16589954565934, 14.417658384569393], [79.16199551029683, 14.419694584528225], [79.15985546994256, 14.422088902660628], [79.15983850249086, 14.424155337448482], [79.1608901676474, 14.425196821835339], [79.16442118413346, 14.425568751210808], [79.16584036179718, 14.424890931987376]], [[79.1623319437535, 14.421763774611046], [79.16730459003509, 14.41870258656327], [79.17126754526589, 14.40943371658414], [79.17554148585486, 14.405333604538175], [79.17876081125951, 14.400536406344777], [79.18165174780628, 14.392636730438365], [79.18556627035953, 14.389222477604363], [79.19272154435801, 14.378255374523762], [79.19627680782092, 14.375527021398684], [79.19875275382672, 14.375201443656264], [79.20584923325512, 14.371466543119757], [79.20832513220869, 14.371140858264953], [79.20866198336603, 14.373210031881943], [79.20687071516922, 14.376296401689311], [79.20612561332123, 14.381112869899253], [79.20398090899145, 14.384196524539837], [79.2025372962312, 14.38797435448778], [79.20111293431275, 14.389341266139091], [79.19966923178005, 14.393119067559931], [79.19219086641952, 14.40029510937843], [79.18896903019436, 14.405436936778882], [79.1843419394885, 14.409534603867732], [79.18186002336057, 14.41054880382484], [79.17758327395964, 14.414993439954696], [79.16942483807019, 14.418719041683719], [79.16514487411203, 14.423507808858307], [79.16231499952741, 14.423830212340333], [79.1623319437535, 14.421763774611046]]]]}}, {"type": "Feature", "properties": {"depth_class": 2, "depth_lo_m": 1.0, "t_s": 53100.530813527286}, "geometry": {"type": "MultiPolygon", "coordinates": [[[[79.02027459039152, 14.219826087145787], [79.02065159775512, 14.21707394186038], [79.01960750057071, 14.215343252802397], [79.01819839683871, 14.214987168333762], [79.01610126561869, 14.2125589214722], [79.01291806577964, 14.213221304854397], [79.01254398765876, 14.215629045399083], [79.01324101536012, 14.216668060368143], [79.01641525626744, 14.217038827487833], [79.01815339219868, 14.220152915754356], [79.02027459039152, 14.219826087145787]], [[79.01430610767282, 14.21598809505003], [79.013974124304, 14.213574486052321], [79.01644227872582, 14.213939381788796], [79.0164272670522, 14.215661296171254], [79.01430610767282, 14.21598809505003]]], [[[79.15890271052439, 14.235744762761133], [79.1578741660003, 14.231948073218977], [79.1561087649173, 14.231934450296858], [79.156100381072, 14.232967682060588], [79.15890271052439, 14.235744762761133]]], [[[79.081173141624, 14.241332321110304], [79.08295307527833, 14.239624527726834], [79.08474750077714, 14.236194736003176], [79.08477072646167, 14.233439565102909], [79.0840703986884, 14.232745108307421], [79.08265813278273, 14.232733774121671], [79.07840095407995, 14.235110487248326], [79.07732425857802, 14.237168329790206], [79.07764818238846, 14.24061512094487], [79.07905175351007, 14.241659675978543], [79.081173141624, 14.241332321110304]], [[79.07909253232627, 14.23683814481039], [79.0815756712511, 14.235480433939175], [79.08263197607859, 14.235833337673352], [79.08226436809363, 14.237552481207938], [79.08048153756663, 14.239604666484158], [79.07907214482483, 14.239248910651703], [79.07909253232627, 14.23683814481039]]], [[[79.16799407803074, 14.246836575515749], [79.16729342811571, 14.246142327568236], [79.16587822874646, 14.246475887464173], [79.16657331108004, 14.247858963530346], [79.16763263199815, 14.247867101349243], [79.16799407803074, 14.246836575515749]]], [[[79.03486974355957, 14.246810567973677], [79.0334604150932, 14.246454546198297], [79.03274829138574, 14.247137495801057], [79.03308943229895, 14.248517948370273], [79.03485781723595, 14.248188111083739], [79.03486974355957, 14.246810567973677]]], [[[79.02628804568184, 14.259138443746428], [79.02630303036523, 14.257416525317973], [79.02383138253299, 14.257396052775857], [79.02416947409795, 14.259120895213629], [79.02628804568184, 14.259138443746428]]], [[[79.21534131804262, 14.288183910924737], [79.21252404686908, 14.287129446345915], [79.21149444921443, 14.283332869841429], [79.20833499154206, 14.280898034019351], [79.20799000170064, 14.279862118645823], [79.2027089371603, 14.27775568142731], [79.20025597116278, 14.27532608624896], [79.19814251386629, 14.274621230457036], [79.19324229517548, 14.269073111351283], [79.19006674242362, 14.268704573646671], [79.1917994846175, 14.272850975857187], [79.19426056142979, 14.274247394682208], [79.19565397254604, 14.276669018340518], [79.20444743338216, 14.281213187049373], [79.20795183853235, 14.28468398614844], [79.21217086987522, 14.287126793547019], [79.21286634558076, 14.288509778113973], [79.21533317000578, 14.289217171862571], [79.21534131804262, 14.288183910924737]]], [[[79.20530201690637, 14.307052545932061], [79.20708990713355, 14.304310527694836], [79.20640262909767, 14.301894271740341], [79.20463663556735, 14.301880943649492], [79.20320741833181, 14.303936777409318], [79.2031827778296, 14.307036535199352], [79.20530201690637, 14.307052545932061]]], [[[79.28081651670885, 14.317255343711706], [79.28011004276362, 14.317250229691773], [79.27975155884332, 14.317936534686558], [79.2804580348013, 14.317941650012106], [79.28081651670885, 14.317255343711706]]], [[[79.19526661942196, 14.457150179026852], [79.19218587680666, 14.44472697052062], [79.19255320645689, 14.443007624446961], [79.19433141136717, 14.441643524196197], [79.18798387725396, 14.439872643495027], [79.18271625589028, 14.435698910858513], [79.18237683000069, 14.433974137394083], [79.18132501683026, 14.432932732991391], [79.17991141879148, 14.432921825773162], [79.17780223265352, 14.43152781306395], [79.177813440169, 14.430150176882297], [79.17996179000872, 14.426722455055687], [79.1863841321871, 14.419194408835168], [79.19098362376023, 14.418540843629314], [79.19100863316113, 14.41544113584089], [79.19955874415518, 14.406895632057228], [79.20344849042542, 14.40658081582408], [79.20520428340609, 14.407971908043441], [79.20662324989108, 14.407293815064158], [79.20663150824048, 14.40626056932609], [79.20488122725283, 14.404180658097316], [79.20489500106416, 14.402458583011693], [79.20952709695543, 14.397671618036327], [79.21132402354007, 14.393896415897759], [79.21559151873022, 14.39048428885348], [79.21703767565366, 14.386361938600299], [79.22023131676312, 14.384663799390466], [79.22308519743908, 14.3812408620094], [79.22734141420769, 14.379206150810175], [79.23052675463228, 14.378541112555718], [79.23159485222386, 14.377515774632535], [79.23267918009904, 14.374423904379418], [79.23692709531967, 14.373422260453381], [79.24763123491168, 14.36006843817433], [79.25152553981066, 14.359063879112973], [79.25473457892834, 14.355298642511858], [79.2593460093094, 14.352921437819019], [79.26219623401515, 14.349842333761565], [79.26645685209762, 14.347117950304966], [79.26718724724815, 14.344023260796149], [79.27004517708954, 14.33991074860585], [79.27007424162501, 14.336122029175506], [79.26832907377486, 14.333353713232254], [79.2683422927778, 14.331631568812051], [79.27049351692145, 14.327513872388433], [79.27123431361758, 14.32304143355605], [79.27017194181322, 14.323378145444456], [79.26980285724218, 14.325442148122317], [79.26658923835446, 14.329896531390062], [79.26650982770683, 14.340229385877105], [79.26364387362653, 14.34537513063183], [79.25869266858277, 14.34602771496147], [79.25725824880001, 14.348772744286558], [79.25441331638122, 14.351162931549524], [79.24555170114807, 14.354886388620082], [79.23954310061983, 14.35518627008294], [79.23743415105059, 14.353792822690059], [79.23674105921904, 14.35206545429402], [79.23711051309705, 14.350001546759271], [79.24285429484694, 14.338333105876423], [79.24395967117113, 14.332485740327204], [79.24573933240235, 14.330776679976003], [79.24789360866696, 14.32631480869785], [79.25176863616957, 14.32772115837645], [79.25214055577905, 14.325312777075384], [79.25003711233691, 14.323230609810526], [79.25006380807974, 14.31978635139678], [79.24833236166849, 14.315295798317363], [79.24801385763485, 14.310815659447513], [79.24312499822386, 14.303546226262812], [79.24032077746526, 14.300769932154742], [79.23858426927158, 14.296968188861893], [79.23753272872081, 14.295927066859795], [79.22943081548631, 14.293111354729215], [79.22803154461177, 14.291378723449334], [79.22451589600873, 14.289285862363998], [79.22347527286422, 14.28686700158749], [79.2217039680472, 14.287542656933242], [79.2213345475331, 14.289606546353358], [79.21991098029461, 14.290973667021285], [79.21778916210963, 14.29130222465759], [79.2184846838997, 14.292685197818015], [79.22447535545771, 14.294452191498232], [79.22939576873102, 14.297588850638986], [79.23256915783722, 14.298301340479773], [79.2416746547575, 14.30835772819972], [79.24375914941338, 14.312850922204367], [79.24443347393984, 14.316989242677545], [79.24402667399579, 14.323875127145005], [79.24293745937227, 14.327655956158702], [79.24043519422902, 14.331426302871005], [79.2375526677134, 14.338638219587386], [79.23541153085813, 14.34137784309999], [79.23466453741382, 14.34653892053963], [79.23323523938377, 14.348594926759846], [79.23286575457185, 14.35065882468475], [79.22823519064907, 14.355446433602292], [79.22714279138717, 14.359571553168568], [79.22537632645437, 14.35955832711996], [79.22539261337447, 14.357491806039418], [79.2275340380379, 14.354752308140489], [79.22719701707379, 14.35268314148963], [79.22580016319114, 14.350606044252606], [79.22263695803163, 14.348515704887843], [79.21948741911801, 14.344703232467102], [79.2180797918702, 14.344003779348435], [79.21564236363673, 14.339507739523487], [79.21353099414148, 14.338458530088957], [79.21070220387361, 14.33878164841553], [79.20785150804963, 14.341860071270139], [79.20607971907035, 14.342535551580736], [79.20322616728824, 14.345958321419042], [79.20038628022836, 14.347658967092235], [79.20001375160676, 14.350067194946195], [79.20069829134887, 14.352827884939304], [79.19924387499302, 14.357983382501533], [79.197460905911, 14.360036439312728], [79.19601739335093, 14.363814242089726], [79.19246232990803, 14.366542615144233], [79.19138305988538, 14.368945416529384], [79.18960269881255, 14.3706539807256], [79.18428647818537, 14.372679865091113], [79.17862802324088, 14.373325256206632], [79.17330887052363, 14.375695284210073], [79.1648379317308, 14.374596456604806], [79.1627096645164, 14.375613232897496], [79.15807437512564, 14.380743631566228], [79.1545327675859, 14.381749314939738], [79.15132745167541, 14.384824134611442], [79.1498886598085, 14.38791272811565], [79.14740404442132, 14.38927098197991], [79.14597085103622, 14.391670732641419], [79.14240909309008, 14.395087029404827], [79.14132058743277, 14.39852272577825], [79.14162830333063, 14.404035950802207], [79.13947681555896, 14.407807688227908], [79.13907774895814, 14.413315338032183], [79.13552410528938, 14.415698267313124], [79.12774437843201, 14.416325534583873], [79.12666702447957, 14.418383520389227], [79.13048510452968, 14.426679943725963], [79.13678292422242, 14.43430709498697], [79.13890328324297, 14.43432384191332], [79.14990687873535, 14.428555202893701], [79.15273681314004, 14.428232957685681], [79.15451225808935, 14.427213575688397], [79.15733934301947, 14.427235677547875], [79.15909212314479, 14.428971501563227], [79.1590751402072, 14.431037934258566], [79.15514527121023, 14.43617362498902], [79.15618845184972, 14.438248347406262], [79.16855760468974, 14.438344777376093], [79.17068648283407, 14.43732802073674], [79.17422053145204, 14.437355419299838], [79.17668314964853, 14.438752201288391], [79.18056504267017, 14.439471059503015], [79.18442741150513, 14.442600726697329], [79.18581873659818, 14.445366895599175], [79.18614702625102, 14.448469308255426], [79.18895490996955, 14.450901936817116], [79.1910420568734, 14.455051164269062], [79.19420629785473, 14.457142048758024], [79.19526661942196, 14.457150179026852]], [[79.16194749307182, 14.425549490353507], [79.15983850249086, 14.424155337448482], [79.15985546994256, 14.422088902660628], [79.16199551029683, 14.419694584528225], [79.16589954565934, 14.417658384569393], [79.16986253223294, 14.408389542094584], [79.17342135703916, 14.405317219234977], [79.1769968685823, 14.400178371977933], [79.17915326450594, 14.39571738614832], [79.17988785838135, 14.392278724190904], [79.18415851163248, 14.388522805052721], [79.1920259901703, 14.376872322918448], [79.19451577763625, 14.37482472292428], [79.19805440811749, 14.37416282079432], [79.2065695772208, 14.369749816256984], [79.20904271516669, 14.369768538289305], [79.20974384525371, 14.370462716504193], [79.20971369230445, 14.374251301664556], [79.2079224275364, 14.377337679891165], [79.20753890560844, 14.381123582287866], [79.20539696913286, 14.383862836311456], [79.20466830326758, 14.386612797801936], [79.2025262744322, 14.389352014472887], [79.20000877051169, 14.394843830101061], [79.19324537369579, 14.400992043197602], [79.19037968462864, 14.405792181700216], [79.1857498226898, 14.410234289658602], [79.18220222325652, 14.411929166219869], [79.17756927796141, 14.416715487140435], [79.17012034255806, 14.420102154085399], [79.16548415828092, 14.42523259110906], [79.16194749307182, 14.425549490353507]], [[79.17823964064618, 14.421198266043016], [79.18253605287576, 14.41434275980945], [79.18608647630619, 14.412303471565014], [79.1907163801588, 14.407861361952712], [79.193214875539, 14.40478058414281], [79.19429711712125, 14.402033386079212], [79.2003483129004, 14.396568592521948], [79.20895219906039, 14.381134286243963], [79.20933569749512, 14.37734837880244], [79.21112420481063, 14.374606404674084], [79.2115049043702, 14.371164903413849], [79.21116255052806, 14.369784565208166], [79.2087031198807, 14.36804378160437], [79.20658055861185, 14.368372150929693], [79.19771213692525, 14.372782472518653], [79.19382021978012, 14.37344167616609], [79.1884873093831, 14.377534127647786], [79.18672074100174, 14.377520596925917], [79.18566913769311, 14.37647923581213], [79.18568025244386, 14.375101587187109], [79.18710459591368, 14.373734767374282], [79.18993937419751, 14.372723160916465], [79.19279073126647, 14.369645035438328], [79.1938699913156, 14.367242226400885], [79.1977838632396, 14.363827690881623], [79.19922734757314, 14.36004987388576], [79.2006542644574, 14.358338534603806], [79.20211140183743, 14.352838609077775], [79.20179111258672, 14.348702937406317], [79.20498976100205, 14.346316116875046], [79.20677802444804, 14.343574146289173], [79.2085498205208, 14.342898661520481], [79.2113977905127, 14.340164649028054], [79.21351735008264, 14.340180622624844], [79.21527274594536, 14.341571594675152], [79.2156123774949, 14.343296346799798], [79.21347094672379, 14.34603573528503], [79.21346002524093, 14.347413408411422], [79.2222755310243, 14.349546315628148], [79.22543331932805, 14.352325501685183], [79.22576761052088, 14.354739089347676], [79.22326744210096, 14.358164759405364], [79.22325113488579, 14.360231277978441], [79.22570790368722, 14.362316334763896], [79.22818911838758, 14.361301585737221], [79.22928421950522, 14.356832039724997], [79.23106960349209, 14.354434284915586], [79.23354260628894, 14.354452731846873], [79.2381191686091, 14.356553457924049], [79.24553828556331, 14.356608508701587], [79.25333476741955, 14.353566102832726], [79.25546517075463, 14.352204012324943], [79.25902998169964, 14.34809686970704], [79.26044842481639, 14.347418388812544], [79.26185889056184, 14.347773180238955], [79.26185092033684, 14.34880646195726], [79.26006854825778, 14.350860065349803], [79.25403867529977, 14.353915734985462], [79.25082697268638, 14.358025388420801], [79.24764195741656, 14.358690740981663], [79.24586474651709, 14.36005536440999], [79.24407676828976, 14.362797666142756], [79.23944883043113, 14.367241065822695], [79.23658457918184, 14.37204194096834], [79.23233668999667, 14.373043581659045], [79.22947492038892, 14.377499922274142], [79.2273522758995, 14.377828470940404], [79.22061191436171, 14.381222272124312], [79.21989162503738, 14.382939048321077], [79.21527101011432, 14.386348612962365], [79.2141808992732, 14.390129200617377], [79.21062831143593, 14.392513401834515], [79.20776034976092, 14.39765822602587], [79.20384595686514, 14.401072866544247], [79.2024021986922, 14.404850677693167], [79.19850695339372, 14.40585430752676], [79.18925010742566, 14.41439435399974], [79.18781713619997, 14.416794387793816], [79.18533793449679, 14.4174642052747], [79.18000374771509, 14.42155631017563], [79.17823964064618, 14.421198266043016]], [[79.16147786732063, 14.396613841357873], [79.16117528625266, 14.390411767968924], [79.16188757985529, 14.38972844860112], [79.1636542196226, 14.389742176042896], [79.16435243321816, 14.390780886214312], [79.16432710069114, 14.39388055430214], [79.16253506479703, 14.396966492181543], [79.16147786732063, 14.396613841357873]]]]}}, {"type": "Feature", "properties": {"depth_class": 3, "depth_lo_m": 2.0, "t_s": 53100.530813527286}, "geometry": {"type": "MultiPolygon", "coordinates": [[[[79.01360606965545, 14.215293465045868], [79.0164272670522, 14.215661296171254], [79.01644227872582, 14.213939381788796], [79.013974124304, 14.213574486052321], [79.01360606965545, 14.215293465045868]]], [[[79.08048444823977, 14.239260271119985], [79.08226436809363, 14.237552481207938], [79.08228181213249, 14.235486106344483], [79.07909253232627, 14.23683814481039], [79.07907214482483, 14.239248910651703], [79.08048444823977, 14.239260271119985]]], [[[79.1800065443038, 14.421211900432432], [79.18533793449679, 14.4174642052747], [79.18781713619997, 14.416794387793816], [79.18925010742566, 14.41439435399974], [79.19850695339372, 14.40585430752676], [79.2024021986922, 14.404850677693167], [79.20384595686514, 14.401072866544247], [79.20776034976092, 14.39765822602587], [79.21062831143593, 14.392513401834515], [79.2141808992732, 14.390129200617377], [79.21527101011432, 14.386348612962365], [79.21989162503738, 14.382939048321077], [79.22061191436171, 14.381222272124312], [79.2273522758995, 14.377828470940404], [79.22947492038892, 14.377499922274142], [79.23233668999667, 14.373043581659045], [79.23658457918184, 14.37204194096834], [79.23944883043113, 14.367241065822695], [79.24407676828976, 14.362797666142756], [79.24586474651709, 14.36005536440999], [79.24764195741656, 14.358690740981663], [79.25082697268638, 14.358025388420801], [79.25403867529977, 14.353915734985462], [79.26006854825778, 14.350860065349803], [79.26185092033684, 14.34880646195726], [79.26185889056184, 14.347773180238955], [79.26044842481639, 14.347418388812544], [79.25902998169964, 14.34809686970704], [79.25760087695751, 14.350153046807847], [79.25333476741955, 14.353566102832726], [79.24553828556331, 14.356608508701587], [79.2381191686091, 14.356553457924049], [79.23354260628894, 14.354452731846873], [79.23106960349209, 14.354434284915586], [79.22928421950522, 14.356832039724997], [79.22818911838758, 14.361301585737221], [79.22570790368722, 14.362316334763896], [79.22325113488579, 14.360231277978441], [79.22326744210096, 14.358164759405364], [79.22576761052088, 14.354739089347676], [79.22543331932805, 14.352325501685183], [79.2222755310243, 14.349546315628148], [79.21346002524093, 14.347413408411422], [79.21347094672379, 14.34603573528503], [79.2156123774949, 14.343296346799798], [79.21527274594536, 14.341571594675152], [79.21351735008264, 14.340180622624844], [79.2113977905127, 14.340164649028054], [79.2085498205208, 14.342898661520481], [79.20677802444804, 14.343574146289173], [79.20498976100205, 14.346316116875046], [79.20179111258672, 14.348702937406317], [79.20211140183743, 14.352838609077775], [79.2006542644574, 14.358338534603806], [79.19922734757314, 14.36004987388576], [79.1977838632396, 14.363827690881623], [79.1938699913156, 14.367242226400885], [79.19279073126647, 14.369645035438328], [79.18993937419751, 14.372723160916465], [79.18710459591368, 14.373734767374282], [79.18568025244386, 14.375101587187109], [79.18566913769311, 14.37647923581213], [79.18672074100174, 14.377520596925917], [79.1884873093831, 14.377534127647786], [79.19382021978012, 14.37344167616609], [79.19771213692525, 14.372782472518653], [79.20658055861185, 14.368372150929693], [79.2087031198807, 14.36804378160437], [79.21116255052806, 14.369784565208166], [79.2115049043702, 14.371164903413849], [79.21112420481063, 14.374606404674084], [79.20933569749512, 14.37734837880244], [79.20895219906039, 14.381134286243963], [79.2003483129004, 14.396568592521948], [79.19429711712125, 14.402033386079212], [79.193214875539, 14.40478058414281], [79.1907163801588, 14.407861361952712], [79.18608647630619, 14.412303471565014], [79.18324837444806, 14.413659378597425], [79.17968113066534, 14.417765077276984], [79.17825083710606, 14.419820628321643], [79.17823964064618, 14.421198266043016], [79.1800065443038, 14.421211900432432]]]]}}]}