{"type": "FeatureCollection", "features": [{"type": "Feature", "properties": {"depth_class": 1, "depth_lo_m": 0.3, "t_s": 70200.29471723648}, "geometry": {"type": "MultiPolygon", "coordinates": [[[[79.01353689374338, 14.223214254461691], [79.01602618186206, 14.221168489959858], [79.01990356688542, 14.221889463281796], [79.02168672354301, 14.21983777971867], [79.02171966913033, 14.216049556950844], [79.02102559621225, 14.214666178048029], [79.01646329169536, 14.211528701211513], [79.01293009436576, 14.211843776031177], [79.01150297172912, 14.213553947723556], [79.01148190310485, 14.215964620613429], [79.01217892634699, 14.21700363815606], [79.01145480907574, 14.21906405642834], [79.01178676525986, 14.221477665450031], [79.01353689374338, 14.223214254461691]], [[79.01815339219868, 14.220152915754356], [79.01641525626744, 14.217038827487833], [79.01324101536012, 14.216668060368143], [79.01254398765876, 14.215629045399083], [79.01291806577964, 14.213221304854397], [79.01610126561869, 14.2125589214722], [79.01819839683871, 14.214987168333762], [79.02030755945819, 14.21603786761961], [79.02027459039152, 14.219826087145787], [79.01815339219868, 14.220152915754356]]], [[[79.16062073082857, 14.241613360551185], [79.16141054658739, 14.231286456682], [79.16388767401897, 14.23061664514664], [79.16425466223365, 14.228897297796511], [79.16320934656169, 14.227167095131888], [79.16074340297509, 14.226459257530584], [79.15898919719153, 14.225068015579426], [79.15722384841197, 14.225054407334662], [79.15543614648841, 14.227796071131706], [79.15331770701934, 14.227779705115275], [79.15189701514774, 14.228802013680765], [79.15187180994066, 14.23190170211306], [79.15291145065518, 14.234320765836308], [79.15572493499282, 14.235720239400475], [79.15708977487797, 14.241586124182863], [79.15814347395816, 14.242283121995076], [79.15990895746806, 14.242296739560603], [79.16062073082857, 14.241613360551185]], [[79.15890271052439, 14.235744762761133], [79.156100381072, 14.232967682060588], [79.1561087649173, 14.231934450296858], [79.1582244551067, 14.232295207249601], [79.15890271052439, 14.235744762761133]]], [[[79.08115859049458, 14.243054298225754], [79.08615978992073, 14.236206060530675], [79.08618589922843, 14.233106490654498], [79.08513830521576, 14.231720413936236], [79.08231669182003, 14.231353355484158], [79.07770355755726, 14.234071618699938], [79.07591488787189, 14.236812557760208], [79.0723871015607, 14.236439684372865], [79.07167511493171, 14.237122769646927], [79.07129864910195, 14.23987506592863], [79.07269925910487, 14.241264047867972], [79.07588279573659, 14.240600896764864], [79.07868701807759, 14.243034413726718], [79.08115859049458, 14.243054298225754]], [[79.07800417460139, 14.24027356938424], [79.07768607369903, 14.236137988239372], [79.08301119914269, 14.23273660844995], [79.0844205620407, 14.23309233689971], [79.08475040425927, 14.235850339677373], [79.08259709068597, 14.239966087753174], [79.081173141624, 14.241332321110304], [79.07870158792157, 14.241312439113432], [79.07800417460139, 14.24027356938424]]], [[[79.11821835883717, 14.245071512487145], [79.12036827828598, 14.241299773694987], [79.1203882306469, 14.238888950273804], [79.11899871194554, 14.236122600929617], [79.11653001572947, 14.235758714744671], [79.1143801013723, 14.239530419205416], [79.11400413678402, 14.242282846396957], [79.11680598822896, 14.245060370735448], [79.11821835883717, 14.245071512487145]]], [[[79.16938705731988, 14.249258304748714], [79.17011271268609, 14.246852832703508], [79.16871418063701, 14.245119933448054], [79.16695422780072, 14.244417553686498], [79.16306732832118, 14.244732099680535], [79.1630478205135, 14.247142980536276], [79.16444353025945, 14.24922032078483], [79.16620350837614, 14.249922722342431], [79.16938705731988, 14.249258304748714]]], [[[79.03554013007644, 14.250949013555928], [79.0366291776813, 14.247513873873078], [79.0394686893612, 14.245815167890548], [79.03913643322558, 14.2434015593998], [79.03738594882373, 14.241665115509615], [79.03561761715916, 14.24199497871526], [79.03418744478843, 14.24404966533019], [79.03170398768316, 14.245406833998175], [79.03027674584823, 14.24711710443601], [79.03026180257916, 14.248839028483157], [79.0316681509471, 14.249539455419903], [79.03306256862246, 14.251617416362873], [79.03554013007644, 14.250949013555928]], [[79.03381349243577, 14.24645745597372], [79.03486676209809, 14.24715495376699], [79.03450175466527, 14.248529588185537], [79.0330924167534, 14.248173562985087], [79.03310435377429, 14.246796021339028], [79.03381349243577, 14.24645745597372]]], [[[79.15065551436388, 14.25118042298958], [79.15067796568138, 14.24842515076216], [79.14820623550241, 14.248405978891922], [79.14749159442616, 14.24943372182049], [79.1478306459271, 14.251158505782573], [79.14853124258536, 14.251852805341743], [79.15065551436388, 14.25118042298958]]], [[[79.10509072110652, 14.252544934018164], [79.10543519575953, 14.253580938996821], [79.1068476100781, 14.253592154581696], [79.1068533572928, 14.252903354035393], [79.10509072110652, 14.252544934018164]]], [[[79.15838199476656, 14.256406679343362], [79.15945532202726, 14.254692805448435], [79.15876865425838, 14.25227648051594], [79.15594655808117, 14.2519102477209], [79.15134489700958, 14.253252351628461], [79.15133086560505, 14.254974396804977], [79.15343553908846, 14.256712858041208], [79.1566108054311, 14.257081857255828], [79.15838199476656, 14.256406679343362]]], [[[79.11283319572597, 14.25570613619682], [79.11107912571899, 14.254314553413506], [79.11107052313068, 14.255347756626236], [79.11283319572597, 14.25570613619682]]], [[[79.02804154572235, 14.260530589186269], [79.0287627095181, 14.258814509097384], [79.02702119820533, 14.256044834396468], [79.02455556226504, 14.255335604427632], [79.02207192835726, 14.256692648188968], [79.0220509053966, 14.259103327882938], [79.02345127789235, 14.260492573724974], [79.0252107656334, 14.261195972272752], [79.02804154572235, 14.260530589186269]], [[79.02383138253299, 14.257396052775857], [79.02559984263743, 14.257066295060401], [79.02664413778716, 14.25879698293623], [79.02487266498778, 14.259471130173212], [79.02381937995807, 14.258773585480736], [79.02383138253299, 14.257396052775857]]], [[[79.04956882551404, 14.262085344424321], [79.04994562326007, 14.259333125376621], [79.04783887698481, 14.257938234206215], [79.04607338689839, 14.25792377245424], [79.04499925057591, 14.2596370268955], [79.04497846673935, 14.262047739314534], [79.04603184337627, 14.262745200570048], [79.04850358252169, 14.262765450493285], [79.04956882551404, 14.262085344424321]]], [[[79.08311707004823, 14.262013076241544], [79.08349346713261, 14.259260752706338], [79.08279307445079, 14.258566284081496], [79.07996530927423, 14.258887946705295], [79.07854121259146, 14.260254145413967], [79.0785324580722, 14.261287328479622], [79.07958303760977, 14.26232904852435], [79.08205190822744, 14.262693345098118], [79.08311707004823, 14.262013076241544]]], [[[79.12394171778831, 14.278870309831907], [79.12643083991121, 14.276823352878795], [79.12715136554822, 14.275106890150902], [79.12717129511866, 14.272696064141567], [79.12577583764367, 14.270618533299462], [79.12329249118291, 14.271976686036657], [79.12112797612751, 14.277470424543266], [79.12146397987681, 14.279539625294499], [79.12394171778831, 14.278870309831907]]], [[[79.10415986245036, 14.279402474961445], [79.10381825341616, 14.27802206717275], [79.1024056894136, 14.278010814823002], [79.10238837462667, 14.28007720665401], [79.10415986245036, 14.279402474961445]]], [[[79.16218736336468, 14.39627493068254], [79.16432991571462, 14.393536146779038], [79.16434961879118, 14.391125293821842], [79.16330089151991, 14.389739431609161], [79.16224090765948, 14.389731195144094], [79.16116682836517, 14.391444988943292], [79.16114709068017, 14.393855837514069], [79.16218736336468, 14.39627493068254]]], [[[79.18269767411371, 14.262793075629887], [79.18377362598987, 14.260734659622525], [79.18237214696855, 14.259346234693187], [79.17990025378904, 14.259327376939252], [79.17812355075229, 14.260691547670893], [79.17810694764079, 14.262758031696958], [79.17881044606817, 14.263107842922002], [79.18127961624515, 14.26347113143124], [79.18269767411371, 14.262793075629887]]], [[[79.18798091870786, 14.26455548042112], [79.18622625551937, 14.26316438793987], [79.18692150783832, 14.26454742369666], [79.18798091870786, 14.26455548042112]]], [[[79.28492945042214, 14.287317783551732], [79.28108358186383, 14.282123266407808], [79.27861392637942, 14.281760971687953], [79.27369040147525, 14.278969719721273], [79.26875647614506, 14.277556101219542], [79.26665588953048, 14.275129675822535], [79.26101048802026, 14.274399628541637], [79.25611122621405, 14.26850819744314], [79.25578192250539, 14.265405756358701], [79.25508092170622, 14.264711729485281], [79.25510212664308, 14.261956301875284], [79.25617480753746, 14.260241910685851], [79.25585079782222, 14.256450611352518], [79.25302835236083, 14.256085503755102], [79.25370545703129, 14.259879388468715], [79.25156004743306, 14.26330813793109], [79.2515494229662, 14.264685849050823], [79.25399759590643, 14.267803824351931], [79.25396575307562, 14.271936961051432], [79.25711241227371, 14.276093377361775], [79.26027770338955, 14.277838761169141], [79.26131606496638, 14.280601932089462], [79.26272612779684, 14.280956673259677], [79.26415467667167, 14.278900399146638], [79.2652141991213, 14.278908120267834], [79.2662658119846, 14.279949126799286], [79.26944176745984, 14.28031668012524], [79.27471581482457, 14.283455008398798], [79.27929934795814, 14.284521536231754], [79.28316610855492, 14.286960618334344], [79.284542318227, 14.291792868142952], [79.28525654469078, 14.290764660655386], [79.28492945042214, 14.287317783551732]]], [[[79.25073411393275, 14.278802190714982], [79.25218134914454, 14.274335006134448], [79.25042616551676, 14.272944333256437], [79.24689454735116, 14.272918369225925], [79.24618022624361, 14.273946449689683], [79.2465040624329, 14.277737741269133], [79.24861508705263, 14.278786615060733], [79.25073411393275, 14.278802190714982]]], [[[79.19695414393004, 14.290800813125486], [79.1948405619527, 14.290095913102396], [79.19412321088062, 14.291468218358373], [79.19517176236126, 14.29285392346381], [79.19693767621268, 14.292867313560018], [79.19695414393004, 14.290800813125486]]], [[[79.2788623365868, 14.295540808165784], [79.27887019828835, 14.294507512505202], [79.27816379614163, 14.294502400653771], [79.27815593121728, 14.295535695929633], [79.2788623365868, 14.295540808165784]]], [[[79.18595313436131, 14.297261473103875], [79.1845431488585, 14.296906279409477], [79.18417337042638, 14.298970068045566], [79.18593932123972, 14.2989835453901], [79.18595313436131, 14.297261473103875]]], [[[79.20493513193222, 14.308771967754], [79.2081413253558, 14.305351771985597], [79.20959505810814, 14.300196134937295], [79.21136921600795, 14.299176166943363], [79.21137738806941, 14.298142909111386], [79.21067372517396, 14.297793176420267], [79.208907759517, 14.29777988377064], [79.20748679872786, 14.29880249588417], [79.20218615479307, 14.29910692244826], [79.20218067845322, 14.29979575747754], [79.2032375264846, 14.300148183402966], [79.20322657908565, 14.30152585409731], [79.20215329237895, 14.303239931995751], [79.20176447246655, 14.307714685307179], [79.20246266829233, 14.308753280720026], [79.20493513193222, 14.308771967754]], [[79.20391655778577, 14.303597697494215], [79.20568803121859, 14.302922196359841], [79.20638623439395, 14.303960781015569], [79.20530748663334, 14.306363710138294], [79.203894664591, 14.306353038948272], [79.20391655778577, 14.303597697494215]]], [[[79.22507900271684, 14.307545491010753], [79.22403019456574, 14.306159890188102], [79.21944391051002, 14.305436698998701], [79.21766972908637, 14.30645672529693], [79.21730022053698, 14.308520597478921], [79.22048183767433, 14.308199999461152], [79.22259027191441, 14.309593541642604], [79.22506277199183, 14.309612020414889], [79.22507900271684, 14.307545491010753]]], [[[79.26179217279817, 14.310572392354768], [79.26181071796782, 14.308161393861278], [79.25970201220284, 14.306768173522379], [79.25687362454231, 14.307091896106826], [79.25508892688053, 14.309489928243392], [79.25578207386516, 14.311217250016881], [79.26072720152935, 14.311253495464369], [79.26179217279817, 14.310572392354768]]], [[[79.26524240330309, 14.321275494944782], [79.26632063637089, 14.318872231509788], [79.26527944545741, 14.316453492923731], [79.26422768777542, 14.315412466407066], [79.26246153336433, 14.31539955574383], [79.26174977086426, 14.316083244132399], [79.26172591184292, 14.319183097082039], [79.26242178341286, 14.320565979111905], [79.26312296206872, 14.32126000342256], [79.26524240330309, 14.321275494944782]]], [[[79.23311398931166, 14.318971974108608], [79.23206777916437, 14.317241975630628], [79.23135592905307, 14.31792556164448], [79.23169836989608, 14.319305881585604], [79.23311398931166, 14.318971974108608]]], [[[79.23556238298494, 14.32209016385681], [79.23661133026621, 14.323475728623745], [79.23662209151291, 14.322098035371836], [79.23556238298494, 14.32209016385681]]], [[[79.2070098645424, 14.491338913009312], [79.21480887086818, 14.488642823191364], [79.21942904402493, 14.485577954214682], [79.22584938276225, 14.478393325250273], [79.22836474154177, 14.47324572300953], [79.2294606547706, 14.468776278516266], [79.22949886698416, 14.46395442919586], [79.22847671419999, 14.459124600760077], [79.22602716207298, 14.45600621234744], [79.21929800797334, 14.457677602020935], [79.21576355026136, 14.457650842270237], [79.21363187006962, 14.459012421257057], [79.21221808205702, 14.459001688733004], [79.20940706181207, 14.456913712566873], [79.19916279350477, 14.45614671208121], [79.1967192693943, 14.45233924447338], [79.19638805507248, 14.449581241871124], [79.19464314752395, 14.446812410030075], [79.19465982144033, 14.444745939018537], [79.1978517076016, 14.443392638994649], [79.19822453653106, 14.440984453299974], [79.19541109690378, 14.439240760447378], [79.19117015368569, 14.439208252773318], [79.1880006042667, 14.437806178898946], [79.18448886334676, 14.435023704715473], [79.18380160930319, 14.432607390117747], [79.1823991915495, 14.431218858400484], [79.18028160800289, 14.43085809643896], [79.18029559747943, 14.429136048704764], [79.18458934386358, 14.422624930438054], [79.18672636740071, 14.420574768515937], [79.19061356543706, 14.420604605712022], [79.19238880852285, 14.419584910479994], [79.19241935333186, 14.41579637600594], [79.20061330687831, 14.407592538871826], [79.20273348920482, 14.407608682679687], [79.20483989487872, 14.409346881773345], [79.20767233716994, 14.40867952385199], [79.20804770959725, 14.405926881466991], [79.20629466368234, 14.40419139472762], [79.20595231716187, 14.402811050512067], [79.21058440121082, 14.398024063164781], [79.21238131453003, 14.3942488513615], [79.21664880331753, 14.390836704235753], [79.2173800795072, 14.387742273546543], [79.21845100938874, 14.386372589620276], [79.22093252632878, 14.38535795295498], [79.22343035771878, 14.382276773019914], [79.23193734115165, 14.378896098189767], [79.23302167344791, 14.375804226931718], [79.23408974650287, 14.374778874728028], [79.23762833152993, 14.374116367021996], [79.23940840211587, 14.372407402919347], [79.24120190828675, 14.368976308101544], [79.24440320425587, 14.366244520630293], [79.24797649179786, 14.36110432432863], [79.25222678677274, 14.359757943257499], [79.25543849457529, 14.355648271314097], [79.26040321633127, 14.35327364640989], [79.26325343311642, 14.350194528592846], [79.26715811749528, 14.347811971903818], [79.2682470767408, 14.344031002802204], [79.27038259388046, 14.341979898909445], [79.27110498886167, 14.339918475676082], [79.27113403561313, 14.336129754119687], [79.26973683013779, 14.334052878762012], [79.26939942265784, 14.331983728220305], [79.27046975812145, 14.330613736766837], [79.2722808662295, 14.324771295702677], [79.27476676014966, 14.323067124772372], [79.27936682633405, 14.322067151341288], [79.28364241527862, 14.317275778804426], [79.28436720414362, 14.314869856407505], [79.28442996748394, 14.306603477932107], [79.28622740806993, 14.302483022343315], [79.28555231555478, 14.298344734263392], [79.28378104698785, 14.299020862301292], [79.28305109179996, 14.302115655849818], [79.28198098151088, 14.303485730836849], [79.28191290451122, 14.312440964716005], [79.28119596334092, 14.313813582787523], [79.27764263938377, 14.316543452030727], [79.2769098891422, 14.319982637442797], [79.27512789979554, 14.322036399776179], [79.27018513717097, 14.321655997897034], [79.2687616052179, 14.32302341847393], [79.26839250896744, 14.325087417631938], [79.26517092590284, 14.33057506448696], [79.26545001705884, 14.340221638117594], [79.2640236770507, 14.341933439651571], [79.2636518336472, 14.344341847628707], [79.26258404040955, 14.345367367347825], [79.26046437588005, 14.345351826585167], [79.25940986425978, 14.344655195335953], [79.25837398648945, 14.341547572780472], [79.25627034529855, 14.33946543982698], [79.2545360002258, 14.335319334237196], [79.2524297815705, 14.333581602720868], [79.2513886977115, 14.331162815202653], [79.25139670561657, 14.33012953772817], [79.25317629642315, 14.328420412736632], [79.25320561976315, 14.324631723701968], [79.25110483910004, 14.322205139358275], [79.25112351407276, 14.319794156990374], [79.24939471494973, 14.314959183333668], [79.2487256383076, 14.310132014775126], [79.24418462412235, 14.303554054115777], [79.24137770997127, 14.301122195843504], [79.23929602642463, 14.296284569954725], [79.23754077937403, 14.294893794033054], [79.22978939479927, 14.292425137186155], [79.22839012453002, 14.290692508094276], [79.22557544445344, 14.289293765416982], [79.22524116743146, 14.286880176263287], [79.22418973673953, 14.285839006898126], [79.22207067443217, 14.285823187485851], [79.2202939590465, 14.287187675487697], [79.21571350309455, 14.28577561619255], [79.21430895222903, 14.284731761111155], [79.21326845867218, 14.282312869900291], [79.21045126992198, 14.281258389916994], [79.20729730382422, 14.278134706352962], [79.20307029489196, 14.276725091582213], [79.20026691571722, 14.273948414785359], [79.19815347070498, 14.273243560519347], [79.1936036754792, 14.268042538598014], [79.19114266624321, 14.26664612072001], [79.18902657348282, 14.266285612399912], [79.18689396034192, 14.267991579301311], [79.1840688250581, 14.267970066304358], [79.18196102657569, 14.266576251273587], [79.17948905516636, 14.266557379904327], [79.17842410444047, 14.267238112165794], [79.17630804059011, 14.266877492599269], [79.17420862910446, 14.264450376169167], [79.17033527513564, 14.263042937896326], [79.16682624111131, 14.26026051070014], [79.16188806441197, 14.259533623118841], [79.15764218690985, 14.26053414578213], [79.15518432304746, 14.258792982038903], [79.14918126658279, 14.258746457671023], [79.14708505328508, 14.255974736396698], [79.14532792327807, 14.254927787661254], [79.14179396991587, 14.25524470716833], [79.13930522814407, 14.257291873987484], [79.1364718131072, 14.25830303121558], [79.1343531119481, 14.25828646241455], [79.13154236636993, 14.256542316158395], [79.12624282974275, 14.256845158485305], [79.12446872378567, 14.257864489108062], [79.12481614304744, 14.25855607384274], [79.12975976219447, 14.25859490352184], [79.1325705147885, 14.260339071953986], [79.13575708641345, 14.259330727911967], [79.13857921040673, 14.259697206801834], [79.14176293439328, 14.259033185022014], [79.1463450465746, 14.260102143252817], [79.1498594093043, 14.262196024621987], [79.1583176656391, 14.264328114427903], [79.1639761360129, 14.263338472860315], [79.16678168715254, 14.265771099255696], [79.1696039867788, 14.266137226109597], [79.17522366955257, 14.269969102029975], [79.18193063654299, 14.270364811278771], [79.19039238368227, 14.272151416945157], [79.19389917059283, 14.275277967109387], [79.19564299776884, 14.27804668597976], [79.19916638151493, 14.279106671609375], [79.2047924076755, 14.282249105792802], [79.20618597779118, 14.284670685232571], [79.20969590863827, 14.287452628587431], [79.21109228265988, 14.289529768681167], [79.21390685501848, 14.29092867270494], [79.21741426860594, 14.294054943641537], [79.21775660334517, 14.295435272294688], [79.22411675702773, 14.295138398682724], [79.2286866781899, 14.297928013369848], [79.23256377433442, 14.298990186991762], [79.23396581322358, 14.30037837650291], [79.23500928766117, 14.302452785257799], [79.23711777778736, 14.30384620329006], [79.23991662390121, 14.307311383151244], [79.24270483822525, 14.31215423799588], [79.24338985687179, 14.314914860137078], [79.24295891006228, 14.324900561050262], [79.23901143448141, 14.332793516437615], [79.23651173446035, 14.33621938326335], [79.2361396188919, 14.3386277168722], [79.23399307046715, 14.342056170223488], [79.232892766012, 14.347214606092264], [79.23109394548936, 14.351334492231729], [79.22966999545633, 14.352701626615941], [79.2286074387039, 14.353038128522474], [79.2244060477378, 14.348184521105072], [79.22159344214059, 14.346441237945893], [79.2163570560718, 14.338479796131457], [79.21389243557793, 14.33742793433618], [79.21106639063944, 14.337406640468789], [79.2075064616355, 14.340824149643367], [79.20502541694788, 14.341838699004578], [79.20252512676612, 14.345264133748096], [79.20110931445586, 14.345597833589327], [79.1993292247393, 14.34730650432321], [79.19895668606306, 14.349714729332002], [79.19963570649807, 14.353164251794718], [79.1989236431719, 14.353847713943507], [79.19818401949087, 14.357975324544272], [79.19640380086236, 14.359683957586995], [79.19496027433216, 14.36346175221551], [79.1914052061169, 14.366190108620005], [79.19104083484439, 14.367565063737546], [79.18890441024277, 14.369615337063943], [79.1825283003781, 14.371633072520883], [79.17757926944321, 14.371939454769425], [79.1743827737739, 14.373981413201555], [79.16943650400962, 14.373943208480737], [79.16732509747746, 14.372893577349869], [79.16378926560701, 14.373210603524406], [79.16130488969576, 14.374569034471634], [79.15738186376306, 14.379016095993277], [79.15348414288727, 14.380363420545129], [79.14992268601695, 14.383779868770059], [79.14812772536345, 14.38721009047861], [79.14457460918712, 14.38959322205143], [79.14420990453645, 14.390968063958073], [79.14064528413546, 14.394728735366252], [79.13920056390741, 14.398506041139916], [79.13987013683021, 14.402988837954203], [79.13771577522758, 14.407104959271946], [79.13696617120198, 14.412265411624501], [79.13590037180987, 14.412945847198245], [79.13343259263054, 14.412237502235836], [79.12636258115, 14.412525924565854], [79.12387180053003, 14.414572676271698], [79.12279442373476, 14.416630641398728], [79.12067136489405, 14.416958168184593], [79.11605450786742, 14.419676725757943], [79.1135519636565, 14.423100933248259], [79.11035711129652, 14.424797463371826], [79.10892908836186, 14.426508115580901], [79.10959515033923, 14.43133532080772], [79.10885930201093, 14.434773608627488], [79.10565258785587, 14.437847627775326], [79.10141188708108, 14.437813508886402], [79.09749824391386, 14.440881703409858], [79.09713313607119, 14.442256421756646], [79.0978282215559, 14.443639699951461], [79.10273785984175, 14.448156709158313], [79.10306498122459, 14.451259099738062], [79.10092110846138, 14.453997157527642], [79.10017330307981, 14.458812958651402], [79.09661266902583, 14.461883938935467], [79.09482203824471, 14.464624775224161], [79.09128477742115, 14.464940524977234], [79.0895028931189, 14.466648137256787], [79.0891258902167, 14.469400391046781], [79.08980920280482, 14.472161256262044], [79.09294607028487, 14.477352934905417], [79.09995941753581, 14.48395361763658], [79.10312302731391, 14.486045670376912], [79.10630716466866, 14.485726933689069], [79.10916117900882, 14.482650156716092], [79.11413587166375, 14.479590356367632], [79.11698679583719, 14.476857856002924], [79.11771113041277, 14.474797140132912], [79.1209153969449, 14.47206740664485], [79.12199601772917, 14.469665096588324], [79.12413404760282, 14.467615632083241], [79.12700778742868, 14.46212778916969], [79.12913416449089, 14.461455858383838], [79.13334948931205, 14.464589127582137], [79.13511669065336, 14.464603139072008], [79.13582931839295, 14.463919940153435], [79.13619999288557, 14.461856339579473], [79.13550748616852, 14.460128741200542], [79.13093877484637, 14.456992710481957], [79.13061702159959, 14.453201513880153], [79.12957115988289, 14.45147109972358], [79.1299476142319, 14.448718713031848], [79.1327864297935, 14.447363542737158], [79.13670265613288, 14.443950317812027], [79.13849834464564, 14.440520273954746], [79.1431382975251, 14.435046083036683], [79.15130621380692, 14.43028830641349], [79.15626501351721, 14.428949418107106], [79.15731951296027, 14.429646513623618], [79.15730817985022, 14.43102413400552], [79.15337827426876, 14.436159790489127], [79.15406519492618, 14.438576155695698], [79.15547029442362, 14.439620435492547], [79.16394921288791, 14.440031066840357], [79.17350248133481, 14.438727575850427], [79.17984421988152, 14.441187648068128], [79.18300256440392, 14.443967469669358], [79.18471935145479, 14.450180467664522], [79.18717938843753, 14.451921572839362], [79.18820619472615, 14.45606265628207], [79.19206615839752, 14.459536650757741], [79.19240010411171, 14.461950241826695], [79.19096679712759, 14.464350254069531], [79.19447904658355, 14.467132688029368], [79.19516091423556, 14.470237812977192], [79.19475455027933, 14.47677891082548], [79.19648294932574, 14.48161422946159], [79.19503281349917, 14.486080717828244], [79.19535286330165, 14.49021636132819], [79.19817246173342, 14.491271299682051], [79.2070098645424, 14.491338913009312]], [[79.11777498784373, 14.467220425299201], [79.1040580525315, 14.459188695873342], [79.10374260334525, 14.454708730385475], [79.10553012081965, 14.452312195216399], [79.10555929196023, 14.448868252287435], [79.10416608471337, 14.446446120045238], [79.10030786882243, 14.442970870448903], [79.10031956246807, 14.441593296498896], [79.10209823002964, 14.440229958254063], [79.10598558214946, 14.440261230612542], [79.1102583210886, 14.43650692143434], [79.11170092924122, 14.433074289032039], [79.11104353228978, 14.427213896105204], [79.11531012809856, 14.42414824474157], [79.11745640136148, 14.421065595734914], [79.12136366014128, 14.418685786270025], [79.12419634746819, 14.41801947440272], [79.12563284005584, 14.41527550996789], [79.1270549130579, 14.414253530210646], [79.13623941976117, 14.41467064422993], [79.13872724697175, 14.412968150468943], [79.13912346387411, 14.407804904263973], [79.14163685885667, 14.403002742365082], [79.14096724998971, 14.398519946324246], [79.14205291134348, 14.395428655361185], [79.14561752343545, 14.391667961428247], [79.14633838879513, 14.389951482815302], [79.14989149573914, 14.38756832322825], [79.15061514735584, 14.385507420443252], [79.15382331151207, 14.382088207112847], [79.15843050942836, 14.380401975365954], [79.15950736400342, 14.378343781662915], [79.1648379317308, 14.374596456604806], [79.17507820622102, 14.375364503207628], [79.17756531700682, 14.373661508207519], [79.18463978363377, 14.37268257503035], [79.18995600212388, 14.370656682359867], [79.19245679688399, 14.367231442567821], [79.19672674042297, 14.363475208566726], [79.19817023872837, 14.359697399717486], [79.19959716030662, 14.357986067435009], [79.20104881826803, 14.353174982512702], [79.20073679954054, 14.348006064276587], [79.20322067541922, 14.346647154132084], [79.20536496840766, 14.343563456717716], [79.20962602287936, 14.340840158722116], [79.2110527288083, 14.339128730831202], [79.21387879530089, 14.339150027362118], [79.21598472229385, 14.340888072450575], [79.21668034817218, 14.342271061837769], [79.21666672438305, 14.34399315678881], [79.215596017724, 14.345362859324572], [79.21593838062081, 14.346743192668201], [79.21876727234715, 14.346420022753895], [79.22614530649989, 14.351641949883849], [79.22682746681514, 14.354747022201504], [79.22432731307073, 14.35817270529126], [79.22466159331415, 14.360586293018708], [79.22606934319462, 14.361285720390896], [79.22784395587124, 14.360265681105554], [79.22858305948348, 14.35613791657966], [79.23107771813744, 14.353401020782039], [79.23531173748879, 14.354121470287863], [79.2381245577213, 14.355864612673919], [79.24483707024699, 14.355914428027305], [79.2544079789001, 14.351851783103939], [79.25689430870958, 14.35014785211839], [79.25903530360016, 14.347408016233652], [79.26292404457492, 14.3470920931171], [79.26576354196305, 14.345390643005146], [79.2653970091013, 14.347110198669473], [79.26326936168005, 14.34812796375981], [79.26006056803593, 14.351893345813593], [79.2543866261412, 14.354607188902584], [79.2508189459142, 14.359058663155027], [79.24834319000321, 14.359384815159707], [79.24585669579409, 14.361088636214616], [79.24299804397668, 14.365200769251638], [79.240508753419, 14.36724894420946], [79.23728581041833, 14.372736048017655], [79.23232856955347, 14.374076844788336], [79.2308854981536, 14.377854913274257], [79.22379729306324, 14.380557330196151], [79.22131039041332, 14.382260842384005], [79.21988071360266, 14.384316722000577], [79.21810859983296, 14.384992255556217], [79.21632827533867, 14.386701027593409], [79.21523817927597, 14.390481621873509], [79.21132950942673, 14.39320758285955], [79.209173747371, 14.397668940689568], [79.20454439993182, 14.402111482886973], [79.20452511280509, 14.404522387538579], [79.20592478323458, 14.406255202320546], [79.205916521635, 14.40728844765759], [79.20345124801081, 14.406236401169469], [79.20027099369355, 14.406212190245922], [79.19920538199273, 14.406892938124543], [79.19350167394362, 14.413049191350744], [79.19172649032153, 14.414068902116421], [79.19065248014184, 14.415782839502167], [79.19063302459087, 14.418193722865704], [79.18744983879185, 14.418513730881939], [79.18567458688044, 14.41953338739341], [79.17960560213648, 14.427064137655936], [79.177813440169, 14.430150176882297], [79.17780223265352, 14.43152781306395], [79.17885402169713, 14.432569230614286], [79.18132501683026, 14.432932732991391], [79.18237683000069, 14.433974137394083], [79.18271625589028, 14.435698910858513], [79.18692922105616, 14.439175668889831], [79.19044940938554, 14.440924883425279], [79.19468482736066, 14.441646231787706], [79.19255042476213, 14.443352035957584], [79.19252816855862, 14.446107327662006], [79.19426192221498, 14.450253818263109], [79.19459032935569, 14.453356232388709], [79.19598739608367, 14.455433537647725], [79.19596516280347, 14.458188831774759], [79.19384729234017, 14.457828160290726], [79.19034075888105, 14.45435691120703], [79.18860426977277, 14.450554808397754], [79.18614702625102, 14.448469308255426], [79.18477523985118, 14.44329226937451], [79.18056504267017, 14.439471059503015], [79.17668314964853, 14.438752201288391], [79.17457393672225, 14.43735815624587], [79.17033307838102, 14.437325277970167], [79.16820419905433, 14.43834203122994], [79.15583788596358, 14.437901178156848], [79.15550434520381, 14.435487581136554], [79.1579979683687, 14.43309608677258], [79.1590751402072, 14.431037934258566], [79.15909212314479, 14.428971501563227], [79.15768989687447, 14.427582843155074], [79.15450942110849, 14.427557980324076], [79.15025742149166, 14.42890237839308], [79.14422131689898, 14.432299211210655], [79.13923950416951, 14.43639303972116], [79.13565677812586, 14.442219928948996], [79.13245026605084, 14.445294342718393], [79.12925806588918, 14.446646706001564], [79.1274737159291, 14.44869906002763], [79.1274419987016, 14.452487445177844], [79.12814307277871, 14.453181861945588], [79.128803796681, 14.458697859664696], [79.12561137898513, 14.460050146358839], [79.12025197517839, 14.466895808136579], [79.11777498784373, 14.467220425299201]], [[79.23924096082509, 14.348639609090093], [79.24284355894883, 14.33971080188125], [79.2439114015596, 14.338685377767401], [79.2446581390852, 14.333524240796134], [79.24643780478989, 14.331815175676745], [79.24752431637444, 14.328378752636786], [79.24894265475984, 14.32770032936931], [79.25069287267789, 14.329779905948994], [79.24996767017421, 14.332185676791033], [79.25030756774386, 14.333910409307352], [79.25169924002779, 14.336676230291014], [79.25485994276224, 14.339110621774577], [79.257287546969, 14.344984053464016], [79.25727423068055, 14.346706185813138], [79.2558424554484, 14.349106777855413], [79.25335613142528, 14.35081069834389], [79.24485049051539, 14.354192308494722], [79.2391978898411, 14.354150376589457], [79.23924096082509, 14.348639609090093]], [[79.26613271702767, 14.34332665774534], [79.26689751011206, 14.335754397450987], [79.26725606556201, 14.335068120418486], [79.26866911563997, 14.33507843533125], [79.26936771265062, 14.336116876585804], [79.26933863625918, 14.339905594598054], [79.26826295240582, 14.341964431411865], [79.26613271702767, 14.34332665774534]], [[79.24759116324837, 14.319768119979255], [79.24900143185656, 14.320122966773361], [79.24863483824005, 14.321842490200995], [79.24757512405161, 14.321834672413289], [79.24759116324837, 14.319768119979255]]], [[[79.16619374574651, 14.424893679172298], [79.17118609415411, 14.419421555977012], [79.17685693032307, 14.417398847865515], [79.18255559001744, 14.411931886512225], [79.18645933673827, 14.409895307165407], [79.1918042206989, 14.404425356353196], [79.19359872540593, 14.400994744961967], [79.20036211386997, 14.394846520630482], [79.20287960964463, 14.389354700237991], [79.20502163459047, 14.38661547986789], [79.20575029627516, 14.383865516788068], [79.20789222886228, 14.38112625906744], [79.20827574491696, 14.377340355409318], [79.21006700518498, 14.374253973948004], [79.2100971521913, 14.370465388054019], [79.20939876201432, 14.36942679390879], [79.2065723226778, 14.369405399940932], [79.19805716748907, 14.373818406222398], [79.19558123685009, 14.37414397837842], [79.19309700069526, 14.375502764569392], [79.19131382261794, 14.37755574940531], [79.18737460412427, 14.384069845281337], [79.18595296899285, 14.385092246166431], [79.18522963002921, 14.387153295743634], [79.18024398406503, 14.391937033674811], [79.17735301215347, 14.399836688028767], [79.17413367091378, 14.404633864934295], [79.16985972267022, 14.408733950256412], [79.16589672812555, 14.418002791695004], [79.16199268635174, 14.420038990837842], [79.15984981442446, 14.422777714298885], [79.16053961151044, 14.424849660775175], [79.16194749307182, 14.425549490353507], [79.16619374574651, 14.424893679172298]], [[79.16232911990252, 14.422108180925699], [79.1676607794937, 14.418360922958373], [79.17126754526589, 14.40943371658414], [79.17447021325742, 14.406703050767831], [79.17733623303229, 14.40190314699944], [79.17840187339402, 14.401222502546407], [79.18165174780628, 14.392636730438365], [79.18556627035953, 14.389222477604363], [79.19308039577733, 14.37756924588024], [79.1959234956249, 14.375524328302644], [79.19839944165865, 14.375198754314995], [79.20620528737423, 14.37112480446632], [79.20832787525593, 14.370796441657038], [79.20865649726083, 14.373898865073542], [79.20722677646991, 14.375954662337863], [79.20684324816135, 14.379740562941365], [79.20397815661732, 14.384540939935482], [79.2032494706994, 14.387290894631404], [79.20218396325554, 14.387971668463253], [79.19859539780991, 14.394833062707901], [79.19183196758934, 14.400981230862387], [79.19039357129338, 14.40407012064557], [79.18505145279967, 14.409195625578228], [79.18150386678599, 14.410890493088843], [79.1772271037631, 14.415335121047002], [79.16942483807019, 14.418719041683719], [79.16478867212791, 14.423849467101745], [79.16231499952741, 14.423830212340333], [79.16232911990252, 14.422108180925699]]]]}}, {"type": "Feature", "properties": {"depth_class": 2, "depth_lo_m": 1.0, "t_s": 70200.29471723648}, "geometry": {"type": "MultiPolygon", "coordinates": [[[[79.02027459039152, 14.219826087145787], [79.02065159775512, 14.21707394186038], [79.01960750057071, 14.215343252802397], [79.01819839683871, 14.214987168333762], [79.01610126561869, 14.2125589214722], [79.01291806577964, 14.213221304854397], [79.01254398765876, 14.215629045399083], [79.01324101536012, 14.216668060368143], [79.01641525626744, 14.217038827487833], [79.01815339219868, 14.220152915754356], [79.02027459039152, 14.219826087145787]], [[79.01430610767282, 14.21598809505003], [79.013974124304, 14.213574486052321], [79.01644227872582, 14.213939381788796], [79.0164272670522, 14.215661296171254], [79.01430610767282, 14.21598809505003]]], [[[79.15890271052439, 14.235744762761133], [79.1582244551067, 14.232295207249601], [79.1561087649173, 14.231934450296858], [79.156100381072, 14.232967682060588], [79.15890271052439, 14.235744762761133]]], [[[79.08152913049344, 14.240990763783339], [79.08475040425927, 14.235850339677373], [79.08476782352267, 14.233783961502166], [79.08371733209553, 14.232742275542826], [79.07911000429254, 14.234771773679837], [79.07768607369903, 14.236137988239372], [79.07765109757193, 14.240270726184372], [79.07870158792157, 14.241312439113432], [79.08152913049344, 14.240990763783339]], [[79.0794456043216, 14.23684098520907], [79.08051064079866, 14.23616071237002], [79.0819229262152, 14.236172061922813], [79.0811964193886, 14.23857715717962], [79.08013137226935, 14.239257431785127], [79.07942813276097, 14.238907356390781], [79.0794456043216, 14.23684098520907]]], [[[79.03486676209809, 14.24715495376699], [79.034166569858, 14.24646036522745], [79.03310435377429, 14.246796021339028], [79.0330924167534, 14.248173562985087], [79.03450175466527, 14.248529588185537], [79.03486676209809, 14.24715495376699]]], [[[79.02593195250584, 14.259479903876935], [79.02630303036523, 14.257416525317973], [79.02383138253299, 14.257396052775857], [79.02416947409795, 14.259120895213629], [79.02593195250584, 14.259479903876935]]], [[[79.20566342654273, 14.306021958645927], [79.20638623439395, 14.303960781015569], [79.2049816306551, 14.302916864198435], [79.20391655778577, 14.303597697494215], [79.20354967136943, 14.305317117074308], [79.203894664591, 14.306353038948272], [79.20566342654273, 14.306021958645927]]], [[[79.2489907476694, 14.321500669440065], [79.24900143185656, 14.320122966773361], [79.24759116324837, 14.319768119979255], [79.24757512405161, 14.321834672413289], [79.2489907476694, 14.321500669440065]]], [[[79.26719519024915, 14.342989975728864], [79.26933863625918, 14.339905594598054], [79.26936771265062, 14.336116876585804], [79.26866911563997, 14.33507843533125], [79.26725606556201, 14.335068120418486], [79.26689751011206, 14.335754397450987], [79.2672137214566, 14.340578976872349], [79.26614331346154, 14.341948944992541], [79.26613271702767, 14.34332665774534], [79.26719519024915, 14.342989975728864]]], [[[79.2207154604997, 14.368134356743615], [79.22319675874634, 14.367119670492183], [79.22321035548647, 14.365397572757537], [79.22109326984639, 14.365037239252652], [79.22002792038028, 14.365718113136353], [79.21966371983679, 14.367093132777041], [79.2207154604997, 14.368134356743615]]], [[[79.119542194185, 14.467234556221134], [79.12203365633442, 14.46518793453172], [79.1227578947302, 14.463127190992989], [79.12561137898513, 14.460050146358839], [79.128803796681, 14.458697859664696], [79.12814307277871, 14.453181861945588], [79.1274419987016, 14.452487445177844], [79.12783289443635, 14.448013071610664], [79.13032405509749, 14.44596632401643], [79.13245026605084, 14.445294342718393], [79.13565677812586, 14.442219928948996], [79.13923950416951, 14.43639303972116], [79.14208954175943, 14.433660122567957], [79.14954780243455, 14.42924123788068], [79.15450942110849, 14.427557980324076], [79.15768989687447, 14.427582843155074], [79.15909212314479, 14.428971501563227], [79.1590751402072, 14.431037934258566], [79.1579979683687, 14.43309608677258], [79.15550434520381, 14.435487581136554], [79.15583788596358, 14.437901178156848], [79.16820419905433, 14.43834203122994], [79.17033307838102, 14.437325277970167], [79.17457393672225, 14.43735815624587], [79.17668314964853, 14.438752201288391], [79.18056504267017, 14.439471059503015], [79.18477523985118, 14.44329226937451], [79.18614702625102, 14.448469308255426], [79.18860426977277, 14.450554808397754], [79.19034075888105, 14.45435691120703], [79.19384729234017, 14.457828160290726], [79.19596516280347, 14.458188831774759], [79.19598739608367, 14.455433537647725], [79.19459032935569, 14.453356232388709], [79.19426192221498, 14.450253818263109], [79.19252816855862, 14.446107327662006], [79.19255042476213, 14.443352035957584], [79.19468482736066, 14.441646231787706], [79.19044940938554, 14.440924883425279], [79.18692922105616, 14.439175668889831], [79.18271625589028, 14.435698910858513], [79.18237683000069, 14.433974137394083], [79.18132501683026, 14.432932732991391], [79.17885402169713, 14.432569230614286], [79.17780223265352, 14.43152781306395], [79.177813440169, 14.430150176882297], [79.17960560213648, 14.427064137655936], [79.18567458688044, 14.41953338739341], [79.18744983879185, 14.418513730881939], [79.19063302459087, 14.418193722865704], [79.19065248014184, 14.415782839502167], [79.19172649032153, 14.414068902116421], [79.19350167394362, 14.413049191350744], [79.19920538199273, 14.406892938124543], [79.20027099369355, 14.406212190245922], [79.20345124801081, 14.406236401169469], [79.205916521635, 14.40728844765759], [79.20592478323458, 14.406255202320546], [79.20452511280509, 14.404522387538579], [79.20454439993182, 14.402111482886973], [79.209173747371, 14.397668940689568], [79.21132950942673, 14.39320758285955], [79.21523817927597, 14.390481621873509], [79.21632827533867, 14.386701027593409], [79.21810859983296, 14.384992255556217], [79.21988071360266, 14.384316722000577], [79.22131039041332, 14.382260842384005], [79.22379729306324, 14.380557330196151], [79.2308854981536, 14.377854913274257], [79.23232856955347, 14.374076844788336], [79.23728581041833, 14.372736048017655], [79.240508753419, 14.36724894420946], [79.24299804397668, 14.365200769251638], [79.24585669579409, 14.361088636214616], [79.24834319000321, 14.359384815159707], [79.2508189459142, 14.359058663155027], [79.2543866261412, 14.354607188902584], [79.26006056803593, 14.351893345813593], [79.26326936168005, 14.34812796375981], [79.2653970091013, 14.347110198669473], [79.26576354196305, 14.345390643005146], [79.26292404457492, 14.3470920931171], [79.25903530360016, 14.347408016233652], [79.25689430870958, 14.35014785211839], [79.2544079789001, 14.351851783103939], [79.24483707024699, 14.355914428027305], [79.2381245577213, 14.355864612673919], [79.23531173748879, 14.354121470287863], [79.23107771813744, 14.353401020782039], [79.22858305948348, 14.35613791657966], [79.22784395587124, 14.360265681105554], [79.22606934319462, 14.361285720390896], [79.22431373200101, 14.35989480512099], [79.22432731307073, 14.35817270529126], [79.22682746681514, 14.354747022201504], [79.22614530649989, 14.351641949883849], [79.21876727234715, 14.346420022753895], [79.21593838062081, 14.346743192668201], [79.215596017724, 14.345362859324572], [79.21666672438305, 14.34399315678881], [79.21598472229385, 14.340888072450575], [79.21387879530089, 14.339150027362118], [79.2110527288083, 14.339128730831202], [79.20962602287936, 14.340840158722116], [79.20536496840766, 14.343563456717716], [79.20322067541922, 14.346647154132084], [79.20073679954054, 14.348006064276587], [79.20104881826803, 14.353174982512702], [79.19959716030662, 14.357986067435009], [79.19817023872837, 14.359697399717486], [79.19672674042297, 14.363475208566726], [79.19245679688399, 14.367231442567821], [79.18995600212388, 14.370656682359867], [79.18463978363377, 14.37268257503035], [79.17756531700682, 14.373661508207519], [79.17507820622102, 14.375364503207628], [79.1648379317308, 14.374596456604806], [79.15950736400342, 14.378343781662915], [79.15843050942836, 14.380401975365954], [79.15382331151207, 14.382088207112847], [79.15061514735584, 14.385507420443252], [79.14989149573914, 14.38756832322825], [79.14633838879513, 14.389951482815302], [79.14561752343545, 14.391667961428247], [79.14205291134348, 14.395428655361185], [79.14096724998971, 14.398519946324246], [79.14163685885667, 14.403002742365082], [79.13912346387411, 14.407804904263973], [79.13872724697175, 14.412968150468943], [79.13623941976117, 14.41467064422993], [79.1270549130579, 14.414253530210646], [79.12563284005584, 14.41527550996789], [79.12419634746819, 14.41801947440272], [79.12136366014128, 14.418685786270025], [79.11745640136148, 14.421065595734914], [79.11531012809856, 14.42414824474157], [79.11104353228978, 14.427213896105204], [79.11170092924122, 14.433074289032039], [79.1102583210886, 14.43650692143434], [79.10598558214946, 14.440261230612542], [79.10209823002964, 14.440229958254063], [79.10031956246807, 14.441593296498896], [79.10030786882243, 14.442970870448903], [79.10416608471337, 14.446446120045238], [79.10555929196023, 14.448868252287435], [79.10553012081965, 14.452312195216399], [79.10374260334525, 14.454708730385475], [79.1040580525315, 14.459188695873342], [79.11777498784373, 14.467220425299201], [79.119542194185, 14.467234556221134]], [[79.16053961151044, 14.424849660775175], [79.15984415860721, 14.42346652589484], [79.1605678797502, 14.421405601424306], [79.16589672812555, 14.418002791695004], [79.16985972267022, 14.408733950256412], [79.17413367091378, 14.404633864934295], [79.17735301215347, 14.399836688028767], [79.18024398406503, 14.391937033674811], [79.18522963002921, 14.387153295743634], [79.18595296899285, 14.385092246166431], [79.18737460412427, 14.384069845281337], [79.19238484085561, 14.376186195244442], [79.19558123685009, 14.37414397837842], [79.19805716748907, 14.373818406222398], [79.20408544516195, 14.371108731708317], [79.2065723226778, 14.369405399940932], [79.20939876201432, 14.36942679390879], [79.2100971521913, 14.370465388054019], [79.21006700518498, 14.374253973948004], [79.20827574491696, 14.377340355409318], [79.20789222886228, 14.38112625906744], [79.20575029627516, 14.383865516788068], [79.20502163459047, 14.38661547986789], [79.20287960964463, 14.389354700237991], [79.20036211386997, 14.394846520630482], [79.19359872540593, 14.400994744961967], [79.19037690707512, 14.406136593879511], [79.18645933673827, 14.409895307165407], [79.18255559001744, 14.411931886512225], [79.17827882307355, 14.41637653327879], [79.17118609415411, 14.419421555977012], [79.1665499477101, 14.424552018777705], [79.16477456886935, 14.425571500647132], [79.16053961151044, 14.424849660775175]], [[79.19033801360575, 14.410958363281942], [79.19535440884127, 14.402385898882338], [79.20212055951342, 14.395893209536165], [79.20463802942331, 14.390401367236418], [79.20678004640607, 14.387662129828149], [79.2078675143058, 14.384226004719343], [79.20929180383729, 14.382859043273234], [79.21039565072776, 14.37735639745355], [79.21218414616312, 14.37461441382271], [79.21222246918953, 14.36979257155845], [79.20976850930606, 14.367362964063197], [79.2065887938905, 14.367338901823837], [79.19736710901758, 14.37174653859639], [79.19241528984608, 14.372397646903286], [79.19421223397937, 14.368622577110035], [79.19884098988098, 14.364180168851604], [79.19956961854197, 14.361430220202624], [79.20135533430403, 14.359032731156516], [79.20173337584696, 14.35593567140866], [79.20280696549719, 14.35422163226742], [79.20284543246913, 14.349399806565806], [79.2056908128907, 14.347010298461319], [79.20783507886296, 14.343926575253265], [79.21174285486997, 14.341200567004787], [79.21385969586849, 14.341560957157878], [79.21419658774396, 14.343630128569043], [79.21205787006464, 14.34602508379512], [79.21204147446403, 14.348091591823815], [79.21696548867854, 14.350884191726848], [79.22156082218308, 14.35057427502263], [79.22437076038338, 14.352661984072892], [79.22471046961215, 14.35438673159091], [79.2232864639034, 14.355753820592504], [79.22148466852032, 14.360218022325059], [79.22534374483294, 14.363691368147343], [79.22711024215614, 14.363704598160876], [79.22924358856164, 14.361998352929529], [79.2299853838441, 14.357526161251583], [79.23141207101642, 14.355814607397726], [79.23458896684048, 14.356182739755146], [79.2388149750539, 14.357936401751164], [79.2451715735026, 14.35832801198991], [79.24480485433482, 14.360047513836136], [79.23803829759095, 14.366886131640886], [79.23731009915473, 14.369636249681749], [79.23588335226763, 14.371347832295756], [79.2316354749589, 14.372349461592414], [79.2302113794108, 14.373716582069752], [79.22912973585782, 14.376464017335833], [79.21991071726467, 14.380528118977121], [79.21812498364164, 14.382925747090795], [79.21456981736077, 14.38565444431672], [79.21347969989576, 14.389435027974931], [79.20957103199541, 14.392160959738844], [79.20741524952201, 14.39662229901689], [79.20242978385805, 14.401406532154631], [79.20170375933665, 14.403812055402936], [79.19816188954833, 14.40481837116958], [79.19388832309986, 14.408918942543195], [79.19033801360575, 14.410958363281942]], [[79.16148632694572, 14.395580620652995], [79.16116682836517, 14.391444988943292], [79.16224090765948, 14.389731195144094], [79.16330089151991, 14.389739431609161], [79.16434961879118, 14.391125293821842], [79.16432991571462, 14.393536146779038], [79.16254070152384, 14.39627767799907], [79.16148632694572, 14.395580620652995]]]]}}, {"type": "Feature", "properties": {"depth_class": 3, "depth_lo_m": 2.0, "t_s": 70200.29471723648}, "geometry": {"type": "MultiPolygon", "coordinates": [[[[79.01360606965545, 14.215293465045868], [79.0164272670522, 14.215661296171254], [79.01644227872582, 14.213939381788796], [79.013974124304, 14.213574486052321], [79.01360606965545, 14.215293465045868]]], [[[79.07942813276097, 14.238907356390781], [79.0811964193886, 14.23857715717962], [79.0819229262152, 14.236172061922813], [79.0794456043216, 14.23684098520907], [79.07942813276097, 14.238907356390781]]], [[[79.19033801360575, 14.410958363281942], [79.19388832309986, 14.408918942543195], [79.19816188954833, 14.40481837116958], [79.20170375933665, 14.403812055402936], [79.20242978385805, 14.401406532154631], [79.20741524952201, 14.39662229901689], [79.20957103199541, 14.392160959738844], [79.21347969989576, 14.389435027974931], [79.21456981736077, 14.38565444431672], [79.21812498364164, 14.382925747090795], [79.21991071726467, 14.380528118977121], [79.22912973585782, 14.376464017335833], [79.2302113794108, 14.373716582069752], [79.2316354749589, 14.372349461592414], [79.23588335226763, 14.371347832295756], [79.23695139020698, 14.370322462897564], [79.23803829759095, 14.366886131640886], [79.24480485433482, 14.360047513836136], [79.2451715735026, 14.35832801198991], [79.2388149750539, 14.357936401751164], [79.23458896684048, 14.356182739755146], [79.23141207101642, 14.355814607397726], [79.2299853838441, 14.357526161251583], [79.22924358856164, 14.361998352929529], [79.22711024215614, 14.363704598160876], [79.22534374483294, 14.363691368147343], [79.22148466852032, 14.360218022325059], [79.2232864639034, 14.355753820592504], [79.22471046961215, 14.35438673159091], [79.22437076038338, 14.352661984072892], [79.22156082218308, 14.35057427502263], [79.21696548867854, 14.350884191726848], [79.21204147446403, 14.348091591823815], [79.21205787006464, 14.34602508379512], [79.21419658774396, 14.343630128569043], [79.21385969586849, 14.341560957157878], [79.21103359919533, 14.341539656897966], [79.20641105692117, 14.345293559765384], [79.2056908128907, 14.347010298461319], [79.20284543246913, 14.349399806565806], [79.20280696549719, 14.35422163226742], [79.20173337584696, 14.35593567140866], [79.20135533430403, 14.359032731156516], [79.19956961854197, 14.361430220202624], [79.19955859978946, 14.362807881015337], [79.19777007355938, 14.365549764825522], [79.19421223397937, 14.368622577110035], [79.19241528984608, 14.372397646903286], [79.19736710901758, 14.37174653859639], [79.2065887938905, 14.367338901823837], [79.20976850930606, 14.367362964063197], [79.21222246918953, 14.36979257155845], [79.21218414616312, 14.37461441382271], [79.21039565072776, 14.37735639745355], [79.20929180383729, 14.382859043273234], [79.2078675143058, 14.384226004719343], [79.20678004640607, 14.387662129828149], [79.20463802942331, 14.390401367236418], [79.20212055951342, 14.395893209536165], [79.19535440884127, 14.402385898882338], [79.19033801360575, 14.410958363281942]], [[79.22036487919857, 14.367787282492515], [79.21966371983679, 14.367093132777041], [79.22038394538204, 14.36537634944748], [79.22321035548647, 14.365397572757537], [79.22319675874634, 14.367119670492183], [79.22248470902544, 14.367803205916765], [79.22036487919857, 14.367787282492515]]]]}}]}